{"type": "Feature","bbox": [-79.5723,9.5668,-79.5224,9.6468],"geometry": {"type": "MultiPolygon","coordinates": [[[[-79.5608,9.581,36.4655],[-79.5645,9.568,97.641],[-79.5506,9.5668,37.8421],[-79.5474,9.569,8.7127],[-79.5419,9.577,17.427],[-79.5313,9.5788,16.7561],[-79.5241,9.5849,0.0],[-79.5279,9.586,2.4143],[-79.526,9.594,0.0616],[-79.5374,9.5915,1.2899],[-79.5437,9.5935,9.3872],[-79.5415,9.5946,0.0],[-79.5418,9.5976,0.0],[-79.5385,9.5971,1.1845],[-79.5362,9.5988,1.7643],[-79.5346,9.604,5.8714],[-79.5307,9.6037,0.0],[-79.5232,9.6076,0.0],[-79.5237,9.609,0.0],[-79.5304,9.6076,0.0],[-79.5279,9.6129,4.1252],[-79.5298,9.6165,0.0],[-79.5388,9.6174,0.0],[-79.5376,9.6232,2.9924],[-79.5404,9.6226,4.2711],[-79.5415,9.6243,0.0],[-79.5401,9.6299,0.2756],[-79.5379,9.6315,0.0],[-79.539,9.6346,0.0],[-79.5485,9.6296,7.1632],[-79.5524,9.631,0.0],[-79.5576,9.6263,3.2602],[-79.5618,9.6254,0.0],[-79.5646,9.6201,2.6963],[-79.5649,9.6154,6.015],[-79.5676,9.6165,0.0],[-79.5685,9.6193,0.0],[-79.5723,9.6199,20.8413],[-79.5703,9.6121,89.3497],[-79.5643,9.6065,118.9032],[-79.5608,9.581,36.4655]]],
[[[-79.559,9.6404,2.0611],[-79.5601,9.6407,0.0],[-79.5604,9.6357,0.0],[-79.5668,9.6349,32.5148],[-79.571,9.6301,0.0],[-79.5687,9.6301,0.0],[-79.5676,9.6276,0.0],[-79.5646,9.6285,0.0],[-79.5632,9.631,2.5856],[-79.5599,9.6313,1.9938],[-79.5551,9.6368,0.0],[-79.559,9.6404,2.0611]]],
[[[-79.561,9.6468,22.2865],[-79.5629,9.6468,10.802],[-79.5638,9.6449,0.0],[-79.5607,9.6449,2.9858],[-79.561,9.6468,22.2865]]],
[[[-79.5304,9.636,0.0],[-79.5329,9.636,0.0],[-79.5329,9.6335,0.0],[-79.5304,9.6332,0.0],[-79.5304,9.636,0.0]]],
[[[-79.5224,9.6388,0.0],[-79.5237,9.639,0.0],[-79.5243,9.6374,2.0599],[-79.5226,9.6371,2.0599],[-79.5224,9.6388,0.0]]]]}
,"properties": {"GID_3": "PAN.4.5.3_1","GID_0": "PAN","country": "Panama","GID_1": "PAN.4_1","province": "Colón","NL_NAME_1": "NA","GID_2": "PAN.4.5_1","county": "Portobelo","NL_NAME_2": "NA","city": "IslaGrande","VARNAME_3": "NA","NL_NAME_3": "NA","TYPE_3": "Corregimiento","ENGTYPE_3": "Municipality","CC_3": "NA","HASC_3": "NA","name": "Isla_Grande.city","area_km2": 23.01663,"hist_schema_id": "Elevation0-9000","hist_area_km2": {"0": 7.02416,"25": 5.39357,"50": 3.72114,"75": 2.15322,"100": 1.6933,"125": 1.46335,"150": 0.85711,"175": 0.58535,"200": 0.10452,"225": 0.02091}}}