{"type": "Feature","bbox": [-79.1421,8.941,-79.1229,8.9643],"geometry": {"type": "MultiPolygon","coordinates": [[[[-79.1321,8.9588,0.0],[-79.1332,8.9507,0.0],[-79.131,8.9493,0.0],[-79.1321,8.9485,0.0],[-79.129,8.9476,5.5792],[-79.1332,8.9429,0.0],[-79.1315,8.9418,0.0],[-79.1279,8.9426,0.0],[-79.1279,8.941,0.0],[-79.1265,8.941,0.0],[-79.1276,8.9471,5.5792],[-79.1229,8.9501,0.0],[-79.1287,8.9535,33.5158],[-79.1288,8.9582,0.0],[-79.1321,8.9588,0.0]]],
[[[-79.1371,8.9643,0.0],[-79.1421,8.9618,0.0],[-79.1399,8.9618,0.0],[-79.1379,8.9626,0.0],[-79.1371,8.9643,0.0]]]]}
,"properties": {"GID_3": "PAN.12.2.2_1","GID_0": "PAN","country": "Panama","GID_1": "PAN.12_1","province": "Panamá","NL_NAME_1": "NA","GID_2": "PAN.12.2_1","county": "Chepo","NL_NAME_2": "NA","city": "Chepillo","VARNAME_3": "NA","NL_NAME_3": "NA","TYPE_3": "Corregimiento","ENGTYPE_3": "Municipality","CC_3": "NA","HASC_3": "NA","name": "Chepillo.city","area_km2": 1.026258,"hist_schema_id": "Elevation0-9000","hist_area_km2": {"0": 0.5864344,"25": 0.3560477,"50": 0.0837759}}}