{"type": "Feature","bbox": [-81.3562,7.9278,-81.2624,8.0385],"geometry": {"type": "MultiPolygon","coordinates": [[[[-81.3562,7.9518,167.1776],[-81.3209,7.9369,179.8944],[-81.3103,7.9278,137.8434],[-81.3065,7.9468,49.3727],[-81.3012,7.9556,21.707],[-81.2931,7.9615,9.2187],[-81.2754,7.9671,64.7657],[-81.2624,7.9672,88.9349],[-81.263,7.977,88.767],[-81.2711,7.9943,71.1625],[-81.2772,8.0146,78.5917],[-81.2876,8.0222,19.2497],[-81.2918,8.0342,16.659],[-81.3101,8.0384,68.3085],[-81.318,8.0385,14.7735],[-81.3236,8.0362,30.32],[-81.3337,8.0273,49.1066],[-81.3422,8.0097,41.3324],[-81.3418,8.0039,36.8262],[-81.346,7.9938,129.9342],[-81.3469,7.9823,115.8039],[-81.3539,7.9664,71.568],[-81.3562,7.9518,167.1776]]]]}
,"properties": {"GID_3": "PAN.13.11.10_1","GID_0": "PAN","country": "Panama","GID_1": "PAN.13_1","province": "Veraguas","NL_NAME_1": "NA","GID_2": "PAN.13.11_1","county": "Soná","NL_NAME_2": "NA","city": "Soná","VARNAME_3": "NA","NL_NAME_3": "NA","TYPE_3": "Corregimiento","ENGTYPE_3": "Municipality","CC_3": "NA","HASC_3": "NA","name": "Soná.city","area_km2": 74.95765,"hist_schema_id": "Elevation0-9000","hist_area_km2": {"0": 11.0229,"25": 30.82218,"50": 13.43779,"75": 7.53797,"100": 4.28354,"125": 3.0237,"150": 2.2678,"175": 1.67985,"200": 0.58795,"225": 0.23098,"250": 0.063}}}