{"type":"Feature","properties":{"GID_2":"PAN.1.3_1","GID_0":"PAN","country":"Panama","GID_1":"PAN.1_1","province":"BocasdelToro","NL_NAME_1":"NA","county":"ChiriquíGrande","VARNAME_2":"NA","NL_NAME_2":"NA","TYPE_2":"Distrito","ENGTYPE_2":"District","CC_2":"NA","HASC_2":"PA.BC.CG","name":"Chiriquí_Grande.county"},
"geometry":{"type": "MultiPolygon","coordinates": [[[[-82.0771,8.9235,5.7847],[-82.0744,8.8993,120.7312],[-82.0626,8.9011,12.9011],[-82.053,8.8951,8.0819],[-82.0178,8.9216,8.665],[-82.0127,8.9465,17.0425],[-82.0054,8.9544,15.9471],[-82.0005,8.9571,0.0],[-82.0098,8.9579,1.328],[-82.0307,8.9457,0.9687],[-82.0532,8.9415,2.9715],[-82.0529,8.9374,0.927],[-82.0565,8.9374,0.0],[-82.0568,8.9349,4.7983],[-82.0604,8.9388,0.0],[-82.071,8.9365,0.0],[-82.0721,8.9349,0.0],[-82.0696,8.936,0.0],[-82.069,8.9335,3.4822],[-82.0729,8.9326,0.0],[-82.0729,8.9304,0.0],[-82.0702,8.9293,4.1398],[-82.0702,8.9279,0.0],[-82.0724,8.9276,0.0],[-82.0724,8.9251,24.1359],[-82.0754,8.9257,0.0],[-82.0771,8.9235,5.7847]]],
[[[-82.0801,8.9335,0.0],[-82.0813,8.9354,0.0],[-82.0832,8.9329,0.0],[-82.0815,8.9326,0.0],[-82.0801,8.9335,0.0]]],
[[[-82.1438,8.9863,3.7672],[-82.1493,8.9871,0.0],[-82.1596,8.9949,1.4374],[-82.1637,8.9924,1.553],[-82.1676,8.9921,0.0],[-82.1704,8.9949,0.0],[-82.1776,8.9965,-0.1323],[-82.179,9.0037,0.0],[-82.1807,9.0049,1.4939],[-82.1879,9.0004,0.0],[-82.1879,8.9974,2.4008],[-82.1854,8.9932,0.0],[-82.1873,8.9913,0.0],[-82.2121,8.9896,4.1242],[-82.214,8.9904,4.1242],[-82.2143,8.9929,0.7924],[-82.2182,8.9943,13.1872],[-82.2213,8.999,0.0],[-82.2304,8.9979,3.2353],[-82.2376,9.0015,0.5244],[-82.2435,8.9976,0.6485],[-82.249,9.0099,0.0],[-82.2562,9.0132,1.8574],[-82.2635,9.0126,6.4528],[-82.2646,9.0157,4.7928],[-82.2607,9.019,7.3381],[-82.2546,9.0154,0.0],[-82.2482,9.021,0.0],[-82.2499,9.0279,3.0086],[-82.2471,9.0313,0.0615],[-82.2462,9.0354,0.0],[-82.2465,9.0399,0.0],[-82.2485,9.0424,0.0],[-82.2479,9.0482,0.0],[-82.2496,9.0504,3.387],[-82.2474,9.0601,2.9203],[-82.2482,9.0685,0.0],[-82.246,9.0743,1.2463],[-82.2468,9.0804,0.0],[-82.2438,9.0851,0.989],[-82.2438,9.0899,1.6533],[-82.2468,9.0901,0.9204],[-82.2485,9.0885,0.0],[-82.246,9.0879,0.0],[-82.2479,9.0851,3.9502],[-82.2521,9.0851,13.0366],[-82.2588,9.0918,0.595],[-82.2613,9.0915,1.2192],[-82.2699,9.0957,25.835],[-82.2707,9.1004,0.0],[-82.2746,9.0979,3.8783],[-82.2751,9.1029,0.0],[-82.2774,9.1018,25.1486],[-82.2801,9.1074,11.6482],[-82.2768,9.1132,0.0],[-82.2867,9.1108,23.0346],[-82.2887,9.1116,74.8805],[-82.2942,9.1223,5.7745],[-82.2986,9.1232,59.743],[-82.3012,9.1263,47.4049],[-82.3007,9.1311,4.2495],[-82.304,9.138,9.4908],[-82.3097,9.1421,79.6085],[-82.3112,9.1413,52.4803],[-82.3138,9.1254,121.4428],[-82.3094,9.1195,92.9388],[-82.3089,9.1119,93.959],[-82.3069,9.1124,59.9366],[-82.3033,9.1174,30.2087],[-82.3004,9.1164,27.5897],[-82.3008,9.1087,154.0477],[-82.3041,9.1049,85.4103],[-82.3051,9.099,183.7388],[-82.3098,9.099,194.6759],[-82.3113,9.1026,113.055],[-82.3205,9.0933,233.4308],[-82.3008,9.0914,164.6848],[-82.3006,9.0863,271.7127],[-82.294,9.0868,105.9449],[-82.2931,9.0791,150.874],[-82.2899,9.0778,99.0963],[-82.2867,9.079,140.8129],[-82.2833,9.0876,83.9504],[-82.2757,9.0869,14.6598],[-82.2744,9.0805,17.178],[-82.2774,9.0759,14.1054],[-82.2805,9.0745,5.5558],[-82.2778,9.0685,23.0085],[-82.2821,9.0636,3.7487],[-82.2929,9.0606,10.6621],[-82.2981,9.0572,20.1032],[-82.3033,9.05,17.528],[-82.3147,9.0457,89.1972],[-82.3143,9.0427,91.5564],[-82.3083,9.0369,100.605],[-82.3085,9.0347,98.2122],[-82.3122,9.0346,99.9327],[-82.3201,9.0385,152.5737],[-82.3244,9.0372,238.7079],[-82.3264,9.0348,326.5147],[-82.3297,9.025,224.5255],[-82.319,9.0165,48.0193],[-82.3256,9.0132,81.1419],[-82.3258,9.0097,82.2442],[-82.3205,9.0047,76.209],[-82.3084,8.9989,103.3909],[-82.3007,8.9986,129.4062],[-82.2951,9.0064,146.4553],[-82.2857,9.0025,175.8965],[-82.2821,9.0058,103.7277],[-82.28,9.0058,83.5211],[-82.2755,8.9996,218.7751],[-82.2798,8.9941,271.654],[-82.2788,8.9915,344.1623],[-82.2736,8.9876,290.3716],[-82.271,8.9883,312.3279],[-82.2711,8.9899,299.1287],[-82.2676,8.9893,335.6375],[-82.2674,8.9867,353.9528],[-82.2706,8.9851,352.891],[-82.2729,8.9812,412.8412],[-82.272,8.9781,495.0403],[-82.2666,8.9792,489.1751],[-82.254,8.9773,451.9956],[-82.2447,8.9738,172.2608],[-82.2367,8.9748,272.2442],[-82.2274,8.9673,419.6245],[-82.2127,8.9625,192.5313],[-82.2097,8.9593,198.9599],[-82.2102,8.957,218.2272],[-82.2057,8.9539,144.0284],[-82.1945,8.9495,14.5304],[-82.1933,8.9429,16.3395],[-82.1964,8.942,41.6265],[-82.1951,8.9387,113.957],[-82.1994,8.9357,192.5481],[-82.1967,8.9305,129.17],[-82.1977,8.9163,80.7118],[-82.201,8.9144,156.8021],[-82.2091,8.9209,175.162],[-82.2148,8.9219,304.0838],[-82.2149,8.9074,185.4897],[-82.217,8.8997,87.8361],[-82.2125,8.8959,82.2058],[-82.1926,8.8946,57.482],[-82.1861,8.8803,56.8144],[-82.1855,8.8729,59.8961],[-82.1894,8.8673,62.7732],[-82.189,8.8617,65.8755],[-82.1787,8.8474,107.6264],[-82.1675,8.8549,123.4601],[-82.1666,8.8624,68.4776],[-82.1686,8.8702,62.4267],[-82.1617,8.8782,141.1016],[-82.1583,8.8887,94.4559],[-82.1523,8.8939,269.5862],[-82.1451,8.8978,423.4341],[-82.129,8.9012,512.6201],[-82.1244,8.906,624.1119],[-82.1021,8.9015,470.9582],[-82.0939,8.9023,423.7427],[-82.0906,8.9059,357.4284],[-82.0925,8.9116,168.2847],[-82.0863,8.9173,145.314],[-82.0837,8.9299,0.0],[-82.0854,8.9324,4.5793],[-82.0846,8.934,0.0],[-82.1087,8.9318,1.401],[-82.1107,8.9343,0.0],[-82.1101,8.9382,0.0],[-82.1118,8.9435,27.2428],[-82.114,8.9449,16.0586],[-82.1151,8.9513,0.0],[-82.1232,8.9596,0.8289],[-82.1265,8.9657,0.0],[-82.1318,8.9693,5.6862],[-82.1296,8.9738,0.0],[-82.1299,8.9799,8.5814],[-82.1338,8.9838,7.6494],[-82.1343,8.9874,0.0],[-82.1407,8.9904,2.2992],[-82.1438,8.9863,3.7672]]]]}}