{"type": "Feature","bbox": [-81.9919,8.2662,-81.9151,8.3326],"geometry": {"type": "MultiPolygon","coordinates": [[[[-81.9265,8.3235,52.336],[-81.9329,8.3256,165.606],[-81.939,8.3326,61.6584],[-81.9414,8.3319,55.5763],[-81.9419,8.3288,44.1107],[-81.9467,8.3267,119.1266],[-81.947,8.3253,109.0843],[-81.9625,8.3247,101.7007],[-81.9664,8.3286,83.0001],[-81.969,8.3287,125.1429],[-81.9748,8.3191,76.1586],[-81.9786,8.3274,97.7558],[-81.9841,8.3294,118.1193],[-81.9907,8.3291,46.2418],[-81.9919,8.3241,57.8198],[-81.9889,8.3149,42.6667],[-81.9893,8.3083,22.0944],[-81.9877,8.31,27.9959],[-81.9807,8.3111,35.8913],[-81.98,8.3075,26.1054],[-81.9782,8.307,31.1404],[-81.9819,8.3035,38.6013],[-81.9838,8.2979,30.185],[-81.9791,8.2951,32.7423],[-81.9793,8.2832,18.5095],[-81.9734,8.2841,9.7422],[-81.9694,8.2786,25.7339],[-81.9527,8.2677,16.5837],[-81.9401,8.2662,16.031],[-81.9335,8.2692,16.3179],[-81.9302,8.2744,17.809],[-81.9288,8.2813,15.3627],[-81.9151,8.2959,3.9086],[-81.9239,8.2977,41.2268],[-81.9307,8.2945,5.8931],[-81.9331,8.297,7.3878],[-81.9319,8.3096,38.071],[-81.9246,8.3198,63.0952],[-81.9265,8.3235,52.336]]]]}
,"properties": {"GID_3": "PAN.2.11.1_1","GID_0": "PAN","country": "Panama","GID_1": "PAN.2_1","province": "Chiriquí","NL_NAME_1": "NA","GID_2": "PAN.2.11_1","county": "SanFélix","NL_NAME_2": "NA","city": "Juay","VARNAME_3": "NA","NL_NAME_3": "NA","TYPE_3": "Corregimiento","ENGTYPE_3": "Municipality","CC_3": "NA","HASC_3": "NA","name": "Juay.city","area_km2": 37.02987,"hist_schema_id": "Elevation0-9000","hist_area_km2": {"0": 5.81174,"25": 14.72836,"50": 7.09109,"75": 3.60844,"100": 2.87416,"125": 1.61539,"150": 0.75525,"175": 0.35664,"200": 0.10489,"225": 0.08392}}}