{"type": "Feature","bbox": [-81.2274,8.5465,-80.7242,9.0001],"geometry": {"type": "MultiPolygon","coordinates": [[[[-80.7788,8.5511,1489.4731],[-80.7704,8.5583,1424.0166],[-80.7632,8.5682,1009.6095],[-80.7556,8.5912,1252.8568],[-80.746,8.6059,1616.5461],[-80.7433,8.6397,1262.6602],[-80.739,8.6452,1063.6862],[-80.7273,8.6543,774.8229],[-80.7242,8.66,745.0676],[-80.7283,8.6835,436.1897],[-80.735,8.6919,596.2296],[-80.7462,8.6992,703.6029],[-80.7525,8.7141,337.6224],[-80.755,8.7246,370.3265],[-80.7512,8.7352,547.8597],[-80.7433,8.7412,317.4814],[-80.7273,8.7473,114.352],[-80.7252,8.7503,176.5019],[-80.7253,8.7551,124.7353],[-80.7351,8.7726,92.8343],[-80.7467,8.7847,124.1778],[-80.7535,8.7957,92.767],[-80.7592,8.8011,93.1306],[-80.7624,8.8089,57.6614],[-80.7671,8.8127,146.6296],[-80.7728,8.8143,40.7169],[-80.7821,8.8136,55.768],[-80.7944,8.8089,64.0526],[-80.7993,8.8088,81.2822],[-80.8222,8.8166,18.2104],[-80.8287,8.8225,77.817],[-80.8408,8.8246,51.6436],[-80.861,8.8355,30.2482],[-80.864,8.8391,17.7609],[-80.8658,8.846,2.2483],[-80.8733,8.8522,0.9829],[-80.8745,8.8555,13.6924],[-80.8738,8.8757,0.0],[-80.8766,8.8815,11.7243],[-80.874,8.8823,0.0],[-80.8718,8.8868,0.0],[-80.8885,8.8882,3.0047],[-80.8949,8.8854,4.7236],[-80.9018,8.8801,0.0],[-80.9029,8.8738,0.8674],[-80.9071,8.8704,2.1269],[-80.9129,8.8618,1.1306],[-80.914,8.8626,1.6487],[-80.9104,8.8662,1.7279],[-80.911,8.8679,0.7074],[-80.9429,8.8662,1.2791],[-80.9449,8.8632,0.0],[-80.9515,8.8612,1.4734],[-80.9538,8.8554,11.366],[-80.9685,8.849,4.3055],[-80.9682,8.8474,8.6679],[-80.9735,8.8407,4.9966],[-80.9732,8.836,3.3148],[-80.9746,8.8371,4.804],[-80.9737,8.8446,0.0],[-80.9751,8.8432,5.4732],[-80.9846,8.8443,0.0],[-80.9887,8.8429,8.4306],[-80.9935,8.8351,6.5532],[-80.9962,8.8357,0.0],[-81.0038,8.8332,7.5553],[-81.026,8.8332,1.8823],[-81.0296,8.8276,5.3354],[-81.0376,8.8279,0.0],[-81.0421,8.8196,4.7356],[-81.0432,8.8229,3.7484],[-81.0563,8.8238,0.0],[-81.0574,8.8218,33.6367],[-81.0615,8.8204,5.4724],[-81.0685,8.8115,2.7957],[-81.0835,8.8088,1.2348],[-81.081,8.806,0.0],[-81.0771,8.8068,0.2158],[-81.0754,8.8035,2.4811],[-81.0774,8.806,0.2158],[-81.0813,8.8046,5.0332],[-81.0857,8.8101,0.0],[-81.0918,8.8115,0.0],[-81.0935,8.8113,0.0],[-81.0937,8.8085,5.6519],[-81.096,8.8079,18.3112],[-81.099,8.809,0.0],[-81.1085,8.8074,17.1011],[-81.114,8.809,0.0],[-81.1157,8.8071,0.0],[-81.1218,8.8062,0.0],[-81.1232,8.8043,0.7541],[-81.126,8.8049,15.1146],[-81.1282,8.8029,5.979],[-81.131,8.8035,18.9842],[-81.1421,8.8001,12.9584],[-81.1476,8.796,2.3597],[-81.1585,8.7971,0.0],[-81.1615,8.7954,36.9899],[-81.169,8.7949,8.8615],[-81.1771,8.7968,3.3408],[-81.1782,8.7954,24.7727],[-81.1871,8.794,0.0],[-81.1904,8.791,8.9767],[-81.1957,8.791,0.0],[-81.1985,8.7876,13.4324],[-81.2021,8.7865,9.6543],[-81.2107,8.7888,0.0],[-81.2131,8.7856,6.7224],[-81.2212,8.7832,12.6952],[-81.2235,8.7805,18.1258],[-81.2212,8.764,55.0041],[-81.2274,8.7562,6.1575],[-81.2258,8.7445,83.2909],[-81.2198,8.7438,16.668],[-81.2048,8.7355,149.8952],[-81.1888,8.7332,223.8132],[-81.141,8.7196,458.7778],[-81.1299,8.728,238.898],[-81.1075,8.7355,103.7592],[-81.1035,8.735,99.9744],[-81.0998,8.7176,200.6727],[-81.0875,8.703,174.436],[-81.0747,8.6709,403.6198],[-81.0657,8.6611,435.1347],[-81.0463,8.6576,574.0336],[-81.0279,8.644,767.1151],[-81.0246,8.6391,951.1567],[-81.0238,8.6276,934.9401],[-81.0203,8.6204,663.5894],[-80.9982,8.6042,635.1157],[-80.9914,8.5916,832.0035],[-80.9776,8.5779,1233.8439],[-80.9584,8.5884,822.9893],[-80.95,8.589,755.3275],[-80.94,8.5841,917.8254],[-80.9322,8.5838,961.5496],[-80.9121,8.591,1131.6387],[-80.9022,8.592,1128.5776],[-80.891,8.598,1354.3098],[-80.8792,8.6006,1592.1589],[-80.8707,8.5967,1349.0166],[-80.8643,8.5905,1161.239],[-80.8602,8.5766,1183.333],[-80.8622,8.5636,1311.0386],[-80.8588,8.5576,1362.9713],[-80.8461,8.5465,1259.5371],[-80.8328,8.5486,1327.1792],[-80.8229,8.5468,945.4868],[-80.8214,8.5618,1467.0879],[-80.8095,8.5662,1533.3696],[-80.8057,8.5659,1350.1628],[-80.8017,8.5629,1373.76],[-80.79,8.5518,1332.9382],[-80.7819,8.5497,1522.2678],[-80.7788,8.5511,1489.4731]]],
[[[-80.8704,8.8835,0.0],[-80.8704,8.8833,0.0],[-80.8604,8.8862,0.0],[-80.8682,8.8865,0.449],[-80.8704,8.8835,0.0]]],
[[[-81.0001,9.0001,0.0],[-81.0001,8.9999,0.0],[-80.9999,8.9999,0.0],[-80.9999,9.0001,0.0],[-81.0001,9.0001,0.0]]]]}
,"properties": {"GID_3": "PAN.13.9.1_1","GID_0": "PAN","country": "Panama","GID_1": "PAN.13_1","province": "Veraguas","NL_NAME_1": "NA","GID_2": "PAN.13.9_1","county": "SantaFe","NL_NAME_2": "NA","city": "Calovébora","VARNAME_3": "NA","NL_NAME_3": "NA","TYPE_3": "Corregimiento","ENGTYPE_3": "Municipality","CC_3": "NA","HASC_3": "NA","name": "Calovébora.city","area_km2": 1134.7899,"hist_schema_id": "Elevation0-9000","hist_area_km2": {"0": 31.9297,"25": 50.6618,"50": 60.2586,"75": 73.1881,"100": 95.5058,"125": 68.3521,"150": 37.7398,"175": 28.1645,"200": 25.5035,"225": 22.9262,"250": 20.5374,"275": 18.5257,"300": 19.7415,"325": 18.8406,"350": 17.9187,"375": 19.4069,"400": 20.3083,"425": 18.5271,"450": 19.9315,"475": 22.405,"500": 21.4829,"525": 20.0368,"550": 20.7078,"575": 20.7919,"600": 19.2619,"625": 18.9266,"650": 19.2832,"675": 17.5018,"700": 16.957,"725": 16.8313,"750": 14.903,"775": 14.924,"800": 15.1757,"825": 12.3879,"850": 13.1216,"875": 11.843,"900": 11.0677,"925": 11.0467,"950": 10.8582,"975": 10.6277,"1000": 9.8312,"1025": 9.3492,"1050": 8.8882,"1075": 8.5528,"1100": 7.9448,"1125": 8.3851,"1150": 8.0078,"1175": 7.8612,"1200": 6.7711,"1225": 5.5972,"1250": 5.6392,"1275": 5.2199,"1300": 4.8635,"1325": 4.4443,"1350": 3.7106,"1375": 2.9978,"1400": 2.5786,"1425": 2.348,"1450": 2.0545,"1475": 1.9706,"1500": 1.7401,"1525": 1.4465,"1550": 1.0482,"1575": 1.3417,"1600": 1.1321,"1625": 0.8595,"1650": 0.8176,"1675": 0.3774,"1700": 0.3145,"1725": 0.0839,"1750": 0.1677,"1775": 0.1467,"1800": 0.0419,"1825": 0.1048,"1875": 0.0419}}}