{"type": "Feature","bbox": [-81.8391,8.2581,-81.7172,8.5803],"geometry": {"type": "MultiPolygon","coordinates": [[[[-81.7492,8.2745,185.6722],[-81.7405,8.277,77.0092],[-81.7457,8.2857,129.939],[-81.7483,8.2986,247.6815],[-81.7516,8.3061,181.4955],[-81.758,8.3156,318.3624],[-81.7638,8.3187,280.1937],[-81.7627,8.3284,324.1235],[-81.7636,8.3391,426.8414],[-81.7597,8.3603,562.4915],[-81.7482,8.3842,704.9861],[-81.7438,8.3893,565.439],[-81.7406,8.4047,522.4249],[-81.7424,8.4163,580.97],[-81.7517,8.429,676.7347],[-81.7462,8.4337,649.5153],[-81.7474,8.4404,659.9153],[-81.7426,8.4606,827.7088],[-81.7357,8.4805,1197.5043],[-81.7176,8.5001,1550.3684],[-81.7172,8.5052,1581.4368],[-81.7197,8.5008,1569.0249],[-81.7285,8.4933,1471.0962],[-81.7442,8.4903,1311.2371],[-81.7483,8.4981,1625.7975],[-81.7683,8.5121,1551.752],[-81.7744,8.5226,1301.0564],[-81.7756,8.532,1161.9419],[-81.7783,8.5358,1263.3645],[-81.8061,8.5557,1627.2482],[-81.8121,8.5655,1719.5726],[-81.815,8.5803,2013.3784],[-81.8282,8.5556,1792.8298],[-81.8241,8.5248,958.0664],[-81.8199,8.5177,1159.7823],[-81.8163,8.5033,741.8646],[-81.8275,8.4666,452.3947],[-81.8161,8.4512,303.6033],[-81.805,8.4433,545.8182],[-81.7943,8.4262,392.8969],[-81.7929,8.4111,486.7884],[-81.7963,8.3893,378.3893],[-81.7953,8.383,458.5083],[-81.7906,8.3721,615.0416],[-81.7958,8.3659,602.6414],[-81.8009,8.3555,451.1942],[-81.8075,8.3494,255.8649],[-81.8093,8.342,307.8105],[-81.8252,8.3367,195.041],[-81.8256,8.3327,129.3317],[-81.8279,8.3308,134.968],[-81.8233,8.3257,138.9374],[-81.8276,8.3196,268.8714],[-81.8314,8.3057,227.2004],[-81.8365,8.3053,170.5184],[-81.8391,8.3026,158.4044],[-81.828,8.2958,245.5331],[-81.8242,8.2962,269.4082],[-81.8171,8.3006,343.898],[-81.8116,8.2991,270.8406],[-81.8109,8.2969,201.6098],[-81.8154,8.2916,132.3785],[-81.8167,8.2872,114.407],[-81.8026,8.2713,123.8315],[-81.794,8.2712,125.3337],[-81.7859,8.2686,237.532],[-81.7841,8.2688,208.5105],[-81.7832,8.2718,208.4776],[-81.7791,8.2735,198.6818],[-81.7756,8.2727,122.3635],[-81.7685,8.2743,230.129],[-81.7666,8.2727,206.2143],[-81.7668,8.2706,207.1158],[-81.7713,8.2663,165.6449],[-81.7686,8.2635,260.1702],[-81.7681,8.2603,295.1507],[-81.7636,8.2598,284.9088],[-81.7622,8.2581,245.1594],[-81.7599,8.2585,248.324],[-81.7584,8.2611,273.8591],[-81.7619,8.2618,329.9608],[-81.7614,8.2645,282.5522],[-81.7492,8.2745,185.6722]]]]}
,"properties": {"GID_2": "PAN.10.6_1","GID_0": "PAN","country": "Panama","GID_1": "PAN.10_1","province": "NgöbeBuglé","NL_NAME_1": "NA","county": "NoleDuima","VARNAME_2": "NA","NL_NAME_2": "NA","TYPE_2": "Distrito","ENGTYPE_2": "District","CC_2": "NA","HASC_2": "PA.NB.ND","name": "Nole_Duima.county","area_km2": 208.3356,"hist_schema_id": "Elevation0-9000","hist_area_km2": {"75": 0.5455,"100": 1.133,"125": 1.7204,"150": 3.1261,"175": 3.8813,"200": 5.4129,"225": 6.0213,"250": 5.6226,"275": 5.2449,"300": 5.1819,"325": 4.5104,"350": 5.0558,"375": 5.2865,"400": 4.5102,"425": 5.496,"450": 5.2653,"475": 4.6778,"500": 5.0133,"525": 3.9224,"550": 3.7125,"575": 3.7334,"600": 3.4607,"625": 3.6914,"650": 3.7333,"675": 4.2156,"700": 4.1108,"725": 4.1317,"750": 4.3205,"775": 4.4462,"800": 4.6558,"825": 4.53,"850": 4.5719,"875": 4.6978,"900": 3.6911,"925": 3.6282,"950": 3.2297,"975": 2.7264,"1000": 2.6844,"1025": 2.2229,"1050": 1.9503,"1075": 1.8454,"1100": 1.9502,"1125": 1.5728,"1150": 1.5098,"1175": 1.6566,"1200": 1.9712,"1225": 1.1533,"1250": 1.4888,"1275": 1.5937,"1300": 1.9711,"1325": 1.8872,"1350": 1.8033,"1375": 1.7404,"1400": 1.9711,"1425": 1.8243,"1450": 1.6355,"1475": 1.6775,"1500": 1.3629,"1525": 1.5097,"1550": 1.6984,"1575": 1.6984,"1600": 1.6355,"1625": 1.5726,"1650": 1.4678,"1675": 1.3839,"1700": 1.3839,"1725": 1.0903,"1750": 0.6919,"1775": 0.6919,"1800": 0.5242,"1825": 0.5242,"1850": 0.4193,"1875": 0.4403,"1900": 0.4403,"1925": 0.1887,"1950": 0.2516,"1975": 0.0839,"2000": 0.1258,"2025": 0.0839,"2050": 0.021,"2075": 0.021}}}