{"type":"Feature","properties":{"GID_3":"PAN.5.2.4_1","GID_0":"PAN","country":"Panama","GID_1":"PAN.5_1","province":"Darién","NL_NAME_1":"NA","GID_2":"PAN.5.2_1","county":"Pinogana","NL_NAME_2":"NA","city":"Metetí","VARNAME_3":"NA","NL_NAME_3":"NA","TYPE_3":"Corregimiento","ENGTYPE_3":"Municipality","CC_3":"NA","HASC_3":"NA","name":"Metetí.city"},
"geometry":{"type": "MultiPolygon","coordinates": [[[[-77.8737,8.3148,495.8491],[-77.8536,8.3214,93.7321],[-77.8473,8.3291,60.4197],[-77.8364,8.3368,36.3716],[-77.8274,8.333,31.1298],[-77.8153,8.3304,21.8063],[-77.8011,8.3335,14.5007],[-77.7813,8.3321,19.1624],[-77.782,8.3435,26.9722],[-77.788,8.3488,28.5936],[-77.7933,8.3484,26.8746],[-77.7951,8.35,13.3877],[-77.7978,8.3593,27.79],[-77.7967,8.3686,36.261],[-77.8018,8.3775,26.6299],[-77.8012,8.3863,19.9759],[-77.805,8.3922,18.2172],[-77.8064,8.4016,27.4848],[-77.809,8.3986,23.3759],[-77.811,8.3988,14.9443],[-77.8125,8.3959,36.2002],[-77.8174,8.3964,17.9687],[-77.8165,8.4055,12.6408],[-77.8199,8.4079,23.6185],[-77.8191,8.4144,28.0506],[-77.8168,8.417,26.0881],[-77.8092,8.4198,25.3373],[-77.8068,8.4251,27.0549],[-77.8092,8.4442,21.9134],[-77.8111,8.4495,38.7341],[-77.8148,8.4535,26.4219],[-77.8158,8.463,40.1167],[-77.8217,8.4634,32.3542],[-77.8249,8.4703,31.4676],[-77.8348,8.4733,33.9272],[-77.84,8.4806,50.9574],[-77.84,8.4831,52.5075],[-77.8347,8.4931,46.7966],[-77.8343,8.5004,43.1543],[-77.8388,8.5023,40.4951],[-77.8453,8.499,45.2915],[-77.8542,8.4976,63.9377],[-77.8644,8.5029,50.1325],[-77.8631,8.5097,53.3015],[-77.8655,8.5132,55.8014],[-77.8724,8.5175,58.6694],[-77.8809,8.5188,40.8573],[-77.8809,8.5214,32.1818],[-77.876,8.5258,58.5906],[-77.8728,8.5259,60.0229],[-77.8713,8.5309,56.6534],[-77.8658,8.534,55.5211],[-77.8647,8.5396,38.6771],[-77.8706,8.5435,46.3913],[-77.8727,8.5566,63.3821],[-77.8822,8.5591,51.2084],[-77.8878,8.5668,51.5599],[-77.8959,8.5716,32.6656],[-77.8985,8.5839,35.6432],[-77.8968,8.5935,39.6607],[-77.9058,8.6009,35.3642],[-77.9062,8.6068,46.0526],[-77.9087,8.613,27.5868],[-77.9079,8.628,42.6724],[-77.899,8.6437,61.6343],[-77.8821,8.6471,57.2267],[-77.8775,8.6528,58.8967],[-77.8691,8.6585,59.0615],[-77.8667,8.6716,65.3309],[-77.8635,8.6794,53.9182],[-77.854,8.6867,57.5331],[-77.8386,8.7026,78.4373],[-77.8364,8.7072,98.7954],[-77.8331,8.7272,111.3553],[-77.8316,8.7295,109.3454],[-77.817,8.7349,205.3938],[-77.8037,8.7351,138.3405],[-77.7945,8.7395,155.1012],[-77.7845,8.7417,144.6524],[-77.7803,8.7456,153.5116],[-77.7727,8.7598,188.7708],[-77.7595,8.7696,427.329],[-77.7514,8.7704,355.0743],[-77.7403,8.7755,287.846],[-77.7198,8.7776,436.6651],[-77.7136,8.7741,466.2094],[-77.7092,8.769,505.817],[-77.7047,8.7677,606.5346],[-77.6947,8.7673,657.9962],[-77.6923,8.7681,646.8826],[-77.6909,8.7708,621.3221],[-77.6916,8.7784,386.4551],[-77.6976,8.7942,291.0389],[-77.6985,8.8125,160.8588],[-77.6998,8.8153,171.8851],[-77.711,8.8255,234.023],[-77.7228,8.8269,233.8719],[-77.7337,8.8332,305.18],[-77.7369,8.8392,282.8716],[-77.7394,8.8571,217.236],[-77.7525,8.8687,482.2787],[-77.7715,8.8773,551.5229],[-77.758,8.8512,296.7668],[-77.7573,8.8455,330.9291],[-77.7607,8.8361,317.1786],[-77.7735,8.8264,244.0997],[-77.7744,8.8228,256.4538],[-77.7708,8.8115,216.3007],[-77.7708,8.8062,259.1225],[-77.7809,8.791,331.0881],[-77.7871,8.7846,302.8265],[-77.802,8.7783,291.3285],[-77.8081,8.7684,160.9966],[-77.8118,8.7664,166.2211],[-77.8204,8.7656,106.0228],[-77.8272,8.7692,92.2292],[-77.8374,8.7818,83.2246],[-77.8459,8.7877,69.5138],[-77.8516,8.7945,81.1079],[-77.8732,8.8092,64.0393],[-77.8877,8.812,62.3812],[-77.8934,8.8098,125.3013],[-77.8969,8.8061,159.3854],[-77.9035,8.7879,63.7043],[-77.9069,8.7831,46.9261],[-77.904,8.7736,86.9531],[-77.907,8.7671,74.6225],[-77.9144,8.7616,55.2518],[-77.9364,8.7504,50.7804],[-77.9498,8.754,54.6416],[-77.9523,8.7535,50.5557],[-77.9669,8.7463,38.4509],[-77.9739,8.7396,34.109],[-77.9634,8.7316,51.5936],[-77.9564,8.7297,43.964],[-77.9549,8.7274,37.3695],[-77.956,8.7168,36.4596],[-77.952,8.7069,35.5802],[-77.9551,8.6981,36.2049],[-77.954,8.6874,33.7268],[-77.9566,8.684,30.1352],[-77.9641,8.6819,33.4518],[-77.9752,8.6892,36.3617],[-78.0162,8.6959,43.1993],[-78.032,8.7139,63.0237],[-78.0413,8.7305,76.2299],[-78.0468,8.7369,64.947],[-78.0625,8.75,54.8652],[-78.0712,8.7502,79.802],[-78.0736,8.7477,83.7031],[-78.0691,8.7397,76.1696],[-78.066,8.7294,70.5134],[-78.0654,8.7136,61.7614],[-78.0621,8.7031,58.3824],[-78.0551,8.6898,64.9383],[-78.0527,8.6816,69.9934],[-78.0489,8.6766,49.0096],[-78.0479,8.6713,54.8731],[-78.049,8.6582,65.4577],[-78.0576,8.6411,67.9111],[-78.063,8.6246,55.6902],[-78.0692,8.6136,59.6216],[-78.0509,8.6041,50.5533],[-78.0493,8.5944,74.2794],[-78.0358,8.5909,55.0345],[-78.0294,8.5846,57.2383],[-78.0385,8.57,69.2392],[-78.0372,8.5554,66.244],[-78.0401,8.5478,78.7954],[-78.0422,8.5468,72.0902],[-78.0543,8.5486,86.2598],[-78.0583,8.5472,123.2386],[-78.062,8.5429,279.9598],[-78.0597,8.5356,292.9566],[-78.0534,8.5258,332.7118],[-78.0504,8.5043,399.0288],[-78.0516,8.4992,320.888],[-78.0563,8.4926,199.5779],[-78.0565,8.4826,190.0993],[-78.0494,8.4718,240.664],[-78.0417,8.4659,146.9496],[-78.0355,8.4642,163.3134],[-78.0188,8.4712,279.7525],[-78.0145,8.4717,188.531],[-77.995,8.4603,192.3015],[-77.9637,8.4363,364.4285],[-77.9437,8.4356,84.8983],[-77.9378,8.4328,78.1556],[-77.9295,8.4182,74.2341],[-77.9195,8.4133,67.2215],[-77.9161,8.4088,65.909],[-77.9099,8.3743,199.8691],[-77.9064,8.3638,143.9827],[-77.8942,8.356,275.1074],[-77.8848,8.3535,498.9454],[-77.8821,8.3511,382.0253],[-77.8737,8.3148,495.8491]]]]}}