{"type":"Feature","properties":{"GID_3":"PAN.9.4.11_1","GID_0":"PAN","country":"Panama","GID_1":"PAN.9_1","province":"LosSantos","NL_NAME_1":"NA","GID_2":"PAN.9.4_1","county":"Macaracas","NL_NAME_2":"NA","city":"Mogollón","VARNAME_3":"NA","NL_NAME_3":"NA","TYPE_3":"Corregimiento","ENGTYPE_3":"Municipality","CC_3":"NA","HASC_3":"NA","name":"Mogollón.city"},
"geometry":{"type": "MultiPolygon","coordinates": [[[[-80.4358,7.6486,680.1078],[-80.4404,7.6498,635.0684],[-80.4535,7.6464,464.4842],[-80.4711,7.6452,398.2417],[-80.4897,7.6513,254.3495],[-80.4906,7.6397,375.8714],[-80.4822,7.6155,430.7247],[-80.4882,7.5959,447.8721],[-80.4899,7.5948,378.4397],[-80.4931,7.596,386.0197],[-80.5031,7.6095,521.2281],[-80.5126,7.6064,475.3344],[-80.5189,7.5911,476.5095],[-80.5168,7.5754,384.824],[-80.5142,7.5712,506.7631],[-80.5172,7.5587,742.9189],[-80.5247,7.5541,650.1937],[-80.5314,7.5543,435.626],[-80.5383,7.5506,375.4926],[-80.5453,7.5404,222.2825],[-80.5658,7.5362,265.2084],[-80.5729,7.5288,169.1656],[-80.5198,7.5384,316.9037],[-80.5109,7.5361,363.1598],[-80.4157,7.638,535.1321],[-80.4314,7.6384,708.5526],[-80.4358,7.6486,680.1078]]]]}}