{"type":"Feature","properties":{"GID_3":"PAN.2.6.4_1","GID_0":"PAN","country":"Panama","GID_1":"PAN.2_1","province":"Chiriquí","NL_NAME_1":"NA","GID_2":"PAN.2.6_1","county":"David","NL_NAME_2":"NA","city":"David","VARNAME_3":"NA","NL_NAME_3":"NA","TYPE_3":"Corregimiento","ENGTYPE_3":"Municipality","CC_3":"NA","HASC_3":"NA","name":"David.city"},
"geometry":{"type": "MultiPolygon","coordinates": [[[[-82.3926,8.3649,1.9452],[-82.3926,8.3783,2.3813],[-82.3899,8.3817,3.4056],[-82.3919,8.3841,3.3635],[-82.3918,8.3882,4.1798],[-82.3875,8.3927,3.1217],[-82.3895,8.3964,4.8211],[-82.3898,8.4009,4.0796],[-82.3957,8.4076,12.2886],[-82.4069,8.4084,22.0962],[-82.4094,8.4112,35.3766],[-82.4087,8.4204,10.6023],[-82.4042,8.4284,33.109],[-82.4032,8.4502,60.6533],[-82.3993,8.4548,84.1769],[-82.3991,8.4599,74.1882],[-82.4,8.4623,86.3089],[-82.4118,8.4719,107.1218],[-82.4201,8.4717,71.2887],[-82.4233,8.4733,106.2153],[-82.4251,8.4695,101.2465],[-82.4222,8.4534,71.3374],[-82.4232,8.4478,66.441],[-82.4309,8.4367,51.9843],[-82.4441,8.4361,42.2285],[-82.447,8.4305,33.1512],[-82.4481,8.4229,34.9587],[-82.4553,8.4191,28.2477],[-82.4575,8.416,24.4611],[-82.4602,8.4013,19.3206],[-82.4633,8.3941,11.2045],[-82.4581,8.3851,12.0848],[-82.4637,8.3787,4.2392],[-82.4624,8.3745,3.5343],[-82.4635,8.3694,9.2488],[-82.4483,8.365,19.9857],[-82.4391,8.3646,7.9976],[-82.438,8.3677,14.4427],[-82.4356,8.3679,8.5993],[-82.433,8.3715,9.9005],[-82.4362,8.3734,5.172],[-82.4361,8.3771,14.3254],[-82.4264,8.3872,21.7336],[-82.4229,8.3874,17.7625],[-82.4196,8.3843,9.479],[-82.4169,8.3764,9.2627],[-82.4114,8.3691,13.7733],[-82.4105,8.3633,5.4235],[-82.4151,8.3534,19.4548],[-82.4224,8.3501,16.1202],[-82.4319,8.3413,0.0],[-82.4309,8.3284,1.574],[-82.4284,8.3247,14.6558],[-82.425299999999993,8.3259,6.4261],[-82.4238,8.3332,11.0164],[-82.4213,8.3351,11.2718],[-82.4147,8.3348,9.4641],[-82.4112,8.3413,6.1661],[-82.4092,8.3411,6.479],[-82.4059,8.3349,23.471],[-82.3993,8.3347,23.5522],[-82.398,8.353,2.142],[-82.3951,8.3632,3.1675],[-82.3926,8.3649,1.9452]]]]}}