{"type":"Feature","properties":{"GID_3":"PAN.7.5.3_1","GID_0":"PAN","country":"Panama","GID_1":"PAN.7_1","province":"Herrera","NL_NAME_1":"NA","GID_2":"PAN.7.5_1","county":"Parita","NL_NAME_2":"NA","city":"LosCastillos","VARNAME_3":"NA","NL_NAME_3":"NA","TYPE_3":"Corregimiento","ENGTYPE_3":"Municipality","CC_3":"NA","HASC_3":"NA","name":"Los_Castillos.city"},
"geometry":{"type": "MultiPolygon","coordinates": [[[[-80.6543,7.9529,54.5049],[-80.648,7.9607,45.5963],[-80.6445,7.9619,42.1757],[-80.6425,7.9566,50.9109],[-80.643,7.9444,96.3205],[-80.6417,7.9422,58.5353],[-80.6392,7.9428,53.2953],[-80.6361,7.9469,75.9903],[-80.6254,7.9549,39.7662],[-80.6149,7.9518,53.8404],[-80.6114,7.9449,80.2088],[-80.6074,7.9412,54.1382],[-80.5996,7.9488,27.0995],[-80.5958,7.9501,28.0486],[-80.5949,7.9555,34.1103],[-80.5799,7.9646,32.4137],[-80.5857,7.966,36.5946],[-80.5886,7.97,25.0819],[-80.5977,7.9741,42.6872],[-80.5984,7.9777,41.114],[-80.5956,7.9861,32.7465],[-80.6025,7.992,28.8716],[-80.6204,7.9906,39.5794],[-80.6281,7.9862,46.2742],[-80.6336,7.9854,50.627],[-80.6397,7.9736,57.879],[-80.6522,7.9677,140.6615],[-80.6543,7.9529,54.5049]]]]}}