{"type":"Feature","properties":{"GID_3":"PAN.12.6.10_1","GID_0":"PAN","country":"Panama","GID_1":"PAN.12_1","province":"Panamá","NL_NAME_1":"NA","GID_2":"PAN.12.6_1","county":"Panamá","NL_NAME_2":"NA","city":"Pacora","VARNAME_3":"NA","NL_NAME_3":"NA","TYPE_3":"Corregimiento","ENGTYPE_3":"Municipality","CC_3":"NA","HASC_3":"NA","name":"Pacora.city"},
"geometry":{"type": "MultiPolygon","coordinates": [[[[-79.1857,9.0096,0.0],[-79.1874,9.0099,0.0],[-79.1899,9.0076,0.0],[-79.1849,9.0088,0.0],[-79.1857,9.0096,0.0]]],
[[[-79.1565,9.0118,0.0],[-79.1568,9.0119,0.0],[-79.1568,9.0115,0.0],[-79.1565,9.0115,0.0],[-79.1565,9.0118,0.0]]],
[[[-79.1568,9.0119,0.0],[-79.1575,9.012,0.0],[-79.1579,9.0121,4.5236],[-79.1579,9.0118,0.0],[-79.1568,9.0119,0.0]]],
[[[-79.2473,9.1866,77.7491],[-79.246,9.1882,82.9498],[-79.248,9.1899,70.5947],[-79.2519,9.1887,69.1393],[-79.2546,9.1838,87.0079],[-79.2619,9.1771,65.2495],[-79.2609,9.1666,82.0961],[-79.2665,9.157,54.5574],[-79.2691,9.1477,57.4477],[-79.2683,9.1366,55.6654],[-79.2825,9.1257,25.4995],[-79.2849,9.1188,43.8282],[-79.2868,9.1177,48.2309],[-79.2906,9.1213,49.2969],[-79.2893,9.1314,33.0739],[-79.2982,9.1444,52.7346],[-79.299,9.1554,52.4544],[-79.3026,9.1625,61.3525],[-79.3009,9.1758,118.1191],[-79.292,9.1831,97.8524],[-79.2892,9.1883,119.8142],[-79.292,9.1964,182.8493],[-79.3004,9.2026,459.6843],[-79.2936,9.2133,456.3589],[-79.2919,9.221,744.6108],[-79.2952,9.2261,845.9459],[-79.3016,9.2304,685.0848],[-79.3119,9.2471,350.3832],[-79.3184,9.2497,406.9715],[-79.3245,9.2544,497.1787],[-79.3258,9.2809,640.2805],[-79.3358,9.2764,779.24],[-79.3456,9.2758,621.2242],[-79.3494,9.274,583.0798],[-79.353,9.268,605.3759],[-79.3526,9.2566,755.8569],[-79.3576,9.2523,721.2597],[-79.3614,9.2427,710.7895],[-79.3674,9.2393,562.1421],[-79.3718,9.2343,711.301],[-79.3751,9.2354,738.2347],[-79.389,9.2492,802.8481],[-79.4035,9.2445,846.2793],[-79.4077,9.2318,872.6661],[-79.4034,9.221,768.9702],[-79.4097,9.2086,808.0122],[-79.4128,9.2066,754.0418],[-79.4207,9.2057,669.3834],[-79.427,9.1993,538.7347],[-79.4412,9.1976,378.1709],[-79.4461,9.1858,372.2423],[-79.4458,9.1786,452.0804],[-79.4353,9.1587,389.3395],[-79.4308,9.1542,419.6254],[-79.4041,9.1429,404.8289],[-79.3783,9.1265,204.171],[-79.3746,9.1194,92.3831],[-79.3702,9.1149,41.6025],[-79.3687,9.1038,25.3177],[-79.3546,9.0881,17.2134],[-79.3464,9.074,6.4211],[-79.3531,9.0497,5.9142],[-79.3691,9.035,4.3878],[-79.3871,9.0333,23.8825],[-79.3897,9.0317,16.2214],[-79.3937,9.0279,13.2133],[-79.3949,9.021,4.8803],[-79.3926,9.019,10.3539],[-79.3935,9.0165,0.0],[-79.3782,9.0204,3.5101],[-79.3587,9.0218,4.9128],[-79.3546,9.026,6.979],[-79.3479,9.0229,7.8999],[-79.2901,9.024,0.0],[-79.2885,9.0257,5.6195],[-79.2671,9.0224,5.8818],[-79.2668,9.0193,0.0],[-79.2624,9.019,0.0],[-79.2593,9.0157,0.0],[-79.2549,9.016,0.0],[-79.2543,9.0182,0.0],[-79.2474,9.0171,0.0],[-79.2468,9.0185,0.0],[-79.244,9.0185,0.0],[-79.2049,9.014,6.8499],[-79.2038,9.0124,0.0],[-79.1937,9.0121,0.0],[-79.1929,9.0104,0.0],[-79.1896,9.0096,0.0],[-79.189,9.011,0.0],[-79.1918,9.0135,0.0],[-79.1779,9.0113,0.0],[-79.1774,9.0151,0.2209],[-79.1729,9.0157,0.0],[-79.1751,9.0274,27.5865],[-79.1726,9.0201,2.7306],[-79.1674,9.0168,3.8399],[-79.1687,9.0154,2.4045],[-79.1704,9.0163,1.3571],[-79.1687,9.0129,0.0],[-79.1582,9.0118,0.0],[-79.1579,9.0121,4.5236],[-79.1645,9.0147,11.4483],[-79.1673,9.0206,26.6756],[-79.1617,9.0214,31.242],[-79.1592,9.0201,26.8327],[-79.1576,9.0212,34.0504],[-79.1533,9.0293,29.7007],[-79.1543,9.0402,31.0241],[-79.1529,9.0424,28.4665],[-79.1396,9.0393,31.5504],[-79.1394,9.0353,27.8804],[-79.144,9.033,23.7388],[-79.1419,9.0279,19.9568],[-79.1344,9.0333,28.7581],[-79.1338,9.0353,30.7621],[-79.1367,9.0401,32.9775],[-79.1368,9.0435,28.4714],[-79.1287,9.0506,30.6032],[-79.1284,9.0532,26.416],[-79.1365,9.06,26.3266],[-79.1366,9.0648,18.5031],[-79.139,9.0729,12.1795],[-79.1435,9.081,17.8765],[-79.1483,9.1007,8.6879],[-79.1561,9.1066,7.2608],[-79.161,9.1081,10.462],[-79.1752,9.1034,11.113],[-79.1938,9.1089,18.2379],[-79.2095,9.123,27.4683],[-79.2291,9.1264,35.1178],[-79.2406,9.1347,48.9203],[-79.2436,9.1383,49.9151],[-79.2472,9.1536,46.4053],[-79.2527,9.165,52.0657],[-79.2529,9.1749,133.3939],[-79.2473,9.1866,77.7491]]]]}}