{"type": "Feature","bbox": [-79.8479,8.8612,-79.7895,8.9026],"geometry": {"type": "MultiPolygon","coordinates": [[[[-79.8075,8.8914,41.2696],[-79.8116,8.8933,45.7991],[-79.8191,8.9019,47.945],[-79.822,8.9026,46.0663],[-79.8297,8.8966,67.9386],[-79.8394,8.8936,75.7363],[-79.8455,8.8888,87.3026],[-79.8479,8.8844,94.9124],[-79.8473,8.8782,83.4259],[-79.8373,8.8794,100.2246],[-79.8249,8.8736,80.1009],[-79.8233,8.8714,90.4706],[-79.823,8.8639,146.2947],[-79.8195,8.8612,113.9861],[-79.8063,8.8635,78.4124],[-79.7895,8.8633,77.6177],[-79.7925,8.8708,77.4895],[-79.7976,8.8785,72.0582],[-79.8019,8.8812,73.6746],[-79.8075,8.8914,41.2696]]]]}
,"properties": {"GID_3": "PAN.11.4.6_1","GID_0": "PAN","country": "Panama","GID_1": "PAN.11_1","province": "PanamáOeste","NL_NAME_1": "NA","GID_2": "PAN.11.4_1","county": "LaChorrera","NL_NAME_2": "NA","city": "ElCoco","VARNAME_3": "NA","NL_NAME_3": "NA","TYPE_3": "Corregimiento","ENGTYPE_3": "Municipality","CC_3": "NA","HASC_3": "NA","name": "El_Coco.city","area_km2": 15.12448,"hist_schema_id": "Elevation0-9000","hist_area_km2": {"50": 2.22043,"75": 7.87646,"100": 4.3363,"125": 0.62844,"150": 0.0419,"175": 0.02095}}}