{"type":"Feature","properties":{"GID_3":"PAN.9.3.3_1","GID_0":"PAN","country":"Panama","GID_1":"PAN.9_1","province":"LosSantos","NL_NAME_1":"NA","GID_2":"PAN.9.3_1","county":"LosSantos","NL_NAME_2":"NA","city":"LaColorada","VARNAME_3":"NA","NL_NAME_3":"NA","TYPE_3":"Corregimiento","ENGTYPE_3":"Municipality","CC_3":"NA","HASC_3":"NA","name":"La_Colorada.city"},
"geometry":{"type": "MultiPolygon","coordinates": [[[[-80.583,7.8196,58.7917],[-80.5882,7.8171,60.2169],[-80.592,7.8083,65.1721],[-80.6004,7.8015,78.6654],[-80.5976,7.7983,79.4975],[-80.5964,7.7937,129.1591],[-80.5877,7.7967,60.946],[-80.5866,7.7922,61.0636],[-80.5838,7.789,83.3017],[-80.5702,7.794,83.6926],[-80.5661,7.7918,75.6629],[-80.5593,7.7986,55.2565],[-80.5455,7.8022,98.8389],[-80.5393,7.8058,75.5385],[-80.5261,7.8174,78.5201],[-80.525,7.8263,55.24],[-80.526,7.8278,52.461],[-80.5349,7.829,42.8746],[-80.5372,7.8315,53.6733],[-80.5513,7.8297,53.7246],[-80.5578,7.8346,64.2016],[-80.5602,7.8331,55.9445],[-80.5632,7.8254,66.3915],[-80.5721,7.8238,58.9518],[-80.5738,7.8177,73.4096],[-80.583,7.8196,58.7917]]]]}}