{"type":"Feature","properties":{"GID_3":"PAN.2.6.1_1","GID_0":"PAN","country":"Panama","GID_1":"PAN.2_1","province":"Chiriquí","NL_NAME_1":"NA","GID_2":"PAN.2.6_1","county":"David","NL_NAME_2":"NA","city":"Bijagual","VARNAME_3":"NA","NL_NAME_3":"NA","TYPE_3":"Corregimiento","ENGTYPE_3":"Municipality","CC_3":"NA","HASC_3":"NA","name":"Bijagual.city"},
"geometry":{"type": "MultiPolygon","coordinates": [[[[-82.2963,8.4267,44.9744],[-82.2944,8.4319,46.5173],[-82.2852,8.4437,50.0586],[-82.2835,8.4551,53.4231],[-82.2901,8.4682,65.1719],[-82.2962,8.4733,74.1899],[-82.2956,8.489,79.9243],[-82.304,8.5051,88.6112],[-82.3069,8.5186,100.9043],[-82.3097,8.5223,107.3656],[-82.3118,8.5457,136.9194],[-82.3081,8.5613,143.8231],[-82.3098,8.5668,207.0321],[-82.3146,8.5711,212.5473],[-82.3385,8.5797,195.8106],[-82.343,8.5795,201.5657],[-82.3531,8.5755,206.5753],[-82.3658,8.5738,213.3518],[-82.3676,8.5711,212.3312],[-82.3669,8.5672,206.36],[-82.3513,8.5495,170.775],[-82.3489,8.5413,158.8236],[-82.3425,8.5299,142.2955],[-82.3377,8.5121,122.4095],[-82.3396,8.5011,117.0961],[-82.3385,8.4923,107.6803],[-82.3412,8.4843,102.2347],[-82.3412,8.4733,100.7421],[-82.3461,8.4665,82.5215],[-82.3477,8.4584,72.9796],[-82.3347,8.4425,97.3167],[-82.3289,8.4325,50.9689],[-82.3166,8.4273,32.7995],[-82.3172,8.425,25.2355],[-82.3232,8.4211,22.8813],[-82.3263,8.4146,21.8088],[-82.321,8.4151,31.788],[-82.3005,8.4227,38.595],[-82.2963,8.4267,44.9744]]]]}}