{"type":"Feature","properties":{"GID_3":"PAN.13.7.4_1","GID_0":"PAN","country":"Panama","GID_1":"PAN.13_1","province":"Veraguas","NL_NAME_1":"NA","GID_2":"PAN.13.7_1","county":"RíodeJesús","NL_NAME_2":"NA","city":"RíodeJesús","VARNAME_3":"NA","NL_NAME_3":"NA","TYPE_3":"Corregimiento","ENGTYPE_3":"Municipality","CC_3":"NA","HASC_3":"NA","name":"Ríode_Jesús.city"},
"geometry":{"type": "MultiPolygon","coordinates": [[[[-81.1754,8.0638,60.0033],[-81.1633,8.0495,70.6401],[-81.1613,8.0438,61.0225],[-81.173,8.0051,86.9756],[-81.1817,7.9902,81.8156],[-81.1882,7.9734,35.443],[-81.1834,7.9528,21.9178],[-81.1803,7.929,29.0145],[-81.1741,7.929,44.9548],[-81.1563,7.9334,39.0871],[-81.142,7.9416,76.6992],[-81.1213,7.9598,43.038],[-81.121,7.9623,14.4867],[-81.1152,7.9689,36.8444],[-81.1122,7.9749,64.5843],[-81.112,7.98,96.8636],[-81.1158,7.9821,44.1368],[-81.1259,7.983,61.2043],[-81.1277,7.986,80.2769],[-81.1277,7.9916,61.0928],[-81.1237,8.0045,96.5671],[-81.1249,8.0156,40.5999],[-81.1284,8.0225,66.7655],[-81.1283,8.0252,113.0182],[-81.1124,8.0411,63.29],[-81.1114,8.0449,48.4219],[-81.1089,8.0472,46.8134],[-81.0934,8.0514,31.2113],[-81.0952,8.0632,31.2288],[-81.0834,8.0728,52.7773],[-81.083,8.0782,43.8882],[-81.0882,8.0912,52.5493],[-81.0917,8.0943,41.0687],[-81.0986,8.0953,38.1498],[-81.1103,8.091,71.5979],[-81.1218,8.0909,48.7603],[-81.1349,8.0883,82.1103],[-81.1564,8.0687,37.1981],[-81.1754,8.0638,60.0033]]]]}}