{"type": "Feature","bbox": [-78.1357,8.1629,-78.0494,8.3615],"geometry": {"type": "MultiPolygon","coordinates": [[[[-78.0494,8.3043,1.8143],[-78.0649,8.3213,3.838],[-78.0679,8.3276,0.0],[-78.0796,8.3407,0.0],[-78.0985,8.3401,12.5471],[-78.0987,8.3418,3.7966],[-78.0949,8.3451,16.77],[-78.1026,8.3493,0.0],[-78.1096,8.3568,4.4961],[-78.1182,8.3571,0.0],[-78.121,8.3604,0.0],[-78.1263,8.3574,5.3384],[-78.1326,8.3582,5.6764],[-78.1357,8.3507,23.3839],[-78.1343,8.345,13.7333],[-78.1293,8.3398,24.0302],[-78.1213,8.3381,23.0394],[-78.1196,8.3358,26.1418],[-78.123,8.3218,20.2139],[-78.1185,8.3126,29.7294],[-78.114,8.2927,160.4732],[-78.1088,8.2808,62.7912],[-78.1104,8.2779,140.8691],[-78.1279,8.2672,199.814],[-78.1327,8.259,124.5386],[-78.1331,8.255,77.4167],[-78.1133,8.2261,76.792],[-78.1037,8.2072,137.0633],[-78.09,8.1657,53.3604],[-78.0762,8.1629,108.0161],[-78.0676,8.1632,306.1251],[-78.0592,8.1687,183.904],[-78.0552,8.1758,110.9053],[-78.0546,8.2,222.9904],[-78.0599,8.2234,174.2837],[-78.0595,8.2583,114.1037],[-78.0566,8.2686,16.4605],[-78.0555,8.2841,82.1311],[-78.0494,8.3043,1.8143]]],
[[[-78.124,8.3615,0.0],[-78.1301,8.3599,0.0],[-78.1307,8.3588,0.0],[-78.1251,8.3596,0.0],[-78.124,8.3615,0.0]]]]}
,"properties": {"GID_3": "PAN.5.1.14_1","GID_0": "PAN","country": "Panama","GID_1": "PAN.5_1","province": "Darién","NL_NAME_1": "NA","GID_2": "PAN.5.1_1","county": "Chepigana","NL_NAME_2": "NA","city": "Setegantí","VARNAME_3": "NA","NL_NAME_3": "NA","TYPE_3": "Corregimiento","ENGTYPE_3": "Municipality","CC_3": "NA","HASC_3": "NA","name": "Setegantí.city","area_km2": 125.45192,"hist_schema_id": "Elevation0-9000","hist_area_km2": {"0": 5.72733,"25": 34.65773,"50": 14.58214,"75": 11.7295,"100": 9.94625,"125": 7.57503,"150": 6.00137,"175": 6.98761,"200": 6.12726,"225": 5.37183,"250": 4.36469,"275": 4.17596,"300": 3.79826,"325": 2.26643,"350": 1.13323,"375": 0.5876,"400": 0.33577,"425": 0.04197,"450": 0.04197}}}