{"type":"Feature","properties":{"GID_3":"PAN.9.7.2_1","GID_0":"PAN","country":"Panama","GID_1":"PAN.9_1","province":"LosSantos","NL_NAME_1":"NA","GID_2":"PAN.9.7_1","county":"Tonosí","NL_NAME_2":"NA","city":"Cambutal","VARNAME_3":"NA","NL_NAME_3":"NA","TYPE_3":"Corregimiento","ENGTYPE_3":"Municipality","CC_3":"NA","HASC_3":"NA","name":"Cambutal.city"},
"geometry":{"type": "MultiPolygon","coordinates": [[[[-80.4404,7.2415,30.5137],[-80.4421,7.2487,213.139],[-80.4484,7.2512,245.03809999999999],[-80.4504,7.2561,396.0225],[-80.456,7.2575,297.3196],[-80.4596,7.2603,216.1019],[-80.459,7.2745,322.943],[-80.469,7.2807,335.7797],[-80.4749,7.2883,242.1301],[-80.4892,7.2933,86.0375],[-80.4946,7.3046,228.8374],[-80.5024,7.3022,402.3917],[-80.5218,7.3052,463.6592],[-80.5357,7.3134,291.795],[-80.5416,7.3108,277.5675],[-80.5484,7.3106,302.9219],[-80.555,7.3168,395.7259],[-80.5591,7.3186,594.8171],[-80.5728,7.3153,900.035],[-80.5796,7.316,806.8328],[-80.5899,7.321,418.3084],[-80.5949,7.3287,584.6719],[-80.6108,7.3369,506.4703],[-80.6197,7.3442,680.0093],[-80.6345,7.342,713.5676],[-80.645,7.3478,708.756],[-80.6501,7.3465,840.7247],[-80.6549,7.343,866.4304],[-80.6665,7.342,1203.4642],[-80.6677,7.3348,1163.2894],[-80.6718,7.3361,1090.6755],[-80.6716,7.3181,1373.514],[-80.6529,7.2955,655.4189],[-80.6343,7.2863,795.3787],[-80.623,7.2845,424.4092],[-80.6189,7.2816,278.9106],[-80.6158,7.2718,97.6525],[-80.6147,7.2301,0.0],[-80.6135,7.2324,30.7734],[-80.6024,7.2301,0.0],[-80.6018,7.2329,8.6926],[-80.5974,7.2329,0.0],[-80.594,7.2357,34.4233],[-80.584,7.2326,32.6816],[-80.584,7.2296,2.6979],[-80.5804,7.2274,0.0],[-80.5635,7.2424,0.0],[-80.5457,7.2432,2.2177],[-80.5349,7.2415,2.8618],[-80.5279,7.2376,5.008],[-80.5212,7.2376,10.2753],[-80.5165,7.2451,34.4918],[-80.5126,7.2457,0.0],[-80.5118,7.2485,0.0],[-80.5076,7.251,9.8888],[-80.5015,7.2485,0.0],[-80.4946,7.2504,0.0],[-80.4846,7.2493,6.1175],[-80.4815,7.2474,0.0],[-80.4721,7.2482,3.5911],[-80.4671,7.2468,0.0],[-80.4668,7.2454,0.0],[-80.4563,7.2465,0.0],[-80.4404,7.2415,30.5137]]]]}}