{"type": "Feature","bbox": [-80.1784,8.4746,-80.0922,8.5705],"geometry": {"type": "MultiPolygon","coordinates": [[[[-80.1784,8.5334,324.6081],[-80.1726,8.5243,242.2452],[-80.1748,8.5149,200.0839],[-80.1726,8.5052,207.8468],[-80.1505,8.5071,265.684],[-80.1455,8.5109,272.6993],[-80.143,8.5096,266.0494],[-80.1428,8.4875,192.0326],[-80.1494,8.4746,136.1581],[-80.1367,8.4763,163.3632],[-80.1358,8.484,192.455],[-80.1307,8.4893,205.9137],[-80.1277,8.4965,230.1859],[-80.1167,8.5055,273.739],[-80.1149,8.5101,281.8539],[-80.1166,8.517,315.0562],[-80.1158,8.5216,346.9475],[-80.112799999999993,8.5202,318.0211],[-80.0982,8.495,172.0309],[-80.0922,8.5152,279.4836],[-80.0963,8.5195,282.2485],[-80.1016,8.5311,384.817],[-80.1073,8.535,397.9113],[-80.111,8.5417,427.2533],[-80.1095,8.5474,465.3539],[-80.1117,8.5546,509.1388],[-80.1221,8.5666,575.7341],[-80.1262,8.5661,582.5266],[-80.1476,8.5705,580.9922],[-80.156,8.5567,483.9736],[-80.1642,8.551,406.8004],[-80.1671,8.5433,366.5184],[-80.1664,8.5389,362.2373],[-80.1693,8.5346,323.827],[-80.1784,8.5334,324.6081]]]]}
,"properties": {"GID_3": "PAN.3.2.3_1","GID_0": "PAN","country": "Panama","GID_1": "PAN.3_1","province": "Coclé","NL_NAME_1": "NA","GID_2": "PAN.3.2_1","county": "Antón","NL_NAME_2": "NA","city": "Cabuya","VARNAME_3": "NA","NL_NAME_3": "NA","TYPE_3": "Corregimiento","ENGTYPE_3": "Municipality","CC_3": "NA","HASC_3": "NA","name": "Cabuya.city","area_km2": 50.82585,"hist_schema_id": "Elevation0-9000","hist_area_km2": {"125": 0.06291,"150": 0.46135,"175": 1.11141,"200": 1.34205,"225": 2.97761,"250": 3.9002,"275": 4.65503,"300": 5.49369,"325": 4.38232,"350": 4.21452,"375": 3.98382,"400": 3.50153,"425": 2.83054,"450": 2.57891,"475": 3.01918,"500": 2.36919,"525": 1.67728,"550": 1.42568,"575": 0.71283,"600": 0.12579}}}