{"type":"Feature","properties":{"GID_3":"PAN.11.3.5_1","GID_0":"PAN","country":"Panama","GID_1":"PAN.11_1","province":"PanamáOeste","NL_NAME_1":"NA","GID_2":"PAN.11.3_1","county":"Chame","NL_NAME_2":"NA","city":"Chicá","VARNAME_3":"NA","NL_NAME_3":"NA","TYPE_3":"Corregimiento","ENGTYPE_3":"Municipality","CC_3":"NA","HASC_3":"NA","name":"Chicá.city"},
"geometry":{"type": "MultiPolygon","coordinates": [[[[-79.9504,8.6968,770.7646],[-79.9631,8.6816,427.4311],[-79.9606,8.671,276.6397],[-79.9619,8.6639,155.6387],[-79.944,8.6473,382.3444],[-79.94,8.6461,356.1798],[-79.9286,8.6583,697.2797],[-79.9124,8.6685,508.2496],[-79.9202,8.6777,731.4978],[-79.937,8.6907,872.0695],[-79.9504,8.6968,770.7646]]]]}}