{"type":"Feature","properties":{"GID_3":"PAN.10.3.6_1","GID_0":"PAN","country":"Panama","GID_1":"PAN.10_1","province":"NgöbeBuglé","NL_NAME_1":"NA","GID_2":"PAN.10.3_1","county":"Kusapín","NL_NAME_2":"NA","city":"Tobobe","VARNAME_3":"NA","NL_NAME_3":"NA","TYPE_3":"Corregimiento","ENGTYPE_3":"Municipality","CC_3":"NA","HASC_3":"NA","name":"Tobobe.city"},
"geometry":{"type": "MultiPolygon","coordinates": [[[[-81.7535,8.8788,108.7673],[-81.7544,8.8522,94.5788],[-81.7522,8.843,122.0423],[-81.7501,8.8428,126.1586],[-81.7519,8.8385,270.8399],[-81.7491,8.8334,281.3138],[-81.7439,8.8316,154.8613],[-81.7408,8.8278,174.3801],[-81.7397,8.8167,341.4093],[-81.7345,8.8013,246.8393],[-81.7342,8.7885,246.4277],[-81.7201,8.7814,563.752],[-81.7184,8.7712,319.3765],[-81.7107,8.7653,572.4597],[-81.7012,8.7623,703.5817],[-81.6873,8.7624,969.8716],[-81.6802,8.7595,619.4145],[-81.679,8.7559,623.2546],[-81.6819,8.7477,786.4279],[-81.6682,8.7224,890.6054],[-81.6665,8.7366,890.0159],[-81.6684,8.7624,502.2244],[-81.6646,8.7674,680.3293],[-81.663,8.7734,938.8547],[-81.6671,8.7824,634.2551],[-81.6665,8.7969,543.3475],[-81.6722,8.8058,267.5218],[-81.6789,8.8104,336.1001],[-81.6891,8.8211,81.8292],[-81.6903,8.8337,136.2363],[-81.6952,8.8426,107.2296],[-81.695,8.8507,67.4842],[-81.6989,8.8664,7.5168],[-81.7093,8.8796,5.7679],[-81.7081,8.8844,33.545],[-81.7003,8.8914,3.4552],[-81.6979,8.9018,7.7339],[-81.6878,8.9077,4.2065],[-81.6859,8.9128,3.1013],[-81.687,8.915,2.8325],[-81.6929,8.918,8.9323],[-81.6956,8.9252,9.4821],[-81.699,8.9292,4.7936],[-81.7196,8.9369,2.2226],[-81.722,8.9392,3.7645],[-81.7189,8.953,9.7996],[-81.7228,8.9607,4.7175],[-81.7137,8.9693,1.0],[-81.7117,8.9735,2.1669],[-81.718,8.9869,10.4287],[-81.7176,8.9916,4.1585],[-81.7129,9.0012,0.9985],[-81.7157,9.003,4.0851],[-81.7163,9.0072,4.808],[-81.7149,9.0094,1.0346],[-81.7157,9.0182,0.0],[-81.7146,9.0193,0.0],[-81.7174,9.0296,3.9556],[-81.7224,9.0343,4.6235],[-81.7224,9.0382,2.6751],[-81.7279,9.0357,0.5309],[-81.7332,9.036,0.0],[-81.7368,9.0429,1.456],[-81.7426,9.0443,0.0],[-81.7432,9.0463,0.0],[-81.7451,9.0451,0.0],[-81.7446,9.0437,22.0876],[-81.7487,9.0449,1.3684],[-81.7601,9.0549,1.8051],[-81.7607,9.0632,0.0],[-81.7621,9.0643,0.0],[-81.771,9.0618,5.6006],[-81.776,9.0635,1.0772],[-81.781,9.0629,7.1416],[-81.7818,9.0663,0.0],[-81.7874,9.0674,0.0],[-81.794,9.0643,4.9283],[-81.7988,9.0665,1.5617],[-81.8049,9.0654,3.5497],[-81.809,9.0693,2.1083],[-81.8063,9.0729,0.0],[-81.8071,9.0743,0.0],[-81.8099,9.069,2.1083],[-81.816,9.0654,1.8478],[-81.8196,9.0654,1.1956],[-81.819,9.0682,0.4956],[-81.8213,9.0693,0.0],[-81.8215,9.0638,0.212],[-81.8229,9.0638,0.212],[-81.8243,9.0668,0.7247],[-81.8221,9.0688,0.0],[-81.826,9.0757,2.0498],[-81.826,9.084,0.0],[-81.829,9.0854,2.0519],[-81.8304,9.0885,0.0],[-81.8301,9.0929,2.1763],[-81.8279,9.0965,0.0],[-81.836,9.0982,2.5746],[-81.8354,9.101,0.0],[-81.8385,9.1029,0.3416],[-81.8379,9.1071,0.8327],[-81.8399,9.1085,9.5771],[-81.8399,9.1112,1.0344],[-81.8426,9.1107,3.7235],[-81.8468,9.1151,0.0],[-81.8399,9.1168,0.0],[-81.8346,9.1151,0.0],[-81.8313,9.119,8.0097],[-81.8207,9.1213,0.0],[-81.8185,9.1235,0.0],[-81.8185,9.1257,0.0],[-81.8279,9.126,1.0222],[-81.8296,9.1294,3.6142],[-81.8456,9.1299,53.4913],[-81.846,9.1329,47.266],[-81.8663,9.1337,38.0494],[-81.8744,9.121,28.553],[-81.8675,9.1176,9.4868],[-81.8623,9.1014,32.351],[-81.8521,9.0899,55.796],[-81.8471,9.0872,44.5186],[-81.84,9.0871,42.4066],[-81.8357,9.0848,24.6762],[-81.8331,9.0702,42.2222],[-81.8297,9.0648,27.4238],[-81.8126,9.0541,44.1223],[-81.7969,9.0495,44.4321],[-81.7833,9.0515,23.9296],[-81.7788,9.0499,15.5519],[-81.7737,9.0439,24.0543],[-81.7681,9.0333,43.8661],[-81.7593,9.0254,42.1442],[-81.754,9.0154,38.8515],[-81.7531,9.0099,44.6082],[-81.756,8.9938,30.98],[-81.7559,8.9833,13.9604],[-81.7507,8.9692,30.3219],[-81.7553,8.9559,24.7221],[-81.7547,8.9427,42.7713],[-81.7428,8.9241,32.3958],[-81.754,8.9114,47.0204],[-81.7514,8.8986,52.8818],[-81.7535,8.8788,108.7673]]],
[[[-81.8099,9.129,0.0],[-81.8126,9.1279,3.8658],[-81.811,9.1257,0.0],[-81.8085,9.1271,0.0],[-81.8099,9.129,0.0]]],
[[[-81.801,9.1357,0.0],[-81.8021,9.136,0.0],[-81.8026,9.1335,13.0694],[-81.8068,9.1326,0.0],[-81.8068,9.1312,0.0],[-81.8043,9.1301,0.0],[-81.8001,9.131,0.0],[-81.7993,9.1321,0.0],[-81.801,9.1357,0.0]]]]}}