{"type": "Feature","bbox": [-77.9678,8.593,-77.4388,9.1296],"geometry": {"type": "MultiPolygon","coordinates": [[[[-77.5696,8.7885,0.0],[-77.5687,8.7885,0.0],[-77.5671,8.7924,0.0],[-77.5704,8.7904,0.0],[-77.5696,8.7885,0.0]]],
[[[-77.599,8.8243,6.3717],[-77.6012,8.824,0.0],[-77.5996,8.8185,0.0],[-77.5985,8.8229,0.0],[-77.599,8.8243,6.3717]]],
[[[-77.5929,8.829,0.0],[-77.5937,8.8313,0.0],[-77.5946,8.8282,0.0],[-77.5929,8.8276,0.0],[-77.5929,8.829,0.0]]],
[[[-77.676,8.9038,0.0],[-77.6807,8.904,0.0],[-77.6824,8.9007,20.3005],[-77.6862,8.9001,0.646],[-77.6865,8.8979,0.2513],[-77.6821,8.8957,0.0],[-77.6807,8.8976,13.8609],[-77.6768,8.8985,1.9304],[-77.674,8.9015,0.0],[-77.676,8.9038,0.0]]],
[[[-77.7758,8.878,549.2395],[-77.7554,8.8703,546.6155],[-77.7454,8.8635,466.4789],[-77.7388,8.856,142.2366],[-77.7369,8.8392,282.8716],[-77.7348,8.8344,370.4023],[-77.7228,8.8269,233.8719],[-77.711,8.8255,234.023],[-77.6998,8.8153,171.8851],[-77.6985,8.8125,160.8588],[-77.6976,8.7942,291.0389],[-77.6922,8.7803,351.1296],[-77.6908,8.7723,607.4109],[-77.6934,8.7676,657.9962],[-77.7059,8.7679,539.8223],[-77.703,8.7643,630.7371],[-77.6882,8.7613,608.806],[-77.6811,8.7617,604.6016],[-77.676,8.7518,497.2774],[-77.6727,8.7492,350.7144],[-77.6678,8.7494,323.8799],[-77.6607,8.7542,437.2485],[-77.6433,8.7466,267.7761],[-77.6399,8.7377,262.9024],[-77.6277,8.733,279.8064],[-77.6245,8.7262,297.7004],[-77.625,8.7193,341.2877],[-77.6182,8.7105,380.3969],[-77.6159,8.7017,506.0876],[-77.6115,8.6942,576.6138],[-77.5955,8.6935,417.3071],[-77.5812,8.6833,460.5984],[-77.5721,8.68,295.4171],[-77.5685,8.6671,513.3169],[-77.5782,8.6515,605.3451],[-77.5808,8.6443,694.851],[-77.5807,8.6388,745.406],[-77.5599,8.6062,471.6754],[-77.5526,8.5989,492.9108],[-77.5417,8.593,486.7269],[-77.5195,8.6014,502.8346],[-77.5055,8.5968,458.6632],[-77.5011,8.6274,249.5841],[-77.4976,8.6406,290.2074],[-77.4851,8.642,98.2522],[-77.472,8.6461,20.1039],[-77.4697,8.6507,26.0105],[-77.4709,8.659,16.6963],[-77.4677,8.6622,20.1881],[-77.4597,8.6616,17.7388],[-77.4515,8.6549,10.2275],[-77.4477,8.6554,52.5182],[-77.4423,8.6596,31.6586],[-77.4388,8.6665,1.6917],[-77.4443,8.6621,0.0],[-77.4496,8.664,0.0],[-77.4524,8.6626,2.3179],[-77.4529,8.6649,1.3489],[-77.4682,8.6693,2.8806],[-77.4974,8.6824,0.0],[-77.524,8.699,0.0],[-77.5382,8.706,0.6392],[-77.5393,8.7082,0.0],[-77.5446,8.7101,4.0604],[-77.5468,8.7126,0.0],[-77.5457,8.7168,3.8137],[-77.5485,8.7174,0.0],[-77.5496,8.7193,0.8213],[-77.551,8.7282,0.0],[-77.5499,8.7312,2.0526],[-77.5474,8.7312,1.277],[-77.5451,8.7388,3.971],[-77.5421,8.7368,0.0],[-77.5413,8.7393,3.0353],[-77.5393,8.7396,1.0797],[-77.5382,8.751,0.8647],[-77.5354,8.7518,0.0],[-77.5351,8.7557,10.462],[-77.5376,8.7579,26.3614],[-77.5354,8.7612,12.5296],[-77.5365,8.7618,12.5296],[-77.5382,8.7599,19.5306],[-77.5396,8.761,1.609],[-77.541,8.7699,12.0387],[-77.5457,8.7754,51.8812],[-77.5504,8.7779,0.0],[-77.5563,8.7774,0.0],[-77.5557,8.7693,0.0],[-77.5599,8.764,24.8151],[-77.5651,8.7679,0.8928],[-77.5676,8.7668,46.1429],[-77.5679,8.7649,5.4045],[-77.5729,8.7668,14.4126],[-77.5793,8.7754,2.8584],[-77.5793,8.784,10.114],[-77.5732,8.7879,0.0],[-77.5746,8.7924,0.5537],[-77.5774,8.7951,0.0],[-77.5771,8.7979,0.0],[-77.5801,8.7979,18.8758],[-77.586,8.8029,0.0],[-77.5954,8.806,21.6215],[-77.5949,8.8099,5.3106],[-77.6062,8.8196,0.0],[-77.6085,8.8179,4.6302],[-77.6129,8.8193,0.0],[-77.6143,8.8218,9.4577],[-77.6129,8.8274,0.0],[-77.6149,8.8288,0.0],[-77.6174,8.8282,30.016],[-77.6215,8.8374,5.7258],[-77.6318,8.8451,13.9991],[-77.6324,8.8515,4.595],[-77.639,8.8493,18.162],[-77.6368,8.8443,2.6289],[-77.6385,8.844,0.0],[-77.6371,8.8418,6.5548],[-77.6399,8.8396,0.0],[-77.6346,8.8368,3.1592],[-77.6237,8.8188,0.7452],[-77.6226,8.8204,0.0],[-77.6196,8.819,6.0378],[-77.6193,8.8171,0.0],[-77.6229,8.8143,4.9475],[-77.6268,8.8168,1.1582],[-77.6268,8.8188,0.0],[-77.6288,8.8176,0.5657],[-77.6349,8.826,0.0],[-77.6371,8.8251,22.1287],[-77.6374,8.8207,6.7442],[-77.6387,8.8196,5.1652],[-77.644,8.8193,13.0944],[-77.6465,8.8279,0.0],[-77.649,8.829,0.0],[-77.6501,8.8279,8.4931],[-77.6504,8.8313,2.5325],[-77.6532,8.8315,3.7005],[-77.6521,8.8418,18.837],[-77.6562,8.8449,1.8465],[-77.6593,8.844,2.4171],[-77.6629,8.8465,9.1127],[-77.6637,8.8507,0.0],[-77.6668,8.8507,11.016],[-77.6696,8.8557,0.0],[-77.6743,8.859,0.0],[-77.6793,8.8657,0.0],[-77.6862,8.8662,0.2624],[-77.6888,8.8707,0.0],[-77.6963,8.8713,2.0653],[-77.6982,8.8782,1.1782],[-77.6971,8.8788,0.0],[-77.6979,8.884,4.9375],[-77.696,8.8868,2.9498],[-77.7001,8.8874,0.0],[-77.7004,8.8835,4.8564],[-77.7026,8.8826,5.9391],[-77.7046,8.8851,2.9864],[-77.7063,8.8854,0.2063],[-77.7076,8.8835,2.9283],[-77.7124,8.8879,0.8485],[-77.7179,8.8899,24.7054],[-77.7185,8.8946,1.5903],[-77.7149,8.896,0.0],[-77.7182,8.8999,11.2647],[-77.7235,8.9021,0.0],[-77.7282,8.9076,4.7696],[-77.7265,8.9163,0.9754],[-77.7296,8.9171,0.1983],[-77.7324,8.9235,1.7829],[-77.7382,8.9285,2.8748],[-77.739,8.931,0.9273],[-77.7412,8.9315,1.3739],[-77.7426,8.9368,0.3511],[-77.7446,8.936,0.3511],[-77.7462,8.939,0.4825],[-77.7524,8.9404,3.0612],[-77.7526,8.9426,0.0],[-77.7562,8.9437,1.9636],[-77.7571,8.9474,0.6325],[-77.7624,8.9518,1.9331],[-77.7621,8.9579,3.0561],[-77.7557,8.966,2.3369],[-77.7449,8.961,1.0323],[-77.7424,8.9624,0.0],[-77.7412,8.966,0.0],[-77.744,8.9718,0.0],[-77.746,8.971,1.0254],[-77.749,8.974,0.0],[-77.7499,8.9715,2.9524],[-77.751,8.9738,0.0],[-77.754,8.9732,2.9576],[-77.7532,8.9774,1.7282],[-77.7557,8.9788,0.0],[-77.7621,8.9746,5.0899],[-77.764,8.9749,5.9162],[-77.7624,8.9815,5.7174],[-77.7568,8.9801,0.0],[-77.7554,8.9835,4.3665],[-77.7626,8.9843,2.9153],[-77.7635,8.9871,7.668],[-77.7607,8.9901,0.0],[-77.764,8.9893,2.4599],[-77.7693,8.9924,0.0],[-77.7718,8.9954,5.6603],[-77.7721,8.9987,5.389],[-77.7715,8.9999,3.1357],[-77.7593,8.9999,0.5675],[-77.759,8.9985,0.7931],[-77.7549,8.9979,6.5614],[-77.7535,8.996,0.0],[-77.7476,8.9974,3.8418],[-77.7449,8.9999,2.9448],[-77.7451,9.0076,0.0],[-77.7474,9.0104,0.0],[-77.7499,9.0107,0.0],[-77.7546,9.0149,0.0],[-77.7596,9.0151,0.0],[-77.7649,9.0074,0.2102],[-77.7607,9.0037,19.1469],[-77.7624,9.0021,0.0],[-77.7596,9.0001,0.5675],[-77.7699,9.001,1.2694],[-77.7718,9.0029,0.0],[-77.7774,9.001,0.0],[-77.774,9.0029,0.0],[-77.776,9.0046,0.0],[-77.7799,9.0029,2.751],[-77.7812,9.0051,0.0],[-77.779,9.0068,0.0],[-77.7724,9.0046,0.0],[-77.7735,9.0079,2.7764],[-77.7924,9.0187,5.6225],[-77.7954,9.0226,0.0],[-77.804,9.0251,0.572],[-77.8046,9.0282,0.0],[-77.8085,9.0313,9.9684],[-77.8115,9.0454,1.8338],[-77.8079,9.0501,0.0],[-77.8096,9.0546,0.0],[-77.8288,9.0671,0.0],[-77.8313,9.066,4.0149],[-77.8304,9.0685,0.0],[-77.8321,9.0704,0.0],[-77.836,9.071,5.1664],[-77.8374,9.0735,3.909],[-77.8426,9.0771,0.0],[-77.844,9.0765,6.1362],[-77.8443,9.0793,0.0],[-77.8465,9.081,0.9913],[-77.8449,9.0824,0.0],[-77.8449,9.0876,0.0],[-77.8463,9.0879,0.0],[-77.8482,9.0837,1.0842],[-77.8521,9.0946,0.0],[-77.8538,9.094,1.3622],[-77.8565,9.099,0.0],[-77.8571,9.0974,0.0],[-77.8626,9.0974,2.2476],[-77.8599,9.0996,0.7755],[-77.8615,9.1065,0.0],[-77.8635,9.1087,0.5855],[-77.8665,9.1087,1.2325],[-77.8696,9.1135,1.401],[-77.8749,9.116,0.4876],[-77.8779,9.116,0.0],[-77.8787,9.1143,0.0],[-77.8751,9.1079,11.3163],[-77.8776,9.1057,0.0],[-77.8757,9.104,10.3998],[-77.876,9.1018,0.0],[-77.8743,9.1021,2.9947],[-77.871,9.0979,0.0],[-77.8724,9.0957,0.0],[-77.8712,9.091,0.5874],[-77.8743,9.0876,0.0],[-77.874,9.0818,0.8759],[-77.8701,9.0763,0.5154],[-77.8654,9.0751,0.7246],[-77.861,9.0674,0.3626],[-77.861,9.0643,0.0],[-77.8582,9.0629,1.5319],[-77.8579,9.0607,0.2869],[-77.8665,9.064,0.0],[-77.8704,9.0693,0.0],[-77.8782,9.0702,2.3204],[-77.8801,9.0751,0.8446],[-77.8851,9.0754,3.1637],[-77.8865,9.081,0.0],[-77.8887,9.079,0.2799],[-77.8904,9.0796,0.2799],[-77.8854,9.0843,0.7689],[-77.8871,9.0921,0.2097],[-77.886,9.0943,0.0],[-77.8896,9.0932,0.0],[-77.8901,9.0857,0.3056],[-77.8918,9.0879,0.0],[-77.8935,9.0876,0.0],[-77.8929,9.0843,3.0085],[-77.894,9.0849,3.0085],[-77.8946,9.0879,0.0],[-77.8985,9.0868,2.4926],[-77.8954,9.0885,0.2944],[-77.8965,9.0907,0.4709],[-77.8918,9.089,0.1996],[-77.8913,9.0913,0.0],[-77.894,9.0929,1.3298],[-77.8954,9.0971,0.457],[-77.9007,9.0993,0.0],[-77.901,9.1029,0.0],[-77.9026,9.1018,1.5065],[-77.9037,9.104,0.0],[-77.9057,9.1037,4.5367],[-77.9096,9.1093,0.0],[-77.915,9.1121,0.0],[-77.9254,9.0826,57.9287],[-77.9316,9.0794,64.9476],[-77.9356,9.0752,126.2577],[-77.9436,9.0587,227.0913],[-77.9678,9.0517,441.9933],[-77.9622,9.0491,342.6774],[-77.9576,9.0409,333.5453],[-77.9436,9.0401,317.6561],[-77.9384,9.0375,240.2868],[-77.9352,9.0254,448.2106],[-77.9155,9.0206,318.22],[-77.9125,9.0138,395.6871],[-77.9155,9.0048,369.5938],[-77.9152,9.0013,448.9857],[-77.9132,8.9999,456.4066],[-77.9053,9.0002,303.7454],[-77.9016,8.9988,208.5197],[-77.8932,8.9846,414.6872],[-77.8654,8.9662,370.8877],[-77.8644,8.9625,381.9454],[-77.8685,8.9587,371.5484],[-77.8694,8.9549,398.1396],[-77.8651,8.9474,395.303],[-77.8597,8.9418,380.6918],[-77.8519,8.9252,284.1541],[-77.8462,8.9174,257.3512],[-77.8348,8.9074,308.0519],[-77.8256,8.9085,295.3754],[-77.8175,8.9071,327.4246],[-77.8107,8.9013,377.6802],[-77.8015,8.8892,478.167],[-77.7943,8.8865,576.7278],[-77.7876,8.8814,441.6793],[-77.7758,8.878,549.2395]]],
[[[-77.6954,8.9038,0.4726],[-77.6976,8.9043,0.0],[-77.6924,8.9007,0.5897],[-77.6901,8.8971,0.4252],[-77.6882,8.8971,0.0],[-77.6885,8.901,0.0],[-77.6954,8.9038,0.4726]]],
[[[-77.6924,8.9068,0.0],[-77.6929,8.9093,0.0],[-77.6937,8.9096,0.0],[-77.6943,8.906,0.0],[-77.6924,8.9068,0.0]]],
[[[-77.6929,8.9154,0.0],[-77.6968,8.916,0.5844],[-77.6965,8.911,0.0],[-77.6954,8.9146,1.7342],[-77.6924,8.9143,0.0],[-77.6929,8.9154,0.0]]],
[[[-77.6874,8.901,0.0],[-77.6849,8.9021,0.0],[-77.6849,8.9051,0.0],[-77.6879,8.9021,0.0],[-77.6874,8.901,0.0]]],
[[[-77.6901,8.9085,0.0],[-77.6907,8.9099,0.0],[-77.6924,8.909,0.0],[-77.691,8.9071,0.0],[-77.6901,8.9085,0.0]]],
[[[-77.6921,8.9271,24.1198],[-77.6901,8.9321,0.0],[-77.6943,8.9287,0.0],[-77.6937,8.9268,0.0],[-77.6921,8.9271,24.1198]]],
[[[-77.7337,8.9482,3.3988],[-77.7376,8.9476,0.0],[-77.7346,8.9418,0.0],[-77.7326,8.9421,1.6539],[-77.7293,8.9388,0.7201],[-77.7265,8.9332,0.0],[-77.7226,8.9324,0.8462],[-77.7221,8.929,0.0],[-77.7185,8.9254,0.0],[-77.7151,8.9235,0.0],[-77.7112,8.9237,0.1551],[-77.7087,8.9176,1.2204],[-77.7068,8.9182,3.4533],[-77.706,8.916,1.0408],[-77.6996,8.919,0.8039],[-77.6976,8.9249,2.3329],[-77.7026,8.9251,0.0],[-77.7035,8.9232,2.6935],[-77.7057,8.9229,2.4406],[-77.7079,8.9257,3.0168],[-77.7079,8.9287,1.1319],[-77.716,8.9285,0.6459],[-77.7143,8.9343,0.0],[-77.716,8.934,0.0],[-77.716,8.9357,0.0],[-77.7176,8.9346,0.0],[-77.7199,8.939,0.0],[-77.7246,8.9388,0.2884],[-77.7249,8.9426,0.6349],[-77.7337,8.9482,3.3988]]],
[[[-77.7235,8.921,0.3878],[-77.7254,8.9218,0.7488],[-77.7243,8.9193,0.197],[-77.7229,8.9196,0.0],[-77.7235,8.921,0.3878]]],
[[[-77.7493,8.9462,0.3987],[-77.7504,8.949,0.0],[-77.7521,8.9443,0.2554],[-77.751,8.9443,0.2554],[-77.7493,8.9462,0.3987]]],
[[[-77.7696,9.0065,0.0],[-77.7718,9.0071,0.0],[-77.7715,9.0057,1.6442],[-77.7676,9.0043,0.0],[-77.7676,9.0057,0.0],[-77.7696,9.0065,0.0]]],
[[[-77.7663,9.0579,0.0],[-77.7712,9.0582,0.0],[-77.771,9.0551,0.0],[-77.7635,9.0521,0.0],[-77.7632,9.0535,0.0],[-77.7663,9.0579,0.0]]],
[[[-77.8896,9.096,0.0],[-77.8913,9.0968,0.0],[-77.8913,9.0949,1.3274],[-77.8935,9.0938,0.2555],[-77.8913,9.0926,0.3853],[-77.8896,9.096,0.0]]],
[[[-77.884,9.1293,0.0],[-77.8863,9.1296,0.0],[-77.886,9.1243,0.0],[-77.8832,9.1199,0.0],[-77.8815,9.1215,0.6413],[-77.8799,9.1204,0.0],[-77.879,9.1229,0.0],[-77.881,9.1235,1.5564],[-77.8815,9.1274,0.0],[-77.884,9.1293,0.0]]]]}
,"properties": {"GID_3": "PAN.8.1.4_1","GID_0": "PAN","country": "Panama","GID_1": "PAN.8_1","province": "KunaYala","NL_NAME_1": "NA","GID_2": "PAN.8.1_1","county": "KunaYala","NL_NAME_2": "NA","city": "Tubualá","VARNAME_3": "NA","NL_NAME_3": "NA","TYPE_3": "Corregimiento","ENGTYPE_3": "Municipality","CC_3": "NA","HASC_3": "NA","name": "Tubualá.city","area_km2": 631.5247,"hist_schema_id": "Elevation0-9000","hist_area_km2": {"0": 79.7963,"25": 105.589,"50": 57.2491,"75": 43.7003,"100": 41.5223,"125": 39.3439,"150": 37.2915,"175": 32.7456,"200": 30.4836,"225": 31.5314,"250": 26.4817,"275": 18.982,"300": 16.1326,"325": 13.8487,"350": 11.1674,"375": 9.0722,"400": 7.941,"425": 5.5108,"450": 4.6938,"475": 3.4367,"500": 2.85,"525": 2.7033,"550": 2.4518,"575": 2.0327,"600": 1.8442,"625": 1.1317,"650": 0.7126,"675": 0.524,"700": 0.2725,"725": 0.2725,"750": 0.0838,"775": 0.1257}}}