{"type": "Feature","bbox": [-82.4794,8.4623,-82.3821,8.6178],"geometry": {"type": "MultiPolygon","coordinates": [[[[-82.4163,8.608,354.597],[-82.4268,8.6081,354.8057],[-82.4352,8.6138,406.1283],[-82.4421,8.6128,419.0531],[-82.4433,8.6096,412.9764],[-82.4367,8.5998,363.5904],[-82.4391,8.5972,353.8479],[-82.4436,8.5975,369.5146],[-82.4614,8.608,426.2924],[-82.4729,8.6178,502.2016],[-82.4734,8.6097,486.0281],[-82.4794,8.6068,480.1063],[-82.469,8.5856,385.5726],[-82.4643,8.5793,351.9983],[-82.4618,8.5704,320.0968],[-82.4431,8.5314,202.274],[-82.4351,8.5201,170.0759],[-82.4355,8.5063,181.2867],[-82.44,8.4967,111.8039],[-82.4385,8.4912,129.1632],[-82.4336,8.4862,103.7065],[-82.4326,8.4798,157.2921],[-82.4256,8.4774,100.3444],[-82.4211,8.4721,83.1202],[-82.4118,8.4719,107.1218],[-82.4,8.4623,86.3089],[-82.3964,8.4708,97.3812],[-82.4004,8.4796,107.4171],[-82.3996,8.4889,95.506],[-82.4106,8.5023,128.38],[-82.4109,8.5096,138.5224],[-82.4283,8.5389,210.6695],[-82.4334,8.5535,240.0245],[-82.4329,8.5568,249.6316],[-82.4251,8.5609,247.4295],[-82.4199,8.5564,230.2642],[-82.4157,8.5581,193.3791],[-82.4135,8.5569,193.2609],[-82.4057,8.5417,162.8018],[-82.4024,8.5254,129.1082],[-82.3902,8.4978,177.6267],[-82.3828,8.5071,256.0474],[-82.3821,8.5103,175.7961],[-82.3862,8.5279,154.6018],[-82.3915,8.533,163.8335],[-82.3928,8.5374,180.6334],[-82.4014,8.5503,204.7693],[-82.41,8.5753,258.2415],[-82.414,8.5824,281.55],[-82.4146,8.5933,303.9821],[-82.4111,8.6028,329.1359],[-82.414,8.6084,350.7032],[-82.4163,8.608,354.597]]]]}
,"properties": {"GID_3": "PAN.2.7.1_1","GID_0": "PAN","country": "Panama","GID_1": "PAN.2_1","province": "Chiriquí","NL_NAME_1": "NA","GID_2": "PAN.2.7_1","county": "Dolega","NL_NAME_2": "NA","city": "Dolega","VARNAME_3": "NA","NL_NAME_3": "NA","TYPE_3": "Corregimiento","ENGTYPE_3": "Municipality","CC_3": "NA","HASC_3": "NA","name": "Dolega.city","area_km2": 69.42057,"hist_schema_id": "Elevation0-9000","hist_area_km2": {"50": 0.14679,"75": 2.83102,"100": 4.38277,"125": 5.38915,"150": 6.79383,"175": 5.15812,"200": 5.03217,"225": 4.27721,"250": 5.17861,"275": 5.63972,"300": 5.34609,"325": 5.15729,"350": 4.6331,"375": 3.06076,"400": 2.55759,"425": 1.65614,"450": 1.09011,"475": 0.92239,"500": 0.1677}}}