{"type": "Feature","bbox": [-79.9124,8.6504,-79.8448,8.6944],"geometry": {"type": "MultiPolygon","coordinates": [[[[-79.9124,8.6685,508.2496],[-79.9032,8.6542,241.6914],[-79.8972,8.6504,67.8335],[-79.891,8.6515,86.6093],[-79.8777,8.6592,20.3039],[-79.8679,8.6542,2.8454],[-79.8644,8.6542,4.1727],[-79.8474,8.6613,3.6373],[-79.8485,8.6663,2.0189],[-79.8448,8.6834,7.0046],[-79.8472,8.6885,8.6573],[-79.8538,8.6937,20.3114],[-79.8613,8.6944,30.318],[-79.8667,8.6914,42.0061],[-79.8738,8.6932,47.8241],[-79.8813,8.6906,63.2473],[-79.8952,8.6784,198.349],[-79.9124,8.6685,508.2496]]]]}
,"properties": {"GID_3": "PAN.11.3.10_1","GID_0": "PAN","country": "Panama","GID_1": "PAN.11_1","province": "PanamáOeste","NL_NAME_1": "NA","GID_2": "PAN.11.3_1","county": "Chame","NL_NAME_2": "NA","city": "Sajalices","VARNAME_3": "NA","NL_NAME_3": "NA","TYPE_3": "Corregimiento","ENGTYPE_3": "Municipality","CC_3": "NA","HASC_3": "NA","name": "Sajalices.city","area_km2": 23.70555,"hist_schema_id": "Elevation0-9000","hist_area_km2": {"0": 5.88977,"25": 2.95529,"50": 2.30553,"75": 1.71869,"100": 1.9702,"125": 1.13183,"150": 1.2576,"175": 0.92223,"200": 0.48208,"225": 0.44016,"250": 0.58688,"275": 0.58688,"300": 0.56592,"325": 0.25152,"350": 0.4192,"375": 0.29344,"400": 0.23056,"425": 0.2096,"450": 0.23056,"475": 0.2096,"500": 0.27248,"525": 0.25152,"550": 0.16768,"575": 0.14672,"600": 0.04192,"625": 0.14672,"650": 0.02096}}}