{"type": "Feature","bbox": [-83.0519,7.8593,-81.5074,8.9195],"geometry": {"type": "MultiPolygon","coordinates": [[[[-82.0246,7.9482,0.0],[-82.0276,7.949,0.17],[-82.024,7.9449,0.0],[-82.0235,7.9474,0.0],[-82.0246,7.9482,0.0]]],
[[[-82.0057,7.9563,0.0],[-82.009,7.9571,0.0],[-82.0104,7.9504,41.9221],[-82.0124,7.9524,0.0],[-82.0143,7.9518,12.9545],[-82.0157,7.9479,0.0],[-82.014,7.9446,15.3405],[-82.0115,7.9443,0.0],[-82.0051,7.9504,0.0],[-82.0057,7.9563,0.0]]],
[[[-82.0176,7.9543,3.7819],[-82.0168,7.9546,3.7819],[-82.0168,7.9571,0.0],[-82.0193,7.9532,0.0],[-82.0176,7.9543,3.7819]]],
[[[-82.0488,7.9638,0.0],[-82.0512,7.9651,1.8014],[-82.0507,7.9635,0.0],[-82.0549,7.9632,24.1686],[-82.0568,7.9646,0.0],[-82.059,7.9624,0.0],[-82.0596,7.9582,4.4783],[-82.0582,7.9576,4.4783],[-82.0568,7.9524,10.9773],[-82.0546,7.9504,0.0],[-82.0485,7.9524,3.7362],[-82.0457,7.9507,0.0],[-82.0432,7.9521,29.1161],[-82.0368,7.9501,0.0],[-82.0368,7.9521,0.0],[-82.0415,7.9554,34.7957],[-82.0446,7.9601,0.0],[-82.0462,7.9596,0.0],[-82.0474,7.9618,0.0],[-82.0496,7.9618,15.8239],[-82.0488,7.9638,0.0]]],
[[[-82.0282,7.9618,0.0],[-82.0299,7.9618,2.9868],[-82.0301,7.9635,0.0],[-82.0315,7.9629,1.46],[-82.0304,7.9599,0.0],[-82.0282,7.9618,0.0]]],
[[[-82.044,7.9629,0.0],[-82.0429,7.9623,8.1509],[-82.0424,7.964,0.0],[-82.0432,7.964,0.0],[-82.044,7.9629,0.0]]],
[[[-82.0229,7.9693,0.0],[-82.026,7.9699,1.5004],[-82.0265,7.9679,6.5779],[-82.0235,7.9665,0.0],[-82.0229,7.9693,0.0]]],
[[[-82.0332,7.9979,29.5491],[-82.0346,7.9999,0.0],[-82.0376,7.9999,0.0],[-82.0399,7.9968,4.5377],[-82.0396,7.9946,0.0],[-82.0365,7.9935,1.7106],[-82.0365,7.9863,1.248],[-82.0343,7.986,13.6828],[-82.0335,7.981,0.0],[-82.0354,7.9801,0.0],[-82.0354,7.9782,0.0],[-82.0321,7.9774,74.1218],[-82.0307,7.9729,0.0],[-82.0268,7.9743,40.3829],[-82.0251,7.9701,1.5004],[-82.021,7.9754,3.4778],[-82.0182,7.9749,0.0],[-82.0218,7.9774,0.0],[-82.0193,7.981,0.0],[-82.0218,7.9832,0.0],[-82.0268,7.9812,12.3637],[-82.0263,7.9857,0.0],[-82.0279,7.9876,0.0],[-82.0285,7.9843,0.0],[-82.0307,7.9838,0.0],[-82.0301,7.9874,0.0],[-82.0338,7.9943,22.8415],[-82.0296,7.9963,0.0],[-82.0321,7.9962,0.0],[-82.0318,7.9976,0.0],[-82.0332,7.9979,29.5491]]],
[[[-82.0699,7.9893,0.0],[-82.0721,7.9924,0.0],[-82.0726,7.9893,0.0],[-82.0715,7.9896,0.9544],[-82.0704,7.9857,0.0],[-82.0685,7.9879,0.863],[-82.0699,7.9893,0.0]]],
[[[-82.0596,7.9899,0.0],[-82.0599,7.9921,0.0],[-82.0626,7.989,0.0],[-82.0601,7.9879,0.0],[-82.0596,7.9899,0.0]]],
[[[-82.024,7.9976,0.0],[-82.026,8.0013,0.0],[-82.0263,7.9982,0.0],[-82.0251,7.9971,0.0],[-82.024,7.9976,0.0]]],
[[[-81.9999,7.9999,0.0],[-81.9999,8.0001,0.0],[-82.0001,8.0001,0.0],[-82.0001,7.9999,0.0],[-81.9999,7.9999,0.0]]],
[[[-81.6189,8.1317,108.5488],[-81.6197,8.1341,30.7985],[-81.6115,8.142,131.4316],[-81.6118,8.1586,170.5046],[-81.6079,8.1644,164.427],[-81.6008,8.1662,82.0193],[-81.5983,8.1688,61.8322],[-81.5983,8.1759,285.5881],[-81.5963,8.1788,267.1273],[-81.5805,8.1864,131.316],[-81.5757,8.1947,55.104],[-81.5684,8.1963,80.0812],[-81.567,8.1988,172.5517],[-81.5555,8.2052,94.461],[-81.5546,8.2088,149.6628],[-81.5586,8.2171,78.9016],[-81.5564,8.2267,113.7138],[-81.5573,8.2335,206.6323],[-81.5468,8.2473,277.9901],[-81.5386,8.2449,243.6214],[-81.5356,8.2558,253.0752],[-81.5301,8.2613,137.3101],[-81.5295,8.2638,175.0286],[-81.5363,8.2742,307.7562],[-81.5434,8.2721,259.0863],[-81.548,8.2726,199.6087],[-81.5497,8.2781,255.2707],[-81.5545,8.2777,233.3934],[-81.5578,8.2816,262.7663],[-81.5583,8.2878,359.9387],[-81.5535,8.2945,316.0271],[-81.5534,8.2996,343.8753],[-81.5424,8.3122,228.7393],[-81.5486,8.3272,376.3965],[-81.5535,8.3318,513.2556],[-81.565,8.3292,455.5966],[-81.5715,8.321,366.1061],[-81.5704,8.3175,407.7323],[-81.5713,8.312,450.194],[-81.5752,8.3035,471.0486],[-81.5715,8.3,414.1735],[-81.567,8.301,439.6746],[-81.5667,8.2977,353.2183],[-81.5711,8.2938,370.0171],[-81.5757,8.2929,351.9749],[-81.5802,8.295,369.0645],[-81.5834,8.2987,297.1364],[-81.5852,8.3052,357.6968],[-81.5837,8.3081,420.9976],[-81.5758,8.3118,379.0766],[-81.575,8.315,374.6341],[-81.597,8.2993,181.1938],[-81.5989,8.3015,142.4804],[-81.5971,8.3074,239.8761],[-81.5998,8.3137,249.2182],[-81.6105,8.3261,291.3895],[-81.6104,8.3302,303.6902],[-81.5946,8.3276,262.5192],[-81.5862,8.3153,336.5243],[-81.5734,8.3208,349.9929],[-81.5781,8.3368,331.1198],[-81.5822,8.3427,326.2343],[-81.5772,8.3521,233.6011],[-81.5748,8.3607,268.4236],[-81.5709,8.3652,320.6951],[-81.5818,8.3712,269.4827],[-81.5869,8.3801,273.9886],[-81.5917,8.3818,323.7232],[-81.5961,8.3768,348.5975],[-81.5968,8.3729,275.6204],[-81.6001,8.3717,262.3851],[-81.6015,8.3695,271.923],[-81.5991,8.3654,247.6559],[-81.6025,8.3582,402.3824],[-81.6144,8.3527,445.361],[-81.6157,8.3421,397.4099],[-81.6178,8.3392,347.91],[-81.6161,8.3368,335.0246],[-81.6166,8.3332,316.7155],[-81.6203,8.3289,275.3517],[-81.6183,8.3218,181.6745],[-81.6221,8.3167,335.0734],[-81.6214,8.3136,236.9692],[-81.625,8.3113,355.2776],[-81.6249,8.3042,353.8463],[-81.6205,8.303,359.6104],[-81.6223,8.2908,396.9057],[-81.6283,8.2892,273.1793],[-81.627,8.2936,416.70119999999997],[-81.6291,8.2954,372.9631],[-81.6291,8.3051,368.1846],[-81.6344,8.3011,379.9922],[-81.6424,8.3015,415.732],[-81.6447,8.2992,421.0379],[-81.6463,8.2937,214.0936],[-81.6538,8.2843,310.8515],[-81.6548,8.2793,422.7406],[-81.6648,8.273,448.7905],[-81.6651,8.287,414.7485],[-81.6603,8.2942,372.8764],[-81.6658,8.2947,378.2704],[-81.675,8.2873,382.8618],[-81.6787,8.2892,409.0223],[-81.687,8.2876,310.2861],[-81.6886,8.2848,296.1539],[-81.6927,8.2848,356.32],[-81.6913,8.2876,328.6066],[-81.6899,8.2876,328.6066],[-81.6885,8.2971,370.6581],[-81.6912,8.298,399.6548],[-81.6935,8.297,461.3307],[-81.6927,8.2948,456.4682],[-81.6952,8.2956,461.3307],[-81.6927,8.3083,575.8038],[-81.6947,8.3107,505.3839],[-81.7012,8.3131,416.131],[-81.7061,8.2946,456.9767],[-81.7083,8.2942,375.5112],[-81.7107,8.2906,348.0159],[-81.7164,8.2892,318.2866],[-81.7164,8.2829,229.5396],[-81.7202,8.2757,150.6848],[-81.7192,8.2719,124.0525],[-81.7151,8.2675,206.4628],[-81.7155,8.2611,235.4916],[-81.721,8.2585,110.6136],[-81.729,8.2577,68.991],[-81.7289,8.2662,72.0466],[-81.7316,8.2719,69.8713],[-81.7356,8.2681,100.351],[-81.7377,8.2627,160.7244],[-81.746,8.2606,233.0485],[-81.7428,8.2662,176.4855],[-81.7399,8.277,77.0092],[-81.7492,8.2745,185.6722],[-81.7614,8.2645,282.5522],[-81.7619,8.2618,329.9608],[-81.7584,8.2611,273.8591],[-81.7607,8.2582,248.324],[-81.7681,8.2603,295.1507],[-81.7686,8.2635,260.1702],[-81.7713,8.2663,165.6449],[-81.7668,8.2706,207.1158],[-81.7666,8.2727,206.2143],[-81.7685,8.2743,230.129],[-81.7756,8.2727,122.3635],[-81.7791,8.2735,198.6818],[-81.7832,8.2718,208.4776],[-81.7841,8.2688,208.5105],[-81.7859,8.2686,237.532],[-81.794,8.2712,125.3337],[-81.8035,8.2718,123.8315],[-81.8167,8.2872,114.407],[-81.8154,8.2916,132.3785],[-81.8109,8.2969,201.6098],[-81.8116,8.2991,270.8406],[-81.8171,8.3006,343.898],[-81.8242,8.2962,269.4082],[-81.828,8.2958,245.5331],[-81.8391,8.3026,158.4044],[-81.8365,8.3053,170.5184],[-81.8314,8.3057,227.2004],[-81.8276,8.3196,268.8714],[-81.8233,8.3257,138.9374],[-81.8279,8.3308,134.968],[-81.8482,8.3315,127.4287],[-81.8615,8.3283,80.4189],[-81.8726,8.3324,232.933],[-81.8782,8.3284,189.1925],[-81.8801,8.3229,98.4024],[-81.8859,8.319,52.2135],[-81.8915,8.3218,66.7034],[-81.8903,8.3263,66.5996],[-81.8922,8.331,94.5852],[-81.9115,8.3351,112.2547],[-81.9153,8.3276,54.982],[-81.9257,8.33,70.0515],[-81.9265,8.3235,52.336],[-81.9329,8.3256,165.606],[-81.9386,8.3327,61.6584],[-81.9414,8.3319,55.5763],[-81.9419,8.3288,44.1107],[-81.9467,8.3267,119.1266],[-81.947,8.3253,109.0843],[-81.9625,8.3247,101.7007],[-81.968,8.329,145.6464],[-81.9709,8.3269,144.3416],[-81.9748,8.3191,76.1586],[-81.9813,8.3353,85.6661],[-81.99,8.3344,61.7877],[-81.9976,8.3357,99.9975],[-82.0106,8.3472,109.7424],[-82.0195,8.359,127.5567],[-82.0199,8.3612,146.4899],[-82.0165,8.3667,181.8523],[-82.0215,8.369,153.6964],[-82.023,8.3714,162.9302],[-82.0181,8.3749,185.3708],[-82.0077,8.3894,346.2242],[-82.0286,8.3848,169.5877],[-82.0322,8.3866,162.7267],[-82.031,8.3942,127.5632],[-82.0239,8.3998,165.9963],[-82.0194,8.4056,174.3254],[-82.0208,8.4099,142.3376],[-82.0186,8.4138,180.486],[-82.021,8.4234,139.3048],[-82.0263,8.426,253.073],[-82.0308,8.4205,211.2727],[-82.0411,8.4158,136.1101],[-82.0429,8.4171,177.7989],[-82.044,8.4218,184.2455],[-82.0524,8.4241,202.7991],[-82.0534,8.4276,253.0656],[-82.0494,8.4356,321.8085],[-82.0561,8.4405,480.3858],[-82.058,8.4537,303.4858],[-82.0631,8.4566,220.5883],[-82.0648,8.4625,202.7056],[-82.0713,8.4663,124.8331],[-82.0681,8.4723,190.944],[-82.0651,8.4738,194.255],[-82.0656,8.4757,232.6477],[-82.0696,8.4757,258.528],[-82.0786,8.4805,133.3035],[-82.0833,8.4743,130.5915],[-82.0904,8.4702,153.9783],[-82.089,8.4651,148.2428],[-82.0924,8.459,129.3952],[-82.0983,8.4608,215.1279],[-82.1029,8.4558,249.6761],[-82.1095,8.4545,233.0288],[-82.1175,8.4504,281.4404],[-82.1208,8.4509,231.524],[-82.1235,8.4547,204.8295],[-82.1297,8.4496,197.1625],[-82.1359,8.4512,156.5088],[-82.1388,8.4476,216.9328],[-82.1445,8.4495,161.8168],[-82.1497,8.4474,198.8315],[-82.1578,8.4479,130.3886],[-82.1626,8.4446,116.1357],[-82.1729,8.4427,118.0367],[-82.1827,8.4443,183.9106],[-82.1846,8.448,229.8694],[-82.1844,8.4505,253.9528],[-82.1758,8.463,282.2453],[-82.1805,8.4724,176.0155],[-82.1776,8.4834,176.0241],[-82.1663,8.4946,295.3059],[-82.164,8.5026,318.9653],[-82.1541,8.5082,227.2154],[-82.1524,8.512,272.6756],[-82.1536,8.5201,293.7339],[-82.1566,8.5241,437.6914],[-82.1661,8.53,503.6504],[-82.1657,8.5313,499.6064],[-82.1612,8.5308,499.1903],[-82.1614,8.5288,493.928],[-82.1504,8.5295,268.0107],[-82.1471,8.5347,302.485],[-82.145,8.5439,333.6873],[-82.1411,8.5465,410.8024],[-82.1381,8.5514,405.224],[-82.1351,8.5517,475.4438],[-82.132,8.5475,551.1768],[-82.1266,8.5447,544.7215],[-82.1277,8.5589,708.0396],[-82.1301,8.5627,612.8518],[-82.1375,8.5607,509.3406],[-82.1418,8.5556,380.6918],[-82.1443,8.555,337.2908],[-82.1481,8.5653,438.0328],[-82.1614,8.5689,788.6628],[-82.1582,8.5842,663.8329],[-82.1515,8.5855,543.9456],[-82.1466,8.6006,728.8207],[-82.1467,8.6121,875.636],[-82.1494,8.617,1048.2841],[-82.1444,8.6561,1962.3651],[-82.1475,8.7609,1143.3075],[-82.1581,8.7603,1119.3118],[-82.1613,8.7587,1075.8868],[-82.1674,8.7628,1090.1345],[-82.1766,8.7637,1142.1309],[-82.1923,8.7742,1025.6045],[-82.1985,8.7802,894.1474],[-82.2038,8.7821,972.8423],[-82.2067,8.7812,1021.8848],[-82.2074,8.7788,1083.1444],[-82.205,8.7703,1058.7194],[-82.2009,8.7639,1078.2391],[-82.2022,8.7622,1041.9688],[-82.215,8.7657,1216.0017],[-82.2237,8.77,1430.7838],[-82.2257,8.7677,1425.4801],[-82.2363,8.7687,1501.1935],[-82.2426,8.7747,1688.0878],[-82.251,8.7719,1622.5175],[-82.2557,8.7745,1840.5024],[-82.2568,8.7674,1651.8104],[-82.2608,8.7664,1569.9276],[-82.2719,8.7764,1433.8529],[-82.2844,8.7964,1312.5878],[-82.3015,8.8151,1216.4197],[-82.3111,8.818,1411.8379],[-82.3152,8.8158,1378.5837],[-82.3223,8.8187,1237.5406],[-82.3314,8.817,1784.5375],[-82.3402,8.8218,2053.0103],[-82.3644,8.8259,2233.2852],[-82.3732,8.831,1922.5934],[-82.3812,8.8335,1767.8962],[-82.3847,8.8382,1694.6987],[-82.402,8.8437,1603.4771],[-82.4102,8.8442,1542.8389],[-82.4241,8.8522,1591.7726],[-82.4319,8.8528,1695.7104],[-82.4449,8.8576,1891.9108],[-82.4587,8.8694,2032.561],[-82.4706,8.8722,1812.6328],[-82.4831,8.8817,1780.6539],[-82.4884,8.8839,1948.4043],[-82.5074,8.8834,2255.4866],[-82.5159,8.8808,2379.7393],[-82.5302,8.8655,2833.3237],[-82.5351,8.863,2673.25],[-82.5536,8.8793,2240.4692],[-82.5564,8.8854,2327.0962],[-82.5648,8.8924,2258.5063],[-82.5698,8.9035,2461.1091],[-82.5842,8.9088,2640.3965],[-82.591,8.9065,2360.1729],[-82.5984,8.9112,2324.1321],[-82.6156,8.9022,2355.3394],[-82.6274,8.9002,2409.4863],[-82.6301,8.901,2657.1641],[-82.6368,8.9076,2592.2544],[-82.6416,8.9074,2506.46],[-82.6538,8.8844,2426.916],[-82.6656,8.8941,2129.1787],[-82.6699,8.8908,2081.9004],[-82.6741,8.8899,2160.1733],[-82.6937,8.9007,2383.3474],[-82.6994,8.9195,2160.6809],[-82.7103,8.9082,2210.7292],[-82.7089,8.8992,2248.7854],[-82.7117,8.8997,2219.6694],[-82.7175,8.9045,2021.7614],[-82.7252,8.9171,2350.291],[-82.7487,8.9065,2103.8494],[-82.7489,8.9022,2016.9094],[-82.7473,8.8992,1947.7122],[-82.7539,8.8921,1642.4546],[-82.7591,8.8889,1564.6052],[-82.7608,8.8851,1464.3187],[-82.7698,8.8823,1334.0553],[-82.7737,8.8786,1360.7051],[-82.7803,8.8758,1319.8036],[-82.7843,8.8756,1294.5573],[-82.7888,8.8777,1271.1367],[-82.799,8.8773,1224.6433],[-82.8093,8.8724,1227.1652],[-82.815,8.8634,1179.9846],[-82.8278,8.8576,1117.6625],[-82.8503,8.8538,1073.8918],[-82.8548,8.8561,1084.1437],[-82.8566,8.8527,1043.9291],[-82.8622,8.8523,1043.376],[-82.8633,8.8485,1025.1154],[-82.8674,8.8469,1043.0488],[-82.8692,8.8436,1015.1235],[-82.8829,8.832,987.3571],[-82.8834,8.8265,987.6738],[-82.8818,8.826,995.0587],[-82.8807,8.8226,989.9832],[-82.8764,8.8229,1002.2936],[-82.8778,8.82,1017.0197],[-82.8713,8.8184,945.8517],[-82.8706,8.816,941.2824],[-82.8623,8.8181,986.094],[-82.8656,8.8048,983.5416],[-82.8883,8.7931,955.574],[-82.8904,8.7859,999.8944],[-82.8949,8.7832,1022.078],[-82.8902,8.7788,1029.3884],[-82.8921,8.7724,1070.5764],[-82.8948,8.7714,1075.2103],[-82.8988,8.7746,1091.949],[-82.9004,8.773,1087.3723],[-82.906,8.7748,1118.1754],[-82.9092,8.7741,1111.8123],[-82.914,8.77,1151.884],[-82.9135,8.7672,1118.2406],[-82.9188,8.7658,1146.0854],[-82.9156,8.7638,1112.7454],[-82.9148,8.7596,1152.6013],[-82.909,8.7589,1118.983],[-82.9088,8.7574,1118.2634],[-82.9157,8.7518,1132.1422],[-82.92,8.7517,1165.9044],[-82.9161,8.7417,1163.9792],[-82.9131,8.7409,1156.8671],[-82.909,8.7359,1124.8015],[-82.9064,8.7372,1116.5831],[-82.9044,8.7361,1124.3048],[-82.901,8.7308,1092.3254],[-82.9006,8.7228,1065.3276],[-82.897,8.7156,964.0042],[-82.887,8.7067,912.2679],[-82.8869,8.7048,910.4711],[-82.8811,8.6999,883.9617],[-82.8806,8.6973,890.2349],[-82.8704,8.6989,891.3657],[-82.8677,8.6971,865.2558],[-82.8656,8.6902,876.5529],[-82.8626,8.688,865.6415],[-82.8644,8.679,848.1141],[-82.8587,8.6762,772.2891],[-82.859,8.6725,654.7578],[-82.8549,8.6637,732.4053],[-82.8432,8.6556,843.986],[-82.8363,8.6465,836.6581],[-82.8344,8.6418,849.6771],[-82.8349,8.6389,855.203],[-82.83,8.6361,897.0344],[-82.828,8.6229,713.9881],[-82.8286,8.6161,610.2429],[-82.8311,8.6142,603.989],[-82.8371,8.6153,587.131],[-82.8382,8.6134,595.9692],[-82.8287,8.6052,666.5026],[-82.8268,8.6007,675.0012],[-82.8332,8.5923,555.1176],[-82.8261,8.5803,324.5951],[-82.824,8.5745,275.7786],[-82.8252,8.5713,266.0558],[-82.8223,8.5671,259.444],[-82.8285,8.5571,175.4408],[-82.8334,8.5539,171.1694],[-82.8387,8.5457,137.7046],[-82.8389,8.5349,130.1584],[-82.8373,8.5296,115.5769],[-82.8332,8.5241,108.6101],[-82.8337,8.5082,67.831],[-82.8315,8.5055,67.7708],[-82.8396,8.4801,41.4964],[-82.8682,8.4396,19.3833],[-82.9141,8.4288,28.2308],[-82.9309,8.4352,40.7141],[-82.9357,8.4239,41.8111],[-82.9542,8.4133,47.2875],[-82.955,8.4072,57.5557],[-82.961,8.4033,65.8033],[-82.9618,8.3965,80.5447],[-82.9672,8.3942,99.2875],[-82.9699,8.3863,188.0397],[-82.976,8.3837,314.1689],[-82.9837,8.3729,370.6675],[-82.9897,8.3772,347.3041],[-82.9941,8.369,244.5698],[-83.0008,8.3647,410.4216],[-83.0017,8.3603,598.1462],[-83.0072,8.3556,422.8044],[-83.0104,8.3543,405.2287],[-83.016,8.3553,357.4207],[-83.0189,8.3506,447.3479],[-83.0276,8.3522,480.1946],[-83.0478,8.3419,495.6825],[-83.0468,8.3369,515.8751],[-83.0519,8.3345,499.4122],[-83.0516,8.3308,486.5054],[-83.0463,8.3216,449.2226],[-83.0455,8.3155,374.7139],[-83.0375,8.3185,442.1262],[-83.0326,8.3133,528.6893],[-83.0272,8.3164,584.8198],[-83.0271,8.3141,587.9625],[-83.0227,8.3116,635.1311],[-83.0254,8.3081,605.5317],[-83.0242,8.3046,652.5013],[-83.014,8.3027,619.694],[-83.003,8.2953,631.3292],[-83.0043,8.2891,617.9932],[-82.9998,8.2888,575.7319],[-82.9907,8.2713,499.0193],[-82.9861,8.2727,504.1408],[-82.9808,8.2859,365.127],[-82.9757,8.2891,463.604],[-82.9681,8.2791,314.009],[-82.963,8.2782,218.0895],[-82.9605,8.2805,266.5878],[-82.9563,8.2799,317.7726],[-82.9523,8.2678,219.2275],[-82.9485,8.2678,247.3682],[-82.9482,8.2698,258.0056],[-82.9423,8.2724,242.7838],[-82.9382,8.2624,192.0327],[-82.9387,8.2516,143.1363],[-82.9301,8.2452,92.6768],[-82.9285,8.2416,82.4483],[-82.9318,8.2361,83.4502],[-82.9315,8.2281,102.722],[-82.9337,8.2254,118.2229],[-82.9329,8.2202,175.3443],[-82.9366,8.2151,132.0717],[-82.9364,8.2104,131.3689],[-82.9352,8.2094,205.8597],[-82.931,8.211,194.2825],[-82.9273,8.2089,190.9199],[-82.925,8.2029,201.9603],[-82.9214,8.2016,185.4579],[-82.9177,8.1939,168.6349],[-82.9152,8.1971,142.623],[-82.9119,8.1975,135.9903],[-82.9108,8.1948,126.7648],[-82.9127,8.1778,102.0035],[-82.903,8.1753,175.5511],[-82.9099,8.1684,85.647],[-82.9078,8.164,169.6086],[-82.9095,8.1626,198.1183],[-82.9101,8.1574,115.5192],[-82.9086,8.1447,152.6929],[-82.9076,8.1418,101.747],[-82.9031,8.1388,230.2953],[-82.9042,8.1364,135.0457],[-82.9012,8.1329,167.3139],[-82.9009,8.129,144.4102],[-82.8931,8.1153,87.74],[-82.8892,8.114,218.8376],[-82.89,8.1109,170.9206],[-82.8883,8.1088,186.3197],[-82.8861,8.1086,183.9245],[-82.8872,8.1051,117.4747],[-82.8927,8.1041,89.4726],[-82.8888,8.0934,72.8969],[-82.8878,8.0789,63.3475],[-82.892,8.0741,61.5953],[-82.8961,8.0633,173.6308],[-82.8949,8.0546,150.9895],[-82.8938,8.0534,124.7908],[-82.8916,8.0541,163.1534],[-82.8905,8.052,154.2032],[-82.8937,8.0498,59.2165],[-82.8919,8.0437,44.328],[-82.8958,8.0376,17.3115],[-82.8915,8.0337,0.0],[-82.8846,8.0346,9.1551],[-82.8768,8.0301,0.0],[-82.8724,8.0301,0.0],[-82.8674,8.034,11.6663],[-82.8657,8.0415,0.0],[-82.8679,8.0485,2.4892],[-82.8676,8.0532,5.9732],[-82.8574,8.059,1.9904],[-82.8524,8.0704,3.4748],[-82.8524,8.0754,10.2305],[-82.8565,8.0821,36.3004],[-82.8565,8.0913,24.3575],[-82.8604,8.099,7.2147],[-82.8637,8.1013,0.0],[-82.8682,8.1088,0.0],[-82.8732,8.1204,0.8043],[-82.871,8.1307,1.0845],[-82.874,8.1349,0.0],[-82.8743,8.139,0.0],[-82.8729,8.1402,0.0],[-82.8765,8.1538,2.733],[-82.8746,8.1596,10.1546],[-82.8743,8.1751,0.0],[-82.8763,8.1818,11.4777],[-82.8738,8.1857,0.0],[-82.8754,8.196,18.8626],[-82.8726,8.2032,1.0825],[-82.8763,8.2082,2.3713],[-82.8776,8.2171,17.3582],[-82.8743,8.2257,0.0],[-82.8743,8.231,0.0],[-82.8724,8.2312,0.0],[-82.8724,8.2371,0.0],[-82.8743,8.2382,0.0],[-82.8721,8.2499,2.7132],[-82.869,8.2521,6.6766],[-82.8662,8.2587,0.0],[-82.8618,8.2626,0.0],[-82.8565,8.2762,6.0763],[-82.8493,8.2813,3.6095],[-82.8421,8.2904,2.5178],[-82.8296,8.2968,4.2224],[-82.8032,8.3007,2.9597],[-82.7951,8.3062,1.2646],[-82.7857,8.3099,0.0],[-82.7721,8.3107,4.0505],[-82.7665,8.3135,1.9721],[-82.751,8.3157,4.1903],[-82.7379,8.3207,3.5901],[-82.7351,8.3237,3.1012],[-82.7285,8.3265,7.4118],[-82.7215,8.3254,2.1862],[-82.7101,8.3262,3.4421],[-82.7063,8.3296,15.4779],[-82.7049,8.3343,1.6197],[-82.7087,8.3376,1.8811],[-82.7082,8.3438,4.9021],[-82.7076,8.3379,16.7482],[-82.7032,8.3351,4.7826],[-82.7004,8.3279,0.0],[-82.696,8.3293,12.5919],[-82.689,8.3287,0.0],[-82.6851,8.331,0.0],[-82.664,8.3287,0.0],[-82.6593,8.331,4.5482],[-82.6574,8.3279,1.0523],[-82.6532,8.329,4.3304],[-82.6485,8.3251,0.0],[-82.6387,8.3218,0.0],[-82.5257,8.2874,5.2036],[-82.4921,8.2718,0.0],[-82.4824,8.2707,3.0162],[-82.4832,8.2737,4.3043],[-82.4804,8.276,5.0808],[-82.4807,8.2774,0.0],[-82.4849,8.2788,0.0],[-82.4899,8.2782,6.7657],[-82.5004,8.2832,5.9725],[-82.4871,8.2799,1.8226],[-82.4785,8.2796,2.159],[-82.474,8.2813,0.0],[-82.4729,8.2837,0.0],[-82.4696,8.2843,0.0],[-82.4649,8.289,6.4099],[-82.4549,8.2924,1.9046],[-82.4538,8.2949,0.0],[-82.4679,8.2971,0.0],[-82.4904,8.294,6.7024],[-82.5004,8.2976,0.0],[-82.5054,8.2943,10.2534],[-82.509,8.2943,5.5936],[-82.5238,8.3015,9.5835],[-82.5265,8.3071,4.6389],[-82.5376,8.3068,3.5414],[-82.5263,8.3082,4.6389],[-82.5201,8.3032,0.0],[-82.5168,8.3026,8.9872],[-82.5151,8.2993,0.0],[-82.5101,8.2971,11.555],[-82.5085,8.2971,11.555],[-82.5068,8.3004,6.4631],[-82.5018,8.3021,0.0],[-82.5013,8.3096,1.8588],[-82.5001,8.3085,6.7995],[-82.5004,8.2999,0.0],[-82.4896,8.2979,8.3527],[-82.4788,8.2993,0.0],[-82.479,8.3051,0.0],[-82.481,8.3085,4.9237],[-82.4751,8.3082,5.8376],[-82.4762,8.2985,0.0],[-82.4721,8.3001,7.8909],[-82.4582,8.3001,0.0],[-82.4576,8.3029,1.752],[-82.4601,8.304,0.0],[-82.4632,8.309,17.7623],[-82.4624,8.3135,6.3353],[-82.464,8.321,19.7549],[-82.4621,8.3207,14.2671],[-82.4624,8.3174,20.3428],[-82.4538,8.3065,0.0],[-82.4504,8.3082,0.0],[-82.4501,8.3138,6.6609],[-82.4476,8.3176,8.8636],[-82.4479,8.3224,0.0],[-82.444,8.3213,20.5786],[-82.439,8.3093,0.0],[-82.4388,8.3049,0.0],[-82.4321,8.3046,8.6368],[-82.4287,8.3012,0.0],[-82.4265,8.301,4.6396],[-82.4251,8.3026,0.0],[-82.4262,8.3104,12.1668],[-82.4249,8.316,3.7884],[-82.4235,8.3065,15.1953],[-82.4246,8.3015,4.2526],[-82.4282,8.3001,26.3619],[-82.4332,8.3029,2.2183],[-82.4388,8.3035,0.0],[-82.439,8.2993,0.0],[-82.4365,8.2965,0.0],[-82.4313,8.2987,5.6477],[-82.4254,8.294,3.1614],[-82.4218,8.2962,0.0],[-82.4179,8.3076,22.374],[-82.4143,8.3082,3.3115],[-82.4124,8.3063,0.0],[-82.409,8.306,5.7594],[-82.4076,8.3076,4.6033],[-82.4076,8.3063,5.7594],[-82.4112,8.3032,6.1892],[-82.4051,8.3063,6.5568],[-82.4096,8.3024,6.1892],[-82.411,8.3024,6.1892],[-82.4154,8.3065,7.0278],[-82.4174,8.3057,14.6852],[-82.4201,8.2879,0.0],[-82.4171,8.2849,1.0746],[-82.4135,8.284,10.8226],[-82.4007,8.2874,0.0],[-82.3971,8.2907,6.9953],[-82.391,8.2929,4.2932],[-82.3913,8.2974,1.958],[-82.3951,8.3007,1.5314],[-82.3962,8.306,11.9374],[-82.3943,8.3007,1.5314],[-82.3904,8.2976,11.57],[-82.3899,8.2921,4.2932],[-82.3776,8.2899,0.0],[-82.3757,8.2915,12.2518],[-82.3671,8.2912,0.0],[-82.3649,8.2926,0.0],[-82.369,8.3029,3.1286],[-82.3724,8.306,0.0],[-82.3746,8.3115,12.4565],[-82.3729,8.3165,4.1465],[-82.3763,8.3171,0.0],[-82.3765,8.319,3.2845],[-82.3721,8.3174,7.547],[-82.3726,8.3101,0.0],[-82.3635,8.2974,4.9255],[-82.3629,8.2924,1.3843],[-82.3582,8.2915,0.0],[-82.3565,8.2896,0.0],[-82.3546,8.2901,0.0],[-82.3515,8.2874,1.903],[-82.3474,8.2968,0.0],[-82.3504,8.299,7.7406],[-82.3526,8.3035,11.7406],[-82.3501,8.3026,2.5555],[-82.3479,8.2987,6.3096],[-82.3443,8.2982,0.0],[-82.3432,8.3051,0.0],[-82.3371,8.3149,0.0],[-82.3426,8.3249,3.098],[-82.3457,8.3271,1.809],[-82.344,8.3276,1.809],[-82.3446,8.3301,5.1612],[-82.3476,8.3321,0.0],[-82.359,8.329,0.0],[-82.3626,8.3257,0.0],[-82.3671,8.3265,24.4975],[-82.3701,8.3304,6.0914],[-82.3704,8.3335,0.0],[-82.3763,8.3374,11.0671],[-82.3751,8.3396,18.218],[-82.3701,8.339,0.0],[-82.3704,8.3446,13.6223],[-82.3685,8.3424,7.334],[-82.3685,8.3396,0.0],[-82.3704,8.3379,10.2104],[-82.3749,8.3388,18.218],[-82.3754,8.3374,11.0671],[-82.3682,8.3326,5.3368],[-82.3674,8.3287,3.3295],[-82.3626,8.3279,4.4067],[-82.356,8.3351,0.0],[-82.3471,8.3346,6.3794],[-82.3426,8.3326,0.0],[-82.3376,8.3235,0.0],[-82.3346,8.3226,1.3321],[-82.3293,8.3246,1.1218],[-82.3235,8.3246,0.0],[-82.3257,8.3276,0.0],[-82.3249,8.3285,0.0],[-82.3099,8.3246,0.5328],[-82.3076,8.3265,0.0],[-82.3068,8.3324,10.7144],[-82.3079,8.3349,2.0131],[-82.3124,8.3357,1.3183],[-82.3132,8.3385,1.9944],[-82.3112,8.3363,1.3183],[-82.3063,8.3349,0.3735],[-82.3051,8.3293,0.0],[-82.3015,8.3293,0.0],[-82.2954,8.3346,0.0],[-82.2946,8.3388,1.304],[-82.2862,8.344,8.0591],[-82.2846,8.3468,0.6474],[-82.2862,8.3401,0.0],[-82.2765,8.3429,0.0],[-82.2712,8.3404,21.0472],[-82.2765,8.3415,5.2295],[-82.2832,8.3388,0.0],[-82.2876,8.336,0.0],[-82.2896,8.3304,3.1598],[-82.2929,8.3274,0.0],[-82.3065,8.3224,0.0],[-82.3082,8.3185,7.0593],[-82.3074,8.3132,0.0],[-82.304,8.3093,0.0],[-82.2951,8.309,4.9277],[-82.2879,8.3043,0.0],[-82.2815,8.3163,3.4014],[-82.2765,8.3204,5.0361],[-82.2818,8.3143,8.3609],[-82.2857,8.3051,8.7376],[-82.2743,8.2932,0.0],[-82.2696,8.2904,0.0],[-82.2665,8.2924,0.0],[-82.2621,8.291,0.0],[-82.2599,8.2943,2.4725],[-82.2571,8.2943,0.0],[-82.2435,8.3024,5.8402],[-82.2404,8.3168,0.0],[-82.2374,8.3188,2.5951],[-82.2382,8.324,0.0],[-82.2363,8.3282,0.0],[-82.2363,8.334,2.8119],[-82.2326,8.3382,0.7848],[-82.229,8.3396,0.0],[-82.2237,8.3465,0.0],[-82.2257,8.3529,0.0],[-82.2246,8.3585,0.0],[-82.2276,8.3599,1.83],[-82.2235,8.3585,0.0],[-82.2199,8.3604,0.0],[-82.2182,8.3668,5.8352],[-82.2207,8.3693,3.783],[-82.2207,8.3724,6.7121],[-82.2165,8.3757,12.2398],[-82.2099,8.3779,0.0],[-82.2101,8.3762,1.9146],[-82.2143,8.3757,2.0183],[-82.2185,8.3729,0.0],[-82.2168,8.3651,0.0],[-82.2229,8.354,0.0],[-82.2174,8.3451,0.0],[-82.211,8.3457,8.196],[-82.2063,8.3443,3.1881],[-82.1957,8.3457,1.7721],[-82.1796,8.3404,0.0],[-82.1754,8.3404,0.0],[-82.174,8.341,2.9275],[-82.1732,8.3457,8.4748],[-82.1721,8.3393,1.1242],[-82.1746,8.3374,0.0],[-82.1732,8.3365,0.0],[-82.1679,8.3399,0.9175],[-82.151,8.3385,0.0],[-82.1457,8.3435,6.0664],[-82.1474,8.3396,0.0],[-82.1504,8.3376,0.0],[-82.1649,8.3357,0.0],[-82.1637,8.3324,4.9021],[-82.1779,8.3354,31.5826],[-82.1818,8.3385,3.3337],[-82.2018,8.3413,0.0],[-82.2115,8.3407,0.0],[-82.2151,8.3349,6.8028],[-82.2121,8.3279,0.0],[-82.2071,8.3265,0.0],[-82.2043,8.3285,0.8108],[-82.206,8.3262,0.0],[-82.2054,8.324,3.9913],[-82.2093,8.3193,0.0],[-82.2076,8.3107,9.2177],[-82.2027,8.3099,0.0],[-82.1993,8.3157,0.0],[-82.1954,8.3188,8.4927],[-82.1879,8.3201,0.0],[-82.1837,8.3174,0.9142],[-82.1904,8.3182,4.1218],[-82.1924,8.3168,0.0],[-82.1904,8.3129,3.1695],[-82.1912,8.3099,8.9368],[-82.1924,8.314,1.1732],[-82.1951,8.3154,3.7015],[-82.1999,8.3085,0.0],[-82.2032,8.3079,0.0],[-82.2076,8.3088,0.0],[-82.214,8.3168,0.0],[-82.2177,8.319,0.0],[-82.2185,8.316,0.0],[-82.2168,8.309,0.0],[-82.2196,8.3065,0.0],[-82.2199,8.304,0.0],[-82.2162,8.3018,0.0],[-82.2151,8.2987,9.6318],[-82.2179,8.2907,0.0],[-82.2237,8.2874,0.0],[-82.2232,8.2804,0.0],[-82.2199,8.2726,1.0961],[-82.2112,8.2679,0.0],[-82.2076,8.2693,0.0],[-82.2057,8.2746,0.0],[-82.2096,8.2801,1.2049],[-82.2099,8.2832,0.0],[-82.2082,8.2832,0.0],[-82.2051,8.2782,0.0],[-82.1971,8.2818,0.5133],[-82.1985,8.2796,3.7547],[-82.204,8.2776,0.0],[-82.1971,8.2696,0.0],[-82.1954,8.2701,0.0],[-82.1949,8.2649,0.0],[-82.1971,8.2649,0.0],[-82.1974,8.269,0.0],[-82.2012,8.2737,9.1191],[-82.2032,8.274,1.9836],[-82.2065,8.2665,3.4974],[-82.2126,8.2615,0.0],[-82.2174,8.2518,0.0],[-82.2185,8.2471,0.0],[-82.2168,8.2429,0.0],[-82.2135,8.2393,8.6998],[-82.2099,8.2396,0.0],[-82.2024,8.2501,0.0],[-82.194,8.2449,1.224],[-82.1954,8.2443,1.224],[-82.2021,8.2471,0.0],[-82.2112,8.2357,1.1117],[-82.2176,8.2363,0.0],[-82.219,8.2332,4.0885],[-82.2226,8.2307,0.0],[-82.2218,8.2265,10.3486],[-82.2232,8.2185,0.0],[-82.2177,8.219,10.8871],[-82.2118,8.216,0.0],[-82.2101,8.2176,2.5044],[-82.2046,8.2171,8.1287],[-82.2032,8.219,6.6931],[-82.201,8.219,7.8804],[-82.1996,8.2157,34.8574],[-82.1963,8.214,11.9813],[-82.1996,8.2115,35.2825],[-82.199,8.2093,16.9986],[-82.1965,8.2079,10.5616],[-82.1988,8.2043,31.675],[-82.1965,8.201,0.0],[-82.1949,8.2035,6.5596],[-82.1857,8.2051,4.0355],[-82.1832,8.2043,1.9032],[-82.1815,8.2068,15.3216],[-82.1787,8.2071,16.1194],[-82.1771,8.2054,0.0],[-82.1729,8.2054,0.0],[-82.1676,8.2004,0.0],[-82.1663,8.2029,0.0],[-82.1693,8.2054,7.9407],[-82.1696,8.2082,0.0],[-82.1657,8.2076,3.6105],[-82.1651,8.2096,7.805],[-82.1674,8.2113,3.6622],[-82.1676,8.2176,0.0],[-82.1612,8.2204,0.0],[-82.1585,8.2157,0.0],[-82.1573,8.2176,6.6403],[-82.1565,8.216,0.0],[-82.1537,8.2168,4.9072],[-82.1543,8.2146,3.4705],[-82.1468,8.2099,0.0],[-82.1507,8.2049,9.278],[-82.1568,8.2051,0.0],[-82.1562,8.2024,36.5985],[-82.1588,8.2015,0.0],[-82.1596,8.196,12.1071],[-82.1646,8.194,6.1469],[-82.1643,8.1924,11.4487],[-82.1562,8.1921,0.0],[-82.1562,8.1943,25.3793],[-82.1532,8.1932,0.0],[-82.1487,8.1968,0.0],[-82.1474,8.1954,2.99],[-82.1479,8.1896,0.2906],[-82.1451,8.1874,2.5275],[-82.1449,8.1846,1.839],[-82.1454,8.1824,3.5414],[-82.1487,8.1826,0.0],[-82.1487,8.1796,2.0756],[-82.1507,8.1796,0.0],[-82.1507,8.1774,0.0],[-82.1537,8.1771,0.0],[-82.1532,8.1746,2.8741],[-82.1554,8.1715,29.7854],[-82.1626,8.1721,0.0],[-82.1615,8.1693,12.4183],[-82.1632,8.1685,0.0],[-82.1618,8.1676,21.203],[-82.1629,8.1657,2.7552],[-82.1588,8.1651,0.0],[-82.1565,8.1632,0.0],[-82.1546,8.1649,5.9335],[-82.1546,8.1676,14.5132],[-82.1521,8.1685,20.7211],[-82.1504,8.1657,7.2984],[-82.141,8.1649,0.0],[-82.1404,8.1685,10.5936],[-82.1432,8.1713,0.0],[-82.141,8.1735,0.0],[-82.1421,8.1754,25.1847],[-82.1396,8.1804,0.0],[-82.1432,8.1824,0.0],[-82.1404,8.1882,6.7794],[-82.1413,8.1907,3.2933],[-82.1396,8.1924,0.0],[-82.1393,8.2032,1.6792],[-82.1318,8.2082,3.1529],[-82.124,8.2079,2.8211],[-82.1249,8.2101,1.7142],[-82.1207,8.2126,5.4041],[-82.1174,8.2112,0.0],[-82.1143,8.2165,0.0],[-82.1149,8.219,0.0],[-82.1182,8.2207,0.0],[-82.1185,8.2232,0.0],[-82.1224,8.2249,3.1123],[-82.1265,8.2349,0.5371],[-82.1368,8.2371,0.0],[-82.1401,8.2404,1.6362],[-82.1404,8.2482,0.4711],[-82.1449,8.2471,0.0],[-82.1462,8.2482,2.3985],[-82.1465,8.2529,4.889],[-82.1457,8.2485,0.0],[-82.1393,8.2499,0.9729],[-82.139,8.2521,0.0],[-82.1432,8.2574,2.6151],[-82.1399,8.2632,0.0],[-82.1393,8.2615,1.0672],[-82.1421,8.2582,2.6151],[-82.1374,8.2501,2.4381],[-82.1371,8.2393,1.8192],[-82.1279,8.2385,0.0],[-82.1212,8.2318,0.0],[-82.1121,8.2401,0.6158],[-82.1126,8.2376,0.0],[-82.111,8.2365,1.4016],[-82.1176,8.2343,0.0],[-82.1196,8.2318,0.0],[-82.1151,8.224,3.9102],[-82.1046,8.2235,2.4953],[-82.0832,8.2165,0.0],[-82.0815,8.219,8.5422],[-82.0774,8.2201,6.2707],[-82.0665,8.219,16.9172],[-82.0657,8.2154,0.0],[-82.0646,8.2171,16.6115],[-82.0601,8.2165,0.0],[-82.0524,8.2196,2.0277],[-82.0407,8.2182,2.8489],[-82.0204,8.2112,1.6302],[-82.0124,8.2104,0.923],[-82.009,8.2124,2.7585],[-82.0093,8.2146,0.5503],[-82.0151,8.2146,3.5516],[-82.0221,8.2207,0.0],[-82.0271,8.219,12.2294],[-82.0257,8.2212,15.0983],[-82.0204,8.2238,0.0],[-82.0201,8.2254,0.0],[-82.021,8.2274,4.5568],[-82.0276,8.2282,16.6825],[-82.0282,8.2307,12.6957],[-82.0257,8.2312,0.0],[-82.0249,8.2304,12.9128],[-82.0265,8.2288,12.9128],[-82.0212,8.2288,25.0459],[-82.019,8.2268,0.0],[-82.0196,8.2215,0.0],[-82.0165,8.2168,0.0],[-82.0126,8.2171,0.0],[-82.0137,8.2196,2.0646],[-82.0121,8.2204,7.634],[-82.0104,8.2174,0.0],[-82.0071,8.2168,0.0],[-82.0004,8.2057,0.0],[-81.9974,8.2037,0.0],[-81.9754,8.201,1.9253],[-81.9629,8.1949,3.9016],[-81.9599,8.1918,2.6834],[-81.9529,8.1896,3.5258],[-81.9362,8.1899,3.1442],[-81.9201,8.1865,0.0],[-81.9179,8.1896,2.6991],[-81.911,8.1899,4.0801],[-81.9146,8.1865,0.0],[-81.9182,8.1868,0.0],[-81.9179,8.1854,0.0],[-81.9135,8.1851,0.8372],[-81.851,8.1629,1.5635],[-81.8457,8.1629,0.3158],[-81.8401,8.1599,0.0],[-81.8179,8.1546,1.6999],[-81.8068,8.1501,0.8498],[-81.8071,8.1524,0.0],[-81.8104,8.1532,0.8241],[-81.8129,8.1579,4.5874],[-81.804,8.1515,2.4864],[-81.8046,8.1488,3.1311],[-81.8024,8.1479,0.0],[-81.8004,8.1432,0.5273],[-81.7935,8.1371,3.9072],[-81.776,8.1301,0.0],[-81.7688,8.1299,3.1556],[-81.7624,8.1315,1.0692],[-81.7582,8.1412,0.0],[-81.7601,8.1404,0.7938],[-81.7613,8.1382,0.5069],[-81.7637,8.139,1.0491],[-81.7643,8.1365,5.0357],[-81.7654,8.1382,0.0],[-81.761,8.1429,0.0],[-81.7615,8.1493,2.7639],[-81.7599,8.154,1.7411],[-81.7549,8.1563,0.0],[-81.751,8.166,0.0],[-81.7521,8.1699,0.0],[-81.7607,8.1668,0.0],[-81.7693,8.1674,0.0],[-81.7793,8.1763,1.3947],[-81.7785,8.1765,1.3947],[-81.771,8.1699,0.4067],[-81.7654,8.1696,0.0],[-81.7632,8.1724,0.5049],[-81.7618,8.1799,0.0],[-81.7629,8.1854,1.8373],[-81.7601,8.1921,0.0],[-81.7607,8.1946,0.0],[-81.7585,8.1962,1.9861],[-81.7557,8.191,0.0],[-81.7526,8.1896,0.0],[-81.7526,8.1979,16.6597],[-81.7507,8.1907,16.5669],[-81.7501,8.1771,9.8648],[-81.7454,8.1682,0.0],[-81.7421,8.1662,0.0],[-81.7326,8.1768,0.0],[-81.7374,8.169,0.0],[-81.7396,8.1679,0.4998],[-81.7396,8.166,0.0],[-81.7365,8.1621,3.3854],[-81.7304,8.1471,8.2593],[-81.716,8.1315,6.7739],[-81.7104,8.1204,0.0],[-81.706,8.1154,0.0],[-81.7032,8.109,1.3731],[-81.7035,8.1018,0.0],[-81.7007,8.0996,0.0],[-81.7012,8.0951,0.0],[-81.6976,8.0899,0.0],[-81.6935,8.0899,0.0],[-81.6946,8.0879,0.0],[-81.6904,8.0821,5.3348],[-81.6904,8.079,1.3429],[-81.674,8.0735,16.9561],[-81.6815,8.0749,0.0],[-81.6826,8.0715,0.0],[-81.6815,8.0704,6.0506],[-81.6879,8.0693,3.5484],[-81.6846,8.0718,0.0],[-81.684,8.0743,0.8649],[-81.6943,8.0779,1.1487],[-81.7004,8.0835,1.5569],[-81.7032,8.0829,0.0],[-81.704,8.0799,0.0],[-81.7087,8.0754,3.4773],[-81.7138,8.0732,0.0],[-81.714,8.0704,2.4435],[-81.7201,8.0713,2.7941],[-81.7218,8.0751,1.0239],[-81.7268,8.0746,3.6811],[-81.7318,8.0787,28.085],[-81.7371,8.0787,18.6226],[-81.7387,8.0813,0.0],[-81.7407,8.0804,1.6727],[-81.7412,8.0768,0.0],[-81.7349,8.0688,0.0],[-81.7288,8.0665,0.0],[-81.7279,8.0624,0.0],[-81.7251,8.0654,0.0],[-81.7215,8.0654,2.3514],[-81.7115,8.054,10.7549],[-81.7099,8.0471,0.0],[-81.7124,8.0465,0.0],[-81.7207,8.0382,0.0],[-81.7179,8.0307,4.6625],[-81.7107,8.029,0.0],[-81.7093,8.0271,10.2379],[-81.7018,8.0265,0.0],[-81.7032,8.0351,0.0],[-81.7021,8.0399,0.0],[-81.6999,8.0407,0.0],[-81.6999,8.0488,2.9462],[-81.7024,8.0551,2.7822],[-81.6996,8.0549,5.445],[-81.6976,8.0443,0.0],[-81.6985,8.0385,0.0],[-81.6949,8.0407,0.0],[-81.6937,8.0438,5.9369],[-81.689,8.0451,0.0],[-81.6835,8.0426,0.0],[-81.6793,8.0438,10.1399],[-81.6738,8.0404,17.2654],[-81.6754,8.0401,22.7872],[-81.6801,8.0424,0.0],[-81.684,8.0415,8.1526],[-81.6868,8.0432,0.0],[-81.6937,8.0424,2.1749],[-81.6937,8.039,0.0],[-81.6899,8.0415,1.673],[-81.689,8.0407,4.1933],[-81.6951,8.036,0.0],[-81.6951,8.0337,0.0],[-81.6893,8.0301,11.9493],[-81.6857,8.0235,0.0],[-81.681,8.0229,9.1562],[-81.6743,8.0165,0.0],[-81.6701,8.016,4.3206],[-81.6679,8.019,2.7018],[-81.6676,8.0165,0.8903],[-81.6704,8.014,-0.1132],[-81.6651,8.0113,11.4266],[-81.6707,8.0124,0.0],[-81.6785,8.0171,0.0],[-81.6826,8.0174,0.0],[-81.6826,8.016,0.0],[-81.674,8.0074,0.8795],[-81.6549,7.9985,32.9758],[-81.6528,7.9996,23.885],[-81.6435,8.0158,5.4676],[-81.6379,8.0215,0.8402],[-81.6385,8.0246,10.1305],[-81.6437,8.0308,3.2463],[-81.636,8.0321,3.0048],[-81.6315,8.0357,22.4918],[-81.6317,8.0392,6.3814],[-81.6344,8.0436,4.0644],[-81.6418,8.0497,7.285],[-81.6437,8.054,6.0659],[-81.641,8.0574,8.5302],[-81.6337,8.0568,43.9763],[-81.6312,8.0589,138.5701],[-81.6271,8.0708,94.1543],[-81.6286,8.0783,75.7222],[-81.6252,8.0961,87.2386],[-81.6222,8.0988,30.3698],[-81.6163,8.1006,132.4003],[-81.6138,8.1056,58.548],[-81.614,8.1086,74.7141],[-81.6189,8.1143,171.7477],[-81.6166,8.1282,191.7359],[-81.6189,8.1317,108.5488]],
[[-81.597,8.2993,181.1938],[-81.5943,8.2993,205.8486],[-81.5934,8.2976,221.4737],[-81.5974,8.2885,131.8218],[-81.5939,8.2812,238.0326],[-81.5995,8.2788,159.0967],[-81.6023,8.2753,306.2192],[-81.6091,8.2753,309.0634],[-81.614,8.2687,226.0716],[-81.6152,8.2707,211.7292],[-81.6219,8.2737,113.9224],[-81.6238,8.2758,167.7126],[-81.6219,8.2779,181.493],[-81.6117,8.28,167.7665],[-81.6091,8.2815,153.3036],[-81.6089,8.2847,127.9895],[-81.6057,8.2846,126.7316],[-81.6011,8.2875,177.6919],[-81.6001,8.2913,143.031],[-81.6046,8.2946,162.7488],[-81.597,8.2993,181.1938]],
[[-81.6043,8.2477,217.3617],[-81.6071,8.2558,488.8861],[-81.605,8.2615,672.2952],[-81.5988,8.2698,393.6711],[-81.597,8.2752,258.7228],[-81.5924,8.2766,233.2174],[-81.5916,8.2742,249.4628],[-81.593,8.2702,268.8368],[-81.5949,8.2681,397.1111],[-81.5995,8.2679,462.7125],[-81.5969,8.2641,504.0768],[-81.6007,8.2621,551.2225],[-81.6028,8.2556,537.3806],[-81.6057,8.2541,386.8309],[-81.6029,8.2509,299.6024],[-81.6035,8.2464,225.842],[-81.6043,8.2477,217.3617]],
[[-81.5997,8.2568,494.7208],[-81.5923,8.2586,382.665],[-81.5857,8.2574,435.5424],[-81.58,8.2608,417.7436],[-81.5723,8.2607,398.0294],[-81.571,8.263,412.3466],[-81.5678,8.2635,343.7557],[-81.5624,8.2559,398.5877],[-81.5656,8.258,399.8293],[-81.5761,8.2561,399.863],[-81.5799,8.2535,410.7255],[-81.5892,8.2543,431.391],[-81.5981,8.2503,348.0092],[-81.5956,8.2463,270.275],[-81.5779,8.2435,305.2249],[-81.5718,8.245,393.799],[-81.5704,8.2497,384.1147],[-81.5663,8.2518,384.7543],[-81.563,8.2424,197.7621],[-81.5664,8.2338,210.8378],[-81.5761,8.2307,297.9343],[-81.5789,8.2363,358.6915],[-81.5938,8.2382,281.0453],[-81.5986,8.2408,180.255],[-81.6013,8.2552,478.5853],[-81.5997,8.2568,494.7208]]],
[[[-81.8104,8.0882,0.0],[-81.8163,8.0885,4.5045],[-81.819,8.0818,0.0],[-81.8157,8.081,0.0],[-81.8096,8.0832,0.0],[-81.8082,8.0874,0.0],[-81.8104,8.0882,0.0]]],
[[[-81.7596,8.0935,2.6349],[-81.7593,8.0946,8.6828],[-81.7618,8.0949,0.0],[-81.7626,8.0918,11.4295],[-81.7643,8.0915,3.6643],[-81.7657,8.0935,0.0],[-81.7637,8.0862,0.0],[-81.7607,8.0862,0.0],[-81.7624,8.0913,11.4295],[-81.7596,8.0935,2.6349]]],
[[[-81.7071,8.1004,0.0],[-81.7087,8.1018,0.0],[-81.7085,8.1001,2.8555],[-81.7118,8.096,9.3428],[-81.7085,8.0976,25.2487],[-81.7071,8.1004,0.0]]],
[[[-82.294,8.0629,0.0],[-82.2954,8.0649,0.0],[-82.2976,8.0635,0.0],[-82.296,8.0621,0.0],[-82.294,8.0629,0.0]]],
[[[-82.2924,8.0696,1.1814],[-82.2915,8.0701,0.0],[-82.294,8.0707,0.0],[-82.2954,8.0688,5.0792],[-82.2943,8.0688,5.0792],[-82.2924,8.0696,1.1814]]],
[[[-82.2832,8.0785,0.0],[-82.2849,8.0804,5.4248],[-82.2879,8.0799,0.0],[-82.2854,8.0754,0.0],[-82.2832,8.0785,0.0]]],
[[[-82.3404,8.0837,0.0],[-82.3401,8.0815,0.0],[-82.3382,8.0815,0.0],[-82.3385,8.084,0.0],[-82.3404,8.0837,0.0]]],
[[[-82.2696,8.0807,0.0],[-82.269,8.0832,0.0],[-82.2726,8.0826,0.0],[-82.271,8.0801,0.0],[-82.2696,8.0807,0.0]]],
[[[-82.2582,8.086,16.1498],[-82.259,8.0885,7.0695],[-82.2615,8.0862,0.0],[-82.2604,8.0843,2.8345],[-82.2582,8.086,16.1498]]],
[[[-82.2635,8.0957,18.6891],[-82.2665,8.0968,14.5871],[-82.2688,8.0946,16.5078],[-82.2688,8.0921,10.6234],[-82.2657,8.0913,0.0],[-82.2649,8.0874,7.1251],[-82.2629,8.0882,2.7777],[-82.2626,8.0918,0.0],[-82.2643,8.0938,34.9668],[-82.2618,8.0957,4.2687],[-82.2635,8.0957,18.6891]]],
[[[-82.2282,8.1501,0.0],[-82.231,8.1513,0.0],[-82.2296,8.1488,9.9347],[-82.2274,8.1488,0.0],[-82.2282,8.1501,0.0]]],
[[[-82.1615,8.154,0.0],[-82.1657,8.1552,0.0],[-82.1629,8.1507,5.3902],[-82.1604,8.1515,0.0],[-82.1615,8.154,0.0]]],
[[[-82.2288,8.1557,9.3021],[-82.2324,8.1565,22.8917],[-82.2351,8.1513,0.0],[-82.2279,8.1529,0.0],[-82.2288,8.1557,9.3021]]],
[[[-82.1529,8.164,0.0],[-82.1507,8.1635,0.0],[-82.1504,8.1651,3.5533],[-82.1526,8.1651,0.0],[-82.1529,8.164,0.0]]],
[[[-82.1668,8.171,37.9574],[-82.166,8.1726,4.0827],[-82.1712,8.1701,0.0],[-82.1668,8.1674,11.8839],[-82.1668,8.171,37.9574]]],
[[[-82.246,8.1721,0.0],[-82.2476,8.1732,2.4381],[-82.2493,8.1704,0.0],[-82.2462,8.1707,4.6746],[-82.246,8.1721,0.0]]],
[[[-82.2607,8.1862,12.8063],[-82.2621,8.1885,4.3481],[-82.2668,8.1882,8.1419],[-82.266,8.1849,11.1427],[-82.2674,8.1826,3.7966],[-82.2654,8.1851,0.0],[-82.2601,8.1832,8.3555],[-82.2576,8.1796,14.8646],[-82.2585,8.1751,0.0],[-82.251,8.1732,0.0],[-82.2518,8.1774,25.0103],[-82.2468,8.1771,0.0],[-82.2479,8.1832,0.0],[-82.2462,8.1854,0.0],[-82.2521,8.186,0.0],[-82.2543,8.1846,3.3755],[-82.2554,8.1862,10.6875],[-82.2607,8.1862,12.8063]]],
[[[-82.1854,8.1829,11.6717],[-82.1851,8.1854,0.0],[-82.1868,8.1857,0.0],[-82.1882,8.1807,7.7671],[-82.1862,8.1785,0.0],[-82.1857,8.1788,0.0],[-82.1854,8.1829,11.6717]]],
[[[-82.1929,8.1888,8.4369],[-82.1926,8.1924,0.0],[-82.1943,8.1929,0.0],[-82.196,8.1882,0.0],[-82.1926,8.1857,4.0996],[-82.1915,8.1868,4.0996],[-82.1929,8.1888,8.4369]]],
[[[-82.0301,8.0274,0.0],[-82.0312,8.0307,0.0],[-82.0357,8.0257,1.2246],[-82.0376,8.0262,0.6361],[-82.0376,8.0249,1.111],[-82.0357,8.0243,6.6159],[-82.034,8.026,4.731],[-82.0301,8.0232,0.0],[-82.0301,8.0274,0.0]]],
[[[-82.1451,8.1635,0.0],[-82.1479,8.1646,3.4385],[-82.1496,8.1626,0.0],[-82.1415,8.1621,0.0],[-82.1421,8.1635,1.0901],[-82.1451,8.1635,0.0]]],
[[[-82.1101,8.1646,2.7948],[-82.1093,8.166,2.46],[-82.1126,8.1657,0.0],[-82.1124,8.1649,0.0],[-82.1101,8.1646,2.7948]]],
[[[-82.1074,8.169,13.416],[-82.1062,8.1699,0.0],[-82.1085,8.1707,0.0],[-82.1115,8.1685,0.0],[-82.1093,8.1682,0.0],[-82.1074,8.169,13.416]]],
[[[-81.7363,8.149,0.0],[-81.7387,8.1515,1.3376999999999999],[-81.7424,8.1457,5.3351],[-81.7468,8.146,0.0],[-81.7529,8.1404,5.3183],[-81.7535,8.1326,0.4796],[-81.7479,8.1285,0.0],[-81.739,8.1262,0.5333],[-81.7296,8.1185,0.0],[-81.7262,8.1143,5.9615],[-81.7246,8.1076,0.0],[-81.7218,8.1057,4.3136],[-81.7196,8.0926,0.0],[-81.7179,8.0915,0.0],[-81.7112,8.1038,2.9052],[-81.7129,8.1126,0.0],[-81.7179,8.1274,0.0],[-81.7315,8.1396,3.9059],[-81.7363,8.149,0.0]]],
[[[-81.7412,8.1529,0.0],[-81.7429,8.1549,0.0],[-81.7449,8.1479,0.0],[-81.7418,8.1476,0.0],[-81.7412,8.1529,0.0]]],
[[[-81.7535,8.1526,0.0],[-81.7515,8.1521,0.0],[-81.7521,8.1557,0.0],[-81.7546,8.1521,0.0],[-81.7535,8.1526,0.0]]],
[[[-81.7601,8.1696,0.0],[-81.7624,8.1713,0.0],[-81.7643,8.1693,0.0],[-81.7601,8.1685,0.0],[-81.7601,8.1696,0.0]]],
[[[-81.7546,8.1843,1.3054],[-81.7543,8.1879,0.9816],[-81.7571,8.1888,0.0],[-81.7593,8.1846,0.0],[-81.7579,8.1804,0.0],[-81.756,8.1801,0.4215],[-81.7576,8.1774,0.0],[-81.7543,8.1785,0.0],[-81.7546,8.1843,1.3054]]],
[[[-81.7596,8.1868,0.0],[-81.7593,8.1899,0.0],[-81.7604,8.1904,0.0],[-81.7613,8.1846,0.0],[-81.7596,8.1868,0.0]]],
[[[-82.1251,8.1788,0.0],[-82.1296,8.1793,1.7295],[-82.1349,8.174,1.43],[-82.1326,8.169,0.0],[-82.1362,8.1676,0.0],[-82.1363,8.1657,0.7511],[-82.1304,8.1662,7.3755],[-82.1279,8.1646,0.0],[-82.1263,8.1665,4.0484],[-82.1299,8.1696,18.5384],[-82.1282,8.1726,0.0],[-82.1293,8.174,0.0],[-82.1285,8.1768,0.0],[-82.126,8.1771,0.0],[-82.1251,8.1788,0.0]]],
[[[-81.5393,8.3235,313.7375],[-81.5343,8.3211,265.3226],[-81.5223,8.3077,256.0263],[-81.5136,8.3042,176.5031],[-81.5089,8.3052,253.1714],[-81.5081,8.3087,238.8386],[-81.5097,8.3167,239.9665],[-81.5074,8.3284,297.7183],[-81.5121,8.3396,222.558],[-81.5139,8.3565,318.0793],[-81.532,8.3813,291.6793],[-81.5366,8.3829,330.1815],[-81.5363,8.3856,335.5722],[-81.544,8.384,349.0814],[-81.5505,8.3768,303.7846],[-81.5567,8.378,387.7064],[-81.5628,8.3699,338.9792],[-81.5709,8.3652,320.6951],[-81.5697,8.3611,330.1632],[-81.5709,8.3525,381.8038],[-81.5652,8.3461,408.7012],[-81.5627,8.3457,448.0284],[-81.5593,8.3477,460.0325],[-81.5567,8.3561,303.6413],[-81.5543,8.358,285.67],[-81.5457,8.346,361.8528],[-81.5351,8.3403,359.7045],[-81.5347,8.3366,346.8383],[-81.5407,8.3293,365.8629],[-81.5393,8.3235,313.7375]]],
[[[-82.4435,7.8668,15.5218],[-82.4449,7.8712,0.0],[-82.4488,7.8685,0.0],[-82.4485,7.8671,6.55],[-82.4446,7.8657,0.0],[-82.4454,7.8643,0.0],[-82.4432,7.8626,0.0],[-82.4432,7.8593,0.0],[-82.439,7.8615,0.0],[-82.4376,7.8651,1.1951],[-82.4354,7.8654,0.0],[-82.4371,7.866,11.4489],[-82.4371,7.8682,0.0],[-82.4435,7.8668,15.5218]]],
[[[-82.4326,7.8679,0.0],[-82.4332,7.8693,0.0],[-82.436,7.8699,-0.1747],[-82.4337,7.866,0.0],[-82.4326,7.8679,0.0]]],
[[[-82.3665,8.1071,2.8498],[-82.3649,8.109,0.0],[-82.3682,8.1076,2.8498],[-82.3676,8.1062,0.0],[-82.3665,8.1071,2.8498]]],
[[[-82.3632,8.1238,0.0],[-82.3657,8.1251,20.059],[-82.3682,8.1251,0.0864],[-82.3654,8.1207,0.0],[-82.3632,8.1238,0.0]]],
[[[-82.3293,8.0824,0.0],[-82.3276,8.0826,0.4394],[-82.3276,8.086,0.0],[-82.3285,8.086,0.0],[-82.3293,8.0824,0.0]]],
[[[-82.3371,8.0832,8.0812],[-82.3382,8.0812,0.0],[-82.3371,8.0804,0.0],[-82.3337,8.0813,22.1973],[-82.3357,8.0837,8.0812],[-82.3354,8.0868,0.0],[-82.3321,8.0893,30.5182],[-82.3329,8.0921,0.0],[-82.3379,8.0893,0.0],[-82.3362,8.0882,11.5247],[-82.3388,8.0868,1.7995],[-82.3371,8.0832,8.0812]]],
[[[-82.3115,8.0896,0.0],[-82.3101,8.0893,0.0],[-82.3099,8.091,0.0],[-82.3135,8.091,0.0],[-82.3129,8.0899,0.0],[-82.3115,8.0896,0.0]]],
[[[-82.3079,8.0938,4.0896],[-82.3068,8.0943,4.0896],[-82.3112,8.0949,0.0],[-82.3101,8.0932,0.0],[-82.3079,8.0938,4.0896]]],
[[[-82.3154,8.099,0.0],[-82.3149,8.1001,0.0],[-82.3174,8.1007,0.0],[-82.3168,8.0985,0.0],[-82.3154,8.099,0.0]]],
[[[-82.3218,8.1412,0.0],[-82.3213,8.1429,0.0],[-82.3293,8.1365,16.4803],[-82.3315,8.1374,0.0],[-82.3326,8.136,7.8287],[-82.334,8.1374,0.0],[-82.3349,8.1354,18.8483],[-82.3362,8.1362,0.0],[-82.3379,8.1343,0.0],[-82.3374,8.1371,0.0],[-82.339,8.1362,5.6671],[-82.3404,8.1376,0.0],[-82.3468,8.134,0.0],[-82.3487,8.1307,0.0],[-82.3474,8.1282,33.9699],[-82.3479,8.1251,0.0],[-82.3449,8.1218,4.8603],[-82.3454,8.1201,15.3211],[-82.3471,8.1185,21.3852],[-82.3499,8.1188,0.0],[-82.351,8.1163,4.3178],[-82.3585,8.1154,12.3867],[-82.3604,8.1143,0.0],[-82.3604,8.1124,0.0],[-82.3649,8.1115,0.0],[-82.3637,8.1057,4.1047],[-82.3662,8.1038,1.7784],[-82.3657,8.1001,42.1478],[-82.3699,8.099,0.0],[-82.3701,8.094,0.0],[-82.3685,8.0915,0.0],[-82.3651,8.0896,0.0],[-82.3657,8.0938,0.0],[-82.3624,8.0949,0.0],[-82.3635,8.0979,10.1317],[-82.3618,8.0988,23.5141],[-82.3565,8.0979,6.4006],[-82.3557,8.096,26.3978],[-82.3571,8.0943,0.0],[-82.3524,8.0904,0.0],[-82.3518,8.0929,0.0],[-82.3493,8.094,15.3616],[-82.3485,8.0913,0.0],[-82.3454,8.0921,21.1308],[-82.3443,8.0868,0.0],[-82.3424,8.0904,0.0],[-82.3407,8.0887,0.0],[-82.3399,8.0896,0.0],[-82.3435,8.094,0.0],[-82.3432,8.096,12.9176],[-82.3382,8.0965,1.6866],[-82.3343,8.0949,0.0],[-82.3307,8.096,13.4642],[-82.3262,8.0929,0.0],[-82.3279,8.0982,0.0],[-82.3304,8.1007,0.0],[-82.3304,8.1046,0.0],[-82.3329,8.1046,16.1267],[-82.3357,8.1076,2.6945],[-82.3299,8.1068,0.0],[-82.3332,8.1096,1.9803],[-82.3329,8.1112,2.3551],[-82.3301,8.1115,11.4313],[-82.3265,8.1096,11.8619],[-82.3218,8.1037,0.0],[-82.319,8.1043,0.0],[-82.3213,8.1096,0.0],[-82.3249,8.1098,4.2312],[-82.3276,8.1124,2.6937],[-82.3274,8.1157,55.7868],[-82.3251,8.1151,0.0],[-82.3243,8.1171,0.0],[-82.3265,8.1207,0.0],[-82.329,8.121,0.0],[-82.3268,8.1262,0.0],[-82.3274,8.129,7.5889],[-82.3215,8.1299,0.0],[-82.3238,8.1332,15.6619],[-82.3182,8.1362,0.0],[-82.319,8.139,0.0],[-82.3224,8.1385,4.0693],[-82.3218,8.1412,0.0]]],
[[[-82.3043,8.1226,0.0],[-82.3037,8.1246,0.0],[-82.3079,8.1232,0.0],[-82.3071,8.1226,0.0],[-82.3051,8.1235,0.0],[-82.3043,8.1226,0.0]]],
[[[-82.3124,8.1271,0.0],[-82.316,8.1282,7.9091],[-82.3193,8.1262,0.0],[-82.3151,8.1246,0.0],[-82.3124,8.1271,0.0]]],
[[[-82.3562,8.2785,12.9207],[-82.359,8.2796,1.63],[-82.3629,8.2746,0.8877],[-82.3676,8.2724,0.0],[-82.3712,8.2735,1.9989],[-82.3737,8.2782,0.0],[-82.3751,8.2782,0.0],[-82.3779,8.2712,0.0],[-82.3799,8.2754,0.0],[-82.3851,8.276,0.0],[-82.391,8.2685,4.2523],[-82.4015,8.2618,0.0],[-82.4029,8.2574,0.7109],[-82.3999,8.2532,5.6411],[-82.404,8.2557,7.3681],[-82.4051,8.2599,0.0],[-82.4218,8.2574,0.0],[-82.4296,8.259,1.1792],[-82.4304,8.2615,0.5821],[-82.4326,8.2621,0.0],[-82.4332,8.2579,7.4095],[-82.4276,8.2496,0.9868],[-82.4176,8.2435,0.0],[-82.3929,8.221,3.7109],[-82.3835,8.2254,0.0],[-82.3743,8.2276,0.0],[-82.3732,8.2299,0.0],[-82.3751,8.231,12.4491],[-82.3751,8.2332,11.8285],[-82.3682,8.2335,0.0],[-82.3626,8.2365,2.4873],[-82.3593,8.2357,2.5732],[-82.3574,8.2374,5.0038],[-82.3535,8.2374,7.8895],[-82.3471,8.2351,1.1904],[-82.3421,8.2376,4.8736],[-82.3421,8.2354,1.1807],[-82.3451,8.2337,0.0],[-82.3437,8.2332,0.0],[-82.3401,8.2349,1.6229],[-82.3399,8.2385,2.9016],[-82.3262,8.2371,1.6009],[-82.3226,8.2393,0.0],[-82.3374,8.2474,0.0],[-82.3412,8.2468,15.5284],[-82.3443,8.2418,13.0913],[-82.3487,8.2413,6.7533],[-82.351,8.2435,16.7069],[-82.3529,8.2496,5.5864],[-82.356,8.2493,5.0141],[-82.3549,8.251,10.0704],[-82.3518,8.251,13.5867],[-82.3499,8.249,2.4171],[-82.3496,8.2437,0.0],[-82.3476,8.2424,4.1885],[-82.3396,8.2487,6.0474],[-82.3329,8.249,31.6141],[-82.3315,8.2474,0.0],[-82.324,8.2457,4.51],[-82.316,8.2457,7.9789],[-82.3171,8.2499,8.6161],[-82.3265,8.2515,3.4785],[-82.3357,8.2579,4.2113],[-82.3426,8.2593,0.0],[-82.3432,8.256,6.4292],[-82.3476,8.2543,7.2315],[-82.3449,8.2593,1.6987],[-82.351,8.2615,9.7659],[-82.344,8.2638,8.6395],[-82.3429,8.2668,0.0],[-82.3474,8.2704,14.6176],[-82.3501,8.2754,17.6034],[-82.3562,8.2785,12.9207]]],
[[[-82.4193,8.2682,2.0386],[-82.4204,8.2701,0.0],[-82.4251,8.2693,1.6162],[-82.4215,8.2657,5.7755],[-82.4185,8.266,6.44],[-82.4193,8.2682,2.0386]]],
[[[-82.4315,8.2712,0.0],[-82.4299,8.271,0.0],[-82.4296,8.2729,1.0606],[-82.4351,8.2724,0.0],[-82.4346,8.2701,0.0],[-82.4315,8.2712,0.0]]],
[[[-82.4382,8.274,1.2039],[-82.4413,8.2746,0.0],[-82.4396,8.2735,0.0],[-82.441,8.2699,0.0],[-82.4362,8.271,0.0],[-82.4382,8.274,1.2039]]],
[[[-82.8787,8.0193,5.0494],[-82.8824,8.019,3.3121],[-82.8715,8.0132,0.1218],[-82.8765,8.0185,8.0513],[-82.8787,8.0193,5.0494]]],
[[[-82.3421,8.2893,0.0],[-82.3465,8.2904,0.0],[-82.3518,8.2857,0.8165],[-82.3651,8.2899,7.8377],[-82.3757,8.289,0.0],[-82.3857,8.2863,3.3094],[-82.3946,8.2874,0.0],[-82.3968,8.2785,4.3759],[-82.3987,8.2796,0.0],[-82.4032,8.2765,11.6462],[-82.4137,8.276,0.0],[-82.4196,8.2735,0.0],[-82.4176,8.2635,0.0],[-82.4129,8.2618,0.0],[-82.4079,8.2624,4.6592],[-82.3951,8.2687,0.0],[-82.3907,8.2718,0.0],[-82.3838,8.2829,17.5374],[-82.3776,8.2874,5.5827],[-82.374,8.2874,3.2462],[-82.3721,8.2818,0.0],[-82.369,8.2813,0.0],[-82.3649,8.2768,0.0],[-82.3599,8.2807,2.8758],[-82.3571,8.2807,5.5441],[-82.3496,8.2765,3.2759],[-82.3421,8.2676,0.0],[-82.3412,8.261,1.7443],[-82.3276,8.2568,0.0],[-82.3257,8.2624,3.5652],[-82.3196,8.2693,0.9352],[-82.319,8.2785,3.3853],[-82.3238,8.2835,17.4985],[-82.3318,8.2832,9.7773],[-82.3385,8.2899,0.0],[-82.3421,8.2893,0.0]]],
[[[-82.3749,8.2826,0.4741],[-82.376,8.2854,0.0],[-82.3815,8.2829,0.509],[-82.3832,8.2776,0.0],[-82.376,8.2788,0.0],[-82.3754,8.2799,0.0],[-82.3776,8.281,1.3291],[-82.3749,8.2826,0.4741]]],
[[[-82.4287,8.2915,0.0],[-82.4301,8.2935,0.0],[-82.4318,8.2893,0.0],[-82.4307,8.2893,0.0],[-82.4287,8.2915,0.0]]],
[[[-82.2082,8.1957,11.2165],[-82.2093,8.1968,11.2165],[-82.2126,8.196,2.2284],[-82.2096,8.194,14.555],[-82.211,8.1915,0.0],[-82.2082,8.1921,21.3293],[-82.2082,8.1957,11.2165]]],
[[[-82.2171,8.1999,10.3423],[-82.2171,8.2013,0.0],[-82.2196,8.2015,2.276],[-82.224,8.199,13.9075],[-82.2174,8.1976,0.0],[-82.2171,8.1999,10.3423]]],
[[[-82.2023,8.2035,5.5345],[-82.2026,8.2049,8.9037],[-82.2057,8.2038,17.0208],[-82.206,8.1996,5.6625],[-82.2026,8.201,0.0],[-82.2023,8.2035,5.5345]]],
[[[-82.284,8.2315,2.7071],[-82.2846,8.2349,2.8506],[-82.2935,8.2318,6.6512],[-82.2946,8.2229,0.0],[-82.2918,8.2187,7.3552],[-82.2935,8.2187,1.6664],[-82.2943,8.2168,1.568],[-82.2951,8.2226,0.0],[-82.3063,8.2221,0.0],[-82.3074,8.2243,0.0],[-82.3129,8.2276,0.0],[-82.3129,8.2212,2.1874],[-82.3171,8.219,0.4043],[-82.3171,8.2168,2.1934],[-82.3154,8.2165,3.354],[-82.3143,8.2126,2.2908],[-82.311,8.2101,0.0],[-82.3021,8.2071,9.9674],[-82.2901,8.1976,1.0979],[-82.2824,8.1949,0.0],[-82.2749,8.1943,8.7211],[-82.2685,8.1893,1.2101],[-82.2682,8.1932,0.7397],[-82.2657,8.1896,1.4295],[-82.2654,8.2004,0.0],[-82.2621,8.2007,4.0479],[-82.2593,8.2051,0.0],[-82.2607,8.2057,0.6338],[-82.2626,8.2046,1.5274],[-82.2621,8.2063,3.4809],[-82.2524,8.2057,4.713],[-82.2524,8.209,21.2641],[-82.2496,8.211,5.6669],[-82.2465,8.2099,0.0],[-82.2454,8.2121,10.9446],[-82.2438,8.2121,12.7976],[-82.2429,8.209,0.0],[-82.2399,8.2104,0.0],[-82.236,8.2076,4.5626],[-82.2315,8.2101,0.0],[-82.2299,8.2135,0.0],[-82.2268,8.2115,0.0],[-82.2246,8.2126,14.9149],[-82.2235,8.2035,0.0],[-82.2196,8.2046,4.7431],[-82.2185,8.2076,9.8263],[-82.214,8.2101,0.0],[-82.2074,8.2096,0.0],[-82.206,8.2107,0.0],[-82.2193,8.2168,6.3817],[-82.2324,8.2174,0.0],[-82.2351,8.2204,5.57],[-82.2443,8.224,0.0],[-82.2479,8.2235,14.4793],[-82.2629,8.2304,24.665],[-82.2676,8.2299,10.885],[-82.2721,8.2326,0.0],[-82.2754,8.231,0.0],[-82.2771,8.2337,0.0],[-82.284,8.2315,2.7071]]],
[[[-82.2249,8.2337,0.0],[-82.226,8.236,0.0],[-82.2349,8.236,0.0],[-82.2404,8.2326,8.0445],[-82.2401,8.2265,0.0],[-82.2349,8.2274,0.4383],[-82.231,8.2221,1.2696],[-82.2274,8.2218,0.0],[-82.2246,8.2243,0.0],[-82.2249,8.2337,0.0]]],
[[[-82.2434,8.229,3.0613],[-82.2424,8.2315,1.1877],[-82.2449,8.2299,3.0613],[-82.2446,8.2285,0.0],[-82.2434,8.229,3.0613]]],
[[[-82.3154,8.2271,26.3688],[-82.3163,8.2296,3.8935],[-82.3185,8.2282,14.6593],[-82.3179,8.2265,0.0],[-82.3154,8.2271,26.3688]]],
[[[-82.351,8.2468,0.0],[-82.3507,8.2487,7.0818],[-82.3521,8.2493,5.5864],[-82.3515,8.2474,7.0818],[-82.351,8.2468,0.0]]],
[[[-82.3143,8.2699,2.4647],[-82.3163,8.2712,1.3083],[-82.3182,8.2668,8.7083],[-82.3246,8.2607,0.0],[-82.3249,8.2579,5.3393],[-82.3174,8.2576,7.412],[-82.3135,8.2599,4.8914],[-82.311,8.2662,0.0],[-82.3143,8.2699,2.4647]]],
[[[-82.2815,8.2771,0.0],[-82.2837,8.2793,0.0],[-82.2996,8.2613,50.2226],[-82.3015,8.261,4.426],[-82.3043,8.256,26.2322],[-82.299,8.2571,40.545],[-82.2932,8.2635,1.9316],[-82.2904,8.2629,0.0],[-82.2829,8.2724,0.0],[-82.2815,8.2771,0.0]]],
[[[-82.3276,8.3165,6.2948],[-82.334,8.3174,0.0],[-82.3326,8.3151,1.3408],[-82.3337,8.3118,1.8464],[-82.3393,8.3054,5.6035],[-82.3393,8.3026,0.803],[-82.3371,8.3035,14.5447],[-82.3374,8.2963,10.1854],[-82.3351,8.294,16.1731],[-82.3346,8.2904,0.0],[-82.3271,8.2874,11.969],[-82.3121,8.2879,6.1996],[-82.3007,8.2826,0.6029],[-82.296,8.2857,0.0],[-82.2954,8.2871,0.0],[-82.3012,8.2904,7.2756],[-82.3068,8.2974,5.3476],[-82.3096,8.3046,1.715],[-82.3118,8.3057,0.0],[-82.311,8.3088,0.0],[-82.3124,8.3115,0.0],[-82.3243,8.3138,3.0415],[-82.3276,8.3165,6.2948]]],
[[[-82.319,8.3179,2.8262],[-82.3229,8.319,0.0],[-82.3254,8.3168,0.0],[-82.3224,8.3146,1.2764],[-82.3171,8.3143,1.5218],[-82.3168,8.3165,0.0],[-82.319,8.3179,2.8262]]]]}
,"properties": {"GID_1": "PAN.2_1","GID_0": "PAN","country": "Panama","province": "Chiriquí","VARNAME_1": "NA","NL_NAME_1": "NA","TYPE_1": "Provincia","ENGTYPE_1": "Province","CC_1": "NA","HASC_1": "PA.CH","ISO_1": "NA","name": "Chiriquí.province","area_km2": 6661.644,"hist_schema_id": "Elevation0-9000","hist_area_km2": {"0": 810.729,"25": 1001.742,"50": 437.509,"75": 319.217,"100": 235.087,"125": 193.93,"150": 166.72,"175": 146.623,"200": 135.525,"225": 134.704,"250": 120.024,"275": 116.69,"300": 103.873,"325": 99.908,"350": 99.885,"375": 92.858,"400": 83.652,"425": 78.028,"450": 73.011,"475": 65.898,"500": 60.903,"525": 58.217,"550": 56.894,"575": 56.682,"600": 53.6,"625": 49.197,"650": 46.45,"675": 46.134,"700": 42.633,"725": 41.773,"750": 43.365,"775": 43.218,"800": 44.893,"825": 48.371,"850": 46.756,"875": 44.828,"900": 44.785,"925": 43.883,"950": 43.359,"975": 42.688,"1000": 40.822,"1025": 41.199,"1050": 50.399,"1075": 44.866,"1100": 37.552,"1125": 35.289,"1150": 33.948,"1175": 31.684,"1200": 30.699,"1225": 29.63,"1250": 27.43,"1275": 27.032,"1300": 27.325,"1325": 26.948,"1350": 32.71,"1375": 33.003,"1400": 26.34,"1425": 21.373,"1450": 19.194,"1475": 20.2,"1500": 19.424,"1525": 18.922,"1550": 16.7,"1575": 16.365,"1600": 16.155,"1625": 15.883,"1650": 14.835,"1675": 15.422,"1700": 14.311,"1725": 13.326,"1750": 14.793,"1775": 14.457,"1800": 14.101,"1825": 15.295,"1850": 16.385,"1875": 16.678,"1900": 15.442,"1925": 16.405,"1950": 15.546,"1975": 14.959,"2000": 15.337,"2025": 13.912,"2050": 13.514,"2075": 12.843,"2100": 12.549,"2125": 11.795,"2150": 11.271,"2175": 11.125,"2200": 10.496,"2225": 9.574,"2250": 8.946,"2275": 8.317,"2300": 6.159,"2325": 6.62,"2350": 5.824,"2375": 5.07,"2400": 5.279,"2425": 4.798,"2450": 4.148,"2475": 4.043,"2500": 3.918,"2525": 3.645,"2550": 3.415,"2575": 3.268,"2600": 3.352,"2625": 3.164,"2650": 2.598,"2675": 2.451,"2700": 2.388,"2725": 2.011,"2750": 1.906,"2775": 1.844,"2800": 1.613,"2825": 1.508,"2850": 1.676,"2875": 1.257,"2900": 0.922,"2925": 1.006,"2950": 0.943,"2975": 1.048,"3000": 0.775,"3025": 0.901,"3050": 0.985,"3075": 0.587,"3100": 0.712,"3125": 0.733,"3150": 0.691,"3175": 0.545,"3200": 0.587,"3225": 0.398,"3250": 0.398,"3275": 0.461,"3300": 0.335,"3325": 0.293,"3350": 0.147,"3375": 0.084,"3400": 0.084,"3425": 0.063}}}