{"type":"Feature","properties":{"ISO3166-1-Alpha-3":"PAN","country":"Panama","fill":"#FF0","id":"1332","name":"Chiriquí"},
"geometry":{"type": "MultiPolygon","coordinates": [[[[-82.34748,8.08828,0.0],[-82.33654,8.09186,0.0],[-82.31823,8.09992,0.0],[-82.31945,8.1131,0.0],[-82.31835,8.12397,0.0],[-82.32071,8.13032,0.0],[-82.33235,8.12971,35.3614],[-82.34313,8.12336,21.1108],[-82.35245,8.11205,81.3034],[-82.35924,8.09903,18.7042],[-82.36205,8.08686,0.0],[-82.34748,8.08828,0.0]]],
[[[-82.22012,8.21206,51.5416],[-82.23888,8.22065,8.3242],[-82.25959,8.22704,66.5053],[-82.27383,8.23334,0.0],[-82.30647,8.22407,0.0],[-82.31566,8.21491,3.2096],[-82.30797,8.1992,0.0],[-82.30138,8.19611,0.0],[-82.28136,8.19355,0.0],[-82.27383,8.1918,0.0],[-82.24596,8.17129,4.6746],[-82.25259,8.18838,0.0],[-82.25333,8.19326,0.0],[-82.25341,8.20234,0.0],[-82.24706,8.20673,0.0],[-82.23302,8.20531,0.0],[-82.21178,8.1992,0.0],[-82.22012,8.21206,51.5416]]],
[[[-82.31721,8.26756,1.6928],[-82.31652,8.27733,0.0],[-82.32848,8.28799,8.8387],[-82.35001,8.29365,7.01],[-82.40193,8.25715,0.7109],[-82.42467,8.26,0.0],[-82.4309,8.26,5.9346],[-82.42471,8.24657,0.0],[-82.41251,8.23102,0.0],[-82.39835,8.21821,0.0],[-82.38646,8.21288,0.0],[-82.3697,8.21686,0.0],[-82.33487,8.23509,0.0],[-82.31481,8.24018,0.0],[-82.34276,8.26,0.0],[-82.34276,8.26752,0.0],[-82.32706,8.26288,3.5652],[-82.31721,8.26756,1.6928]]],
[[[-82.71453,8.9162,2102.5742],[-82.72016,8.92024,2341.2175],[-82.73386,8.89799,1807.4457],[-82.76378,8.87995,1401.9734],[-82.86693,8.83807,984.5164],[-82.87858,8.82977,975.8869],[-82.88832,8.81693,906.9801],[-82.88357,8.81238,934.6409],[-82.87563,8.80753,970.0799],[-82.87579,8.79391,1013.6025],[-82.88512,8.78319,1013.2491],[-82.91488,8.76479,1112.7454],[-82.92297,8.75616,1133.2407],[-82.92416,8.7412,1149.6117],[-82.91922,8.72707,1092.2158],[-82.91034,8.71391,971.4186],[-82.87894,8.67906,598.4116],[-82.86222,8.6557,453.6721],[-82.8498,8.62986,499.2775],[-82.84186,8.59948,288.5555],[-82.83597,8.52976,115.5769],[-82.83892,8.49462,55.7367],[-82.8483,8.46517,25.9207],[-82.87041,8.43812,20.8021],[-82.89651,8.42535,17.3717],[-82.92478,8.41675,40.6136],[-82.95351,8.4021,66.0194],[-82.99777,8.36016,451.227],[-83.0433,8.33474,512.006],[-83.05211,8.32763,487.4764],[-83.05325,8.3151,185.6414],[-83.04407,8.30536,54.3249],[-83.01607,8.289,332.1821],[-83.01077,8.28337,388.5804],[-83.0011,8.26924,148.8615],[-82.99552,8.26482,184.9964],[-82.98919,8.26446,367.0638],[-82.97713,8.26924,415.6347],[-82.96801,8.26797,168.5951],[-82.95051,8.25883,148.6397],[-82.94367,8.24857,81.8889],[-82.93909,8.21684,82.4479],[-82.88641,8.10219,83.3852],[-82.89137,8.05755,91.3513],[-82.89763,8.03475,0.0],[-82.89761,8.03474,0.0],[-82.87694,8.02387,0.0],[-82.86819,8.03238,0.0],[-82.86209,8.0489,0.0],[-82.84923,8.06204,0.0],[-82.84923,8.06826,0.0],[-82.87283,8.13589,0.0],[-82.87987,8.17788,38.2384],[-82.87719,8.21906,16.5725],[-82.86246,8.25406,0.0],[-82.83902,8.27851,0.0],[-82.80871,8.29568,0.0],[-82.73803,8.31745,0.0],[-82.6986,8.32282,0.0],[-82.65892,8.32278,0.0],[-82.62267,8.31525,0.0],[-82.55264,8.28738,0.0],[-82.51171,8.27643,0.0],[-82.48611,8.28115,12.1011],[-82.47777,8.27741,0.5681],[-82.47086,8.27713,0.0],[-82.45202,8.28115,0.0],[-82.45413,8.28852,0.0],[-82.45743,8.29605,4.4045],[-82.46142,8.30292,10.4389],[-82.46561,8.3085,11.1002],[-82.46561,8.31525,17.2388],[-82.44701,8.32355,0.0],[-82.44262,8.33633,14.226],[-82.44103,8.3487,2.7105],[-82.4309,8.35627,18.9206],[-82.43175,8.34622,8.416],[-82.43029,8.33816,0.0],[-82.42569,8.3323,0.0],[-82.41723,8.32892,23.726],[-82.41723,8.32278,27.0515],[-82.43533,8.31611,17.8893],[-82.43326,8.30435,2.8273],[-82.41893,8.29304,3.397],[-82.40014,8.28799,0.0],[-82.3872,8.29145,0.0],[-82.35867,8.3061,11.5209],[-82.34276,8.3085,5.9142],[-82.34496,8.31501,10.2802],[-82.34708,8.32917,14.8012],[-82.34891,8.33576,2.1658],[-82.33165,8.32978,9.3781],[-82.31395,8.33084,6.6972],[-82.2965,8.33621,6.1036],[-82.28006,8.34321,9.1983],[-82.28441,8.32221,16.0165],[-82.27709,8.30927,25.9712],[-82.26195,8.3028,9.7603],[-82.24246,8.30105,0.0],[-82.24144,8.30671,0.0],[-82.22545,8.3395,0.0],[-82.22012,8.34296,0.0],[-82.20788,8.34394,0.0],[-82.18444,8.34321,2.3082],[-82.20055,8.3393,10.0424],[-82.20865,8.3321,11.008],[-82.20983,8.32184,0.0],[-82.20495,8.3085,0.0],[-82.20983,8.30805,0.7649],[-82.21085,8.30988,3.1535],[-82.2106,8.31265,1.3402],[-82.21178,8.31525,0.0],[-82.21642,8.30976,0.0],[-82.21878,8.30435,0.0],[-82.21764,8.29934,0.0],[-82.21178,8.29483,9.1222],[-82.21178,8.28799,1.5627],[-82.21756,8.27823,24.6748],[-82.21654,8.26423,0.0],[-82.20495,8.23334,36.5337],[-82.20958,8.23115,22.4826],[-82.2141,8.22744,17.8736],[-82.21923,8.2259,18.0134],[-82.21923,8.21906,5.4222],[-82.20926,8.21552,0.0],[-82.19652,8.20218,30.8516],[-82.1879,8.19925,0.0],[-82.1741,8.20173,0.0],[-82.15689,8.21174,0.0],[-82.14346,8.21292,20.7357],[-82.14346,8.20539,7.7554],[-82.15038,8.20331,14.6695],[-82.1538,8.19929,32.334],[-82.15538,8.19318,0.0],[-82.15652,8.18496,0.0],[-82.14757,8.1883,0.0],[-82.14721,8.18093,6.3278],[-82.15652,8.15766,0.0],[-82.1503,8.15766,0.0],[-82.1503,8.1645,3.5533],[-82.14892,8.16409,0.0],[-82.14456,8.16189,0.0],[-82.1424,8.16006,0.0],[-82.1173,8.21516,0.0],[-82.11559,8.23334,6.3824],[-82.10936,8.23334,5.1311],[-82.09313,8.22036,0.0],[-82.06029,8.21027,0.0],[-82.02786,8.20828,0.0],[-82.01317,8.21906,2.0646],[-81.99218,8.20112,0.0],[-81.97838,8.19253,0.0],[-81.9722,8.1955,0.0],[-81.96764,8.20905,0.0],[-81.9567,8.22101,0.0],[-81.94327,8.22964,9.2658],[-81.93118,8.23334,24.8024],[-81.94787,8.20624,14.4215],[-81.95181,8.19143,3.0661],[-81.94115,8.18496,0.0],[-81.92703,8.18317,0.0],[-81.88537,8.17329,0.0],[-81.87658,8.16787,0.0],[-81.79833,8.13711,0.0],[-81.78038,8.12348,0.0],[-81.7742,8.12348,0.0],[-81.76749,8.13276,3.6342],[-81.75243,8.14899,0.0],[-81.74625,8.15766,0.0],[-81.75748,8.16116,3.6415],[-81.76065,8.16958,0.0],[-81.75821,8.18061,1.2628],[-81.75247,8.1918,0.0],[-81.74625,8.1918,57.545],[-81.74344,8.17316,7.5072],[-81.73355,8.15766,3.2809],[-81.71146,8.13032,7.9018],[-81.67736,8.06826,6.0509],[-81.68541,8.0716,3.3372],[-81.68761,8.07278,7.2239],[-81.69103,8.07571,3.2797],[-81.69787,8.07571,6.7904],[-81.70287,8.06997,12.5246],[-81.70946,8.06863,5.4635],[-81.71727,8.07083,2.7861],[-81.72574,8.07571,0.0],[-81.72574,8.06826,72.5676],[-81.71036,8.05984,6.3271],[-81.70853,8.04584,8.3154],[-81.70836,8.03132,61.2919],[-81.69787,8.02106,0.0],[-81.69835,8.03103,0.8694],[-81.69713,8.03913,0.0],[-81.69103,8.05463,7.3642],[-81.6848,8.04462,8.4405],[-81.67052,8.00678,3.0],[-81.66356,7.9973,3.1541],[-81.66356,7.99729,3.1541],[-81.66256,7.99765,3.0],[-81.64248,8.003,23.7107],[-81.63801,8.01124,4.2814],[-81.63377,8.02271,19.3706],[-81.63176,8.03499,9.6528],[-81.60612,8.1349,318.955],[-81.60189,8.14506,220.86],[-81.59791,8.15206,141.603],[-81.57318,8.17612,103.3551],[-81.52295,8.23903,177.0003],[-81.51714,8.24376,280.5811],[-81.51551,8.24609,262.192],[-81.51311,8.25105,234.3841],[-81.51047,8.28123,263.7965],[-81.51321,8.31071,189.6177],[-81.51933,8.34174,257.0746],[-81.52249,8.37933,258.6404],[-81.54783,8.38569,351.0329],[-81.59212,8.37187,249.7796],[-81.60979,8.34781,469.0889],[-81.624,8.31373,340.4085],[-81.63362,8.29709,369.6552],[-81.65589,8.28185,416.0265],[-81.68049,8.27738,323.0873],[-81.68963,8.29686,395.3256],[-81.70462,8.295,501.5753],[-81.71589,8.2781,268.3672],[-81.73206,8.26216,56.7018],[-81.7843,8.26404,176.8855],[-81.81337,8.28748,135.2899],[-81.83001,8.31841,303.4524],[-81.8565,8.32686,213.1702],[-81.9491,8.32779,148.9536],[-81.99713,8.33998,97.621],[-82.01775,8.37091,207.8065],[-82.0215,8.40186,159.4417],[-82.03674,8.41804,148.5395],[-82.05338,8.44685,459.0045],[-82.06449,8.4615,212.7589],[-82.074,8.46749,149.252],[-82.08372,8.46434,108.3376],[-82.10025,8.45811,173.4835],[-82.13284,8.4492,184.1993],[-82.164,8.44874,102.3934],[-82.18017,8.45788,306.6227],[-82.17526,8.48248,215.3775],[-82.14291,8.55726,389.1143],[-82.15276,8.56873,579.2286],[-82.1565,8.58981,675.6134],[-82.14901,8.61937,986.1746],[-82.13963,8.70373,1421.5923],[-82.15322,8.76262,1159.0505],[-82.15485,8.76259,1175.3031],[-82.19617,8.77158,1172.5295],[-82.20399,8.77244,1077.5884],[-82.21808,8.77034,1306.4026],[-82.2235,8.76895,1430.7838],[-82.25087,8.77228,1645.7295],[-82.28169,8.77701,1442.7255],[-82.29978,8.78213,2004.7241],[-82.31779,8.79112,2043.5464],[-82.36114,8.80796,2154.0073],[-82.36295,8.80879,2184.8179],[-82.44594,8.84651,2089.6548],[-82.49227,8.86127,2043.2656],[-82.52971,8.86297,2772.1489],[-82.54077,8.88478,2475.4204],[-82.55162,8.8937,2477.7888],[-82.56769,8.89974,2331.9441],[-82.62495,8.90279,2445.7468],[-82.69275,8.89432,2246.5203],[-82.71453,8.9162,2102.5742]]]]}}