{"type": "Feature","bbox": [-81.0629,8.4151,-80.9124,8.6279],"geometry": {"type": "MultiPolygon","coordinates": [[[[-80.9124,8.4347,315.7524],[-80.9292,8.453,309.3432],[-80.9413,8.4602,546.58],[-80.9458,8.4651,691.7021],[-80.947,8.4689,699.3648],[-80.9466,8.4875,953.8436],[-80.9498,8.4947,824.7659],[-80.9701,8.508,883.6359],[-80.9729,8.5371,976.3226],[-80.9754,8.5437,1013.3606],[-80.9842,8.5548,968.1895],[-80.9776,8.5779,1233.8439],[-80.9914,8.5916,832.0035],[-80.9982,8.6042,635.1157],[-81.0187,8.6185,623.6864],[-81.0238,8.6276,934.9401],[-81.0303,8.6279,1006.7713],[-81.0446,8.6249,809.7222],[-81.0611,8.6198,1098.7373],[-81.0482,8.6098,651.3884],[-81.0313,8.6039,708.4758],[-81.0274,8.5993,737.9978],[-81.0259,8.5933,578.5674],[-81.0269,8.5845,756.1794],[-81.037,8.5564,703.4863],[-81.0553,8.5414,476.3343],[-81.0629,8.5322,333.1147],[-81.059,8.5205,392.8636],[-81.0596,8.5075,382.3028],[-81.0483,8.4979,421.5302],[-81.0317,8.4977,348.8954],[-81.0262,8.4962,440.8665],[-81.0164,8.4873,791.6985],[-81.0017,8.4802,992.2449],[-80.9925,8.4699,1117.3538],[-80.9865,8.4608,820.1946],[-80.9841,8.445,546.3075],[-80.9803,8.4358,526.6967],[-80.9844,8.4151,591.4591],[-80.9346,8.4185,222.7022],[-80.9124,8.4347,315.7524]]]]}
,"properties": {"GID_3": "PAN.13.9.2_1","GID_0": "PAN","country": "Panama","GID_1": "PAN.13_1","province": "Veraguas","NL_NAME_1": "NA","GID_2": "PAN.13.9_1","county": "SantaFe","NL_NAME_2": "NA","city": "ElAlto","VARNAME_3": "NA","NL_NAME_3": "NA","TYPE_3": "Corregimiento","ENGTYPE_3": "Municipality","CC_3": "NA","HASC_3": "NA","name": "El_Alto.city","area_km2": 153.3635,"hist_schema_id": "Elevation0-9000","hist_area_km2": {"200": 0.0839,"225": 1.8456,"250": 2.3909,"275": 2.6216,"300": 2.7474,"325": 2.6216,"350": 2.3279,"375": 2.8101,"400": 2.9988,"425": 3.3553,"450": 3.7746,"475": 4.2151,"500": 3.7117,"525": 3.523,"550": 3.0616,"575": 2.8728,"600": 3.2711,"625": 3.3549,"650": 3.6483,"675": 3.4805,"700": 3.5853,"725": 3.6062,"750": 3.3337,"775": 3.2917,"800": 2.5789,"825": 3.0192,"850": 3.0822,"875": 3.3967,"900": 3.6693,"925": 4.0677,"950": 3.6274,"975": 3.9629,"1000": 3.9,"1025": 4.1097,"1050": 4.3403,"1075": 3.4177,"1100": 3.8371,"1125": 3.7533,"1150": 3.3548,"1175": 3.9,"1200": 3.7113,"1225": 3.6064,"1250": 2.8935,"1275": 3.0403,"1300": 2.3903,"1325": 2.0757,"1350": 1.4677,"1375": 1.3209,"1400": 0.9016,"1425": 0.5661,"1450": 0.3145,"1475": 0.2306,"1500": 0.1258,"1525": 0.1258,"1550": 0.0419}}}