{"type": "Feature","bbox": [-82.8353,8.4287,-82.7345,8.5568],"geometry": {"type": "MultiPolygon","coordinates": [[[[-82.7766,8.4321,18.6151],[-82.7733,8.4404,22.9131],[-82.777,8.4689,42.8549],[-82.7737,8.4745,49.1526],[-82.7768,8.482,62.3605],[-82.7703,8.4888,79.0116],[-82.7661,8.4962,100.4482],[-82.7555,8.5018,132.7288],[-82.7513,8.5059,147.4382],[-82.7463,8.5145,169.5141],[-82.7362,8.5237,205.3657],[-82.7345,8.5313,239.459],[-82.736,8.5346,240.0873],[-82.7396,8.5361,246.6625],[-82.7707,8.5397,223.1508],[-82.7954,8.5555,243.4974],[-82.8061,8.5568,238.5155],[-82.8086,8.5541,245.5869],[-82.821,8.5493,217.2564],[-82.831,8.5412,165.1934],[-82.8277,8.5226,84.3847],[-82.8291,8.5131,75.7427],[-82.8258,8.4921,51.285],[-82.8315,8.4759,35.2092],[-82.8315,8.4673,28.8878],[-82.8353,8.4525,26.9089],[-82.8343,8.4454,22.373],[-82.8281,8.4416,28.9918],[-82.8277,8.4382,25.801],[-82.8243,8.4363,21.1447],[-82.8215,8.4368,20.635],[-82.8191,8.4301,20.319],[-82.8072,8.4306,22.4623],[-82.8046,8.4287,22.7573],[-82.7975,8.4312,17.5514],[-82.7766,8.4321,18.6151]]]]}
,"properties": {"GID_3": "PAN.2.5.1_1","GID_0": "PAN","country": "Panama","GID_1": "PAN.2_1","province": "Chiriquí","NL_NAME_1": "NA","GID_2": "PAN.2.5_1","county": "Bugaba","NL_NAME_2": "NA","city": "AserríodeGariché","VARNAME_3": "NA","NL_NAME_3": "NA","TYPE_3": "Corregimiento","ENGTYPE_3": "Municipality","CC_3": "NA","HASC_3": "NA","name": "Aserríode_Gariché.city","area_km2": 96.04056,"hist_schema_id": "Elevation0-9000","hist_area_km2": {"0": 0.4614,"25": 28.52173,"50": 12.07883,"75": 7.84254,"100": 8.07305,"125": 8.15678,"150": 8.19854,"175": 8.11451,"200": 6.98215,"225": 6.08047,"250": 1.53056}}}