{"type": "Feature","bbox": [-80.5156,7.4611,-80.3654,7.5381],"geometry": {"type": "MultiPolygon","coordinates": [[[[-80.5109,7.5361,363.1598],[-80.5033,7.5307,604.2853],[-80.5011,7.5256,604.1487],[-80.5076,7.5188,484.3365],[-80.5035,7.4888,371.5927],[-80.506,7.486,353.9239],[-80.5156,7.4815,309.9509],[-80.5135,7.4786,259.9187],[-80.5053,7.4779,351.5261],[-80.503,7.4714,334.0537],[-80.4985,7.4685,340.9055],[-80.4888,7.4692,198.7618],[-80.4789,7.4637,306.471],[-80.4669,7.4845,215.7379],[-80.4589,7.4872,219.7573],[-80.4488,7.488,70.2325],[-80.4415,7.483,117.2351],[-80.4418,7.4794,167.795],[-80.4401,7.4782,203.3689],[-80.4129,7.4763,28.4296],[-80.4119,7.4688,27.552],[-80.41,7.4673,18.8433],[-80.3824,7.4611,13.0452],[-80.3808,7.4633,13.265],[-80.3775,7.4833,166.0279],[-80.3752,7.4862,238.5168],[-80.3689,7.4891,297.902],[-80.3654,7.4942,243.1075],[-80.3665,7.5026,178.4625],[-80.3698,7.5079,230.1524],[-80.3686,7.5126,220.2114],[-80.37,7.5229,240.9085],[-80.3745,7.5349,460.49],[-80.4294,7.5381,177.2583],[-80.5109,7.5361,363.1598]]]]}
,"properties": {"GID_3": "PAN.9.7.7_1","GID_0": "PAN","country": "Panama","GID_1": "PAN.9_1","province": "LosSantos","NL_NAME_1": "NA","GID_2": "PAN.9.7_1","county": "Tonosí","NL_NAME_2": "NA","city": "Flores","VARNAME_3": "NA","NL_NAME_3": "NA","TYPE_3": "Corregimiento","ENGTYPE_3": "Municipality","CC_3": "NA","HASC_3": "NA","name": "Flores.city","area_km2": 104.61946,"hist_schema_id": "Elevation0-9000","hist_area_km2": {"0": 0.04205,"25": 9.03943,"50": 9.37549,"75": 3.5105,"100": 3.63661,"125": 3.88881,"150": 5.15002,"175": 6.07491,"200": 6.05385,"225": 6.07487,"250": 6.34814,"275": 6.57933,"300": 6.99975,"325": 6.64242,"350": 6.03285,"375": 5.42328,"400": 4.14102,"425": 2.5855,"450": 1.51344,"475": 0.86183,"500": 0.6306,"525": 0.69365,"550": 0.71467,"575": 0.50447,"600": 0.42039,"625": 0.48345,"650": 0.27326,"675": 0.27326,"700": 0.25224,"725": 0.18918,"750": 0.14714,"775": 0.06306}}}