{"type":"Feature","properties":{"GID_2":"PAN.13.10_1","GID_0":"PAN","country":"Panama","GID_1":"PAN.13_1","province":"Veraguas","NL_NAME_1":"NA","county":"Santiago","VARNAME_2":"NA","NL_NAME_2":"NA","TYPE_2":"Distrito","ENGTYPE_2":"District","CC_2":"NA","HASC_2":"PA.VR.SG","name":"Santiago.county"},
"geometry":{"type": "MultiPolygon","coordinates": [[[[-80.9298,7.8758,67.1196],[-80.9257,7.8839,109.3089],[-80.9229,7.8862,83.6067],[-80.9206,7.9018,106.5743],[-80.9143,7.9093,101.5965],[-80.9226,7.916,99.9794],[-80.9282,7.9174,121.7052],[-80.93,7.9198,136.0711],[-80.9299,7.9232,128.6244],[-80.9235,7.923,170.7984],[-80.9195,7.9202,221.0334],[-80.9157,7.923,234.1256],[-80.912,7.9229,220.8939],[-80.9027,7.9268,204.6996],[-80.8918,7.9213,188.3687],[-80.8797,7.9247,179.3855],[-80.8708,7.9231,175.5373],[-80.8663,7.9422,180.3199],[-80.8617,7.948,160.7965],[-80.8854,7.9523,188.9826],[-80.8972,7.9676,137.5049],[-80.9102,7.9612,106.7009],[-80.9252,7.9594,99.9591],[-80.9357,7.9703,140.627],[-80.9405,7.9872,108.5976],[-80.9471,8.0004,96.8395],[-80.9426,8.0262,137.2525],[-80.9386,8.0359,79.386],[-80.9395,8.046,77.9991],[-80.9261,8.074,82.8854],[-80.9244,8.0878,77.0531],[-80.9198,8.0936,71.5856],[-80.9155,8.103,64.8541],[-80.9119,8.1004,51.7463],[-80.9066,8.0817,85.9564],[-80.8914,8.0902,54.0312],[-80.8633,8.0917,39.7844],[-80.8401,8.0796,40.6737],[-80.8245,8.0662,33.4244],[-80.8224,8.067,32.7895],[-80.818,8.065,38.827],[-80.8163,8.0676,37.7216],[-80.8111,8.0687,39.2453],[-80.8047,8.0627,45.1805],[-80.7979,8.0636,66.4917],[-80.7941,8.0623,69.1648],[-80.7689,8.0734,45.0129],[-80.7537,8.0744,61.4011],[-80.7456,8.0863,50.7927],[-80.7338,8.0899,52.2368],[-80.7301,8.0951,40.1892],[-80.7258,8.1122,35.3772],[-80.7177,8.1228,26.653],[-80.7081,8.1263,20.9552],[-80.7037,8.1262,18.693],[-80.6854,8.1181,27.5645],[-80.6784,8.1167,19.4719],[-80.6713,8.1191,11.215],[-80.6702,8.1226,7.8749],[-80.6712,8.1263,11.9023],[-80.6768,8.1354,11.0241],[-80.6872,8.1412,15.6405],[-80.6945,8.153,14.2929],[-80.7095,8.1661,14.9223],[-80.7178,8.1631,15.9717],[-80.7308,8.1614,29.0188],[-80.7424,8.1643,28.4372],[-80.7547,8.1612,29.3717],[-80.7719,8.1618,41.2878],[-80.7864,8.1702,36.8829],[-80.7896,8.1806,23.2968],[-80.8232,8.1678,39.7574],[-80.8314,8.1734,24.3337],[-80.8436,8.1786,27.3428],[-80.8522,8.1909,30.4998],[-80.8652,8.1866,37.0915],[-80.8802,8.1936,60.812],[-80.893,8.191,42.3432],[-80.9042,8.2153,59.659],[-80.9156,8.2116,43.4391],[-80.9221,8.2187,53.6995],[-80.9302,8.2224,54.6367],[-80.9428,8.2273,62.4188],[-80.9554,8.2294,78.018],[-80.9617,8.2274,92.9994],[-80.9701,8.2174,61.7237],[-81.055,8.2544,99.7832],[-81.0582,8.2583,186.8429],[-81.0608,8.2671,101.6142],[-81.0611,8.2819,134.8487],[-81.0798,8.2777,117.9212],[-81.0983,8.2698,93.1056],[-81.1122,8.2674,94.0765],[-81.1362,8.2732,101.5806],[-81.124,8.2527,116.8896],[-81.1218,8.2455,112.2352],[-81.1108,8.2298,89.0537],[-81.096,8.2227,92.1138],[-81.0856,8.221,98.2741],[-81.0803,8.2185,111.3412],[-81.0657,8.2046,87.7572],[-81.0556,8.19,89.5073],[-81.0679,8.1774,64.6649],[-81.0723,8.1687,61.0355],[-81.0715,8.1604,72.178],[-81.073,8.1458,75.1888],[-81.0672,8.1001,82.7798],[-81.0693,8.0695,42.3437],[-81.0644,8.0585,40.1766],[-81.0642,8.0541,44.0512],[-81.0569,8.058,27.3136],[-81.039,8.079,58.6896],[-81.0298,8.0871,99.1942],[-81.0246,8.0594,87.0118],[-81.0243,8.0501,18.113],[-81.0213,8.044,33.0975],[-81.0168,8.0401,69.0883],[-81.0067,8.038,60.348],[-80.9791,8.0267,77.8752],[-80.9776,8.0223,86.9471],[-80.9796,8.0174,96.8944],[-80.9929,8.0089,77.4098],[-80.9967,8.0047,49.0771],[-81.0017,7.9815,43.4772],[-81.0047,7.9749,9.7241],[-80.982,7.9658,62.6161],[-80.9785,7.9537,67.8942],[-80.9816,7.9446,52.2062],[-80.9785,7.9367,81.8327],[-80.9792,7.9339,74.5527],[-80.9836,7.9303,147.6243],[-80.999,7.9246,144.5703],[-81.0421,7.8989,91.8064],[-81.0577,7.8851,0.0],[-81.0537,7.8843,7.6755],[-81.0485,7.8779,0.0],[-81.0443,7.8776,12.6083],[-81.039,7.8818,2.6483],[-81.0365,7.8776,6.9754],[-81.0401,7.8807,0.0],[-81.0437,7.8765,12.6109],[-81.0485,7.8768,15.1336],[-81.0524,7.8787,12.6742],[-81.0554,7.8835,0.0],[-81.0593,7.8818,11.6756],[-81.0635,7.8824,0.0],[-81.0665,7.8787,1.2721],[-81.0621,7.8665,0.0],[-81.0629,7.8624,2.2377],[-81.061,7.8601,0.0],[-81.0618,7.8579,22.2837],[-81.0621,7.8607,7.1244],[-81.0646,7.8607,0.0],[-81.066,7.8488,0.0],[-81.0615,7.8326,11.6836],[-81.0624,7.8251,0.0],[-81.0557,7.8221,5.8855],[-81.0304,7.8221,0.0],[-81.0279,7.8257,12.3499],[-81.0212,7.8302,2.9453],[-81.0215,7.8404,0.0],[-81.0251,7.8418,10.7265],[-81.026,7.8437,3.2947],[-81.0207,7.8421,2.2934],[-81.0193,7.8349,2.5773],[-81.0204,7.8282,4.8739],[-81.0168,7.8254,20.4783],[-81.0224,7.8274,0.0],[-81.0288,7.8207,0.0],[-81.0343,7.819,0.0],[-81.0687,7.8176,0.0],[-81.0785,7.8099,0.0],[-81.0863,7.7965,23.6612],[-81.0907,7.7785,0.0],[-81.0901,7.7729,5.3097],[-81.0799,7.7657,2.342],[-81.0751,7.7562,0.0],[-81.0654,7.7568,0.0],[-81.0607,7.7637,5.0352],[-81.0526,7.7587,11.9648],[-81.0535,7.7585,13.909],[-81.0571,7.7607,0.6431],[-81.0604,7.7607,1.9474],[-81.0649,7.7549,0.0],[-81.0646,7.7468,0.0],[-81.0557,7.7507,3.8331],[-81.0401,7.7499,0.0],[-81.0332,7.7529,1.0274],[-81.0285,7.7432,5.0379],[-81.0196,7.7446,2.8872],[-81.0246,7.7421,7.7172],[-81.0287,7.7421,5.0379],[-81.0349,7.7513,1.6838],[-81.0376,7.7457,0.0],[-81.0242,7.7305,9.0921],[-81.0055,7.7316,16.3659],[-80.9907,7.7247,18.7974],[-80.985,7.7303,11.6132],[-80.9748,7.7329,31.1589],[-80.9695,7.738,13.8506],[-80.9614,7.7528,36.6933],[-80.9602,7.7595,95.0526],[-80.9633,7.765,81.0759],[-80.9622,7.7696,49.8083],[-80.9585,7.7725,104.1103],[-80.9524,7.772,90.3105],[-80.949,7.7785,165.247],[-80.9481,7.7993,151.8006],[-80.9373,7.8203,347.5767],[-80.9389,7.8297,395.7805],[-80.9322,7.8537,394.2226],[-80.9298,7.8758,67.1196]]]]}}