{"type": "Feature","bbox": [-79.8574,9.3054,-79.7886,9.3598],"geometry": {"type": "MultiPolygon","coordinates": [[[[-79.8519,9.3078,25.0],[-79.8504,9.3054,25.0],[-79.849,9.3076,42.0778],[-79.8432,9.3085,25.0],[-79.839,9.3138,44.5433],[-79.8385,9.3093,29.8176],[-79.836,9.3093,25.0],[-79.8346,9.3143,38.6491],[-79.8324,9.3149,25.0],[-79.8313,9.3174,33.2639],[-79.829,9.3174,25.0],[-79.8296,9.3224,39.4155],[-79.8262,9.3204,25.0],[-79.826,9.3249,31.2184],[-79.8235,9.3285,34.6105],[-79.8262,9.329,27.9006],[-79.8274,9.3254,35.4541],[-79.8326,9.3262,27.7372],[-79.8343,9.3251,27.3536],[-79.8343,9.3235,25.0],[-79.8318,9.3229,25.0],[-79.834,9.3218,25.0],[-79.8337,9.3176,25.0],[-79.836,9.3174,41.6616],[-79.8354,9.3212,25.0],[-79.8374,9.3212,25.0],[-79.8415,9.3171,25.0],[-79.8487,9.3188,25.0],[-79.8521,9.3176,25.0],[-79.8529,9.3146,25.0],[-79.8507,9.314,29.5777],[-79.8507,9.3126,25.0],[-79.8532,9.3138,25.0],[-79.8574,9.3076,31.2237],[-79.8549,9.3065,25.0],[-79.8512,9.3087,34.963],[-79.8519,9.3078,25.0]]],
[[[-79.824,9.3338,25.0],[-79.8265,9.3343,25.0],[-79.8271,9.3332,25.0],[-79.8254,9.3318,25.0],[-79.824,9.3338,25.0]]],
[[[-79.8223,9.3439,34.8687],[-79.826,9.3385,44.1567],[-79.831,9.3379,39.0193],[-79.8313,9.3343,25.0],[-79.8246,9.3351,25.0],[-79.8226,9.3379,43.6431],[-79.8238,9.3346,25.0],[-79.8196,9.3351,25.0],[-79.819,9.334,25.0],[-79.8218,9.3326,29.4897],[-79.8196,9.3324,31.5342],[-79.8196,9.331,29.904],[-79.8315,9.3315,25.0],[-79.8329,9.3285,25.0],[-79.829,9.3274,25.0],[-79.8265,9.3296,27.9006],[-79.824,9.3296,34.3482],[-79.821,9.3254,25.0],[-79.8199,9.3251,25.0],[-79.8207,9.3285,25.0],[-79.8157,9.326,25.0],[-79.8149,9.3279,28.9907],[-79.8176,9.3301,31.7641],[-79.8135,9.3282,25.0],[-79.816,9.3307,31.7108],[-79.8143,9.3315,39.6343],[-79.811,9.3274,26.846],[-79.8104,9.3326,27.1948],[-79.8138,9.334,25.0],[-79.8112,9.3346,27.9304],[-79.8085,9.3285,30.2455],[-79.8096,9.3265,36.1398],[-79.8118,9.3268,31.2415],[-79.8135,9.3246,36.2315],[-79.8168,9.3237,25.0],[-79.8146,9.3221,45.2716],[-79.816,9.3212,25.0],[-79.8146,9.319,25.0],[-79.8107,9.3201,25.0],[-79.8107,9.3185,25.0],[-79.8132,9.3168,32.7139],[-79.8187,9.3182,27.8596],[-79.8182,9.3151,33.0399],[-79.8204,9.3149,25.0],[-79.821,9.3129,25.0],[-79.8031,9.3133,58.7257],[-79.7886,9.3246,86.2355],[-79.795,9.3394,78.9157],[-79.8109,9.3598,13.9061],[-79.8149,9.3583,10.7525],[-79.8222,9.3463,61.4469],[-79.8223,9.3439,34.8687]]]]}
,"properties": {"GID_3": "PAN.4.2.11_1","GID_0": "PAN","country": "Panama","GID_1": "PAN.4_1","province": "Colón","NL_NAME_1": "NA","GID_2": "PAN.4.2_1","county": "Colón","NL_NAME_2": "NA","city": "Sabanitas","VARNAME_3": "NA","NL_NAME_3": "NA","TYPE_3": "Corregimiento","ENGTYPE_3": "Municipality","CC_3": "NA","HASC_3": "NA","name": "Sabanitas.city","area_km2": 15.79588,"hist_schema_id": "Elevation0-9000","hist_area_km2": {"0": 0.73221,"25": 5.64882,"50": 6.19285,"75": 2.40603,"100": 0.79504,"125": 0.02092}}}