{"type": "Feature","bbox": [-80.7383,7.4619,-80.5011,7.5384],"geometry": {"type": "MultiPolygon","coordinates": [[[[-80.7346,7.5101,816.6859],[-80.7383,7.5003,666.1585],[-80.7382,7.4969,476.3464],[-80.735,7.4886,514.5442],[-80.7242,7.4725,857.3939],[-80.7242,7.4674,636.0646],[-80.7164,7.4653,576.2219],[-80.6988,7.4694,571.9159],[-80.6933,7.4686,509.7844],[-80.6884,7.4724,612.2443],[-80.6811,7.4714,571.34],[-80.666,7.4768,358.9527],[-80.6556,7.4756,320.7121],[-80.6428,7.48,186.1187],[-80.6392,7.4786,165.6573],[-80.631,7.4707,156.4469],[-80.628,7.4632,146.7494],[-80.6255,7.4619,163.0987],[-80.6101,7.4675,89.6504],[-80.6045,7.4795,86.1385],[-80.5963,7.4736,81.8581],[-80.5873,7.4778,73.4418],[-80.5787,7.4746,62.8566],[-80.5607,7.4821,134.0605],[-80.5566,7.4854,81.5452],[-80.5511,7.4863,66.1531],[-80.5377,7.495,298.209],[-80.5324,7.495,397.6947],[-80.53,7.4923,286.7662],[-80.5233,7.4899,292.3342],[-80.5035,7.4888,371.5927],[-80.5076,7.5188,484.3365],[-80.5069,7.5209,500.5168],[-80.5011,7.5251,659.8203],[-80.5038,7.5311,604.2853],[-80.5109,7.5361,363.1598],[-80.5198,7.5384,316.9037],[-80.6396,7.5159,237.5453],[-80.7346,7.5101,816.6859]]]]}
,"properties": {"GID_3": "PAN.9.7.1_1","GID_0": "PAN","country": "Panama","GID_1": "PAN.9_1","province": "LosSantos","NL_NAME_1": "NA","GID_2": "PAN.9.7_1","county": "Tonosí","NL_NAME_2": "NA","city": "AltosdeGüera","VARNAME_3": "NA","NL_NAME_3": "NA","TYPE_3": "Corregimiento","ENGTYPE_3": "Municipality","CC_3": "NA","HASC_3": "NA","name": "Altosde_Güera.city","area_km2": 126.12501,"hist_schema_id": "Elevation0-9000","hist_area_km2": {"50": 1.07207,"75": 5.21318,"100": 7.08399,"125": 8.72368,"150": 12.48645,"175": 11.30911,"200": 9.33313,"225": 6.53739,"250": 5.6125,"275": 3.44736,"300": 2.90083,"325": 3.04796,"350": 2.58552,"375": 2.90084,"400": 2.43839,"425": 2.41738,"450": 2.018,"475": 2.29128,"500": 1.78678,"525": 1.78679,"550": 1.57658,"575": 1.55556,"600": 2.03905,"625": 1.76577,"650": 1.95497,"675": 1.72374,"700": 1.87089,"725": 1.51353,"750": 1.66067,"775": 1.63967,"800": 1.38741,"825": 1.32434,"850": 1.47148,"875": 1.17719,"900": 1.11412,"925": 0.94595,"950": 0.96698,"975": 1.07208,"1000": 0.98799,"1025": 1.15616,"1050": 0.63063,"1075": 0.46247,"1100": 0.3994,"1125": 0.42042,"1150": 0.27328,"1175": 0.04204}}}