{"type": "Feature","bbox": [-79.9504,8.6399,-79.7954,8.7296],"geometry": {"type": "MultiPolygon","coordinates": [[[[-79.8285,8.6454,0.0],[-79.831,8.6451,6.9506],[-79.8326,8.6426,0.0],[-79.8301,8.6399,0.0],[-79.8288,8.6404,0.0],[-79.8285,8.6454,0.0]]],
[[[-79.7954,8.666,0.0],[-79.7967,8.6853,8.2815],[-79.8029,8.6838,0.0],[-79.8064,8.6873,28.9788],[-79.8104,8.6847,6.5986],[-79.8155,8.6858,1.9924],[-79.8178,8.6894,6.2304],[-79.8153,8.6951,8.1594],[-79.816,8.6981,3.7327],[-79.8354,8.7038,3.5505],[-79.8428,8.7166,3.653],[-79.8555,8.7203,11.6405],[-79.8599,8.7261,98.3926],[-79.8661,8.7296,209.5971],[-79.8736,8.7258,281.8257],[-79.8854,8.7235,136.3271],[-79.8996,8.7269,233.1263],[-79.9043,8.726,280.1052],[-79.9106,8.7237,231.9187],[-79.9283,8.7128,392.1251],[-79.9373,8.7162,483.3792],[-79.9458,8.7077,641.0434],[-79.9504,8.6968,770.7646],[-79.937,8.6907,872.0695],[-79.9202,8.6777,731.4978],[-79.9124,8.6685,508.2496],[-79.8952,8.6784,198.349],[-79.8803,8.6911,57.3073],[-79.8738,8.6932,47.8241],[-79.8667,8.6914,42.0061],[-79.8587,8.6947,25.2411],[-79.8538,8.6937,20.3114],[-79.8472,8.6885,8.6573],[-79.8447,8.6823,7.0046],[-79.8482,8.6663,2.0189],[-79.8465,8.6613,3.6373],[-79.8521,8.6571,0.0],[-79.8524,8.6549,0.0],[-79.8424,8.6501,0.0],[-79.8349,8.6426,2.3943],[-79.8276,8.6476,2.7284],[-79.8271,8.651,3.5318],[-79.8254,8.6507,3.131],[-79.8213,8.6563,1.1326],[-79.8168,8.6565,0.0],[-79.8096,8.6524,4.003],[-79.8051,8.6529,3.9217],[-79.801,8.6613,0.0],[-79.7954,8.666,0.0]]]]}
,"properties": {"GID_3": "PAN.11.2.2_1","GID_0": "PAN","country": "Panama","GID_1": "PAN.11_1","province": "PanamáOeste","NL_NAME_1": "NA","GID_2": "PAN.11.2_1","county": "Capira","NL_NAME_2": "NA","city": "Campana","VARNAME_3": "NA","NL_NAME_3": "NA","TYPE_3": "Corregimiento","ENGTYPE_3": "Municipality","CC_3": "NA","HASC_3": "NA","name": "Campana.city","area_km2": 72.76857,"hist_schema_id": "Elevation0-9000","hist_area_km2": {"0": 30.03499,"25": 4.42215,"50": 2.30538,"75": 1.50896,"100": 1.23651,"125": 1.02694,"150": 2.47297,"175": 2.05385,"200": 2.15862,"225": 2.473,"250": 1.73949,"275": 1.55088,"300": 1.36228,"325": 1.42517,"350": 1.15271,"375": 1.17367,"400": 1.23655,"425": 1.17366,"450": 1.06888,"475": 1.08984,"500": 0.88026,"525": 1.15272,"550": 0.90122,"575": 1.04793,"600": 0.8593,"625": 0.71259,"650": 0.62876,"675": 0.46109,"700": 0.50301,"725": 0.44014,"750": 0.37726,"775": 0.50301,"800": 0.41918,"825": 0.41917,"850": 0.31438,"875": 0.18863,"900": 0.10479,"925": 0.08384,"950": 0.08384,"975": 0.02096}}}