{"type": "Feature","bbox": [-79.5292,9.0314,-79.4844,9.0489],"geometry": {"type": "MultiPolygon","coordinates": [[[[-79.5193,9.0366,37.4135],[-79.517,9.0333,38.2783],[-79.5131,9.0353,35.0145],[-79.5114,9.0314,36.5012],[-79.5105,9.0381,44.9957],[-79.5005,9.0356,42.4843],[-79.5013,9.0381,71.7576],[-79.4974,9.0392,59.786],[-79.4968,9.0374,61.5992],[-79.4905,9.0382,27.9531],[-79.487,9.0367,16.8257],[-79.4844,9.0388,32.1804],[-79.4881,9.0445,26.4084],[-79.4942,9.0489,77.3631],[-79.5073,9.0459,58.9972],[-79.5292,9.0459,62.0522],[-79.5193,9.0366,37.4135]]]]}
,"properties": {"GID_3": "PAN.12.7.1_1","GID_0": "PAN","country": "Panama","GID_1": "PAN.12_1","province": "Panamá","NL_NAME_1": "NA","GID_2": "PAN.12.7_1","county": "SanMiguelito","NL_NAME_2": "NA","city": "AmeliaDenisdeIcaza","VARNAME_3": "NA","NL_NAME_3": "NA","TYPE_3": "Corregimiento","ENGTYPE_3": "Municipality","CC_3": "NA","HASC_3": "NA","name": "Amelia_Denisde_Icaza.city","area_km2": 4.669342,"hist_schema_id": "Elevation0-9000","hist_area_km2": {"25": 0.942246,"50": 2.135756,"75": 1.340077,"100": 0.209386,"125": 0.020939,"150": 0.020939}}}