{"type": "Feature","bbox": [-80.936,7.6707,-80.8346,7.7852],"geometry": {"type": "MultiPolygon","coordinates": [[[[-80.8357,7.7183,780.4903],[-80.8346,7.7288,714.8777],[-80.8411,7.7441,616.4984],[-80.8501,7.7409,544.1154],[-80.8529,7.7342,681.6954],[-80.8585,7.7384,647.901],[-80.8632,7.763,316.4625],[-80.8676,7.7683,256.5647],[-80.8714,7.7783,194.3176],[-80.8774,7.7797,221.5632],[-80.8871,7.7788,243.5446],[-80.8911,7.7834,268.7089],[-80.8977,7.783,202.1357],[-80.9039,7.7852,209.0484],[-80.915,7.78,151.2995],[-80.9213,7.7753,91.608],[-80.936,7.7601,233.2789],[-80.9258,7.7608,246.693],[-80.9005,7.744,319.4689],[-80.9006,7.7351,266.3656],[-80.9074,7.7311,203.6838],[-80.8995,7.6866,333.5586],[-80.8908,7.6707,232.0047],[-80.8856,7.6734,279.5024],[-80.8817,7.6791,336.4764],[-80.8842,7.7094,531.3545],[-80.8801,7.7148,531.3154],[-80.8749,7.7154,619.0925],[-80.8705,7.712,566.0266],[-80.8644,7.7152,579.5183],[-80.8519,7.7069,471.7165],[-80.844,7.7175,858.0988],[-80.8357,7.7183,780.4903]]]]}
,"properties": {"GID_3": "PAN.7.2.3_1","GID_0": "PAN","country": "Panama","GID_1": "PAN.7_1","province": "Herrera","NL_NAME_1": "NA","GID_2": "PAN.7.2_1","county": "LasMinas","NL_NAME_2": "NA","city": "ElToro","VARNAME_3": "NA","NL_NAME_3": "NA","TYPE_3": "Corregimiento","ENGTYPE_3": "Municipality","CC_3": "NA","HASC_3": "NA","name": "El_Toro.city","area_km2": 57.75406,"hist_schema_id": "Elevation0-9000","hist_area_km2": {"75": 0.12604,"100": 0.42015,"125": 0.65123,"150": 1.19746,"175": 1.42857,"200": 2.18486,"225": 3.34037,"250": 3.94965,"275": 4.03373,"300": 4.20182,"325": 3.76066,"350": 3.71861,"375": 3.02531,"400": 2.35304,"425": 1.78577,"450": 1.68073,"475": 1.74376,"500": 1.32359,"525": 1.26056,"550": 1.15552,"575": 1.19755,"600": 1.53371,"625": 1.51269,"650": 1.3026,"675": 1.17654,"700": 1.13452,"725": 1.19755,"750": 1.02947,"775": 1.02947,"800": 0.81937,"825": 0.84039,"850": 0.63029,"875": 0.56727,"900": 0.31515,"925": 0.10505,"950": 0.02101}}}