{"type":"Feature","properties":{"GID_3":"PAN.12.6.16_1","GID_0":"PAN","country":"Panama","GID_1":"PAN.12_1","province":"Panamá","NL_NAME_1":"NA","GID_2":"PAN.12.6_1","county":"Panamá","NL_NAME_2":"NA","city":"SanFrancisco","VARNAME_3":"NA","NL_NAME_3":"NA","TYPE_3":"Corregimiento","ENGTYPE_3":"Municipality","CC_3":"NA","HASC_3":"NA","name":"San_Francisco.city"},
"geometry":{"type": "MultiPolygon","coordinates": [[[[-79.5193,8.9751,2.7774],[-79.5168,8.969,1.4158],[-79.5118,8.9738,3.1181],[-79.506,8.9754,0.0],[-79.5088,8.9768,12.7304],[-79.5079,8.9804,0.7022],[-79.4976,8.9876,0.0],[-79.491,8.9968,0.0],[-79.4943,8.9985,4.2182],[-79.494,9.0026,4.2126],[-79.4972,9.0054,7.3673],[-79.5061,9.0047,20.6206],[-79.5142,8.9989,42.9576],[-79.5087,8.991,18.1416],[-79.5082,8.9875,19.7218],[-79.5109,8.9823,12.0777],[-79.5193,8.9751,2.7774]]]]}}