{"type": "Feature","bbox": [-80.8714,7.7129,-80.7663,7.809],"geometry": {"type": "MultiPolygon","coordinates": [[[[-80.8,7.713,523.774],[-80.7953,7.7129,600.1749],[-80.7848,7.7192,530.9819],[-80.7758,7.7213,530.6686],[-80.7733,7.7276,640.7693],[-80.7949,7.7353,629.6404],[-80.781,7.7419,613.9489],[-80.7731,7.7558,455.9716],[-80.7681,7.7605,388.2866],[-80.7673,7.7646,359.0554],[-80.77,7.7706,374.9513],[-80.7663,7.7734,373.9968],[-80.7663,7.7783,342.8643],[-80.7889,7.7916,307.2205],[-80.7931,7.8017,397.9916],[-80.8078,7.8009,407.8724],[-80.8215,7.809,335.4794],[-80.8288,7.7997,193.2],[-80.8357,7.7944,189.6115],[-80.8345,7.7873,303.2677],[-80.8374,7.7827,313.9285],[-80.8462,7.7797,280.0345],[-80.8515,7.7808,272.6963],[-80.8561,7.7779,321.1294],[-80.8627,7.7801,301.967],[-80.8704,7.7802,197.3195],[-80.8714,7.7783,194.3176],[-80.8676,7.7683,256.5647],[-80.8632,7.763,316.4625],[-80.8595,7.7409,554.297],[-80.8556,7.735,690.1824],[-80.8524,7.7345,681.6954],[-80.8501,7.7409,544.1154],[-80.8414,7.7443,616.4984],[-80.8346,7.7288,714.8777],[-80.8357,7.7183,780.4903],[-80.8313,7.7173,773.8568],[-80.8242,7.7219,633.4479],[-80.8106,7.724,753.2501],[-80.8,7.713,523.774]]]]}
,"properties": {"GID_3": "PAN.7.2.5_1","GID_0": "PAN","country": "Panama","GID_1": "PAN.7_1","province": "Herrera","NL_NAME_1": "NA","GID_2": "PAN.7.2_1","county": "LasMinas","NL_NAME_2": "NA","city": "Leones","VARNAME_3": "NA","NL_NAME_3": "NA","TYPE_3": "Corregimiento","ENGTYPE_3": "Municipality","CC_3": "NA","HASC_3": "NA","name": "Leones.city","area_km2": 73.339,"hist_schema_id": "Elevation0-9000","hist_area_km2": {"175": 0.25207,"200": 1.02932,"225": 2.2057,"250": 3.02498,"275": 3.38211,"300": 3.92829,"325": 4.53751,"350": 5.02072,"375": 4.28552,"400": 4.20153,"425": 3.42428,"450": 2.92012,"475": 2.94115,"500": 3.59243,"525": 3.31936,"550": 3.19334,"575": 2.98329,"600": 3.36144,"625": 3.4245,"650": 3.86568,"675": 3.57154,"700": 2.35301,"725": 1.34458,"750": 0.39917,"775": 0.44119,"800": 0.16808,"825": 0.10505,"850": 0.06303}}}