{"type": "Feature","bbox": [-82.8927,8.8279,-82.3275,9.2855],"geometry": {"type": "MultiPolygon","coordinates": [[[[-82.7628,8.998,2520.459],[-82.7507,8.9923,2447.564],[-82.7444,8.9857,2365.5784],[-82.7414,8.9852,2340.4941],[-82.7365,8.9764,2334.1379],[-82.742,8.9664,2254.2417],[-82.7356,8.9617,2160.415],[-82.7294,8.9597,2172.6724],[-82.727,8.9551,2105.0708],[-82.7166,8.9487,2245.8977],[-82.7122,8.9225,2406.3442],[-82.7205,8.9207,2421.8389],[-82.7252,8.9171,2350.291],[-82.7162,8.9031,2085.0825],[-82.7089,8.8992,2248.7854],[-82.7103,8.9082,2210.7292],[-82.6994,8.9195,2160.6809],[-82.6937,8.9007,2383.3474],[-82.6741,8.8899,2160.1733],[-82.6699,8.8908,2081.9004],[-82.6656,8.8941,2129.1787],[-82.6544,8.8845,2519.8745],[-82.6519,8.8862,2602.6387],[-82.6496,8.8938,2471.936],[-82.6416,8.9074,2506.46],[-82.6368,8.9076,2592.2544],[-82.6301,8.901,2657.1641],[-82.6274,8.9002,2409.4863],[-82.6156,8.9022,2355.3394],[-82.599,8.9112,2309.844],[-82.5955,8.9104,2396.907],[-82.591,8.9065,2360.1729],[-82.5837,8.9088,2640.3965],[-82.5698,8.9035,2461.1091],[-82.5648,8.8924,2258.5063],[-82.5564,8.8854,2327.0962],[-82.5536,8.8793,2240.4692],[-82.5351,8.863,2673.25],[-82.5302,8.8655,2833.3237],[-82.5159,8.8808,2379.7393],[-82.5074,8.8834,2255.4866],[-82.4884,8.8839,1948.4043],[-82.4831,8.8817,1780.6539],[-82.4706,8.8722,1812.6328],[-82.4587,8.8694,2032.561],[-82.4449,8.8576,1891.9108],[-82.4319,8.8528,1695.7104],[-82.4241,8.8522,1591.7726],[-82.4102,8.8442,1542.8389],[-82.402,8.8437,1603.4771],[-82.3847,8.8382,1694.6987],[-82.3817,8.8338,1710.3333],[-82.3781,8.8322,1839.7933],[-82.3586,8.8279,2046.6758],[-82.3563,8.8291,2091.9419],[-82.3489,8.8413,2020.0786],[-82.3502,8.8484,2018.1183],[-82.3475,8.852,1778.3062],[-82.3495,8.8615,1876.1315],[-82.3435,8.8815,1646.3838],[-82.3432,8.8901,1612.1057],[-82.3275,8.9035,1367.8348],[-82.3294,8.9167,1489.8468],[-82.337,8.9239,1263.9181],[-82.3379,8.9329,1418.8468],[-82.3416,8.938,1198.9745],[-82.3449,8.9498,876.3832],[-82.3661,8.97,407.5909],[-82.3725,8.9728,362.7479],[-82.3843,8.9726,528.8028],[-82.398,8.9785,439.8371],[-82.4124,8.9805,598.5952],[-82.4192,8.9842,688.4237],[-82.4258,8.9847,821.8045],[-82.441,8.9929,302.8741],[-82.4454,8.9969,330.498],[-82.4432,9.0019,346.0318],[-82.4355,9.007,282.0766],[-82.4239,9.0089,610.7266],[-82.415,9.0126,479.5149],[-82.4106,9.0221,403.2383],[-82.4064,9.0258,453.5291],[-82.4009,9.0568,547.7665],[-82.3981,9.0608,527.5856],[-82.3982,9.0667,424.3553],[-82.4029,9.0721,418.9987],[-82.4024,9.0746,454.6575],[-82.3998,9.0767,331.6482],[-82.3995,9.0828,410.7716],[-82.4,9.0852,398.3195],[-82.4046,9.0889,354.2806],[-82.4032,9.0989,346.6617],[-82.4047,9.103,269.8521],[-82.4151,9.1114,319.1396],[-82.4217,9.1099,375.3055],[-82.422,9.1112,361.2644],[-82.4149,9.1532,365.5864],[-82.4121,9.1579,383.6713],[-82.4084,9.1589,324.2897],[-82.4047,9.1622,320.6348],[-82.4014,9.1624,303.8679],[-82.4039,9.178,280.556],[-82.4013,9.1832,226.4237],[-82.3911,9.185,158.9255],[-82.3787,9.176,181.1749],[-82.3731,9.1973,185.5377],[-82.3791,9.2062,134.627],[-82.3832,9.2181,271.2699],[-82.4276,9.2579,83.5685],[-82.4391,9.2653,222.6969],[-82.4638,9.2855,385.6774],[-82.4653,9.2847,393.4628],[-82.4654,9.2791,426.1412],[-82.4799,9.2793,209.9855],[-82.4825,9.2757,97.1329],[-82.4874,9.2763,106.3975],[-82.4922,9.2841,216.2085],[-82.4981,9.2827,161.6786],[-82.5047,9.2853,168.5249],[-82.5062,9.2848,168.5249],[-82.5076,9.2793,71.5238],[-82.5158,9.2775,110.1751],[-82.5215,9.2657,186.3716],[-82.5214,9.2601,298.8344],[-82.5241,9.2558,342.9269],[-82.5216,9.2535,315.7949],[-82.5157,9.2534,500.2455],[-82.5095,9.2363,358.9515],[-82.5096,9.2337,305.3403],[-82.5129,9.2301,364.8726],[-82.5146,9.2177,494.6014],[-82.5206,9.2138,344.0915],[-82.5255,9.2039,370.5689],[-82.528,9.2039,318.2473],[-82.5315,9.2067,503.8846],[-82.5408,9.1983,371.7462],[-82.5517,9.1963,670.4336],[-82.5544,9.1931,674.429],[-82.5584,9.1917,720.4012],[-82.5663,9.1796,572.558],[-82.5687,9.1782,592.1671],[-82.5725,9.1695,746.7716],[-82.5804,9.1658,1153.6058],[-82.5868,9.1645,1215.9406],[-82.5949,9.1671,1208.9165],[-82.6162,9.1873,1429.7772],[-82.6222,9.1957,1628.1252],[-82.6323,9.1891,1646.5348],[-82.6369,9.1818,1636.0786],[-82.6401,9.181,1733.8538],[-82.6443,9.1848,1628.0848],[-82.6514,9.1976,1477.4833],[-82.6567,9.2029,1610.5635],[-82.6685,9.2098,1310.4396],[-82.6771,9.213,1360.6316],[-82.6892,9.2148,1424.6831],[-82.6945,9.2187,1549.8578],[-82.7218,9.2257,1925.2277],[-82.7252,9.2199,2070.5596],[-82.7311,9.2153,1970.8104],[-82.7295,9.2093,2070.3926],[-82.7302,9.2047,2063.9612],[-82.7396,9.2022,1844.6737],[-82.7547,9.1903,2027.1313],[-82.763,9.1883,1999.323],[-82.7726,9.1735,2297.7454],[-82.7727,9.1698,2402.6934],[-82.774,9.1685,2381.6465],[-82.7808,9.1687,2409.7083],[-82.7853,9.1631,2418.1106],[-82.7973,9.155,2473.7388],[-82.8082,9.1375,2678.0601],[-82.8138,9.1327,2560.9243],[-82.8157,9.1282,2715.0059],[-82.8229,9.1205,2476.896],[-82.8426,9.1174,2638.5449],[-82.8487,9.1134,2724.0359],[-82.8725,9.1177,3256.1836],[-82.8735,9.1073,3246.1343],[-82.8784,9.0994,3202.8364],[-82.8927,9.089,3240.4541],[-82.8868,9.0873,3208.4089],[-82.8879,9.0832,3104.2688],[-82.8871,9.0798,3037.3782],[-82.8823,9.0707,3006.1489],[-82.8795,9.07,3063.4565],[-82.878,9.0607,2902.0803],[-82.8742,9.0575,2829.5947],[-82.8707,9.0574,2835.5842],[-82.8705,9.0556,2846.5879],[-82.8682,9.0544,2857.1326],[-82.8639,9.0578,2828.5693],[-82.8632,9.056,2839.9695],[-82.8586,9.0564,2917.564],[-82.8588,9.0537,2896.3315],[-82.8569,9.0533,2945.3445],[-82.8577,9.0507,2957.5986],[-82.855,9.046,2959.6528],[-82.8507,9.0464,2889.5259],[-82.8465,9.042,2804.7942],[-82.8443,9.0429,2815.5452],[-82.8446,9.0404,2818.2468],[-82.8401,9.0399,2822.9521],[-82.8356,9.0338,2912.0657],[-82.83,9.0356,2915.8452],[-82.8239,9.0334,3032.5564],[-82.8233,9.0304,3100.354],[-82.8184,9.0305,3122.2483],[-82.8138,9.0234,2935.6858],[-82.815,9.0196,2951.6228],[-82.8035,9.0142,2783.4316],[-82.8053,9.0096,2756.4229],[-82.7996,9.0034,2658.0107],[-82.7852,9.0036,2578.3062],[-82.7823,9.0054,2567.6199],[-82.7777,9.0031,2539.4231],[-82.7741,9.0037,2548.1226],[-82.7708,8.9997,2589.9111],[-82.7656,8.9974,2476.6953],[-82.7628,8.998,2520.459]]]]}
,"properties": {"GID_3": "PAN.1.2.5_1","GID_0": "PAN","country": "Panama","GID_1": "PAN.1_1","province": "BocasdelToro","NL_NAME_1": "NA","GID_2": "PAN.1.2_1","county": "Changuinola","NL_NAME_2": "NA","city": "ValledelRisco","VARNAME_3": "NA","NL_NAME_3": "NA","TYPE_3": "Corregimiento","ENGTYPE_3": "Municipality","CC_3": "NA","HASC_3": "NA","name": "Valledel_Risco.city","area_km2": 1670.525,"hist_schema_id": "Elevation0-9000","hist_area_km2": {"50": 0.649,"75": 4.855,"100": 8.915,"125": 10.38,"150": 19.024,"175": 10.757,"200": 12.809,"225": 14.693,"250": 15.28,"275": 15.07,"300": 15.971,"325": 17.52,"350": 19.216,"375": 18.966,"400": 19.49,"425": 20.789,"450": 21.606,"475": 21.23,"500": 21.146,"525": 22.298,"550": 23.91,"575": 23.805,"600": 25.02,"625": 25.418,"650": 23.953,"675": 23.493,"700": 22.99,"725": 22.676,"750": 22.027,"775": 21.504,"800": 22.048,"825": 20.855,"850": 19.557,"875": 17.945,"900": 18.698,"925": 17.736,"950": 17.652,"975": 17.128,"1000": 17.128,"1025": 16.27,"1050": 18.113,"1075": 16.396,"1100": 17.463,"1125": 16.228,"1150": 17.547,"1175": 19.285,"1200": 17.819,"1225": 19.997,"1250": 19.055,"1275": 17.024,"1300": 17.296,"1325": 17.778,"1350": 19.579,"1375": 17.841,"1400": 18.008,"1425": 17.38,"1450": 18.93,"1475": 18.469,"1500": 19.599,"1525": 18.825,"1550": 18.385,"1575": 16.982,"1600": 18.825,"1625": 18.008,"1650": 17.903,"1675": 17.296,"1700": 18.029,"1725": 17.778,"1750": 16.878,"1775": 16.312,"1800": 16.899,"1825": 16.228,"1850": 16.333,"1875": 14.679,"1900": 15.056,"1925": 14.407,"1950": 14.134,"1975": 13.297,"2000": 12.732,"2025": 11.873,"2050": 12.899,"2075": 10.805,"2100": 9.8,"2125": 9.737,"2150": 8.188,"2175": 8.209,"2200": 8.293,"2225": 8.0,"2250": 8.0,"2275": 7.56,"2300": 8.042,"2325": 7.874,"2350": 8.083,"2375": 7.916,"2400": 8.439,"2425": 8.251,"2450": 8.921,"2475": 7.581,"2500": 7.266,"2525": 7.727,"2550": 7.245,"2575": 6.051,"2600": 5.821,"2625": 5.653,"2650": 5.151,"2675": 5.13,"2700": 4.962,"2725": 4.837,"2750": 5.004,"2775": 4.104,"2800": 3.957,"2825": 3.832,"2850": 3.015,"2875": 2.617,"2900": 2.492,"2925": 2.178,"2950": 1.696,"2975": 1.612,"3000": 1.047,"3025": 1.277,"3050": 0.9,"3075": 0.712,"3100": 0.67,"3125": 0.607,"3150": 0.712,"3175": 0.691,"3200": 0.712,"3225": 0.586,"3250": 0.356,"3275": 0.167}}}