{"type":"Feature","properties":{"GID_3":"PAN.2.5.11_1","GID_0":"PAN","country":"Panama","GID_1":"PAN.2_1","province":"Chiriquí","NL_NAME_1":"NA","GID_2":"PAN.2.5_1","county":"Bugaba","NL_NAME_2":"NA","city":"SantoDomingo","VARNAME_3":"NA","NL_NAME_3":"NA","TYPE_3":"Corregimiento","ENGTYPE_3":"Municipality","CC_3":"NA","HASC_3":"NA","name":"Santo_Domingo.city"},
"geometry":{"type": "MultiPolygon","coordinates": [[[[-82.7087,8.4384,62.7899],[-82.7124,8.4798,134.377],[-82.7113,8.4863,148.1877],[-82.7069,8.4914,168.8562],[-82.7036,8.506,213.654],[-82.7052,8.5162,251.4134],[-82.7069,8.5186,260.0006],[-82.7143,8.5219,251.0082],[-82.716,8.5303,283.8302],[-82.7341,8.5207,219.2494],[-82.7362,8.5237,205.3657],[-82.7385,8.5223,179.0296],[-82.7401,8.519,198.536],[-82.7463,8.5145,169.5141],[-82.7513,8.5059,147.4382],[-82.7555,8.5018,132.7288],[-82.7661,8.4962,100.4482],[-82.7703,8.4888,79.0116],[-82.7766,8.4825,66.2622],[-82.7737,8.4745,49.1526],[-82.777,8.4689,42.8549],[-82.7733,8.4404,22.9131],[-82.7766,8.4321,18.6151],[-82.7314,8.4327,25.2374],[-82.7234,8.44,43.5023],[-82.7087,8.4384,62.7899]]]]}}