{"type":"Feature","properties":{"GID_3":"PAN.1.3.4_1","GID_0":"PAN","country":"Panama","GID_1":"PAN.1_1","province":"BocasdelToro","NL_NAME_1":"NA","GID_2":"PAN.1.3_1","county":"ChiriquíGrande","NL_NAME_2":"NA","city":"PuntaRobalo","VARNAME_3":"NA","NL_NAME_3":"NA","TYPE_3":"Corregimiento","ENGTYPE_3":"Municipality","CC_3":"NA","HASC_3":"NA","name":"Punta_Robalo.city"},
"geometry":{"type": "MultiPolygon","coordinates": [[[[-82.3138,9.1254,121.4428],[-82.3094,9.1195,92.9388],[-82.3089,9.1119,93.959],[-82.3069,9.1124,59.9366],[-82.3033,9.1174,30.2087],[-82.3004,9.1164,27.5897],[-82.3008,9.1087,154.0477],[-82.3041,9.1049,85.4103],[-82.3051,9.099,183.7388],[-82.3098,9.099,194.6759],[-82.3113,9.1026,113.055],[-82.3205,9.0933,233.4308],[-82.3008,9.0914,164.6848],[-82.3006,9.0863,271.7127],[-82.294,9.0868,105.9449],[-82.2931,9.0791,150.874],[-82.2899,9.0778,99.0963],[-82.2867,9.079,140.8129],[-82.2833,9.0876,83.9504],[-82.2757,9.0869,14.6598],[-82.2744,9.0805,17.178],[-82.2774,9.0759,14.1054],[-82.2805,9.0745,5.5558],[-82.2778,9.0685,23.0085],[-82.2821,9.0636,3.7487],[-82.2929,9.0606,10.6621],[-82.2981,9.0572,20.1032],[-82.3033,9.05,17.528],[-82.3147,9.0457,89.1972],[-82.3143,9.0427,91.5564],[-82.3083,9.0369,100.605],[-82.3085,9.0347,98.2122],[-82.3122,9.0346,99.9327],[-82.3193,9.0385,152.5737],[-82.3254,9.0362,285.9991],[-82.3297,9.025,224.5255],[-82.319,9.0165,48.0193],[-82.3249,9.0139,51.9847],[-82.3261,9.0107,73.743],[-82.3205,9.0047,76.209],[-82.3084,8.9989,103.3909],[-82.3007,8.9986,129.4062],[-82.2951,9.0064,146.4553],[-82.2857,9.0025,175.8965],[-82.2806,9.006,83.5211],[-82.2755,8.9996,218.7751],[-82.2798,8.9941,271.654],[-82.2788,8.9915,344.1623],[-82.2736,8.9876,290.3716],[-82.271,8.9883,312.3279],[-82.2711,8.9899,299.1287],[-82.2676,8.9893,335.6375],[-82.2635,8.993,220.0553],[-82.2598,9.0124,0.0],[-82.2635,9.0126,6.4528],[-82.2646,9.0157,4.7928],[-82.2601,9.019,7.3381],[-82.2535,9.0157,4.0775],[-82.2482,9.021,0.0],[-82.2499,9.0279,3.0086],[-82.2471,9.0313,0.0615],[-82.2462,9.0354,0.0],[-82.2465,9.0399,0.0],[-82.2485,9.0424,0.0],[-82.2479,9.0482,0.0],[-82.2496,9.0504,3.387],[-82.2474,9.0601,2.9203],[-82.2482,9.0685,0.0],[-82.246,9.0743,1.2463],[-82.2468,9.0804,0.0],[-82.2438,9.0851,0.989],[-82.2438,9.0899,1.6533],[-82.2468,9.0901,0.9204],[-82.2485,9.0885,0.0],[-82.246,9.0879,0.0],[-82.2479,9.0851,3.9502],[-82.2521,9.0851,13.0366],[-82.2588,9.0918,0.595],[-82.2613,9.0915,1.2192],[-82.2699,9.0957,25.835],[-82.2707,9.1004,0.0],[-82.2746,9.0979,3.8783],[-82.2751,9.1029,0.0],[-82.2774,9.1018,25.1486],[-82.2801,9.1074,11.6482],[-82.2768,9.1132,0.0],[-82.2867,9.1108,23.0346],[-82.2887,9.1116,74.8805],[-82.2942,9.1223,5.7745],[-82.2986,9.1232,59.743],[-82.3012,9.1263,47.4049],[-82.3007,9.1311,4.2495],[-82.304,9.138,9.4908],[-82.3097,9.1421,79.6085],[-82.3116,9.1403,38.3466],[-82.3138,9.1254,121.4428]]]]}}