{"type": "Feature","bbox": [-79.5154,8.9989,-79.4913,9.0231],"geometry": {"type": "MultiPolygon","coordinates": [[[[-79.4913,9.0166,7.2119],[-79.4952,9.0228,16.309],[-79.4972,9.0231,16.0677],[-79.5117,9.0196,51.2413],[-79.5118,9.0122,45.6657],[-79.5154,9.0064,37.7169],[-79.5142,8.9989,42.9576],[-79.4951,9.0151,14.4605],[-79.4913,9.0166,7.2119]]]]}
,"properties": {"GID_3": "PAN.12.6.14_1","GID_0": "PAN","country": "Panama","GID_1": "PAN.12_1","province": "Panamá","NL_NAME_1": "NA","GID_2": "PAN.12.6_1","county": "Panamá","NL_NAME_2": "NA","city": "RíoAbajo","VARNAME_3": "NA","NL_NAME_3": "NA","TYPE_3": "Corregimiento","ENGTYPE_3": "Municipality","CC_3": "NA","HASC_3": "NA","name": "Río_Abajo.city","area_km2": 3.287641,"hist_schema_id": "Elevation0-9000","hist_area_km2": {"0": 0.355985,"25": 2.177803,"50": 0.753853}}}