{"type": "Feature","bbox": [-80.7115,8.2667,-80.5012,8.3788],"geometry": {"type": "MultiPolygon","coordinates": [[[[-80.5012,8.2844,6.6139],[-80.5086,8.2973,4.6166],[-80.5023,8.3171,7.9165],[-80.5032,8.3219,8.4221],[-80.5077,8.3181,8.3404],[-80.5145,8.3178,8.9709],[-80.5179,8.315,10.3348],[-80.5205,8.3229,9.7931],[-80.5282,8.3174,10.8523],[-80.5348,8.3227,12.4257],[-80.5731,8.3307,27.2891],[-80.5811,8.3346,31.9857],[-80.5836,8.3388,46.3996],[-80.5896,8.3396,44.7299],[-80.5941,8.3428,48.591],[-80.6144,8.3304,68.1945],[-80.6097,8.3271,57.787],[-80.6436,8.3324,76.7498],[-80.6489,8.335,87.117],[-80.6616,8.3318,110.4257],[-80.6733,8.3337,120.7678],[-80.6813,8.341,114.5134],[-80.6852,8.3507,115.9429],[-80.6894,8.3542,127.5402],[-80.688,8.3628,139.8975],[-80.6938,8.3788,170.9112],[-80.6987,8.3766,157.6687],[-80.7113,8.366,119.7219],[-80.7115,8.3533,146.4957],[-80.7087,8.3441,120.1747],[-80.7057,8.3399,105.3493],[-80.6966,8.3327,123.6278],[-80.6751,8.3249,113.0437],[-80.6345,8.314,83.5973],[-80.6291,8.3101,76.5588],[-80.624,8.3089,91.6757],[-80.6136,8.2959,60.9697],[-80.5998,8.3008,89.1818],[-80.5966,8.3004,116.5337],[-80.5919,8.2957,143.4068],[-80.5852,8.2923,123.5965],[-80.5826,8.2816,33.3126],[-80.5713,8.2774,27.3043],[-80.5636,8.2672,26.2627],[-80.5514,8.27,14.1276],[-80.5403,8.2667,13.5558],[-80.534,8.2692,8.4351],[-80.528,8.2752,9.0776],[-80.5225,8.2765,5.9928],[-80.5138,8.2756,4.6341],[-80.5093,8.2824,3.8256],[-80.5012,8.2844,6.6139]]]]}
,"properties": {"GID_3": "PAN.3.4.1_1","GID_0": "PAN","country": "Panama","GID_1": "PAN.3_1","province": "Coclé","NL_NAME_1": "NA","GID_2": "PAN.3.4_1","county": "Natá","NL_NAME_2": "NA","city": "Capellania","VARNAME_3": "NA","NL_NAME_3": "NA","TYPE_3": "Corregimiento","ENGTYPE_3": "Municipality","CC_3": "NA","HASC_3": "NA","name": "Capellania.city","area_km2": 89.3934,"hist_schema_id": "Elevation0-9000","hist_area_km2": {"0": 11.95876,"25": 33.12764,"50": 11.09797,"75": 9.58755,"100": 9.29358,"125": 9.52393,"150": 4.11169,"175": 0.65033,"200": 0.04195}}}