{"type": "Feature","bbox": [-78.5111,8.6615,-78.2858,8.8379],"geometry": {"type": "MultiPolygon","coordinates": [[[[-78.324,8.7991,738.2916],[-78.3352,8.7954,608.0127],[-78.3444,8.797,624.5195],[-78.3491,8.8063,653.3345],[-78.3483,8.8228,440.9955],[-78.3537,8.8285,401.2626],[-78.3618,8.8321,332.2511],[-78.3818,8.8339,100.4536],[-78.389,8.8368,132.1292],[-78.402,8.8379,175.5055],[-78.43,8.8269,367.2939],[-78.4401,8.8283,483.5996],[-78.4561,8.8251,647.7259],[-78.4828,8.8049,818.4673],[-78.4771,8.7939,796.0405],[-78.476,8.7882,841.2253],[-78.4799,8.7761,715.6235],[-78.4793,8.7585,404.4185],[-78.4814,8.7504,319.4359],[-78.4883,8.7444,302.3944],[-78.4918,8.7385,251.3113],[-78.5025,8.7395,223.0814],[-78.5043,8.7383,210.4298],[-78.5055,8.7342,245.7879],[-78.5051,8.7195,266.788],[-78.5111,8.7039,248.5754],[-78.4825,8.7082,220.594],[-78.4735,8.7073,205.0203],[-78.4617,8.6969,171.4567],[-78.4517,8.694,181.3992],[-78.4414,8.6885,123.3763],[-78.4358,8.6805,76.378],[-78.4299,8.6753,76.3909],[-78.408,8.6691,42.0561],[-78.3969,8.6615,33.9872],[-78.3931,8.6617,37.3876],[-78.3825,8.6689,207.3501],[-78.3796,8.6745,192.3358],[-78.3789,8.6817,227.2298],[-78.3757,8.6838,117.4387],[-78.3606,8.6793,311.1619],[-78.3406,8.6819,450.6153],[-78.3244,8.6761,264.7102],[-78.3125,8.6751,233.1967],[-78.2965,8.6703,238.2891],[-78.2858,8.6691,297.8745],[-78.286,8.6902,322.7425],[-78.2914,8.7006,377.5747],[-78.3048,8.7197,414.2118],[-78.3075,8.7278,501.4129],[-78.3072,8.7405,557.98],[-78.3019,8.7513,299.412],[-78.3005,8.7588,300.4763],[-78.3021,8.763,245.4247],[-78.3092,8.7668,490.0756],[-78.311,8.772,402.8657],[-78.3117,8.7785,459.6862],[-78.309,8.7907,471.6114],[-78.3123,8.7957,487.6642],[-78.324,8.7991,738.2916]]]]}
,"properties": {"GID_3": "PAN.5.1.10_1","GID_0": "PAN","country": "Panama","GID_1": "PAN.5_1","province": "Darién","NL_NAME_1": "NA","GID_2": "PAN.5.1_1","county": "Chepigana","NL_NAME_2": "NA","city": "RíoCongoArriba","VARNAME_3": "NA","NL_NAME_3": "NA","TYPE_3": "Corregimiento","ENGTYPE_3": "Municipality","CC_3": "NA","HASC_3": "NA","name": "Río_Congo_Arriba.city","area_km2": 317.7699,"hist_schema_id": "Elevation0-9000","hist_area_km2": {"25": 3.2697,"50": 10.4578,"75": 22.0033,"100": 23.8466,"125": 18.7759,"150": 15.4234,"175": 14.7321,"200": 17.7079,"225": 18.1064,"250": 20.0554,"275": 18.4417,"300": 14.6693,"325": 12.4061,"350": 11.5258,"375": 10.6247,"400": 9.0737,"425": 7.7535,"450": 7.8582,"475": 7.4599,"500": 5.3644,"525": 4.9662,"550": 4.4632,"575": 3.8346,"600": 4.0022,"625": 3.0174,"650": 2.6193,"675": 1.6973,"700": 2.0954,"725": 1.2153,"750": 1.9277,"775": 1.8229,"800": 1.9067,"825": 1.362,"850": 1.32,"875": 1.0057,"900": 0.8172,"925": 0.9848,"950": 1.0476,"975": 0.7753,"1000": 0.901,"1025": 0.9429,"1050": 0.7962,"1075": 0.6705,"1100": 0.461,"1125": 0.5867,"1150": 0.5448,"1175": 0.461,"1200": 0.3143,"1225": 0.3771,"1250": 0.2933,"1275": 0.2724,"1300": 0.2724,"1325": 0.1676,"1350": 0.1257,"1375": 0.0419,"1400": 0.0629,"1425": 0.0419}}}