{"type":"Feature","properties":{"GID_3":"PAN.4.6.8_1","GID_0":"PAN","country":"Panama","GID_1":"PAN.4_1","province":"Colón","NL_NAME_1":"NA","GID_2":"PAN.4.6_1","county":"SantaIsabel","NL_NAME_2":"NA","city":"VientoFrío","VARNAME_3":"NA","NL_NAME_3":"NA","TYPE_3":"Corregimiento","ENGTYPE_3":"Municipality","CC_3":"NA","HASC_3":"NA","name":"Viento_Frío.city"},
"geometry":{"type": "MultiPolygon","coordinates": [[[[-79.3937,9.5135,122.7434],[-79.3856,9.508,139.3956],[-79.3757,9.5072,140.4398],[-79.3733,9.51,183.1931],[-79.3711,9.5164,180.1051],[-79.3743,9.5356,101.5041],[-79.3722,9.557,65.1144],[-79.3658,9.5636,29.3501],[-79.3671,9.574,7.5777],[-79.3699,9.5776,0.7472],[-79.3751,9.5776,0.0],[-79.3765,9.5824,0.0],[-79.3796,9.5815,3.881],[-79.3801,9.5782,9.3439],[-79.3829,9.5768,5.7025],[-79.394,9.5832,4.5476],[-79.404,9.5843,0.0],[-79.4068,9.5829,1.2514],[-79.4146,9.5851,3.0663],[-79.409,9.5714,36.2693],[-79.4105,9.5613,76.8922],[-79.401,9.551,38.1555],[-79.4013,9.5423,75.1704],[-79.3974,9.5335,89.368],[-79.3937,9.5135,122.7434]]]]}}