{"type": "Feature","bbox": [-82.3732,8.7547,-82.0984,8.9579],"geometry": {"type": "MultiPolygon","coordinates": [[[[-82.3732,8.831,1922.5934],[-82.3644,8.8259,2233.2852],[-82.3402,8.8218,2053.0103],[-82.3314,8.817,1784.5375],[-82.3223,8.8187,1237.5406],[-82.3146,8.8158,1431.5756],[-82.3111,8.818,1411.8379],[-82.3005,8.8146,1216.4197],[-82.2844,8.7964,1312.5878],[-82.2719,8.7764,1433.8529],[-82.2608,8.7664,1569.9276],[-82.2568,8.7674,1651.8104],[-82.2557,8.7745,1840.5024],[-82.251,8.7719,1622.5175],[-82.2426,8.7747,1688.0878],[-82.2363,8.7687,1501.1935],[-82.2257,8.7677,1425.4801],[-82.2237,8.77,1430.7838],[-82.215,8.7657,1216.0017],[-82.2022,8.7622,1041.9688],[-82.2009,8.7639,1078.2391],[-82.205,8.7703,1058.7194],[-82.2074,8.7788,1083.1444],[-82.2067,8.7812,1021.8848],[-82.2038,8.7821,972.8423],[-82.1985,8.7802,894.1474],[-82.1777,8.7642,1177.0977],[-82.1674,8.7628,1090.1345],[-82.1613,8.7587,1075.8868],[-82.1494,8.7615,1153.1641],[-82.1466,8.7597,1139.9274],[-82.1284,8.7595,1211.2317],[-82.101,8.7547,1130.6688],[-82.0984,8.7598,1222.3318],[-82.0996,8.7672,988.2578],[-82.1269,8.8021,1021.3743],[-82.1322,8.8053,870.0464],[-82.1441,8.8077,570.0538],[-82.1508,8.8136,500.9937],[-82.1483,8.8297,389.296],[-82.1517,8.8477,177.0492],[-82.1496,8.8508,235.6959],[-82.1411,8.856,77.1743],[-82.1399,8.8607,179.6132],[-82.1421,8.8672,99.8975],[-82.1383,8.8919,365.7469],[-82.129,8.9012,512.6201],[-82.1451,8.8978,423.4341],[-82.1576,8.8895,111.1996],[-82.1617,8.8782,141.1016],[-82.1686,8.8702,62.4267],[-82.1666,8.8624,68.4776],[-82.1675,8.8549,123.4601],[-82.1762,8.848,145.9476],[-82.1797,8.8477,88.3004],[-82.1894,8.8631,65.0485],[-82.1891,8.8683,64.3227],[-82.1855,8.8729,59.8961],[-82.1861,8.8803,56.8144],[-82.1926,8.8946,57.482],[-82.2125,8.8959,82.2058],[-82.2167,8.8988,87.8361],[-82.2149,8.9074,185.4897],[-82.2151,8.9213,304.0838],[-82.2105,8.9216,227.7708],[-82.2037,8.9158,138.6978],[-82.1988,8.9148,77.435],[-82.1967,8.9305,129.17],[-82.1994,8.9357,192.5481],[-82.1951,8.9387,113.957],[-82.1964,8.942,41.6265],[-82.1933,8.9429,16.3395],[-82.1933,8.9471,8.6022],[-82.1952,8.9502,14.5304],[-82.2029,8.9524,172.8345],[-82.212,8.9579,277.8941],[-82.2238,8.9576,635.6313],[-82.2261,8.9498,713.2487],[-82.2346,8.9453,724.1633],[-82.2394,8.9371,827.6758],[-82.2445,8.9351,626.2901],[-82.2572,8.9348,760.8876],[-82.262,8.9307,845.7448],[-82.2672,8.9218,1109.3125],[-82.2747,8.9229,1157.8805],[-82.2774,8.9218,1147.6375],[-82.2806,8.9175,1482.5865],[-82.2821,8.9073,1479.2103],[-82.2862,8.9034,1482.8008],[-82.2989,8.9015,1169.4313],[-82.3046,8.8967,1615.9819],[-82.3158,8.8944,1360.0568],[-82.3298,8.8986,1509.8883],[-82.3338,8.8982,1695.9622],[-82.3413,8.893,1593.2444],[-82.3435,8.8893,1612.1057],[-82.3435,8.8815,1646.3838],[-82.3495,8.8615,1876.1315],[-82.3475,8.852,1778.3062],[-82.3502,8.8484,2018.1183],[-82.349,8.8407,2020.0786],[-82.3573,8.8283,2131.6414],[-82.3732,8.831,1922.5934]]]]}
,"properties": {"GID_3": "PAN.10.2.2_1","GID_0": "PAN","country": "Panama","GID_1": "PAN.10_1","province": "NgöbeBuglé","NL_NAME_1": "NA","GID_2": "PAN.10.2_1","county": "Kankintú","NL_NAME_2": "NA","city": "Büri","VARNAME_3": "NA","NL_NAME_3": "NA","TYPE_3": "Corregimiento","ENGTYPE_3": "Municipality","CC_3": "NA","HASC_3": "NA","name": "Büri.city","area_km2": 327.7019,"hist_schema_id": "Elevation0-9000","hist_area_km2": {"0": 0.0209,"25": 0.1257,"50": 2.3042,"75": 6.7663,"100": 8.1908,"125": 6.9968,"150": 5.4046,"175": 5.9702,"200": 5.4884,"225": 6.117,"250": 5.7818,"275": 6.4522,"300": 6.8294,"325": 7.1436,"350": 6.7666,"375": 6.201,"400": 6.9343,"425": 6.7667,"450": 7.0601,"475": 6.7039,"500": 6.4316,"525": 6.1173,"550": 6.4525,"575": 5.7613,"600": 5.4888,"625": 4.8604,"650": 5.2793,"675": 5.6984,"700": 5.5936,"725": 5.2794,"750": 5.7823,"775": 5.3214,"800": 5.4262,"825": 4.9654,"850": 4.7559,"875": 5.0073,"900": 5.2377,"925": 5.0911,"950": 5.4682,"975": 5.5101,"1000": 4.8607,"1025": 4.8607,"1050": 4.7979,"1075": 5.1332,"1100": 5.4894,"1125": 4.9866,"1150": 5.2379,"1175": 4.5047,"1200": 4.2742,"1225": 4.1066,"1250": 3.5408,"1275": 3.7294,"1300": 3.5408,"1325": 3.2055,"1350": 2.6817,"1375": 2.6608,"1400": 2.6188,"1425": 2.3046,"1450": 1.9484,"1475": 1.9065,"1500": 1.9275,"1525": 1.7389,"1550": 1.7389,"1575": 1.9066,"1600": 1.718,"1625": 1.6132,"1650": 1.6132,"1675": 1.8437,"1700": 1.8018,"1725": 1.6341,"1750": 1.3408,"1775": 1.4456,"1800": 1.5085,"1825": 0.838,"1850": 1.0057,"1875": 0.7333,"1900": 0.419,"1925": 0.6076,"1950": 0.2514,"1975": 0.44,"2000": 0.3771,"2025": 0.3562,"2050": 0.1048,"2075": 0.2514,"2100": 0.1257,"2125": 0.1257,"2150": 0.1467,"2175": 0.0838,"2200": 0.0419,"2225": 0.021}}}