{"type": "Feature","bbox": [-80.3267,7.697,-80.278,7.758],"geometry": {"type": "MultiPolygon","coordinates": [[[[-80.2905,7.7411,82.0304],[-80.2952,7.7405,79.8933],[-80.3009,7.7367,41.4337],[-80.3029,7.7371,38.637],[-80.3073,7.7448,35.4372],[-80.3099,7.7534,32.6641],[-80.3148,7.7549,28.3764],[-80.3168,7.758,29.5324],[-80.319,7.7548,32.9999],[-80.3267,7.7359,186.8102],[-80.3168,7.7239,189.4657],[-80.3108,7.7197,119.9548],[-80.3113,7.7113,207.5721],[-80.3169,7.7023,132.4409],[-80.3154,7.6987,115.1454],[-80.3053,7.697,174.4112],[-80.2911,7.7033,50.985],[-80.283,7.7024,41.2485],[-80.2876,7.7089,97.6805],[-80.2898,7.7171,79.5953],[-80.278,7.7247,82.4641],[-80.2874,7.7306,57.1395],[-80.2862,7.7347,56.0664],[-80.2905,7.7411,82.0304]]]]}
,"properties": {"GID_3": "PAN.9.2.3_1","GID_0": "PAN","country": "Panama","GID_1": "PAN.9_1","province": "LosSantos","NL_NAME_1": "NA","GID_2": "PAN.9.2_1","county": "LasTablas","NL_NAME_2": "NA","city": "ElCarate","VARNAME_3": "NA","NL_NAME_3": "NA","TYPE_3": "Corregimiento","ENGTYPE_3": "Municipality","CC_3": "NA","HASC_3": "NA","name": "El_Carate.city","area_km2": 17.69025,"hist_schema_id": "Elevation0-9000","hist_area_km2": {"25": 1.51263,"50": 7.45847,"75": 3.44562,"100": 1.68081,"125": 1.53374,"150": 1.00848,"175": 0.6513,"200": 0.37818,"225": 0.02101}}}