{"type":"Feature","properties":{"GID_3":"PAN.12.6.17_1","GID_0":"PAN","country":"Panama","GID_1":"PAN.12_1","province":"Panamá","NL_NAME_1":"NA","GID_2":"PAN.12.6_1","county":"Panamá","NL_NAME_2":"NA","city":"SanMartín","VARNAME_3":"NA","NL_NAME_3":"NA","TYPE_3":"Corregimiento","ENGTYPE_3":"Municipality","CC_3":"NA","HASC_3":"NA","name":"San_Martín.city"},
"geometry":{"type": "MultiPolygon","coordinates": [[[[-79.1759,9.2378,284.1954],[-79.1951,9.2563,390.9438],[-79.2158,9.264,362.1418],[-79.2201,9.2639,454.9564],[-79.2274,9.256,409.0289],[-79.2383,9.2568,311.053],[-79.2437,9.2586,356.638],[-79.2516,9.2641,500.2256],[-79.2815,9.2734,554.6633],[-79.2869,9.2786,585.6793],[-79.2915,9.2867,499.2932],[-79.2938,9.2935,534.0561],[-79.2943,9.3028,737.5875],[-79.3055,9.2903,576.6809],[-79.3139,9.2876,511.0115],[-79.3258,9.2809,640.2805],[-79.3245,9.2544,497.1787],[-79.3184,9.2497,406.9715],[-79.3119,9.2471,350.3832],[-79.3016,9.2304,685.0848],[-79.2952,9.2261,845.9459],[-79.2919,9.221,744.6108],[-79.2936,9.2133,456.3589],[-79.3004,9.2026,459.6843],[-79.292,9.1964,182.8493],[-79.2892,9.1883,119.8142],[-79.292,9.1831,97.8524],[-79.3009,9.1758,118.1191],[-79.3026,9.1625,61.3525],[-79.299,9.1554,52.4544],[-79.2982,9.1444,52.7346],[-79.2893,9.1314,33.0739],[-79.2908,9.1228,57.8666],[-79.2888,9.1187,41.804],[-79.2853,9.1182,38.3325],[-79.2825,9.1257,25.4995],[-79.2687,9.1357,55.6654],[-79.2686,9.1497,53.6106],[-79.2665,9.157,54.5574],[-79.2609,9.1666,82.0961],[-79.2619,9.1771,65.2495],[-79.2546,9.1838,87.0079],[-79.2521,9.1885,69.1393],[-79.2482,9.1899,70.5947],[-79.246,9.1882,82.9498],[-79.244,9.1899,97.0396],[-79.2414,9.1996,107.6962],[-79.2377,9.2053,112.654],[-79.2337,9.2088,95.403],[-79.2251,9.2116,113.2605],[-79.2116,9.2208,129.1265],[-79.2073,9.2274,177.6278],[-79.2011,9.2312,292.9598],[-79.1886,9.2368,390.1831],[-79.1759,9.2378,284.1954]]]]}}