{"type":"Feature","properties":{"GID_3":"PAN.11.4.5_1","GID_0":"PAN","country":"Panama","GID_1":"PAN.11_1","province":"PanamáOeste","NL_NAME_1":"NA","GID_2":"PAN.11.4_1","county":"LaChorrera","NL_NAME_2":"NA","city":"ElArado","VARNAME_3":"NA","NL_NAME_3":"NA","TYPE_3":"Corregimiento","ENGTYPE_3":"Municipality","CC_3":"NA","HASC_3":"NA","name":"El_Arado.city"},
"geometry":{"type": "MultiPolygon","coordinates": [[[[-79.746,8.9571,113.6879],[-79.7462,8.9589,101.07],[-79.7519,8.9635,116.2977],[-79.7537,8.9732,137.3551],[-79.7745,8.9902,129.9897],[-79.7564,9.0227,102.6328],[-79.7692,9.0348,75.6931],[-79.7695,9.0503,88.1116],[-79.7731,9.0535,73.3632],[-79.7821,9.0565,68.3231],[-79.7891,9.0627,92.7127],[-79.793,9.0684,83.567],[-79.7951,9.0786,96.0218],[-79.7976,9.0815,40.6557],[-79.8021,9.0799,33.6894],[-79.8024,9.0821,31.4966],[-79.804,9.0801,35.6479],[-79.8035,9.0765,40.476],[-79.8065,9.0757,25.0],[-79.8065,9.0729,25.0],[-79.8046,9.0715,37.2986],[-79.809,9.0718,25.0],[-79.804,9.0676,49.71],[-79.8087,9.0676,39.8903],[-79.8082,9.0629,37.1855],[-79.811,9.0658,45.1538],[-79.8118,9.0618,53.3951],[-79.8066,9.0508,59.4113],[-79.8032,9.0364,65.6134],[-79.7949,9.0212,158.9483],[-79.7965,9.0186,114.0175],[-79.8068,9.0159,30.6298],[-79.8078,9.0129,33.376],[-79.8052,9.0068,39.0932],[-79.7981,8.9984,40.0274],[-79.792,8.9754,110.9251],[-79.7925,8.9581,115.746],[-79.8008,8.9456,106.1082],[-79.8023,8.9383,99.3145],[-79.7992,8.9322,83.211],[-79.7902,8.9242,62.0923],[-79.785,8.9134,96.5997],[-79.7837,8.9052,58.4309],[-79.7847,8.8948,45.8164],[-79.7751,8.9016,66.216],[-79.7683,8.9021,46.7207],[-79.7615,8.9068,18.0322],[-79.7682,8.9164,42.9358],[-79.7688,8.9296,78.0879],[-79.7621,8.9348,112.3845],[-79.7568,8.9429,175.1287],[-79.7476,8.9487,102.0462],[-79.7458,8.9528,125.9385],[-79.746,8.9571,113.6879]]],
[[[-79.7953,9.0912,25.0],[-79.7974,9.0924,55.6771],[-79.796,9.0976,28.0737],[-79.7937,9.0985,25.0],[-79.7935,9.1004,25.0],[-79.7943,9.1018,37.0118],[-79.7951,9.0999,44.8569],[-79.7968,9.101,43.9486],[-79.7949,9.1051,25.0],[-79.796,9.1076,32.4822],[-79.794,9.1074,25.0],[-79.7932,9.1137,25.0],[-79.7965,9.1165,35.4091],[-79.7996,9.1168,30.8142],[-79.7988,9.1124,25.0],[-79.801,9.111,25.0],[-79.7988,9.1046,25.0],[-79.7974,9.1046,28.791],[-79.799,9.1021,25.0],[-79.7982,9.0979,52.6116],[-79.8043,9.0976,34.1766],[-79.8049,9.0929,32.0577],[-79.8032,9.0913,29.7128],[-79.806,9.0879,32.7129],[-79.8071,9.0879,41.3726],[-79.8057,9.0899,28.3732],[-79.8065,9.0974,34.5459],[-79.8082,9.0982,34.5459],[-79.811,9.0968,37.1583],[-79.8129,9.0951,32.5026],[-79.8143,9.0874,47.0437],[-79.8099,9.0876,37.2088],[-79.8129,9.0843,25.3871],[-79.809,9.0835,27.1556],[-79.8085,9.0796,27.1268],[-79.8071,9.0793,27.1268],[-79.8051,9.0837,33.6379],[-79.8018,9.0829,45.429],[-79.801,9.0812,25.0],[-79.7982,9.0815,40.6557],[-79.7991,9.0893,67.5451],[-79.7953,9.0912,25.0]]]]}}