{"type": "Feature","bbox": [-78.4357,7.945,-78.2337,8.099],"geometry": {"type": "MultiPolygon","coordinates": [[[[-78.4104,8.099,4.2273],[-78.4205,8.0967,156.5639],[-78.4206,8.0938,203.6374],[-78.4235,8.0937,204.7721],[-78.4237,8.0861,239.9114],[-78.4267,8.0764,211.667],[-78.4347,8.0649,194.1992],[-78.4357,8.0593,116.8253],[-78.4355,8.0502,150.2347],[-78.4275,8.0282,158.1002],[-78.4269,8.0219,92.2428],[-78.424,8.0199,102.6447],[-78.424,8.0126,0.0],[-78.4215,8.0112,0.0],[-78.4225,8.0076,0.0],[-78.4197,8.0033,82.5792],[-78.4183,7.9916,95.491],[-78.4077,7.9867,99.2616],[-78.3923,7.9857,193.6388],[-78.3817,7.9822,450.4478],[-78.3701,7.9721,613.5689],[-78.3615,7.9599,979.7157],[-78.3374,7.945,360.8462],[-78.3262,7.9638,189.8266],[-78.2968,7.9653,212.2342],[-78.2912,7.973,94.4997],[-78.2838,7.9781,42.9477],[-78.2791,7.9845,36.6702],[-78.2645,7.9896,22.0702],[-78.2551,7.998,16.0769],[-78.243,8.006,11.9296],[-78.2422,8.0123,17.3874],[-78.2482,8.0274,7.4426],[-78.2472,8.0573,8.8818],[-78.2448,8.0606,22.1982],[-78.2337,8.0657,22.8528],[-78.2477,8.0751,15.1272],[-78.2521,8.0819,17.5361],[-78.2575,8.0815,8.4241],[-78.2599,8.0747,30.2969],[-78.2624,8.0724,15.7445],[-78.2653,8.0723,14.792],[-78.2653,8.0693,36.3416],[-78.2683,8.065,4.2569],[-78.2739,8.0679,34.9056],[-78.2754,8.0708,22.2323],[-78.2824,8.0726,23.2573],[-78.284,8.0799,15.4055],[-78.287,8.0828,18.8663],[-78.2898,8.0829,0.0],[-78.3057,8.0776,8.3852],[-78.3082,8.0729,0.0],[-78.311,8.0757,0.0],[-78.3249,8.0662,4.4694],[-78.3374,8.0607,0.0],[-78.3426,8.0607,0.0],[-78.3568,8.0646,1.8689],[-78.3601,8.0693,1.7393],[-78.3662,8.0696,7.3691],[-78.3676,8.0718,3.0238],[-78.3726,8.0718,1.0894],[-78.3737,8.0688,2.986],[-78.3782,8.0657,0.9461],[-78.3815,8.0671,0.0],[-78.3876,8.066,1.3288],[-78.3946,8.0696,0.0],[-78.4024,8.0682,3.4966],[-78.4062,8.0704,3.8451],[-78.4093,8.0701,0.7045],[-78.4124,8.0724,1.3453],[-78.4135,8.0754,3.702],[-78.4129,8.0763,0.9254],[-78.4093,8.0754,0.0],[-78.4062,8.0785,2.7864],[-78.4071,8.0874,0.0],[-78.409,8.0907,0.0],[-78.4126,8.0907,7.893],[-78.4104,8.099,4.2273]]]]}
,"properties": {"GID_3": "PAN.5.1.5_1","GID_0": "PAN","country": "Panama","GID_1": "PAN.5_1","province": "Darién","NL_NAME_1": "NA","GID_2": "PAN.5.1_1","county": "Chepigana","NL_NAME_2": "NA","city": "Garachiné","VARNAME_3": "NA","NL_NAME_3": "NA","TYPE_3": "Corregimiento","ENGTYPE_3": "Municipality","CC_3": "NA","HASC_3": "NA","name": "Garachiné.city","area_km2": 218.848,"hist_schema_id": "Elevation0-9000","hist_area_km2": {"0": 33.0223,"25": 63.884,"50": 22.0235,"75": 11.589,"100": 9.9725,"125": 8.293,"150": 6.5504,"175": 6.9914,"200": 6.1307,"225": 5.5638,"250": 4.7661,"275": 4.1782,"300": 3.6114,"325": 3.4434,"350": 3.4434,"375": 3.2964,"400": 2.2046,"425": 2.2466,"450": 1.9527,"475": 1.6377,"500": 1.7637,"525": 1.3648,"550": 1.3438,"575": 1.1128,"600": 0.8819,"625": 0.7139,"650": 0.9449,"675": 0.6509,"700": 0.6929,"725": 0.5669,"750": 0.6299,"775": 0.3779,"800": 0.3779,"825": 0.378,"850": 0.273,"875": 0.21,"900": 0.4199,"925": 0.168,"950": 0.357,"975": 0.273,"1000": 0.147,"1025": 0.147,"1050": 0.084,"1075": 0.042,"1100": 0.126}}}