{"type": "Feature","bbox": [-81.4985,7.9059,-81.3958,8.0908],"geometry": {"type": "MultiPolygon","coordinates": [[[[-81.4464,8.0908,461.9836],[-81.4631,8.0725,412.3739],[-81.4819,8.0715,342.786],[-81.4786,8.0641,326.1676],[-81.468,8.0517,278.4579],[-81.4657,8.0431,219.1179],[-81.4722,8.0285,193.3677],[-81.4901,8.0122,70.5974],[-81.4926,8.0068,120.4581],[-81.491,8.0031,146.193],[-81.4879,8.0011,183.1339],[-81.4732,7.9981,248.268],[-81.4699,7.9929,373.3971],[-81.4699,7.9861,360.4416],[-81.4727,7.9793,201.4147],[-81.4922,7.9721,160.4336],[-81.4973,7.9682,150.904],[-81.4985,7.9655,135.5835],[-81.4975,7.9629,106.2203],[-81.4807,7.9506,137.0071],[-81.476,7.9378,182.5616],[-81.4742,7.9199,404.8239],[-81.4665,7.9059,357.4734],[-81.4517,7.926,367.8941],[-81.4386,7.9638,360.8763],[-81.4345,7.9673,356.7776],[-81.4212,7.9732,250.2931],[-81.4185,7.9761,210.3696],[-81.4111,7.9917,288.9101],[-81.4065,8.011,148.5947],[-81.4072,8.0138,146.816],[-81.3958,8.031,194.7446],[-81.4071,8.0564,152.571],[-81.4196,8.0519,193.7959],[-81.4242,8.053,222.7077],[-81.4276,8.0563,219.1023],[-81.4391,8.0719,209.8047],[-81.4464,8.0908,461.9836]]]]}
,"properties": {"GID_3": "PAN.13.5.3_1","GID_0": "PAN","country": "Panama","GID_1": "PAN.13_1","province": "Veraguas","NL_NAME_1": "NA","GID_2": "PAN.13.5_1","county": "LasPalmas","NL_NAME_2": "NA","city": "ElMaría","VARNAME_3": "NA","NL_NAME_3": "NA","TYPE_3": "Corregimiento","ENGTYPE_3": "Municipality","CC_3": "NA","HASC_3": "NA","name": "El_María.city","area_km2": 108.58945,"hist_schema_id": "Elevation0-9000","hist_area_km2": {"75": 2.14137,"100": 4.74474,"125": 6.04652,"150": 9.02794,"175": 10.07783,"200": 12.00926,"225": 13.85669,"250": 11.08558,"275": 9.1122,"300": 7.87357,"325": 6.67694,"350": 5.1232,"375": 3.82143,"400": 2.30969,"425": 1.91076,"450": 1.4698,"475": 0.86092,"500": 0.294,"525": 0.126,"550": 0.021}}}