{"type": "Feature","bbox": [-78.9298,8.2949,-78.8037,8.399],"geometry": {"type": "MultiPolygon","coordinates": [[[[-78.8933,8.299,8.0632],[-78.8926,8.299,2.4154],[-78.8926,8.2993,2.4154],[-78.8933,8.2992,8.0632],[-78.8933,8.299,8.0632]]],
[[[-78.8532,8.376,0.0],[-78.8535,8.3771,0.0],[-78.8613,8.3758,56.7257],[-78.8692,8.3806,55.4147],[-78.884,8.3837,54.4448],[-78.901,8.3818,143.3627],[-78.9062,8.383,150.5082],[-78.9142,8.3686,79.0275],[-78.9145,8.3591,92.8444],[-78.9245,8.3453,22.0733],[-78.9298,8.3423,24.0944],[-78.9298,8.3394,27.9522],[-78.9264,8.3387,50.7505],[-78.9237,8.3407,41.5272],[-78.9236,8.3444,29.3808],[-78.9084,8.346,80.6851],[-78.9016,8.3423,79.0452],[-78.9019,8.3254,42.7424],[-78.8937,8.3177,18.3038],[-78.8873,8.315,19.0291],[-78.8859,8.3122,47.9366],[-78.8866,8.3049,36.9424],[-78.8925,8.2993,2.4154],[-78.8871,8.2993,0.0],[-78.8838,8.3012,15.013],[-78.8796,8.299,7.3778],[-78.8776,8.3012,4.3959],[-78.8757,8.2987,0.0],[-78.8724,8.3001,0.0],[-78.871,8.2971,2.9549],[-78.8676,8.2951,0.0],[-78.8629,8.2968,0.0],[-78.8574,8.2949,0.0],[-78.854,8.3004,2.4276],[-78.8515,8.3012,0.0],[-78.8543,8.3088,9.6044],[-78.8507,8.3151,3.3678],[-78.8424,8.3201,0.0],[-78.846,8.3274,32.7045],[-78.8446,8.3332,0.0],[-78.8399,8.3396,0.0],[-78.8332,8.3401,0.0],[-78.831,8.344,0.0],[-78.8326,8.3451,39.9362],[-78.8362,8.3438,13.2488],[-78.8385,8.3462,2.7106],[-78.8432,8.3446,15.8784],[-78.841,8.3476,0.0],[-78.8426,8.356,4.779],[-78.8393,8.3571,0.0],[-78.8385,8.3621,0.0],[-78.8404,8.3621,6.9585],[-78.841,8.3657,0.0],[-78.844,8.3671,0.0],[-78.8515,8.3674,0.0],[-78.8521,8.3693,10.4385],[-78.8493,8.3701,0.0],[-78.8482,8.3732,1.1911],[-78.8532,8.376,0.0]]],
[[[-78.809,8.3696,26.9711],[-78.8115,8.3657,13.6213],[-78.811,8.3588,0.0331],[-78.8096,8.361,0.0],[-78.806,8.3604,0.0],[-78.8037,8.3649,0.0],[-78.8049,8.3718,6.7643],[-78.809,8.3696,26.9711]]],
[[[-78.8101,8.3696,26.9711],[-78.8071,8.3754,0.0],[-78.8079,8.3799,0.0],[-78.8176,8.3929,0.0],[-78.8276,8.399,0.0],[-78.8349,8.3882,0.0],[-78.8388,8.376,0.0],[-78.8301,8.3674,0.0],[-78.8151,8.3657,0.0],[-78.8101,8.3696,26.9711]]]]}
,"properties": {"GID_3": "PAN.12.1.1_1","GID_0": "PAN","country": "Panama","GID_1": "PAN.12_1","province": "Panamá","NL_NAME_1": "NA","GID_2": "PAN.12.1_1","county": "Balboa","NL_NAME_2": "NA","city": "LaEnsenada","VARNAME_3": "NA","NL_NAME_3": "NA","TYPE_3": "Corregimiento","ENGTYPE_3": "Municipality","CC_3": "NA","HASC_3": "NA","name": "La_Ensenada.city","area_km2": 68.32377,"hist_schema_id": "Elevation0-9000","hist_area_km2": {"0": 7.4679,"25": 13.44699,"50": 17.5165,"75": 17.91467,"100": 8.60052,"125": 2.13961,"150": 0.79709,"175": 0.39854,"200": 0.04195}}}