{"type": "Feature","bbox": [-80.4413,8.5303,-80.3482,8.8977],"geometry": {"type": "MultiPolygon","coordinates": [[[[-80.3989,8.5627,254.3374],[-80.3964,8.5616,221.5844],[-80.3867,8.5446,79.249],[-80.387,8.5409,60.8971],[-80.3927,8.5354,70.1561],[-80.3937,8.5319,68.4838],[-80.3863,8.5303,69.8936],[-80.3795,8.5366,103.6458],[-80.3691,8.5431,88.4044],[-80.3643,8.5587,75.7533],[-80.3648,8.5679,84.0499],[-80.3544,8.5734,110.5649],[-80.3482,8.5798,142.1109],[-80.3523,8.5921,124.8798],[-80.3515,8.6012,203.2894],[-80.3542,8.6182,389.9901],[-80.3587,8.626,554.2394],[-80.3587,8.6389,512.2234],[-80.3544,8.6475,304.3642],[-80.358,8.6735,437.1324],[-80.3661,8.6977,560.8738],[-80.3732,8.705,284.799],[-80.3756,8.7121,223.1408],[-80.3721,8.718,210.0188],[-80.3664,8.7224,226.075],[-80.3556,8.7238,226.6004],[-80.3518,8.7268,204.4665],[-80.3526,8.7399,144.2225],[-80.3588,8.7478,123.9134],[-80.3602,8.7525,118.4594],[-80.3582,8.7547,119.5955],[-80.3522,8.7531,291.3092],[-80.3495,8.7541,293.0544],[-80.3486,8.7666,219.7412],[-80.3511,8.7718,114.233],[-80.3577,8.7749,162.8581],[-80.3603,8.7837,216.7847],[-80.3714,8.7818,191.1574],[-80.3744,8.7827,162.4032],[-80.3803,8.7907,237.2135],[-80.3793,8.8004,138.6522],[-80.3854,8.8099,149.531],[-80.3846,8.8168,98.1749],[-80.3815,8.8216,128.5889],[-80.3715,8.8237,116.7241],[-80.3714,8.829,67.8904],[-80.3676,8.8282,104.5944],[-80.3665,8.8294,91.5709],[-80.367,8.8327,91.8182],[-80.3733,8.8369,164.9576],[-80.3695,8.8472,60.3977],[-80.3705,8.8598,131.586],[-80.3652,8.8809,64.3921],[-80.3708,8.881,79.8376],[-80.3763,8.8872,125.1387],[-80.383,8.8888,126.6184],[-80.3902,8.8937,107.8967],[-80.3973,8.8959,111.4469],[-80.4227,8.8943,97.0167],[-80.4339,8.8977,46.6746],[-80.4261,8.8714,107.0815],[-80.4214,8.8425,117.8169],[-80.4221,8.7823,111.7447],[-80.4229,8.7706,177.1771],[-80.4406,8.735,277.8257],[-80.4413,8.7309,433.5842],[-80.4281,8.7114,477.2966],[-80.3923,8.6991,390.0458],[-80.3863,8.6918,294.1872],[-80.382,8.6717,219.8817],[-80.3818,8.6667,219.4473],[-80.3837,8.662,209.2908],[-80.3922,8.6588,204.7912],[-80.3975,8.6524,187.007],[-80.4048,8.6408,157.6038],[-80.408,8.6297,140.2013],[-80.408,8.6069,142.3699],[-80.4028,8.5731,463.4237],[-80.3989,8.5627,254.3374]]]]}
,"properties": {"GID_3": "PAN.3.6.10_1","GID_0": "PAN","country": "Panama","GID_1": "PAN.3_1","province": "Coclé","NL_NAME_1": "NA","GID_2": "PAN.3.6_1","county": "Penonomé","NL_NAME_2": "NA","city": "Tulu","VARNAME_3": "NA","NL_NAME_3": "NA","TYPE_3": "Corregimiento","ENGTYPE_3": "Municipality","CC_3": "NA","HASC_3": "NA","name": "Tulu.city","area_km2": 216.1051,"hist_schema_id": "Elevation0-9000","hist_area_km2": {"25": 1.5711,"50": 5.6353,"75": 10.5401,"100": 17.3496,"125": 28.0153,"150": 25.0207,"175": 21.103,"200": 17.1638,"225": 16.8297,"250": 13.6445,"275": 11.1714,"300": 10.2283,"325": 9.6205,"350": 7.4824,"375": 6.1411,"400": 4.695,"425": 3.0602,"450": 2.0331,"475": 1.4253,"500": 1.069,"525": 0.6288,"550": 0.5869,"575": 0.4821,"600": 0.3773,"625": 0.2096,"650": 0.021}}}