{"type": "Feature","bbox": [-83.044,8.1724,-82.8099,8.3595],"geometry": {"type": "MultiPolygon","coordinates": [[[[-82.9048,8.1733,99.6241],[-82.9042,8.1724,99.6241],[-82.8881,8.1876,49.4754],[-82.8746,8.1905,21.2931],[-82.8754,8.196,18.8626],[-82.8726,8.2032,1.0825],[-82.8763,8.2082,2.3713],[-82.8776,8.2171,17.3582],[-82.8743,8.2257,0.0],[-82.8743,8.231,0.0],[-82.8724,8.2312,0.0],[-82.8724,8.2371,0.0],[-82.8743,8.2379,0.0],[-82.8726,8.2487,5.2123],[-82.869,8.2521,6.6766],[-82.8662,8.2587,0.0],[-82.8618,8.2626,0.0],[-82.8565,8.2762,6.0763],[-82.8493,8.2813,3.6095],[-82.8421,8.2904,2.5178],[-82.8374,8.2929,0.0],[-82.8296,8.2968,4.2224],[-82.8187,8.299,6.0454],[-82.8107,8.2987,0.0],[-82.8099,8.3,0.0],[-82.8144,8.2996,2.7235],[-82.8159,8.3036,8.0009],[-82.8243,8.3107,12.9354],[-82.8246,8.3165,10.2662],[-82.8288,8.3171,17.2353],[-82.8324,8.3198,17.7559],[-82.8366,8.3269,16.4454],[-82.8448,8.326,15.8907],[-82.8559,8.3343,22.5514],[-82.8783,8.3399,31.6749],[-82.8844,8.348,34.9887],[-82.8997,8.3538,41.5923],[-82.9084,8.3595,51.146],[-82.9313,8.3479,115.2044],[-82.9397,8.3415,122.1861],[-82.9451,8.3433,242.2931],[-82.9624,8.3553,157.8691],[-82.9711,8.3466,108.5719],[-82.9888,8.3433,238.562],[-82.9948,8.3358,227.6042],[-83.006,8.332,321.1771],[-83.0193,8.3359,345.0431],[-83.0269,8.3317,374.1896],[-83.044,8.3161,390.9687],[-83.0375,8.3185,442.1262],[-83.0326,8.3133,528.6893],[-83.0272,8.3164,584.8198],[-83.0271,8.3141,587.9625],[-83.0227,8.3116,635.1311],[-83.0254,8.3081,605.5317],[-83.0242,8.3046,652.5013],[-83.014,8.3027,619.694],[-83.003,8.2953,631.3292],[-83.0043,8.2891,617.9932],[-82.9998,8.2888,575.7319],[-82.9907,8.2713,499.0193],[-82.9861,8.2727,504.1408],[-82.9808,8.2859,365.127],[-82.9757,8.2891,463.604],[-82.9681,8.2791,314.009],[-82.963,8.2782,218.0895],[-82.9605,8.2805,266.5878],[-82.9563,8.2799,317.7726],[-82.9523,8.2678,219.2275],[-82.9485,8.2678,247.3682],[-82.9482,8.2698,258.0056],[-82.9423,8.2724,242.7838],[-82.9382,8.2624,192.0327],[-82.9387,8.2516,143.1363],[-82.9301,8.2452,92.6768],[-82.9285,8.2416,82.4483],[-82.9318,8.2361,83.4502],[-82.9315,8.2281,102.722],[-82.9337,8.2254,118.2229],[-82.9329,8.2202,175.3443],[-82.9366,8.2151,132.0717],[-82.9363,8.2099,205.8597],[-82.931,8.211,194.2825],[-82.9273,8.2089,190.9199],[-82.925,8.2029,201.9603],[-82.9214,8.2016,185.4579],[-82.9177,8.1939,168.6349],[-82.9152,8.1971,142.623],[-82.9119,8.1975,135.9903],[-82.9108,8.1948,126.7648],[-82.9127,8.1778,102.0035],[-82.9031,8.1754,175.5511],[-82.9048,8.1733,99.6241]]]]}
,"properties": {"GID_3": "PAN.2.2.4_1","GID_0": "PAN","country": "Panama","GID_1": "PAN.2_1","province": "Chiriquí","NL_NAME_1": "NA","GID_2": "PAN.2.2_1","county": "Barú","NL_NAME_2": "NA","city": "PuertoArmuelles","VARNAME_3": "NA","NL_NAME_3": "NA","TYPE_3": "Corregimiento","ENGTYPE_3": "Municipality","CC_3": "NA","HASC_3": "NA","name": "Puerto_Armuelles.city","area_km2": 217.4236,"hist_schema_id": "Elevation0-9000","hist_area_km2": {"0": 6.0217,"25": 32.2885,"50": 26.3098,"75": 24.6746,"100": 22.3245,"125": 19.429,"150": 16.3024,"175": 12.6724,"200": 8.8119,"225": 6.8815,"250": 5.14,"275": 3.6714,"300": 3.084,"325": 2.7483,"350": 3.1889,"375": 2.7063,"400": 3.021,"425": 3.042,"450": 2.5175,"475": 2.6434,"500": 2.7693,"525": 1.9931,"550": 1.7414,"575": 1.028,"600": 0.8602,"625": 0.9651,"650": 0.4616,"675": 0.1259}}}