{"type": "Feature","bbox": [-80.9066,8.0629,-80.8296,8.0921],"geometry": {"type": "MultiPolygon","coordinates": [[[[-80.8618,8.0629,39.648],[-80.8542,8.068,39.0145],[-80.8466,8.0708,42.5943],[-80.8296,8.0709,34.9494],[-80.8429,8.0814,42.8988],[-80.8585,8.0898,39.1331],[-80.866,8.0921,37.3875],[-80.8914,8.0902,54.0312],[-80.9066,8.0817,85.9564],[-80.9042,8.0639,66.777],[-80.8885,8.0652,68.3217],[-80.8819,8.0636,59.5148],[-80.8618,8.0629,39.648]]]]}
,"properties": {"GID_3": "PAN.13.1.5_1","GID_0": "PAN","country": "Panama","GID_1": "PAN.13_1","province": "Veraguas","NL_NAME_1": "NA","GID_2": "PAN.13.1_1","county": "Atalaya","NL_NAME_2": "NA","city": "SanAntonio","VARNAME_3": "NA","NL_NAME_3": "NA","TYPE_3": "Corregimiento","ENGTYPE_3": "Municipality","CC_3": "NA","HASC_3": "NA","name": "San_Antonio.city","area_km2": 18.76675,"hist_schema_id": "Elevation0-9000","hist_area_km2": {"25": 0.2519,"50": 13.32986,"75": 4.95407,"100": 0.23091}}}