{"type": "Feature","bbox": [-81.073,8.1279,-81.0307,8.1943],"geometry": {"type": "MultiPolygon","coordinates": [[[[-81.0708,8.1279,59.2399],[-81.0659,8.1287,54.2162],[-81.0565,8.1335,66.5029],[-81.0424,8.1324,89.8085],[-81.0395,8.1347,89.0375],[-81.0307,8.1556,98.1474],[-81.0381,8.1557,91.0071],[-81.0465,8.1589,71.2249],[-81.0495,8.164,72.9959],[-81.0506,8.1737,69.5699],[-81.0479,8.1796,83.3067],[-81.0385,8.1836,105.6501],[-81.0362,8.1862,119.6296],[-81.0364,8.1894,132.3065],[-81.0392,8.1935,99.9347],[-81.0473,8.1943,79.3042],[-81.0556,8.19,89.5073],[-81.0706,8.1732,57.3503],[-81.0723,8.1687,61.0355],[-81.0715,8.1604,72.178],[-81.073,8.1458,75.1888],[-81.0708,8.1279,59.2399]]]]}
,"properties": {"GID_3": "PAN.13.10.7_1","GID_0": "PAN","country": "Panama","GID_1": "PAN.13_1","province": "Veraguas","NL_NAME_1": "NA","GID_2": "PAN.13.10_1","county": "Santiago","NL_NAME_2": "NA","city": "SanPedrodelEspino","VARNAME_3": "NA","NL_NAME_3": "NA","TYPE_3": "Corregimiento","ENGTYPE_3": "Municipality","CC_3": "NA","HASC_3": "NA","name": "San_Pedrodel_Espino.city","area_km2": 20.48394,"hist_schema_id": "Elevation0-9000","hist_area_km2": {"50": 3.14819,"75": 11.98384,"100": 5.24698,"125": 0.10493}}}