{"type": "Feature","bbox": [-80.7352,7.3348,-80.6054,7.48],"geometry": {"type": "MultiPolygon","coordinates": [[[[-80.7242,7.4674,636.0646],[-80.7327,7.4559,386.5009],[-80.7352,7.4494,176.8131],[-80.7325,7.4429,291.4618],[-80.7195,7.4327,370.0031],[-80.7084,7.4128,856.2882],[-80.7084,7.4099,848.9796],[-80.7145,7.4006,640.244],[-80.7176,7.3916,363.8619],[-80.7026,7.3826,378.8167],[-80.6845,7.3743,723.585],[-80.6718,7.3563,1385.5762],[-80.6714,7.3527,1320.7347],[-80.6739,7.345,1208.7375],[-80.6718,7.3361,1090.6755],[-80.6677,7.3348,1163.2894],[-80.6665,7.342,1203.4642],[-80.6549,7.343,866.4304],[-80.6501,7.3465,840.7247],[-80.645,7.3478,708.756],[-80.6366,7.3564,985.0384],[-80.6299,7.3603,999.7051],[-80.6327,7.3673,874.4073],[-80.6324,7.3725,877.1865],[-80.6114,7.3702,635.1624],[-80.6095,7.3788,771.7464],[-80.6105,7.3858,885.9803],[-80.6076,7.392,634.6723],[-80.6087,7.3972,562.6497],[-80.6065,7.4014,576.9706],[-80.6167,7.4038,328.6497],[-80.6245,7.4131,179.8921],[-80.6266,7.4311,124.7909],[-80.6241,7.4331,138.9381],[-80.6166,7.4323,217.8626],[-80.6135,7.4337,232.2213],[-80.6056,7.4462,101.5534],[-80.6069,7.4503,97.0393],[-80.6054,7.4547,88.3579],[-80.6101,7.4675,89.6504],[-80.627,7.4621,163.2516],[-80.631,7.4707,156.4469],[-80.6392,7.4786,165.6573],[-80.6428,7.48,186.1187],[-80.6556,7.4756,320.7121],[-80.666,7.4768,358.9527],[-80.6811,7.4714,571.34],[-80.6884,7.4724,612.2443],[-80.6933,7.4686,509.7844],[-80.6988,7.4694,571.9159],[-80.7164,7.4653,576.2219],[-80.7242,7.4674,636.0646]]]]}
,"properties": {"GID_3": "PAN.9.7.6_1","GID_0": "PAN","country": "Panama","GID_1": "PAN.9_1","province": "LosSantos","NL_NAME_1": "NA","GID_2": "PAN.9.7_1","county": "Tonosí","NL_NAME_2": "NA","city": "ElCortezo","VARNAME_3": "NA","NL_NAME_3": "NA","TYPE_3": "Corregimiento","ENGTYPE_3": "Municipality","CC_3": "NA","HASC_3": "NA","name": "El_Cortezo.city","area_km2": 140.0458,"hist_schema_id": "Elevation0-9000","hist_area_km2": {"75": 0.1682,"100": 3.6791,"125": 5.9496,"150": 7.169,"175": 8.3043,"200": 4.7092,"225": 4.2047,"250": 3.553,"275": 2.9644,"300": 2.7331,"325": 3.1326,"350": 3.427,"375": 3.427,"400": 3.3429,"425": 3.7213,"450": 4.331,"475": 4.1419,"500": 4.0367,"525": 3.6373,"550": 4.4573,"575": 4.7096,"600": 4.8147,"625": 4.1209,"650": 4.8357,"675": 3.9947,"700": 3.7635,"725": 3.6163,"750": 2.5651,"775": 2.9436,"800": 2.3969,"825": 2.1657,"850": 1.7872,"875": 2.1026,"900": 1.9344,"925": 1.3247,"950": 1.535,"975": 1.0724,"1000": 0.8832,"1025": 0.757,"1050": 0.6729,"1075": 0.757,"1100": 0.6308,"1125": 0.778,"1150": 0.6519,"1175": 0.6729,"1200": 0.5047,"1225": 0.5678,"1250": 0.6308,"1275": 0.6098,"1300": 0.2734,"1325": 0.2523,"1350": 0.1472,"1375": 0.2944,"1400": 0.1262,"1425": 0.0631}}}