{"type": "Feature","bbox": [-82.7448,8.5663,-82.6879,8.7189],"geometry": {"type": "MultiPolygon","coordinates": [[[[-82.7114,8.5739,394.8419],[-82.7057,8.5823,424.2136],[-82.7003,8.6034,478.62],[-82.6919,8.6196,527.1016],[-82.6921,8.6276,496.9106],[-82.6879,8.6542,601.2097],[-82.6882,8.665,645.5619],[-82.694,8.67,791.8694],[-82.6985,8.6794,765.0961],[-82.6996,8.6916,851.37],[-82.7069,8.7015,998.7843],[-82.709,8.7116,1064.5839],[-82.7067,8.7161,1042.5469],[-82.7097,8.7189,1016.992],[-82.7123,8.7184,1019.7454],[-82.7152,8.713,1038.785],[-82.7189,8.7122,933.7421],[-82.7215,8.7092,977.7967],[-82.7214,8.7018,1008.4763],[-82.7254,8.6961,972.5955],[-82.7247,8.6851,876.5543],[-82.7226,8.6787,782.1405],[-82.7238,8.6765,753.7422],[-82.7225,8.675,746.1723],[-82.7274,8.6697,812.959],[-82.7291,8.6636,774.7406],[-82.7268,8.6471,714.9659],[-82.7333,8.6228,570.1176],[-82.7415,8.6097,506.9341],[-82.7448,8.5937,431.3275],[-82.7409,8.5847,413.0194],[-82.7405,8.5774,414.3619],[-82.7339,8.5716,390.336],[-82.7319,8.5663,371.0661],[-82.7184,8.5694,395.3116],[-82.7145,8.5756,344.832],[-82.7114,8.5739,394.8419]]]]}
,"properties": {"GID_3": "PAN.2.5.8_1","GID_0": "PAN","country": "Panama","GID_1": "PAN.2_1","province": "Chiriquí","NL_NAME_1": "NA","GID_2": "PAN.2.5_1","county": "Bugaba","NL_NAME_2": "NA","city": "SanAndrés","VARNAME_3": "NA","NL_NAME_3": "NA","TYPE_3": "Corregimiento","ENGTYPE_3": "Municipality","CC_3": "NA","HASC_3": "NA","name": "San_Andrés.city","area_km2": 59.46891,"hist_schema_id": "Elevation0-9000","hist_area_km2": {"325": 0.12579,"350": 0.46123,"375": 1.34175,"400": 2.30614,"425": 2.83021,"450": 3.87837,"475": 4.08795,"500": 3.47993,"525": 3.68951,"550": 3.52174,"575": 3.20724,"600": 3.12333,"625": 2.53636,"650": 2.20095,"675": 1.94938,"700": 2.05416,"725": 1.8026199999999999,"750": 2.03316,"775": 1.92834,"800": 1.78159,"825": 1.44622,"850": 1.53004,"875": 1.53003,"900": 1.32042,"925": 1.52998,"950": 1.36229,"975": 0.83833,"1000": 0.60778,"1025": 0.46107,"1050": 0.18862,"1075": 0.25149,"1100": 0.06287}}}