{"type":"Feature","properties":{"GID_3":"PAN.2.12.4_1","GID_0":"PAN","country":"Panama","GID_1":"PAN.2_1","province":"Chiriquí","NL_NAME_1":"NA","GID_2":"PAN.2.12_1","county":"SanLorenzo","NL_NAME_2":"NA","city":"SanJuan","VARNAME_3":"NA","NL_NAME_3":"NA","TYPE_3":"Corregimiento","ENGTYPE_3":"Municipality","CC_3":"NA","HASC_3":"NA","name":"San_Juan.city"},
"geometry":{"type": "MultiPolygon","coordinates": [[[[-81.9771,8.3255,65.6255],[-81.9813,8.3353,85.6661],[-81.99,8.3344,61.7877],[-81.9976,8.3357,99.9975],[-82.0106,8.3472,109.7424],[-82.0199,8.3612,146.4899],[-82.0248,8.3614,95.7832],[-82.0223,8.3486,63.8396],[-82.0238,8.3398,45.461],[-82.0356,8.332,19.8512],[-82.042,8.324,29.0383],[-82.0518,8.3207,26.8951],[-82.0556,8.31,15.9191],[-82.0605,8.3037,11.3474],[-82.0528,8.2879,13.6539],[-82.0507,8.2801,5.1079],[-82.0545,8.2654,5.543],[-82.0404,8.2672,1.4595],[-82.0241,8.2606,2.8237],[-82.0222,8.2562,11.5359],[-82.0225,8.2489,7.6598],[-82.0265,8.2455,14.792],[-82.0228,8.2373,0.0],[-82.0231,8.2321,7.8288],[-82.0197,8.2301,33.2063],[-82.0185,8.219,3.6956],[-82.0165,8.2168,0.0],[-82.0137,8.2168,0.0],[-82.0124,8.2185,0.0],[-82.0137,8.2196,2.0646],[-82.0121,8.2204,7.634],[-82.0104,8.2174,0.0],[-82.0071,8.2168,0.0],[-82.0004,8.2057,0.0],[-81.9974,8.2037,0.0],[-81.9826,8.2015,0.0],[-81.979,8.2015,1.3231],[-81.9778,8.2045,8.3754],[-81.9738,8.2069,1.8944],[-81.9713,8.2132,2.3353],[-81.9578,8.2218,0.0],[-81.9555,8.2202,0.0],[-81.9539,8.2209,0.0],[-81.9456,8.2271,4.6641],[-81.9454,8.2302,1.9214],[-81.9396,8.234,14.3556],[-81.938,8.2385,6.4839],[-81.943,8.2485,10.7944],[-81.9415,8.2584,11.7929],[-81.9442,8.266,0.0],[-81.9537,8.2682,12.6048],[-81.9694,8.2786,25.7339],[-81.9737,8.2842,9.7422],[-81.9772,8.2827,12.2093],[-81.9797,8.2837,9.7304],[-81.9789,8.2943,32.7423],[-81.9838,8.2979,30.185],[-81.9819,8.3035,38.6013],[-81.9782,8.307,31.1404],[-81.98,8.3075,26.1054],[-81.9807,8.3111,35.8913],[-81.9877,8.31,27.9959],[-81.9893,8.3083,22.0944],[-81.9889,8.3149,42.6667],[-81.9918,8.3266,62.7438],[-81.9907,8.3291,46.2418],[-81.9841,8.3294,118.1193],[-81.9771,8.3255,65.6255]]]]}}