{"type": "Feature","bbox": [-82.9101,8.0132,-82.8524,8.1905],"geometry": {"type": "MultiPolygon","coordinates": [[[[-82.8812,8.0196,3.3121],[-82.8824,8.019,3.3121],[-82.8796,8.0165,0.0],[-82.8715,8.0132,0.1218],[-82.8765,8.0185,8.0513],[-82.8812,8.0196,3.3121]]],
[[[-82.8914,8.0512,141.7223],[-82.8937,8.0498,59.2165],[-82.8919,8.0437,44.328],[-82.8958,8.0376,17.3115],[-82.8915,8.0337,0.0],[-82.8846,8.0346,9.1551],[-82.8785,8.0307,4.9523],[-82.8724,8.0301,0.0],[-82.8688,8.0321,10.2249],[-82.866,8.0371,0.0],[-82.8657,8.0415,0.0],[-82.8682,8.0501,1.0905],[-82.8674,8.0538,7.921],[-82.8574,8.059,1.9904],[-82.8524,8.0704,3.4748],[-82.8524,8.0754,10.2305],[-82.8565,8.0821,36.3004],[-82.8565,8.0913,24.3575],[-82.8604,8.099,7.2147],[-82.8654,8.104,0.0],[-82.8729,8.1188,0.8043],[-82.871,8.1307,1.0845],[-82.874,8.1349,0.0],[-82.8743,8.139,0.0],[-82.8729,8.1402,0.0],[-82.8765,8.1513,0.0],[-82.8746,8.1596,10.1546],[-82.8743,8.1765,0.0],[-82.8763,8.1813,11.4777],[-82.8738,8.1857,0.0],[-82.8746,8.1905,21.2931],[-82.8881,8.1876,49.4754],[-82.91,8.1682,85.647],[-82.9078,8.164,169.6086],[-82.9095,8.1626,198.1183],[-82.9101,8.1538,110.9192],[-82.9076,8.1418,101.747],[-82.9031,8.1388,230.2953],[-82.9042,8.1364,135.0457],[-82.9012,8.1329,167.3139],[-82.9009,8.129,144.4102],[-82.8931,8.1153,87.74],[-82.8892,8.114,218.8376],[-82.89,8.1109,170.9206],[-82.8883,8.1088,186.3197],[-82.8861,8.1086,183.9245],[-82.8872,8.1051,117.4747],[-82.8927,8.1041,89.4726],[-82.8888,8.0934,72.8969],[-82.8878,8.0789,63.3475],[-82.892,8.0741,61.5953],[-82.8966,8.0602,149.7068],[-82.8944,8.0538,150.9895],[-82.8912,8.0538,163.1534],[-82.8914,8.0512,141.7223]]]]}
,"properties": {"GID_3": "PAN.2.2.2_1","GID_0": "PAN","country": "Panama","GID_1": "PAN.2_1","province": "Chiriquí","NL_NAME_1": "NA","GID_2": "PAN.2.2_1","county": "Barú","NL_NAME_2": "NA","city": "Limones","VARNAME_3": "NA","NL_NAME_3": "NA","TYPE_3": "Corregimiento","ENGTYPE_3": "Municipality","CC_3": "NA","HASC_3": "NA","name": "Limones.city","area_km2": 57.1145,"hist_schema_id": "Elevation0-9000","hist_area_km2": {"0": 4.1983,"25": 10.87308,"50": 17.86328,"75": 10.93598,"100": 3.90383,"125": 3.75699,"150": 2.68659,"175": 1.76307,"200": 0.79757,"225": 0.31482,"250": 0.02099}}}