{"type": "Feature","bbox": [-80.0926,9.2207,-80.0724,9.2515],"geometry": {"type": "MultiPolygon","coordinates": [[[[-80.0724,9.2357,20.8344],[-80.0757,9.2515,9.4098],[-80.0799,9.2479,5.7339],[-80.0799,9.2449,3.3299],[-80.084,9.2426,4.2742],[-80.0874,9.2385,3.0036],[-80.086,9.2337,5.9151],[-80.0926,9.2293,2.4032],[-80.0878,9.222,13.3382],[-80.0815,9.2207,5.253],[-80.0724,9.2357,20.8344]]]]}
,"properties": {"GID_3": "PAN.4.1.4_1","GID_0": "PAN","country": "Panama","GID_1": "PAN.4_1","province": "Colón","NL_NAME_1": "NA","GID_2": "PAN.4.1_1","county": "Chagres","NL_NAME_2": "NA","city": "NuevoChagres","VARNAME_3": "NA","NL_NAME_3": "NA","TYPE_3": "Corregimiento","ENGTYPE_3": "Municipality","CC_3": "NA","HASC_3": "NA","name": "Nuevo_Chagres.city","area_km2": 3.829721,"hist_schema_id": "Elevation0-9000","hist_area_km2": {"0": 1.569555,"25": 1.988109,"50": 0.272057}}}