{"type":"Feature","properties":{"GID_3":"PAN.10.6.5_1","GID_0":"PAN","country":"Panama","GID_1":"PAN.10_1","province":"NgöbeBuglé","NL_NAME_1":"NA","GID_2":"PAN.10.6_1","county":"NoleDuima","NL_NAME_2":"NA","city":"Susama","VARNAME_3":"NA","NL_NAME_3":"NA","TYPE_3":"Corregimiento","ENGTYPE_3":"Municipality","CC_3":"NA","HASC_3":"NA","name":"Susama.city"},
"geometry":{"type": "MultiPolygon","coordinates": [[[[-81.8314,8.3057,227.2004],[-81.8243,8.3097,418.3095],[-81.8147,8.3208,257.4142],[-81.8089,8.3243,327.1162],[-81.7837,8.3278,181.0595],[-81.7628,8.324,339.2596],[-81.7636,8.3391,426.8414],[-81.7597,8.3603,562.4915],[-81.7482,8.3842,704.9861],[-81.7693,8.3801,733.6482],[-81.78,8.381,568.0212],[-81.7842,8.3795,558.6842],[-81.7958,8.3659,602.6414],[-81.8009,8.3555,451.1942],[-81.8075,8.3494,255.8649],[-81.8093,8.342,307.8105],[-81.8252,8.3367,195.041],[-81.8256,8.3327,129.3317],[-81.8279,8.3308,134.968],[-81.8233,8.3257,138.9374],[-81.8276,8.3196,268.8714],[-81.8314,8.3057,227.2004]]]]}}