{"type": "Feature","bbox": [-80.5139,7.7018,-80.4366,7.761],"geometry": {"type": "MultiPolygon","coordinates": [[[[-80.485,7.761,173.4896],[-80.5046,7.7531,130.4595],[-80.5139,7.7385,101.1778],[-80.5065,7.7395,183.8221],[-80.5012,7.7383,194.6488],[-80.4921,7.7338,214.3531],[-80.4847,7.7268,178.8311],[-80.4843,7.7195,188.256],[-80.4969,7.711,184.5172],[-80.5046,7.708,113.1799],[-80.4991,7.7037,140.3874],[-80.4903,7.7018,231.5587],[-80.4827,7.7018,174.4795],[-80.4748,7.7051,164.3989],[-80.4676,7.7055,291.2467],[-80.4657,7.7109,248.8777],[-80.4557,7.7192,234.0516],[-80.4511,7.73,190.3193],[-80.4366,7.7331,148.7594],[-80.4424,7.7381,152.2132],[-80.485,7.761,173.4896]]]]}
,"properties": {"GID_3": "PAN.9.4.4_1","GID_0": "PAN","country": "Panama","GID_1": "PAN.9_1","province": "LosSantos","NL_NAME_1": "NA","GID_2": "PAN.9.4_1","county": "Macaracas","NL_NAME_2": "NA","city": "Corozal","VARNAME_3": "NA","NL_NAME_3": "NA","TYPE_3": "Corregimiento","ENGTYPE_3": "Municipality","CC_3": "NA","HASC_3": "NA","name": "Corozal.city","area_km2": 26.91306,"hist_schema_id": "Elevation0-9000","hist_area_km2": {"100": 0.18908,"125": 1.93286,"150": 3.78168,"175": 6.21871,"200": 6.34486,"225": 4.47505,"250": 2.81528,"275": 1.05048,"300": 0.10505}}}