{"type":"Feature","properties":{"GID_3":"PAN.11.6.1_1","GID_0":"PAN","country":"Panama","GID_1":"PAN.11_1","province":"PanamáOeste","NL_NAME_1":"NA","GID_2":"PAN.11.6_1","county":"SanCarlos","NL_NAME_2":"NA","city":"ElEspino","VARNAME_3":"NA","NL_NAME_3":"NA","TYPE_3":"Corregimiento","ENGTYPE_3":"Municipality","CC_3":"NA","HASC_3":"NA","name":"El_Espino.city"},
"geometry":{"type": "MultiPolygon","coordinates": [[[[-80.0087,8.4519,38.0752],[-80.0031,8.4934,87.9325],[-80.0009,8.4987,94.0949],[-79.9948,8.5019,108.4482],[-79.9949,8.5172,124.1847],[-79.9979,8.5228,145.2217],[-80.0048,8.5286,180.7134],[-80.0293,8.5414,278.2778],[-80.0361,8.5282,246.3917],[-80.043,8.5208,246.6606],[-80.0492,8.5172,174.1917],[-80.0621,8.5185,255.2176],[-80.0621,8.5166,255.7136],[-80.0487,8.4945,159.5205],[-80.0087,8.4519,38.0752]]]]}}