{"type":"Feature","properties":{"GID_3":"PAN.6.2.2_1","GID_0":"PAN","country":"Panama","GID_1":"PAN.6_1","province":"Emberá","NL_NAME_1":"NA","GID_2":"PAN.6.2_1","county":"Sambú","NL_NAME_2":"NA","city":"RíoSábalo","VARNAME_3":"NA","NL_NAME_3":"NA","TYPE_3":"Corregimiento","ENGTYPE_3":"Municipality","CC_3":"NA","HASC_3":"NA","name":"Río_Sábalo.city"},
"geometry":{"type": "MultiPolygon","coordinates": [[[[-78.3374,7.945,360.8462],[-78.3367,7.9406,410.3494],[-78.3272,7.9343,395.9872],[-78.3253,7.9307,363.8475],[-78.3362,7.9111,256.8879],[-78.3357,7.9024,231.7585],[-78.3298,7.8875,227.8225],[-78.3169,7.8591,364.0096],[-78.3101,7.8573,504.8275],[-78.2998,7.8603,810.8503],[-78.2961,7.8584,925.3699],[-78.2949,7.8396,661.343],[-78.2821,7.8212,979.0628],[-78.2759,7.8062,948.6989],[-78.2752,7.7902,743.845],[-78.2703,7.7808,800.533],[-78.2685,7.7696,648.6549],[-78.2586,7.7571,889.6814],[-78.2453,7.7318,694.6346],[-78.2396,7.7255,765.0334],[-78.2327,7.714,572.9742],[-78.2149,7.6974,1127.8718],[-78.2057,7.6841,704.2689],[-78.1877,7.673,815.7953],[-78.1817,7.6646,747.6776],[-78.1795,7.6654,807.5342],[-78.1812,7.6794,1004.3649],[-78.1834,7.685,968.8652],[-78.1981,7.7037,808.2119],[-78.2002,7.7285,646.1489],[-78.2088,7.7341,697.5964],[-78.2107,7.737,634.4783],[-78.212,7.7591,930.1337],[-78.2143,7.7658,579.4601],[-78.2196,7.7713,343.8688],[-78.2201,7.7749,302.7338],[-78.2117,7.7822,251.6221],[-78.2072,7.7891,301.8914],[-78.1994,7.7928,456.9469],[-78.1912,7.8,137.1755],[-78.1871,7.8005,272.1357],[-78.1807,7.7979,662.6346],[-78.1762,7.7991,681.8932],[-78.1724,7.8109,275.0522],[-78.1665,7.8201,327.5041],[-78.1602,7.827,738.5902],[-78.1546,7.8306,580.2587],[-78.1544,7.8383,399.7673],[-78.1512,7.847,160.2496],[-78.151,7.8576,181.0307],[-78.141,7.8754,39.0357],[-78.141,7.8899,113.51],[-78.1366,7.8987,69.8867],[-78.1297,7.9058,69.6985],[-78.1308,7.9103,91.0001],[-78.1362,7.9184,128.794],[-78.1368,7.9227,73.1893],[-78.1306,7.931,25.123],[-78.1269,7.9426,116.3283],[-78.1159,7.9498,116.7784],[-78.1087,7.9635,119.5674],[-78.1099,7.9834,210.7045],[-78.115,7.9949,305.9722],[-78.1157,8.0069,286.4303],[-78.1199,8.0203,286.1689],[-78.1233,8.0249,273.6789],[-78.1263,8.025,303.9696],[-78.1288,8.0274,304.1376],[-78.1291,8.0308,253.263],[-78.1319,8.031,315.3593],[-78.1345,8.0335,345.0693],[-78.1347,8.0397,280.8953],[-78.1397,8.041,347.638],[-78.1559,8.0566,337.5612],[-78.1582,8.0706,312.165],[-78.162,8.0782,303.1572],[-78.1729,8.0863,291.5682],[-78.1787,8.0953,134.5958],[-78.1851,8.0966,59.67],[-78.1885,8.0943,66.5295],[-78.1973,8.0817,37.7195],[-78.2065,8.0808,12.6838],[-78.2137,8.078,12.7572],[-78.2337,8.0657,22.8528],[-78.2332,8.0593,13.1402],[-78.2354,8.0554,20.1507],[-78.2346,8.0532,20.682],[-78.2202,8.0487,5.0418],[-78.2092,8.0396,11.2238],[-78.2116,8.0191,4.6863],[-78.2016,8.0032,14.1363],[-78.2109,7.9852,12.151],[-78.2178,7.9828,11.7004],[-78.2282,7.9835,36.3741],[-78.2398,7.9866,13.545],[-78.2574,7.9961,21.668],[-78.2645,7.9896,22.0702],[-78.2791,7.9845,36.6702],[-78.2838,7.9781,42.9477],[-78.2912,7.973,94.4997],[-78.2968,7.9653,212.2342],[-78.3262,7.9638,189.8266],[-78.3374,7.945,360.8462]]]]}}