{"type": "Feature","bbox": [-82.4455,8.1459,-81.1327,9.1865],"geometry": {"type": "MultiPolygon","coordinates": [[[[-81.5746,8.1951,55.104],[-81.5775,8.1928,104.3147],[-81.5805,8.1864,131.316],[-81.5791,8.1833,50.4879],[-81.5784,8.1702,218.0482],[-81.5729,8.1666,315.2415],[-81.5733,8.1606,400.2485],[-81.5697,8.1555,604.5261],[-81.5506,8.1549,320.6843],[-81.537,8.1564,214.3533],[-81.5297,8.1523,210.5077],[-81.5283,8.1459,224.4239],[-81.5179,8.1482,284.5602],[-81.4964,8.1613,195.7196],[-81.4952,8.1667,220.7266],[-81.4961,8.1768,305.9904],[-81.5051,8.1885,338.7679],[-81.5153,8.1963,333.0985],[-81.5236,8.1975,313.0309],[-81.5253,8.1877,315.3803],[-81.535,8.1805,283.6254],[-81.5406,8.1896,162.3895],[-81.5583,8.1859,119.1463],[-81.5684,8.1963,80.0812],[-81.5746,8.1951,55.104]]],
[[[-81.2136,8.786,6.7224],[-81.2138,8.7854,20.0965],[-81.2131,8.7856,6.7224],[-81.2136,8.786,6.7224]]],
[[[-81.3347,8.3575,289.0004],[-81.3274,8.3583,255.3819],[-81.3196,8.3654,203.4367],[-81.3175,8.3872,248.1002],[-81.3384,8.3752,359.8729],[-81.3421,8.3749,440.0233],[-81.3474,8.3778,422.1593],[-81.3536,8.3876,446.3735],[-81.3683,8.3867,373.7935],[-81.3764,8.3838,394.1845],[-81.3794,8.3873,379.4366],[-81.3804,8.3967,348.7203],[-81.3837,8.3993,414.779],[-81.3904,8.3963,407.9865],[-81.3917,8.389,275.2776],[-81.3977,8.3822,248.5359],[-81.3994,8.3653,227.4986],[-81.4006,8.3638,227.4986],[-81.4065,8.3634,319.8793],[-81.4125,8.3582,338.0065],[-81.4158,8.3577,336.0379],[-81.4307,8.371,179.6064],[-81.4347,8.3703,186.8647],[-81.4379,8.3659,200.8405],[-81.4315,8.3517,171.3809],[-81.4283,8.3555,195.9887],[-81.4212,8.3498,273.7936],[-81.4163,8.3506,333.9148],[-81.3962,8.339,221.3904],[-81.3923,8.3405,268.726],[-81.3884,8.3362,324.9905],[-81.3845,8.3348,353.1822],[-81.3797,8.3285,275.8],[-81.3759,8.3277,276.4653],[-81.3731,8.3294,286.1929],[-81.3739,8.3493,306.7269],[-81.3586,8.3322,256.2122],[-81.3516,8.3373,261.8102],[-81.3476,8.3337,288.2802],[-81.3403,8.3507,329.328],[-81.3347,8.3575,289.0004]]],
[[[-81.5322,8.2287,142.796],[-81.534,8.2194,234.0132],[-81.5321,8.2161,226.4197],[-81.5288,8.2174,192.4217],[-81.5296,8.2212,204.4244],[-81.5162,8.2286,334.9714],[-81.5116,8.2323,428.0616],[-81.5086,8.2374,420.1797],[-81.508,8.2464,308.4009],[-81.5059,8.2491,352.9583],[-81.5078,8.2525,310.7072],[-81.5134,8.2556,238.1442],[-81.514,8.2593,214.8525],[-81.518,8.2613,136.6483],[-81.5199,8.2582,125.2677],[-81.5194,8.2536,165.1424],[-81.5132,8.2485,200.7818],[-81.5191,8.2448,218.9392],[-81.5197,8.2364,358.0098],[-81.5221,8.2339,339.1815],[-81.5256,8.2334,231.4563],[-81.5358,8.2393,175.4621],[-81.538,8.2384,109.1572],[-81.5376,8.2335,121.1125],[-81.5322,8.2287,142.796]]],
[[[-81.6032,8.2634,629.6168],[-81.6071,8.2558,488.8861],[-81.6035,8.2464,225.842],[-81.6029,8.2509,299.6024],[-81.6057,8.2541,386.8309],[-81.6028,8.2556,537.3806],[-81.6007,8.2621,551.2225],[-81.5969,8.2641,504.0768],[-81.5995,8.2679,462.7125],[-81.5949,8.2681,397.1111],[-81.593,8.2702,268.8368],[-81.592,8.2763,233.2174],[-81.597,8.2752,258.7228],[-81.6032,8.2634,629.6168]]],
[[[-81.5875,8.2574,371.39],[-81.5933,8.2584,403.9265],[-81.6013,8.2552,478.5853],[-81.5986,8.2408,180.255],[-81.5938,8.2382,281.0453],[-81.5789,8.2363,358.6915],[-81.5761,8.2307,297.9343],[-81.5664,8.2338,210.8378],[-81.563,8.2424,197.7621],[-81.5663,8.2518,384.7543],[-81.5704,8.2497,384.1147],[-81.5718,8.245,393.799],[-81.5779,8.2435,305.2249],[-81.5956,8.2463,270.275],[-81.5981,8.2503,348.0092],[-81.5892,8.2543,431.391],[-81.5799,8.2535,410.7255],[-81.5761,8.2561,399.863],[-81.5656,8.258,399.8293],[-81.5624,8.2559,398.5877],[-81.5668,8.2625,343.7557],[-81.5709,8.2631,412.3466],[-81.5723,8.2607,398.0294],[-81.58,8.2608,417.7436],[-81.5875,8.2574,371.39]]],
[[[-81.4721,8.2473,197.3925],[-81.4614,8.2424,211.4713],[-81.456,8.2476,162.5269],[-81.4552,8.2563,149.203],[-81.448,8.2579,141.2825],[-81.4374,8.2734,197.4865],[-81.4371,8.2797,257.4366],[-81.4582,8.2903,220.0067],[-81.4582,8.3049,330.2003],[-81.4718,8.3204,279.323],[-81.4895,8.2872,203.5387],[-81.4924,8.2752,230.848],[-81.5024,8.2741,243.1667],[-81.5069,8.2715,186.2659],[-81.5021,8.2639,282.7325],[-81.4979,8.2611,324.9982],[-81.4893,8.2437,218.6239],[-81.4761,8.2566,249.711],[-81.4721,8.2473,197.3925]]],
[[[-81.5966,8.2909,132.8068],[-81.5938,8.2945,273.5034],[-81.5943,8.2993,205.8486],[-81.597,8.2993,181.1938],[-81.6046,8.2946,162.7488],[-81.6001,8.2913,143.031],[-81.6011,8.2875,177.6919],[-81.6057,8.2846,126.7316],[-81.6089,8.2847,127.9895],[-81.6091,8.2815,153.3036],[-81.6117,8.28,167.7665],[-81.6219,8.2779,181.493],[-81.6238,8.2758,167.7126],[-81.614,8.2687,226.0716],[-81.6091,8.2753,309.0634],[-81.6023,8.2753,306.2192],[-81.5995,8.2788,159.0967],[-81.5939,8.2812,238.0326],[-81.597,8.287,130.3252],[-81.5966,8.2909,132.8068]]],
[[[-81.5313,8.267,193.8879],[-81.5295,8.2638,175.0286],[-81.5275,8.2722,265.2156],[-81.5117,8.2787,252.1987],[-81.5096,8.2762,209.6354],[-81.5154,8.3,208.9196],[-81.5213,8.3044,301.109],[-81.5343,8.3211,265.3226],[-81.5401,8.3245,327.6506],[-81.5404,8.3304,365.8629],[-81.5347,8.3366,346.8383],[-81.5351,8.3403,359.7045],[-81.5457,8.346,361.8528],[-81.5543,8.358,285.67],[-81.5567,8.3561,303.6413],[-81.5593,8.3477,460.0325],[-81.5627,8.3457,448.0284],[-81.5652,8.3461,408.7012],[-81.5709,8.3525,381.8038],[-81.5697,8.3611,330.1632],[-81.5709,8.3652,320.6951],[-81.5748,8.3607,268.4236],[-81.5772,8.3521,233.6011],[-81.5822,8.3427,326.2343],[-81.5762,8.3316,271.2693],[-81.5741,8.3199,335.1413],[-81.5862,8.3153,336.5243],[-81.5946,8.3276,262.5192],[-81.6094,8.3305,318.8503],[-81.6111,8.3292,303.6902],[-81.6109,8.3268,291.3895],[-81.5998,8.3137,249.2182],[-81.5971,8.3074,239.8761],[-81.5989,8.3015,142.4804],[-81.597,8.2993,181.1938],[-81.575,8.315,374.6341],[-81.5758,8.3118,379.0766],[-81.5837,8.3081,420.9976],[-81.5852,8.3052,357.6968],[-81.5823,8.2971,363.854],[-81.5788,8.2939,369.0645],[-81.5745,8.2929,351.9749],[-81.5667,8.2977,353.2183],[-81.567,8.301,439.6746],[-81.5715,8.3,414.1735],[-81.5752,8.3035,471.0486],[-81.5713,8.312,450.194],[-81.5704,8.3175,407.7323],[-81.5715,8.321,366.1061],[-81.565,8.3292,455.5966],[-81.5535,8.3318,513.2556],[-81.5486,8.3272,376.3965],[-81.5424,8.3122,228.7393],[-81.5534,8.2996,343.8753],[-81.5535,8.2945,316.0271],[-81.5583,8.2878,359.9387],[-81.5578,8.2816,262.7663],[-81.5545,8.2777,233.3934],[-81.5497,8.2781,255.2707],[-81.548,8.2726,199.6087],[-81.5434,8.2721,259.0863],[-81.5363,8.2742,307.7562],[-81.5313,8.267,193.8879]]],
[[[-81.7523,8.2712,216.4869],[-81.7492,8.2745,185.6722],[-81.7399,8.277,77.0092],[-81.7457,8.2604,244.9308],[-81.7377,8.2627,160.7244],[-81.7356,8.2681,100.351],[-81.7316,8.2719,69.8713],[-81.7289,8.2662,72.0466],[-81.729,8.2577,68.991],[-81.7194,8.2588,141.183],[-81.7155,8.2611,235.4916],[-81.7151,8.2675,206.4628],[-81.7192,8.2719,124.0525],[-81.72,8.2778,167.7385],[-81.7164,8.2829,229.5396],[-81.716,8.2899,309.7896],[-81.7114,8.2903,358.5241],[-81.7083,8.2942,375.5112],[-81.7061,8.2946,456.9767],[-81.7012,8.3131,416.131],[-81.6947,8.3107,505.3839],[-81.6927,8.3083,575.8038],[-81.6952,8.2956,461.3307],[-81.6927,8.2948,456.4682],[-81.6935,8.297,461.3307],[-81.6912,8.298,399.6548],[-81.6885,8.2971,370.6581],[-81.6899,8.2876,328.6066],[-81.6913,8.2876,328.6066],[-81.6927,8.2848,356.32],[-81.6886,8.2848,296.1539],[-81.687,8.2876,310.2861],[-81.6787,8.2892,409.0223],[-81.675,8.2873,382.8618],[-81.6658,8.2947,378.2704],[-81.6603,8.2942,372.8764],[-81.6651,8.287,414.7485],[-81.6648,8.273,448.7905],[-81.6548,8.2793,422.7406],[-81.6538,8.2843,310.8515],[-81.6463,8.2937,214.0936],[-81.6447,8.2992,421.0379],[-81.6424,8.3015,415.732],[-81.6344,8.3011,379.9922],[-81.6291,8.3051,368.1846],[-81.6291,8.2954,372.9631],[-81.627,8.2936,416.70119999999997],[-81.6283,8.2892,273.1793],[-81.6223,8.2908,396.9057],[-81.6205,8.303,359.6104],[-81.6249,8.3042,353.8463],[-81.625,8.3113,355.2776],[-81.6214,8.3136,236.9692],[-81.6221,8.3167,335.0734],[-81.6183,8.3218,181.6745],[-81.6203,8.3289,275.3517],[-81.6166,8.3332,316.7155],[-81.6161,8.3368,335.0246],[-81.6178,8.3392,347.91],[-81.6157,8.3421,397.4099],[-81.6155,8.3494,500.0812],[-81.6125,8.3546,389.6902],[-81.6025,8.3582,402.3824],[-81.5991,8.3654,247.6559],[-81.6015,8.3695,271.923],[-81.6001,8.3717,262.3851],[-81.5968,8.3729,275.6204],[-81.5961,8.3768,348.5975],[-81.5917,8.3818,323.7232],[-81.5869,8.3801,273.9886],[-81.581,8.3707,269.4827],[-81.5709,8.3652,320.6951],[-81.5665,8.3675,343.218],[-81.5628,8.3699,338.9792],[-81.5567,8.378,387.7064],[-81.5505,8.3768,303.7846],[-81.544,8.384,349.0814],[-81.5327,8.3853,278.7529],[-81.5325,8.3904,279.6823],[-81.5273,8.3913,273.9999],[-81.5292,8.3964,315.0396],[-81.5345,8.4026,431.7513],[-81.5354,8.4078,465.3746],[-81.5286,8.4108,337.898],[-81.5224,8.4166,331.2543],[-81.4993,8.4082,400.515],[-81.4836,8.411,346.6246],[-81.4755,8.4081,312.5088],[-81.4736,8.4099,345.6035],[-81.4664,8.4002,357.1805],[-81.4573,8.3978,316.3249],[-81.4579,8.4071,356.5566],[-81.4554,8.4109,430.0857],[-81.4492,8.4147,458.0418],[-81.4487,8.4171,501.2895],[-81.4506,8.4211,556.1777],[-81.4591,8.4229,467.6662],[-81.4612,8.4262,446.6055],[-81.4611,8.4302,450.5968],[-81.4516,8.4309,543.9546],[-81.4476,8.436,452.1404],[-81.4426,8.4313,368.641],[-81.4358,8.4288,340.9218],[-81.4299,8.4183,302.4228],[-81.4249,8.4242,404.2685],[-81.4237,8.4319,386.3922],[-81.425,8.4365,355.0819],[-81.4154,8.4364,425.6778],[-81.4125,8.4383,452.0156],[-81.413,8.4452,453.7082],[-81.4197,8.4589,468.6048],[-81.4201,8.463,542.8105],[-81.4074,8.4719,726.7528],[-81.402,8.4888,450.3728],[-81.3982,8.4966,604.6177],[-81.3955,8.4987,670.0989],[-81.3875,8.4982,792.4033],[-81.3817,8.4931,635.2643],[-81.3687,8.4717,520.5154],[-81.3661,8.4615,409.0781],[-81.3633,8.4587,425.8163],[-81.3638,8.4509,306.9041],[-81.3507,8.4412,260.2309],[-81.3467,8.4431,280.7456],[-81.3451,8.4475,340.4861],[-81.3467,8.4636,465.8256],[-81.3504,8.4672,442.4572],[-81.3564,8.4689,367.7672],[-81.3575,8.4757,454.2257],[-81.3561,8.4782,470.2849],[-81.3495,8.4801,492.3659],[-81.3367,8.4786,683.2657],[-81.33,8.4797,676.105],[-81.3188,8.4734,580.1012],[-81.3151,8.474,594.4263],[-81.314,8.4759,578.1471],[-81.3165,8.4806,703.2361],[-81.3315,8.4864,721.4116],[-81.3411,8.4955,721.2894],[-81.355,8.4929,536.2156],[-81.3599,8.4942,428.7355],[-81.3626,8.4974,470.5176],[-81.3626,8.5094,717.11],[-81.358,8.5152,726.9353],[-81.3495,8.522,763.6965],[-81.3413,8.5395,895.0824],[-81.3375,8.5381,1047.6732],[-81.3269,8.5209,878.243],[-81.3301,8.5076,1009.8495],[-81.3397,8.4964,721.2894],[-81.3327,8.5007,1056.5417],[-81.3313,8.4995,1043.1243],[-81.3272,8.4998,1061.334],[-81.3244,8.5016,1153.6301],[-81.3173,8.5128,1264.4872],[-81.3141,8.5275,1067.7526],[-81.3085,8.5331,1216.6067],[-81.3047,8.5328,1283.3545],[-81.2918,8.5206,1300.4308],[-81.2849,8.5067,1471.1758],[-81.2829,8.4968,1078.2999],[-81.2857,8.4911,1035.9684],[-81.2954,8.4934,933.4189],[-81.2977,8.4923,852.0198],[-81.3001,8.4874,808.337],[-81.3019,8.4763,635.8296],[-81.2976,8.47,555.6147],[-81.2929,8.4697,693.6116],[-81.2816,8.4756,825.678],[-81.2773,8.4748,872.4866],[-81.2636,8.4673,738.2782],[-81.2596,8.4704,713.1145],[-81.259,8.4721,715.0047],[-81.264,8.4871,972.422],[-81.2757,8.5038,1505.6759],[-81.2745,8.5098,1627.1665],[-81.277,8.5164,1707.7542],[-81.269,8.5168,1600.8867],[-81.2666,8.5135,1499.2274],[-81.2582,8.5105,1428.7272],[-81.2541,8.5061,1341.6238],[-81.2473,8.4825,676.5117],[-81.2328,8.4578,436.0884],[-81.2227,8.4581,463.6616],[-81.2116,8.4551,504.0519],[-81.194,8.4552,401.2289],[-81.1721,8.4722,770.9523],[-81.1669,8.4679,700.938],[-81.1631,8.4565,647.4772],[-81.1487,8.4519,442.9057],[-81.1327,8.4361,444.6423],[-81.1381,8.4555,587.4918],[-81.1509,8.4636,606.5835],[-81.1645,8.4759,789.3549],[-81.1709,8.4844,738.2662],[-81.1743,8.5111,1020.8887],[-81.1775,8.5132,876.9505],[-81.1708,8.5209,686.9533],[-81.1716,8.5245,692.7314],[-81.1776,8.5317,586.5483],[-81.1836,8.534,457.7394],[-81.2005,8.5307,645.4683],[-81.2018,8.5315,577.6934],[-81.2106,8.5564,434.1472],[-81.2285,8.5813,440.5497],[-81.2324,8.5882,437.96],[-81.2351,8.5981,304.258],[-81.2314,8.6176,296.5724],[-81.2354,8.6258,261.5116],[-81.2347,8.6508,176.6489],[-81.2272,8.6595,195.9751],[-81.2311,8.6643,165.054],[-81.229,8.6708,82.0243],[-81.231,8.6775,77.1778],[-81.2288,8.6842,130.244],[-81.2214,8.6882,69.8944],[-81.2209,8.6947,91.0916],[-81.2157,8.7004,80.922],[-81.2175,8.7049,34.5685],[-81.2257,8.707,70.5956],[-81.2282,8.7105,93.0556],[-81.2227,8.7204,62.6834],[-81.2251,8.7313,61.5385],[-81.2199,8.7438,16.668],[-81.2258,8.7445,83.2909],[-81.2277,8.7542,13.768],[-81.2212,8.764,55.0041],[-81.2235,8.7805,18.1258],[-81.2212,8.7832,12.6952],[-81.2138,8.7854,20.0965],[-81.2174,8.7865,0.0],[-81.2135,8.7868,6.7224],[-81.2121,8.789,0.0],[-81.2265,8.7949,0.0],[-81.2449,8.7963,0.0],[-81.2557,8.7926,0.0],[-81.2646,8.7935,5.5323],[-81.269,8.7915,4.0626],[-81.2765,8.7913,2.3786],[-81.2843,8.7926,0.0],[-81.2877,8.7915,2.1984],[-81.2901,8.7854,7.2964],[-81.296,8.7818,4.8331],[-81.3026,8.7835,3.4206],[-81.3049,8.7821,3.1494],[-81.3088,8.7843,0.0],[-81.3151,8.784,1.5385],[-81.3215,8.7868,0.0],[-81.3301,8.7862,2.0118],[-81.3351,8.7829,4.3881],[-81.346,8.7851,22.0894],[-81.3512,8.7829,4.4901],[-81.3704,8.7913,5.1063],[-81.3812,8.799,0.0],[-81.3851,8.7971,27.3036],[-81.3835,8.7935,1.9186],[-81.3857,8.7896,1.2786],[-81.3851,8.7929,1.9128],[-81.3871,8.796,10.1582],[-81.3846,8.7996,1.0766],[-81.4101,8.8038,0.0],[-81.4126,8.8024,0.0],[-81.4163,8.7965,14.6544],[-81.4199,8.7951,15.585],[-81.431,8.7957,0.0],[-81.4535,8.8046,3.0606],[-81.4551,8.8065,4.4531],[-81.4593,8.8046,13.6225],[-81.464,8.8071,0.0],[-81.4671,8.8046,2.1712],[-81.4779,8.8093,0.0],[-81.486,8.8062,0.0],[-81.4885,8.8018,7.7592],[-81.4971,8.7996,4.9401],[-81.5174,8.8074,1.2663],[-81.5424,8.8249,1.9572],[-81.5485,8.8229,1.0017],[-81.5465,8.8188,3.4504],[-81.5462,8.8113,1.5048],[-81.5474,8.811,5.8828],[-81.5476,8.8179,0.9321],[-81.5496,8.8226,0.0],[-81.5515,8.8229,10.2968],[-81.5446,8.8271,0.0],[-81.569,8.8471,0.0],[-81.5715,8.8482,0.4478],[-81.5701,8.846,0.0],[-81.5718,8.8465,0.0],[-81.5749,8.8524,0.0],[-81.6046,8.8796,2.0447],[-81.6468,8.9263,6.0023],[-81.6762,8.966,0.0],[-81.6937,8.9854,9.8115],[-81.7121,9.0121,0.0],[-81.7149,9.0129,0.6873],[-81.7151,9.0224,0.0],[-81.7174,9.026,4.7012],[-81.7176,9.0301,3.9556],[-81.7226,9.0349,4.6235],[-81.7224,9.0382,2.6751],[-81.7279,9.0357,0.5309],[-81.7321,9.0357,0.0],[-81.7346,9.0371,5.6489],[-81.7363,9.0424,0.0],[-81.7393,9.0443,0.0],[-81.7421,9.044,0.0],[-81.7435,9.0463,0.0],[-81.7451,9.0451,0.0],[-81.7446,9.0437,22.0876],[-81.7479,9.0443,1.3684],[-81.7601,9.0549,1.8051],[-81.7607,9.0632,0.0],[-81.7621,9.0643,0.0],[-81.771,9.0618,5.6006],[-81.776,9.0635,1.0772],[-81.781,9.0629,7.1416],[-81.7818,9.0663,0.0],[-81.7874,9.0674,0.0],[-81.794,9.0643,4.9283],[-81.7988,9.0665,1.5617],[-81.8049,9.0654,3.5497],[-81.809,9.0693,2.1083],[-81.8063,9.0729,0.0],[-81.8071,9.0743,0.0],[-81.8099,9.069,2.1083],[-81.816,9.0654,1.8478],[-81.8196,9.0654,1.1956],[-81.819,9.0682,0.4956],[-81.8213,9.0693,0.0],[-81.8215,9.0638,0.212],[-81.8229,9.0638,0.212],[-81.8243,9.0668,0.7247],[-81.8221,9.0688,0.0],[-81.826,9.0757,2.0498],[-81.826,9.084,0.0],[-81.829,9.0854,2.0519],[-81.8304,9.0885,0.0],[-81.8301,9.0929,2.1763],[-81.8279,9.0965,0.0],[-81.836,9.0982,2.5746],[-81.8354,9.101,0.0],[-81.8385,9.1029,0.3416],[-81.8379,9.1071,0.8327],[-81.8399,9.1085,9.5771],[-81.8399,9.1112,1.0344],[-81.8426,9.1107,3.7235],[-81.8468,9.1151,0.0],[-81.8399,9.1168,0.0],[-81.8346,9.1151,0.0],[-81.8313,9.119,8.0097],[-81.8207,9.1213,0.0],[-81.8185,9.1235,0.0],[-81.8185,9.1257,0.0],[-81.8285,9.1262,1.0222],[-81.8307,9.1324,11.4916],[-81.8288,9.1318,0.0],[-81.8276,9.1332,0.0],[-81.8318,9.134,32.3835],[-81.8343,9.1365,15.9577],[-81.8432,9.1374,4.4015],[-81.8538,9.1435,7.4772],[-81.8562,9.1479,5.2343],[-81.8551,9.1504,0.0],[-81.8604,9.1535,11.9366],[-81.8607,9.156,2.9458],[-81.8649,9.1576,11.0697],[-81.8676,9.1632,1.2635],[-81.8671,9.1665,1.9718],[-81.8732,9.1687,8.1576],[-81.8732,9.1743,0.0],[-81.8787,9.1788,37.6347],[-81.879,9.1821,0.0],[-81.8815,9.1843,0.0],[-81.8868,9.1824,0.0],[-81.8885,9.1832,1.8739],[-81.8882,9.1851,0.0],[-81.8929,9.1865,0.0],[-81.8993,9.186,0.0],[-81.904,9.1835,16.677],[-81.9104,9.186,0.0],[-81.9196,9.1846,5.8703],[-81.921,9.1829,0.0],[-81.9185,9.1776,0.0],[-81.919,9.171,0.0],[-81.9168,9.1696,14.8983],[-81.916,9.1626,0.0],[-81.9135,9.1632,3.3927],[-81.9063,9.1579,0.0726],[-81.9026,9.1601,0.6081],[-81.8962,9.1607,6.151],[-81.8926,9.1574,8.2329],[-81.8885,9.1587,0.0],[-81.8826,9.1557,8.9086],[-81.8763,9.1568,0.0],[-81.8749,9.1549,0.0],[-81.8701,9.1551,3.802],[-81.8693,9.1507,4.0291],[-81.8729,9.1474,8.9074],[-81.8785,9.149,0.0],[-81.8812,9.1474,0.0],[-81.8807,9.1446,0.0],[-81.879,9.1446,0.0],[-81.8807,9.1388,0.0],[-81.8863,9.139,0.7681],[-81.8885,9.141,0.0],[-81.8924,9.1401,8.1569],[-81.8924,9.1438,0.0],[-81.9029,9.1468,7.8185],[-81.9057,9.1446,0.0],[-81.9021,9.1404,1.0047],[-81.9037,9.1382,6.9836],[-81.9068,9.1379,3.0626],[-81.9154,9.1429,0.0],[-81.9221,9.1504,7.9387],[-81.9257,9.1501,7.2662],[-81.9288,9.144,0.0],[-81.9388,9.1426,8.4949],[-81.9396,9.146,2.1771],[-81.9371,9.1504,9.5489],[-81.9401,9.1518,1.5558],[-81.9404,9.1499,2.3685],[-81.9443,9.1476,2.5258],[-81.9476,9.1371,0.0],[-81.9412,9.1354,0.0],[-81.939,9.1312,0.0],[-81.9346,9.1304,0.0],[-81.9301,9.1262,0.0],[-81.9229,9.1249,1.8932],[-81.9218,9.1224,6.0838],[-81.9157,9.1188,17.9381],[-81.9132,9.1138,0.2155],[-81.9107,9.1165,0.0],[-81.9024,9.1121,13.058],[-81.8971,9.1029,0.0],[-81.8899,9.1007,1.4571],[-81.8904,9.0957,0.3684],[-81.8874,9.0971,7.2833],[-81.8765,9.0896,3.787],[-81.8724,9.0829,13.1211],[-81.8724,9.0776,2.1309],[-81.8701,9.0757,3.6842],[-81.8668,9.0757,4.7853],[-81.8623,9.0704,0.0],[-81.8618,9.0663,6.0564],[-81.8649,9.0574,2.4799],[-81.861,9.0557,5.6414],[-81.8613,9.0535,0.0],[-81.8557,9.0532,5.581],[-81.8535,9.0476,2.7549],[-81.8476,9.0457,17.6776],[-81.8435,9.0424,10.6707],[-81.8426,9.0365,0.0],[-81.836,9.0324,3.7765],[-81.8346,9.0287,0.0],[-81.8321,9.0285,0.0],[-81.8279,9.0226,0.7874],[-81.8213,9.0226,1.7447],[-81.8154,9.0187,0.0],[-81.8074,9.0188,5.3403],[-81.8043,9.0149,0.0],[-81.7924,9.0126,2.2417],[-81.791,9.009,1.6094],[-81.7826,9.0082,0.0],[-81.779,9.0029,0.0],[-81.776,9.0015,0.0],[-81.774,8.9946,0.0],[-81.7765,8.9851,0.4397],[-81.7701,8.981,0.0],[-81.7696,8.9749,0.0],[-81.7732,8.9615,0.9988],[-81.781,8.949,0.0],[-81.794,8.9393,0.8157],[-81.8054,8.936,3.8415],[-81.8074,8.941,0.8586],[-81.8101,8.9418,4.1966],[-81.8115,8.941,2.7002],[-81.8118,8.9374,1.6941],[-81.8154,8.941,1.4161],[-81.821,8.9415,2.9488],[-81.8221,8.9451,0.0],[-81.8135,8.9432,0.0],[-81.8115,8.9443,0.0],[-81.8265,8.9576,0.0],[-81.8357,8.9618,4.4195],[-81.8512,8.9607,0.0],[-81.8554,8.9629,1.8086],[-81.8538,8.9643,0.0],[-81.8576,8.9657,0.0],[-81.861,8.9693,0.0],[-81.8632,8.9682,3.2749],[-81.8624,8.9657,0.0],[-81.8674,8.9651,0.2557],[-81.8757,8.9604,2.1713],[-81.8918,8.9601,2.08],[-81.894,8.9563,2.3941],[-81.8999,8.956,0.0],[-81.9007,8.9576,0.0],[-81.8971,8.9624,0.0],[-81.8962,8.9674,0.0],[-81.8999,8.9712,2.5992],[-81.8993,8.9765,3.202],[-81.8968,8.9754,0.6425],[-81.896,8.9721,0.0],[-81.8938,8.9729,0.0],[-81.8907,8.969,0.0],[-81.8924,8.9732,0.0],[-81.9013,8.9813,1.099],[-81.914,8.9829,2.7455],[-81.9207,8.991,0.0],[-81.921,8.9887,1.9984],[-81.9243,8.9888,0.7241],[-81.9251,8.9854,4.0977],[-81.929,8.9824,0.0],[-81.9307,8.9788,0.0],[-81.9296,8.976,0.5138],[-81.9221,8.9718,0.0],[-81.9221,8.964,0.0],[-81.9262,8.9538,2.1242],[-81.936,8.9454,14.7238],[-81.9488,8.9426,0.0],[-81.9499,8.9388,1.9382],[-81.9524,8.939,0.0],[-81.9543,8.9426,1.1903],[-81.9565,8.9404,17.6921],[-81.9593,8.941,1.0761],[-81.9601,8.939,3.7317],[-81.9612,8.9421,9.0646],[-81.9674,8.941,7.5035],[-81.9701,8.9435,9.5043],[-81.9726,8.9418,4.2744],[-81.974,8.944,0.0],[-81.9768,8.9412,2.2756],[-81.9812,8.941,2.6861],[-81.9893,8.9513,0.0],[-81.9954,8.956,0.0],[-82.0005,8.9571,0.0],[-82.0054,8.9544,15.9471],[-82.0127,8.9465,17.0425],[-82.0178,8.9216,8.665],[-82.053,8.8951,8.0819],[-82.0626,8.9011,12.9011],[-82.0744,8.8993,120.7312],[-82.0772,8.9232,5.7847],[-82.0829,8.9249,6.9805],[-82.084,8.9277,0.0],[-82.0864,8.9168,161.2022],[-82.0927,8.911,134.7929],[-82.0906,8.9064,357.4284],[-82.0927,8.9029,423.7427],[-82.1021,8.9015,470.9582],[-82.1244,8.906,624.1119],[-82.129,8.9012,512.6201],[-82.1451,8.8978,423.4341],[-82.1576,8.8895,111.1996],[-82.1617,8.8782,141.1016],[-82.1686,8.8702,62.4267],[-82.1666,8.8624,68.4776],[-82.1675,8.8549,123.4601],[-82.1787,8.8474,107.6264],[-82.189,8.8617,65.8755],[-82.1894,8.8673,62.7732],[-82.1855,8.8729,59.8961],[-82.1861,8.8803,56.8144],[-82.1926,8.8946,57.482],[-82.2125,8.8959,82.2058],[-82.217,8.8997,87.8361],[-82.2149,8.9074,185.4897],[-82.2148,8.9219,304.0838],[-82.2091,8.9209,175.162],[-82.201,8.9144,156.8021],[-82.1977,8.9163,80.7118],[-82.1967,8.9305,129.17],[-82.1994,8.9357,192.5481],[-82.1951,8.9387,113.957],[-82.1964,8.942,41.6265],[-82.1933,8.9429,16.3395],[-82.1945,8.9495,14.5304],[-82.2057,8.9539,144.0284],[-82.2102,8.957,218.2272],[-82.2097,8.9593,198.9599],[-82.2127,8.9625,192.5313],[-82.2274,8.9673,419.6245],[-82.2367,8.9748,272.2442],[-82.2447,8.9738,172.2608],[-82.254,8.9773,451.9956],[-82.2666,8.9792,489.1751],[-82.272,8.9781,495.0403],[-82.2729,8.9812,412.8412],[-82.2706,8.9851,352.891],[-82.2674,8.9867,353.9528],[-82.2676,8.9893,335.6375],[-82.2711,8.9899,299.1287],[-82.271,8.9883,312.3279],[-82.2736,8.9876,290.3716],[-82.2788,8.9915,344.1623],[-82.2798,8.9941,271.654],[-82.2755,8.9996,218.7751],[-82.28,9.0058,83.5211],[-82.2821,9.0058,103.7277],[-82.2857,9.0025,175.8965],[-82.2951,9.0064,146.4553],[-82.3007,8.9986,129.4062],[-82.3084,8.9989,103.3909],[-82.3205,9.0047,76.209],[-82.3258,9.0097,82.2442],[-82.3256,9.0132,81.1419],[-82.319,9.0165,48.0193],[-82.3297,9.025,224.5255],[-82.3264,9.0348,326.5147],[-82.3244,9.0372,238.7079],[-82.3201,9.0385,152.5737],[-82.3122,9.0346,99.9327],[-82.3085,9.0347,98.2122],[-82.3083,9.0369,100.605],[-82.3143,9.0427,91.5564],[-82.3147,9.0457,89.1972],[-82.3033,9.05,17.528],[-82.2981,9.0572,20.1032],[-82.2929,9.0606,10.6621],[-82.2821,9.0636,3.7487],[-82.2778,9.0685,23.0085],[-82.2805,9.0745,5.5558],[-82.2774,9.0759,14.1054],[-82.2744,9.0805,17.178],[-82.2757,9.0869,14.6598],[-82.2833,9.0876,83.9504],[-82.2867,9.079,140.8129],[-82.2899,9.0778,99.0963],[-82.2931,9.0791,150.874],[-82.294,9.0868,105.9449],[-82.3006,9.0863,271.7127],[-82.3008,9.0914,164.6848],[-82.3205,9.0933,233.4308],[-82.3113,9.1026,113.055],[-82.3098,9.099,194.6759],[-82.3051,9.099,183.7388],[-82.3041,9.1049,85.4103],[-82.3009,9.1083,154.0477],[-82.2999,9.1148,47.0606],[-82.3012,9.1172,29.0318],[-82.3033,9.1174,30.2087],[-82.3069,9.1124,59.9366],[-82.3089,9.1119,93.959],[-82.3096,9.1199,92.9388],[-82.3138,9.1254,121.4428],[-82.3179,9.1355,215.1855],[-82.3234,9.1241,202.3086],[-82.3294,9.1209,365.4571],[-82.3361,9.1196,315.0033],[-82.341,9.1149,171.3104],[-82.342,9.1095,140.9375],[-82.3407,9.1057,131.711],[-82.3437,9.1018,104.1387],[-82.3454,9.0924,190.7062],[-82.3584,9.0837,110.9939],[-82.3496,9.0767,137.0806],[-82.3485,9.0732,170.4348],[-82.3561,9.0705,112.9827],[-82.3569,9.065,133.105],[-82.365,9.0541,230.209],[-82.3652,9.0509,216.0085],[-82.3708,9.0473,286.6739],[-82.3727,9.0419,371.1804],[-82.3768,9.0396,405.8649],[-82.3847,9.0386,468.145],[-82.3795,9.0321,429.6029],[-82.3798,9.0287,378.6376],[-82.3837,9.026,437.9503],[-82.4064,9.0258,453.5291],[-82.4106,9.0221,403.2383],[-82.415,9.0126,479.5149],[-82.4239,9.0089,610.7266],[-82.4355,9.007,282.0766],[-82.4432,9.0019,346.0318],[-82.4455,8.9975,344.5619],[-82.441,8.9929,302.8741],[-82.4258,8.9847,821.8045],[-82.4192,8.9842,688.4237],[-82.4124,8.9805,598.5952],[-82.398,8.9785,439.8371],[-82.3843,8.9726,528.8028],[-82.3725,8.9728,362.7479],[-82.3661,8.97,407.5909],[-82.3453,8.9505,775.2449],[-82.3424,8.9443,1122.4351],[-82.3416,8.938,1198.9745],[-82.3379,8.9329,1418.8468],[-82.337,8.9239,1263.9181],[-82.3294,8.9167,1489.8468],[-82.3277,8.903,1367.8348],[-82.3413,8.893,1593.2444],[-82.3435,8.8893,1612.1057],[-82.3435,8.8815,1646.3838],[-82.3495,8.8615,1876.1315],[-82.3475,8.852,1778.3062],[-82.3502,8.8484,2018.1183],[-82.349,8.8407,2020.0786],[-82.3573,8.8283,2131.6414],[-82.3732,8.831,1922.5934],[-82.3644,8.8259,2233.2852],[-82.3402,8.8218,2053.0103],[-82.3314,8.817,1784.5375],[-82.3223,8.8187,1237.5406],[-82.3146,8.8158,1431.5756],[-82.3111,8.818,1411.8379],[-82.3005,8.8146,1216.4197],[-82.2844,8.7964,1312.5878],[-82.2719,8.7764,1433.8529],[-82.2608,8.7664,1569.9276],[-82.2568,8.7674,1651.8104],[-82.2557,8.7745,1840.5024],[-82.251,8.7719,1622.5175],[-82.2426,8.7747,1688.0878],[-82.2363,8.7687,1501.1935],[-82.2257,8.7677,1425.4801],[-82.2237,8.77,1430.7838],[-82.215,8.7657,1216.0017],[-82.2022,8.7622,1041.9688],[-82.2009,8.7639,1078.2391],[-82.205,8.7703,1058.7194],[-82.2074,8.7788,1083.1444],[-82.2067,8.7812,1021.8848],[-82.2038,8.7821,972.8423],[-82.1985,8.7802,894.1474],[-82.1923,8.7742,1025.6045],[-82.1766,8.7637,1142.1309],[-82.1674,8.7628,1090.1345],[-82.1613,8.7587,1075.8868],[-82.1515,8.7614,1144.5156],[-82.1471,8.7605,1143.3075],[-82.1444,8.6561,1962.3651],[-82.1494,8.617,1048.2841],[-82.1467,8.6121,875.636],[-82.1466,8.6006,728.8207],[-82.1515,8.5855,543.9456],[-82.1582,8.5842,663.8329],[-82.1614,8.5689,788.6628],[-82.1481,8.5653,438.0328],[-82.1443,8.555,337.2908],[-82.1418,8.5556,380.6918],[-82.1375,8.5607,509.3406],[-82.1301,8.5627,612.8518],[-82.1277,8.5589,708.0396],[-82.1266,8.5447,544.7215],[-82.132,8.5475,551.1768],[-82.1351,8.5517,475.4438],[-82.1381,8.5514,405.224],[-82.1411,8.5465,410.8024],[-82.145,8.5439,333.6873],[-82.1471,8.5347,302.485],[-82.1504,8.5295,268.0107],[-82.1614,8.5288,493.928],[-82.1612,8.5308,499.1903],[-82.1657,8.5313,499.6064],[-82.1661,8.53,503.6504],[-82.1566,8.5241,437.6914],[-82.1536,8.5201,293.7339],[-82.1524,8.512,272.6756],[-82.1541,8.5082,227.2154],[-82.164,8.5026,318.9653],[-82.1663,8.4946,295.3059],[-82.1776,8.4834,176.0241],[-82.1805,8.4724,176.0155],[-82.1758,8.463,282.2453],[-82.1844,8.4505,253.9528],[-82.1832,8.4447,175.3046],[-82.1729,8.4427,118.0367],[-82.1626,8.4446,116.1357],[-82.1578,8.4479,130.3886],[-82.1497,8.4474,198.8315],[-82.1445,8.4495,161.8168],[-82.1388,8.4476,216.9328],[-82.1359,8.4512,156.5088],[-82.1291,8.4499,245.745],[-82.1235,8.4547,204.8295],[-82.1208,8.4509,231.524],[-82.1175,8.4504,281.4404],[-82.1095,8.4545,233.0288],[-82.1029,8.4558,249.6761],[-82.0983,8.4608,215.1279],[-82.0924,8.459,129.3952],[-82.089,8.4651,148.2428],[-82.0898,8.4711,121.8824],[-82.0833,8.4743,130.5915],[-82.0795,8.48,130.2826],[-82.0769,8.4805,152.3874],[-82.0696,8.4757,258.528],[-82.0651,8.4752,194.255],[-82.0713,8.4663,124.8331],[-82.0648,8.4625,202.7056],[-82.0631,8.4566,220.5883],[-82.058,8.4537,303.4858],[-82.0561,8.4405,480.3858],[-82.0494,8.4356,321.8085],[-82.0534,8.4276,253.0656],[-82.0524,8.4241,202.7991],[-82.044,8.4218,184.2455],[-82.0429,8.4171,177.7989],[-82.0411,8.4158,136.1101],[-82.0308,8.4205,211.2727],[-82.0263,8.426,253.073],[-82.0213,8.424,131.3845],[-82.0186,8.4138,180.486],[-82.0208,8.4099,142.3376],[-82.0194,8.4056,174.3254],[-82.0239,8.3998,165.9963],[-82.031,8.3942,127.5632],[-82.0322,8.3866,162.7267],[-82.0286,8.3848,169.5877],[-82.0077,8.3894,346.2242],[-82.0181,8.3749,185.3708],[-82.023,8.3714,162.9302],[-82.0215,8.369,153.6964],[-82.0165,8.3667,181.8523],[-82.0199,8.3597,127.5567],[-82.0106,8.3472,109.7424],[-81.9976,8.3357,99.9975],[-81.99,8.3344,61.7877],[-81.9813,8.3353,85.6661],[-81.9748,8.3191,76.1586],[-81.9709,8.3269,144.3416],[-81.968,8.329,145.6464],[-81.9625,8.3247,101.7007],[-81.947,8.3253,109.0843],[-81.9467,8.3267,119.1266],[-81.9419,8.3288,44.1107],[-81.9414,8.3319,55.5763],[-81.9386,8.3327,61.6584],[-81.9329,8.3256,165.606],[-81.9265,8.3235,52.336],[-81.9257,8.33,70.0515],[-81.9153,8.3276,54.982],[-81.9115,8.3351,112.2547],[-81.8922,8.331,94.5852],[-81.8903,8.3263,66.5996],[-81.8915,8.3218,66.7034],[-81.8859,8.319,52.2135],[-81.8801,8.3229,98.4024],[-81.8782,8.3284,189.1925],[-81.8726,8.3324,232.933],[-81.8615,8.3283,80.4189],[-81.8482,8.3315,127.4287],[-81.8279,8.3308,134.968],[-81.8233,8.3257,138.9374],[-81.8276,8.3196,268.8714],[-81.8314,8.3057,227.2004],[-81.8365,8.3053,170.5184],[-81.8391,8.3026,158.4044],[-81.828,8.2958,245.5331],[-81.8242,8.2962,269.4082],[-81.8171,8.3006,343.898],[-81.8116,8.2991,270.8406],[-81.8109,8.2969,201.6098],[-81.8154,8.2916,132.3785],[-81.8167,8.2872,114.407],[-81.8035,8.2718,123.8315],[-81.794,8.2712,125.3337],[-81.7859,8.2686,237.532],[-81.7841,8.2688,208.5105],[-81.7832,8.2718,208.4776],[-81.7791,8.2735,198.6818],[-81.7756,8.2727,122.3635],[-81.7685,8.2743,230.129],[-81.7666,8.2727,206.2143],[-81.7668,8.2706,207.1158],[-81.7713,8.2663,165.6449],[-81.7686,8.2635,260.1702],[-81.7681,8.2603,295.1507],[-81.7636,8.2598,284.9088],[-81.762,8.2581,245.1594],[-81.7599,8.2585,248.324],[-81.7584,8.2611,273.8591],[-81.7619,8.2618,329.9608],[-81.7614,8.2645,282.5522],[-81.7523,8.2712,216.4869]]],
[[[-81.8929,8.9654,0.0],[-81.8954,8.9671,0.0],[-81.8921,8.961,0.0],[-81.8918,8.964,0.0],[-81.8929,8.9654,0.0]]],
[[[-82.0001,9.0001,0.0],[-82.0001,8.9999,0.0],[-81.9999,8.9999,0.0],[-81.9999,9.0001,0.0],[-82.0001,9.0001,0.0]]],
[[[-81.5368,9.089,0.0],[-81.5385,9.0899,0.0],[-81.5385,9.0882,0.0],[-81.5354,9.0874,0.0],[-81.5351,9.0879,0.0],[-81.5368,9.089,0.0]]],
[[[-81.9004,9.0982,0.0],[-81.9004,9.101,0.0],[-81.9032,9.101,0.0],[-81.9054,9.0974,0.0],[-81.9079,9.0968,0.0],[-81.9001,9.0915,0.0],[-81.8921,9.0929,0.0],[-81.8974,9.0968,0.8584],[-81.9004,9.096,0.0],[-81.9004,9.0982,0.0]]],
[[[-81.8087,9.1285,3.8812],[-81.8112,9.1293,0.0],[-81.8126,9.1271,3.8658],[-81.8101,9.1257,0.0],[-81.8087,9.1285,3.8812]]],
[[[-81.5529,9.1065,0.0],[-81.5557,9.1074,0.0],[-81.5576,9.1054,1.5573],[-81.5565,9.1043,1.5573],[-81.5596,9.1032,1.9866],[-81.569,9.1071,0.0],[-81.5701,9.1051,2.9032],[-81.576,9.1057,0.0],[-81.5765,9.1037,0.0],[-81.5726,9.0996,0.7442],[-81.5724,9.0918,0.0],[-81.5404,9.0888,0.0],[-81.5401,9.0904,0.0],[-81.5449,9.0954,7.1001],[-81.5421,9.0957,0.0],[-81.5449,9.0982,3.2269],[-81.5443,9.1001,0.0],[-81.546,9.1026,0.0],[-81.5501,9.1026,0.0],[-81.5529,9.1065,0.0]]],
[[[-81.8004,9.1349,0.0],[-81.8021,9.136,0.0],[-81.8026,9.1335,13.0694],[-81.8068,9.1326,0.0],[-81.8068,9.1312,0.0],[-81.8043,9.1301,0.0],[-81.8001,9.131,0.0],[-81.8004,9.1349,0.0]]],
[[[-81.9518,9.1513,0.0],[-81.9532,9.1526,0.0],[-81.9521,9.1488,0.0],[-81.951,9.1488,0.0],[-81.951,9.1496,0.0],[-81.9518,9.1513,0.0]]]]}
,"properties": {"GID_1": "PAN.10_1","GID_0": "PAN","country": "Panama","province": "NgöbeBuglé","VARNAME_1": "NA","NL_NAME_1": "NA","TYPE_1": "ComarcaIndígena","ENGTYPE_1": "IndigenousTerritory","CC_1": "NA","HASC_1": "PA.NB","ISO_1": "NA","name": "Ngöbe_Buglé.province","area_km2": 6633.904,"hist_schema_id": "Elevation0-9000","hist_area_km2": {"0": 277.325,"25": 455.457,"50": 162.991,"75": 133.921,"100": 126.349,"125": 118.655,"150": 111.588,"175": 118.476,"200": 126.47,"225": 127.897,"250": 130.754,"275": 134.235,"300": 142.708,"325": 154.621,"350": 153.654,"375": 148.245,"400": 146.104,"425": 140.714,"450": 136.563,"475": 135.136,"500": 129.536,"525": 125.552,"550": 121.165,"575": 116.783,"600": 112.403,"625": 110.369,"650": 107.937,"675": 103.828,"700": 100.39,"725": 98.484,"750": 94.416,"775": 91.754,"800": 90.182,"825": 86.743,"850": 84.04,"875": 81.734,"900": 80.14,"925": 78.443,"950": 74.208,"975": 72.092,"1000": 71.421,"1025": 68.234,"1050": 68.57,"1075": 65.173,"1100": 64.984,"1125": 62.05,"1150": 57.521,"1175": 56.808,"1200": 53.539,"1225": 51.463,"1250": 49.535,"1275": 48.551,"1300": 48.236,"1325": 43.729,"1350": 42.996,"1375": 41.466,"1400": 40.69,"1425": 40.9,"1450": 38.007,"1475": 36.729,"1500": 36.33,"1525": 34.297,"1550": 33.563,"1575": 29.181,"1600": 29.265,"1625": 27.064,"1650": 24.318,"1675": 23.5,"1700": 21.97,"1725": 19.685,"1750": 18.071,"1775": 15.953,"1800": 15.345,"1825": 12.138,"1850": 11.404,"1875": 10.775,"1900": 9.266,"1925": 8.385,"1950": 7.086,"1975": 6.352,"2000": 6.394,"2025": 6.163,"2050": 5.429,"2075": 4.025,"2100": 4.214,"2125": 3.627,"2150": 2.893,"2175": 2.138,"2200": 2.201,"2225": 1.992,"2250": 1.551,"2275": 1.509,"2300": 1.572,"2325": 1.069,"2350": 0.86,"2375": 0.629,"2400": 0.419,"2425": 0.231,"2450": 0.147,"2475": 0.147}}}