{"type":"Feature","properties":{"ISO3166-1-Alpha-3":"PAN","country":"Panama","fill":"#00F","id":"3454","name":"Ngöbe Buglé"},
"geometry":{"type": "MultiPolygon","coordinates": [[[[-81.56549,9.1055,0.0],[-81.56827,9.10825,0.0],[-81.5754,9.10764,0.0],[-81.57726,9.10458,0.0],[-81.5751,9.10061,0.0],[-81.57293,9.09602,0.0],[-81.57167,9.0896,0.0],[-81.56704,9.09082,0.0],[-81.56241,9.09082,5.8026],[-81.55219,9.0896,0.0],[-81.54381,9.08837,0.0],[-81.53884,9.08592,0.0],[-81.53449,9.08592,0.0],[-81.53387,9.08867,0.0],[-81.53667,9.09142,0.0],[-81.53791,9.09509,0.0],[-81.54195,9.09907,0.0],[-81.54722,9.10274,0.0],[-81.5531,9.1058,0.0],[-81.55775,9.10611,0.0],[-81.55993,9.10397,0.0],[-81.56549,9.1055,0.0]]],
[[[-81.84187,9.13833,4.4015],[-81.86547,9.16665,0.0],[-81.8828,9.17951,52.1565],[-81.90331,9.17927,37.2629],[-81.91031,9.16812,75.4823],[-81.89476,9.15693,0.0],[-81.86238,9.14175,17.1913],[-81.87287,9.12954,49.4757],[-81.89664,9.13178,51.6813],[-81.92203,9.13813,7.6228],[-81.93741,9.13833,10.6057],[-81.93342,9.12922,13.6967],[-81.91784,9.11498,0.0],[-81.89928,9.10187,0.0],[-81.88622,9.09614,5.4301],[-81.87706,9.08731,0.0],[-81.84187,9.03531,0.0],[-81.77424,8.99746,0.0],[-81.77058,8.95746,3.1467],[-81.77554,8.94025,25.6902],[-81.79345,8.93163,11.9094],[-81.85228,8.95832,22.1185],[-81.86238,8.9558,16.5954],[-81.86734,8.94929,18.1831],[-81.87804,8.95425,21.6679],[-81.88768,8.96259,0.0],[-81.88964,8.96638,0.0],[-81.90372,8.97114,18.0551],[-81.91246,8.9711,15.3747],[-81.92374,8.96638,0.0],[-81.92077,8.95515,9.3768],[-81.92943,8.94383,15.4757],[-81.94396,8.93513,28.7223],[-81.95857,8.93163,26.0117],[-81.97472,8.93521,7.3133],[-81.98522,8.94233,13.2465],[-81.99771,8.94746,17.348],[-82.00675,8.94658,14.5238],[-82.00677,8.94651,14.5238],[-82.00837,8.94186,16.9464],[-82.01589,8.91938,8.2695],[-82.03463,8.90811,14.373],[-82.06088,8.90248,7.412],[-82.10214,8.90248,445.2531],[-82.13214,8.90062,501.2897],[-82.15087,8.89124,185.0656],[-82.164,8.87062,63.6194],[-82.16963,8.84812,96.1917],[-82.17901,8.84437,176.1977],[-82.1865,8.85561,79.4808],[-82.19214,8.88186,66.2128],[-82.19588,8.89124,66.2217],[-82.20901,8.89873,75.8232],[-82.21089,8.91749,254.0136],[-82.19963,8.92499,131.9799],[-82.19588,8.94188,41.6265],[-82.20151,8.95498,118.1635],[-82.22588,8.97,349.2718],[-82.26151,8.97749,338.1988],[-82.27275,8.98687,337.2584],[-82.28027,8.99811,177.8933],[-82.30089,9.00188,161.2707],[-82.32151,9.00937,91.4831],[-82.32339,9.02436,240.679],[-82.31776,9.03937,139.8112],[-82.30275,9.05061,14.8997],[-82.28965,9.06748,11.7799],[-82.28027,9.08061,41.0521],[-82.28776,9.08438,130.6172],[-82.30838,9.09187,242.4333],[-82.31587,9.09937,157.6068],[-82.31027,9.11438,89.3776],[-82.31401,9.12562,175.8222],[-82.32339,9.12751,268.8708],[-82.33838,9.11249,297.3977],[-82.35151,9.08624,142.0815],[-82.35339,9.06188,188.6615],[-82.37964,9.03937,414.9462],[-82.39277,9.02625,556.8043],[-82.42651,9.01312,573.3017],[-82.43964,8.99999,287.724],[-82.4284,8.98875,633.3148],[-82.40776,8.98124,526.7092],[-82.37026,8.96811,538.6708],[-82.34776,8.94938,839.4891],[-82.33463,8.92499,1188.1243],[-82.33089,8.90437,1440.7694],[-82.33838,8.88935,1744.9652],[-82.34776,8.8575,1707.1141],[-82.35525,8.8275,2105.5222],[-82.36295,8.80879,2184.8179],[-82.36114,8.80796,2154.0073],[-82.31779,8.79112,2043.5464],[-82.29978,8.78213,2004.7241],[-82.28169,8.77701,1442.7255],[-82.25087,8.77228,1645.7295],[-82.2235,8.76895,1430.7838],[-82.21808,8.77034,1306.4026],[-82.20399,8.77244,1077.5884],[-82.19617,8.77158,1172.5295],[-82.15485,8.76259,1175.3031],[-82.15322,8.76262,1159.0505],[-82.13963,8.70373,1421.5923],[-82.14901,8.61937,986.1746],[-82.1565,8.58981,675.6134],[-82.15276,8.56873,579.2286],[-82.14291,8.55726,389.1143],[-82.17526,8.48248,215.3775],[-82.18017,8.45788,306.6227],[-82.164,8.44874,102.3934],[-82.13284,8.4492,184.1993],[-82.10025,8.45811,173.4835],[-82.08372,8.46434,108.3376],[-82.074,8.46749,149.252],[-82.06449,8.4615,212.7589],[-82.05338,8.44685,459.0045],[-82.03674,8.41804,148.5395],[-82.0215,8.40186,159.4417],[-82.01775,8.37091,207.8065],[-81.99713,8.33998,97.621],[-81.9491,8.32779,148.9536],[-81.8565,8.32686,213.1702],[-81.83001,8.31841,303.4524],[-81.81337,8.28748,135.2899],[-81.7843,8.26404,176.8855],[-81.73206,8.26216,56.7018],[-81.71589,8.2781,268.3672],[-81.70462,8.295,501.5753],[-81.68963,8.29686,395.3256],[-81.68049,8.27738,323.0873],[-81.65589,8.28185,416.0265],[-81.63362,8.29709,369.6552],[-81.624,8.31373,340.4085],[-81.60979,8.34781,469.0889],[-81.59212,8.37187,249.7796],[-81.54783,8.38569,351.0329],[-81.52249,8.37933,258.6404],[-81.52667,8.4292,354.4991],[-81.52572,8.44385,403.207],[-81.52251,8.46047,722.8283],[-81.49931,8.5161,1038.0195],[-81.49032,8.55589,1335.5522],[-81.48861,8.59694,1434.5872],[-81.46316,8.58397,1460.4341],[-81.43236,8.57669,1520.9274],[-81.42123,8.57188,1426.1294],[-81.41523,8.56808,1099.5815],[-81.41053,8.55852,1484.2684],[-81.36348,8.55496,1559.3679],[-81.33748,8.56023,1327.5483],[-81.32852,8.55806,1300.4301],[-81.28235,8.52222,1477.2646],[-81.26555,8.5116,1467.3912],[-81.22514,8.50095,1135.3435],[-81.20325,8.4922,1079.474],[-81.19204,8.4894,963.4109],[-81.18362,8.4894,912.4373],[-81.15607,8.49553,1259.999],[-81.1716,8.51098,1047.4823],[-81.18026,8.52656,545.6691],[-81.18382,8.53571,435.3118],[-81.18832,8.5441,401.0934],[-81.19592,8.55232,456.6041],[-81.20455,8.56529,341.9098],[-81.21054,8.5863,179.1782],[-81.21452,8.62322,131.6057],[-81.21124,8.68384,54.0851],[-81.22274,8.75776,33.204],[-81.21592,8.7829,3.0019],[-81.21594,8.78825,2.3618],[-81.21617,8.79166,0.0],[-81.26622,8.78923,19.4427],[-81.30446,8.78188,5.8656],[-81.35798,8.7851,3.3274],[-81.38155,8.80012,0.0],[-81.40943,8.8001,64.6598],[-81.42151,8.79643,0.0],[-81.47347,8.80659,9.5477],[-81.4912,8.80098,6.5276],[-81.50329,8.80096,4.5898],[-81.52147,8.80679,10.4502],[-81.53026,8.80874,18.7986],[-81.53905,8.81293,34.1761],[-81.55077,8.82282,0.0],[-81.56159,8.83438,8.1904],[-81.56749,8.84349,2.3747],[-81.58731,8.85635,10.9103],[-81.62755,8.89912,17.297],[-81.68749,8.9842,0.0],[-81.70157,8.99433,4.4529],[-81.70645,8.99917,11.3803],[-81.72117,9.03202,3.4952],[-81.73689,9.03693,8.0909],[-81.76197,9.06375,7.2458],[-81.77681,9.06497,0.0],[-81.80029,9.06781,0.0],[-81.81347,9.06781,0.0],[-81.82088,9.07065,0.0],[-81.82583,9.08529,0.0],[-81.83373,9.09382,16.0223],[-81.84187,9.10358,13.2543],[-81.84187,9.11042,3.7235],[-81.83438,9.107,0.0],[-81.82421,9.10545,0.0],[-81.81603,9.10806,0.0],[-81.81456,9.1166,0.0],[-81.81876,9.12108,0.0],[-81.84187,9.13833,4.4015]]]]}}