{"type": "Feature","bbox": [-80.7383,7.2274,-79.9912,8.004],"geometry": {"type": "MultiPolygon","coordinates": [[[[-80.4412,7.2418,30.5137],[-80.4368,7.2415,31.7621],[-80.4365,7.2432,104.6796],[-80.4343,7.2437,5.535],[-80.4343,7.2457,157.2455],[-80.4307,7.2437,0.0],[-80.431,7.2474,98.4038],[-80.4285,7.2496,74.5826],[-80.4265,7.249,22.2152],[-80.426,7.2529,21.38],[-80.4282,7.254,42.2887],[-80.4265,7.2543,0.0],[-80.4274,7.2562,0.0],[-80.4235,7.2574,4.0525],[-80.4199,7.2613,20.2],[-80.4207,7.2635,3.9322],[-80.4243,7.2649,4.1575],[-80.424,7.2693,5.4602],[-80.4207,7.2729,2.946],[-80.4093,7.274,0.0],[-80.3976,7.279,0.0],[-80.4001,7.2826,0.0],[-80.4004,7.2863,0.0],[-80.3921,7.3051,0.0],[-80.3749,7.3137,5.7008],[-80.351,7.3171,12.6856],[-80.3418,7.3199,15.5106],[-80.3493,7.3304,0.0],[-80.3549,7.334,3.9494],[-80.3515,7.3435,0.0],[-80.3526,7.349,0.0],[-80.3607,7.3515,4.8427],[-80.3624,7.354,1.8119],[-80.3676,7.3565,8.2192],[-80.3615,7.3574,0.0],[-80.3626,7.3612,0.0],[-80.3662,7.3629,0.0],[-80.3676,7.3621,0.0],[-80.3679,7.3663,1.5884],[-80.3604,7.3829,10.859],[-80.3607,7.3915,6.6118],[-80.366,7.3907,5.7837],[-80.3635,7.3929,11.7858],[-80.3599,7.3921,4.8185],[-80.3543,7.394,12.7922],[-80.3521,7.3957,20.4798],[-80.3524,7.3987,17.1685],[-80.3507,7.3976,6.022],[-80.351,7.3957,3.0],[-80.3551,7.3915,14.0489],[-80.3601,7.3904,3.0],[-80.3585,7.3807,2.0],[-80.3646,7.3643,0.0],[-80.3474,7.3857,2.7215],[-80.339,7.3926,2.5823],[-80.3326,7.3957,3.4181],[-80.3226,7.4051,0.0],[-80.2943,7.4176,1.6823],[-80.266,7.4221,2.0972],[-80.2604,7.4251,0.0],[-80.2626,7.4279,2.0061],[-80.2746,7.4274,0.5],[-80.286,7.4235,1.9101],[-80.2943,7.4185,1.6823],[-80.3024,7.4201,3.1374],[-80.3171,7.4162,11.9372],[-80.3076,7.421,6.1631],[-80.2982,7.4221,6.1153],[-80.2901,7.4265,5.5717],[-80.2907,7.4282,7.3269],[-80.2887,7.4279,0.5],[-80.2874,7.4299,1.2183],[-80.2826,7.4296,2.0567],[-80.2801,7.4318,10.7358],[-80.2807,7.4332,1.8605],[-80.2776,7.4329,0.5],[-80.2763,7.4346,1.2553],[-80.269,7.434,5.9066],[-80.2657,7.4307,1.7331],[-80.2643,7.434,6.2033],[-80.2607,7.436,8.9415],[-80.2396,7.4238,5.3767],[-80.229,7.426,1.8143],[-80.2271,7.4207,0.0],[-80.2207,7.4185,0.0],[-80.2193,7.4165,0.0],[-80.2157,7.4188,0.0],[-80.2135,7.4249,0.0],[-80.2049,7.4221,0.0],[-80.2043,7.4249,4.252],[-80.2065,7.429,4.9849],[-80.2046,7.4313,2.3257],[-80.1952,7.4329,3.1869],[-80.1899,7.431,3.8105],[-80.1862,7.4276,3.0703],[-80.186,7.4232,6.1874],[-80.1882,7.4196,3.7662],[-80.1874,7.4179,0.0],[-80.1818,7.4151,0.0],[-80.1815,7.4188,13.6568],[-80.179,7.4188,13.7291],[-80.1738,7.4157,4.3055],[-80.174,7.4143,0.0],[-80.1762,7.4143,0.0],[-80.1749,7.4115,0.0],[-80.1715,7.4121,7.5653],[-80.1696,7.4104,0.0],[-80.164,7.4121,21.32],[-80.161,7.4107,1.2967],[-80.1615,7.4129,2.8015],[-80.1599,7.4146,0.0],[-80.161,7.4168,9.8709],[-80.1565,7.4154,0.0],[-80.1551,7.4182,0.0],[-80.1451,7.4168,0.0],[-80.1465,7.4199,0.0],[-80.1449,7.4238,10.4362],[-80.1338,7.4249,0.0],[-80.1296,7.4321,12.6598],[-80.1029,7.4299,0.0],[-80.0985,7.4271,0.0],[-80.0954,7.4285,0.0],[-80.0907,7.4357,6.8576],[-80.0813,7.4346,0.0],[-80.0801,7.4399,0.0],[-80.0785,7.441,7.2161],[-80.0685,7.4401,0.0],[-80.0679,7.4418,4.2807],[-80.0704,7.444,16.8819],[-80.0646,7.4504,0.0],[-80.0515,7.4532,0.0],[-80.0471,7.451,5.4105],[-80.041,7.4515,5.7598],[-80.0296,7.4493,0.5474],[-80.0285,7.4524,6.4535],[-80.026,7.4529,2.9433],[-80.0243,7.4557,5.1239],[-80.019,7.4562,0.0],[-80.0179,7.4585,1.8421],[-80.0137,7.4582,0.0],[-80.0137,7.4599,0.0],[-80.0029,7.466,4.9796],[-79.9993,7.4651,0.0],[-79.9976,7.4735,0.0],[-79.9993,7.4749,0.0],[-80.0013,7.4735,6.1566],[-80.0024,7.4782,14.1211],[-79.9987,7.4807,2.9473],[-79.996,7.4779,0.0],[-79.9938,7.4782,0.0],[-79.996,7.4851,0.0],[-79.999,7.4879,3.0942],[-79.9993,7.4999,0.0],[-80.0021,7.5018,10.9512],[-79.9965,7.5093,0.0],[-79.9915,7.5118,0.0],[-79.9912,7.5146,0.0],[-79.9957,7.5204,0.0],[-79.9971,7.526,0.0],[-80.0029,7.5293,4.2717],[-80.0035,7.5365,0.0],[-80.0085,7.5474,10.3768],[-80.0282,7.5685,5.8079],[-80.0307,7.5771,0.0],[-80.0329,7.5793,10.6047],[-80.0318,7.5846,0.0],[-80.0329,7.589,7.8386],[-80.031,7.5915,1.6883],[-80.049,7.6279,0.0],[-80.049,7.6337,0.0],[-80.0468,7.6335,0.0],[-80.0465,7.6357,0.0],[-80.0501,7.6379,1.9249],[-80.0554,7.6454,1.8927],[-80.0604,7.6482,3.2613],[-80.0646,7.6468,1.9347],[-80.0651,7.6435,2.3299],[-80.0668,7.6457,1.3287],[-80.069,7.6446,15.5485],[-80.0685,7.6504,19.5434],[-80.079,7.6601,5.7189],[-80.0857,7.669,0.0],[-80.0896,7.679,1.7453],[-80.1001,7.6879,5.6858],[-80.1057,7.6971,1.4061],[-80.1115,7.6996,3.4288],[-80.119,7.6996,4.4938],[-80.1143,7.7024,1.415],[-80.1146,7.7038,0.0],[-80.1215,7.7101,9.708],[-80.1249,7.7157,1.5563],[-80.1268,7.7213,0.0],[-80.1263,7.724,0.0],[-80.1324,7.7349,3.0734],[-80.1471,7.7513,0.0],[-80.1526,7.7535,10.1236],[-80.1557,7.7571,0.0],[-80.1599,7.7562,5.5843],[-80.1648,7.7576,0.0],[-80.1663,7.751,2.0559],[-80.164,7.7465,8.1498],[-80.1674,7.7426,3.0],[-80.166,7.7401,3.8593],[-80.1751,7.7443,4.375],[-80.1776,7.744,9.9545],[-80.181,7.7404,8.9957],[-80.1776,7.7449,9.9545],[-80.174,7.7449,6.6491],[-80.1693,7.7429,7.7603],[-80.1665,7.746,2.125],[-80.1687,7.7543,4.6418],[-80.1674,7.7582,5.3744],[-80.1693,7.761,6.6216],[-80.1687,7.7649,4.5284],[-80.1701,7.7676,0.0],[-80.1899,7.7818,2.1096],[-80.1935,7.7804,8.7987],[-80.1976,7.7901,9.0344],[-80.1976,7.7974,0.0],[-80.2018,7.7996,15.355],[-80.2049,7.8063,0.0],[-80.2107,7.8099,14.3136],[-80.2226,7.8221,0.9122],[-80.2251,7.8279,0.0],[-80.2365,7.8335,3.0381],[-80.2418,7.8337,8.0797],[-80.2615,7.8465,14.965],[-80.2682,7.8565,0.0],[-80.2729,7.859,2.2704],[-80.2738,7.8613,2.8571],[-80.2774,7.8621,0.0],[-80.2812,7.866,0.0],[-80.286,7.8651,2.2712],[-80.3012,7.8868,4.1282],[-80.3174,7.9018,2.3685],[-80.3226,7.9029,1.8241],[-80.3254,7.9079,11.2433],[-80.3249,7.9099,2.7395],[-80.3204,7.9068,1.5113],[-80.3179,7.9104,0.4819],[-80.321,7.9174,1.6891],[-80.3262,7.9393,0.0],[-80.339,7.9626,0.0],[-80.3376,7.9663,2.0371],[-80.3454,7.9746,1.1303],[-80.3482,7.9799,1.226],[-80.3499,7.9799,5.9264],[-80.3576,7.9949,0.0],[-80.3662,8.004,0.0],[-80.3701,8.0032,13.9013],[-80.3723,7.9998,21.393],[-80.3858,7.9945,8.8973],[-80.3938,7.9876,7.1191],[-80.3924,7.9802,4.7986],[-80.3848,7.9764,2.9547],[-80.3838,7.9718,5.5838],[-80.3972,7.9584,7.7471],[-80.3974,7.953,6.7952],[-80.4104,7.9475,6.5],[-80.4158,7.9388,14.0823],[-80.4201,7.9408,9.1926],[-80.4314,7.9344,15.1053],[-80.438,7.9345,19.2541],[-80.4398,7.9314,60.0268],[-80.4436,7.9298,49.6651],[-80.4549,7.9359,52.1118],[-80.4553,7.9226,17.7353],[-80.4624,7.9349,14.7165],[-80.4699,7.938,19.7958],[-80.4757,7.937,26.6995],[-80.488,7.9243,25.517],[-80.4993,7.9183,30.959],[-80.5019,7.9148,32.8619],[-80.5027,7.9092,38.8152],[-80.5227,7.8946,22.4106],[-80.5243,7.8892,31.5029],[-80.522,7.8823,46.3456],[-80.5236,7.8805,46.0629],[-80.5288,7.8798,32.5734],[-80.5307,7.877,30.5725],[-80.5338,7.8584,47.337],[-80.538,7.8526,35.6111],[-80.5376,7.8465,38.907],[-80.541,7.8397,54.1156],[-80.5372,7.8315,53.6733],[-80.5506,7.8295,53.7246],[-80.5549,7.8335,61.1846],[-80.5587,7.8345,64.2016],[-80.5625,7.8259,59.8228],[-80.5654,7.8242,59.5169],[-80.5721,7.8238,58.9518],[-80.5744,7.8174,63.7312],[-80.583,7.8196,58.7917],[-80.5872,7.8179,60.2169],[-80.5902,7.8143,58.1199],[-80.592,7.8083,65.1721],[-80.6002,7.8021,77.4102],[-80.5964,7.7937,129.1591],[-80.5877,7.7967,60.946],[-80.5866,7.7922,61.0636],[-80.5838,7.789,83.3017],[-80.5836,7.7876,80.9252],[-80.5928,7.7802,147.391],[-80.5925,7.7739,71.8462],[-80.5892,7.7708,70.1217],[-80.5921,7.7665,87.8338],[-80.5892,7.7593,86.6912],[-80.5856,7.7531,126.4024],[-80.5803,7.7534,145.7039],[-80.5781,7.7518,122.6042],[-80.5761,7.7474,145.8513],[-80.578,7.7432,134.2055],[-80.5776,7.7397,129.9911],[-80.5745,7.74,112.1097],[-80.5732,7.7438,114.8413],[-80.5684,7.7416,149.591],[-80.5733,7.7365,130.696],[-80.5729,7.7279,156.094],[-80.5667,7.7203,192.3043],[-80.5635,7.7114,91.1857],[-80.5687,7.6893,147.6137],[-80.5763,7.6863,114.9746],[-80.5784,7.6763,115.3434],[-80.5858,7.6612,120.5952],[-80.5967,7.663,145.1998],[-80.6003,7.6604,147.6469],[-80.6026,7.6517,135.148],[-80.6079,7.6513,150.4939],[-80.615,7.6551,163.8321],[-80.6216,7.6522,174.0727],[-80.6285,7.6513,191.8551],[-80.6336,7.6454,190.4732],[-80.6391,7.6429,217.7324],[-80.6399,7.6339,231.1667],[-80.6742,7.5772,241.2085],[-80.7265,7.5135,933.0363],[-80.7294,7.5109,1048.8081],[-80.7346,7.5101,816.6859],[-80.7383,7.5003,666.1585],[-80.735,7.4886,514.5442],[-80.7235,7.4707,812.3446],[-80.7245,7.4667,743.4656],[-80.7343,7.453,319.326],[-80.735,7.4473,218.1669],[-80.7325,7.4429,291.4618],[-80.7195,7.4327,370.0031],[-80.7084,7.4128,856.2882],[-80.7084,7.4099,848.9796],[-80.7145,7.4006,640.244],[-80.7176,7.3916,363.8619],[-80.7026,7.3826,378.8167],[-80.6861,7.3758,629.7599],[-80.6735,7.3598,1303.3882],[-80.6714,7.3548,1361.3669],[-80.6739,7.345,1208.7375],[-80.6712,7.334,1084.3572],[-80.672,7.3197,1257.1327],[-80.6617,7.305,690.5865],[-80.6492,7.2929,664.5126],[-80.6343,7.2863,795.3787],[-80.623,7.2845,424.4092],[-80.6189,7.2816,278.9106],[-80.6158,7.2718,97.6525],[-80.6147,7.2301,0.0],[-80.6135,7.2324,30.7734],[-80.6024,7.2301,0.0],[-80.6018,7.2329,8.6926],[-80.5974,7.2329,0.0],[-80.594,7.2357,34.4233],[-80.584,7.2326,32.6816],[-80.584,7.2296,2.6979],[-80.5804,7.2274,0.0],[-80.5635,7.2424,0.0],[-80.5457,7.2432,2.2177],[-80.5349,7.2415,2.8618],[-80.5279,7.2376,5.008],[-80.5212,7.2376,10.2753],[-80.5165,7.2451,34.4918],[-80.5126,7.2457,0.0],[-80.5118,7.2485,0.0],[-80.5076,7.251,9.8888],[-80.5015,7.2485,0.0],[-80.4946,7.2504,0.0],[-80.4846,7.2493,6.1175],[-80.4815,7.2474,0.0],[-80.4721,7.2482,3.5911],[-80.4671,7.2468,0.0],[-80.4668,7.2454,0.0],[-80.4563,7.2465,0.0],[-80.4412,7.2418,30.5137]]],
[[[-80.1874,7.4229,22.9114],[-80.1868,7.424,0.0],[-80.1885,7.4243,0.0],[-80.1904,7.4221,9.0034],[-80.1876,7.4215,0.0],[-80.1874,7.4229,22.9114]]],
[[[-79.9976,7.6349,0.0],[-79.9996,7.636,0.0],[-80.0013,7.6343,0.3809],[-80.0018,7.6299,1.23],[-80.0001,7.629,1.23],[-80.0001,7.626,0.0],[-80.0026,7.6232,0.6275],[-80.0021,7.6212,0.0],[-79.9993,7.621,0.0],[-79.9951,7.6274,0.0],[-79.9968,7.6299,0.0],[-79.9951,7.6335,0.0],[-79.9976,7.6349,0.0]]],
[[[-80.0001,8.0001,0.0],[-80.0001,7.9999,0.0],[-79.9999,7.9999,0.0],[-79.9999,8.0001,0.0],[-80.0001,8.0001,0.0]]]]}
,"properties": {"GID_1": "PAN.9_1","GID_0": "PAN","country": "Panama","province": "LosSantos","VARNAME_1": "NA","NL_NAME_1": "NA","TYPE_1": "Provincia","ENGTYPE_1": "Province","CC_1": "NA","HASC_1": "PA.LS","ISO_1": "PA-7","name": "Los_Santos.province","area_km2": 3810.648,"hist_schema_id": "Elevation0-9000","hist_area_km2": {"0": 279.15,"25": 597.876,"50": 382.635,"75": 287.382,"100": 238.731,"125": 214.112,"150": 212.751,"175": 195.987,"200": 172.049,"225": 142.083,"250": 118.692,"275": 103.412,"300": 91.076,"325": 83.805,"350": 77.542,"375": 73.295,"400": 69.049,"425": 62.428,"450": 55.471,"475": 49.838,"500": 40.884,"525": 32.225,"550": 26.824,"575": 21.485,"600": 19.32,"625": 16.587,"650": 15.726,"675": 14.002,"700": 13.161,"725": 11.858,"750": 11.374,"775": 10.975,"800": 8.936,"825": 8.558,"850": 7.275,"875": 6.434,"900": 5.257,"925": 4.647,"950": 4.521,"975": 3.722,"1000": 3.385,"1025": 2.965,"1050": 1.976,"1075": 1.787,"1100": 1.64,"1125": 1.682,"1150": 1.22,"1175": 0.925,"1200": 0.652,"1225": 0.694,"1250": 0.736,"1275": 0.631,"1300": 0.294,"1325": 0.273,"1350": 0.147,"1375": 0.315,"1400": 0.126,"1425": 0.063}}}