{"type":"Feature","properties":{"ISO3166-1-Alpha-3":"PAN","country":"Panama","fill":"#FF0","id":"1339","name":"Los Santos"},
"geometry":{"type": "Polygon","coordinates": [[[-80.60408,7.23672,112.6609],[-80.60407,7.23672,112.6609],[-80.59683,7.23806,99.4005],[-80.47448,7.25332,10.5033],[-80.46373,7.25165,59.3379],[-80.44481,7.24588,174.5169],[-80.43725,7.24649,194.4176],[-80.42911,7.25235,122.4628],[-80.42813,7.25849,97.1826],[-80.4285,7.26545,55.7461],[-80.42418,7.27375,8.8468],[-80.41442,7.28034,18.7436],[-80.40538,7.28278,17.0108],[-80.39883,7.28665,0.0],[-80.39627,7.29767,3.1466],[-80.39358,7.30239,7.5704],[-80.38712,7.30805,6.2433],[-80.37926,7.31277,6.9541],[-80.37234,7.31476,4.2292],[-80.34756,7.31826,0.0],[-80.34439,7.32742,0.0],[-80.36148,7.35574,0.4326],[-80.35757,7.38203,5.3486],[-80.33096,7.40119,7.8654],[-80.25906,7.42463,0.0],[-80.2659,7.43081,1.7331],[-80.27453,7.42569,6.2087],[-80.28356,7.42182,3.8868],[-80.29398,7.41926,0.5],[-80.30687,7.41779,6.0677],[-80.30687,7.42463,5.2756],[-80.27481,7.43386,1.9872],[-80.2659,7.43826,8.1585],[-80.25906,7.43826,10.6785],[-80.24966,7.42963,3.9455],[-80.22281,7.42337,91.8922],[-80.21068,7.41779,0.0],[-80.19852,7.42471,0.0],[-80.13553,7.42463,0.0],[-80.06497,7.451,13.8014],[-80.05679,7.45254,7.6972],[-80.03006,7.45392,20.8017],[-80.01785,7.45681,0.0],[-80.01004,7.46524,10.2901],[-79.99466,7.50344,0.0],[-79.99352,7.52277,0.0],[-80.00577,7.55227,0.0],[-80.0524,7.63711,17.1941],[-80.14379,7.75275,0.0],[-80.20446,7.80756,0.0],[-80.30004,7.88333,10.2879],[-80.31334,7.91144,0.0],[-80.32775,7.95331,0.0],[-80.34887,7.98928,0.0],[-80.3755,7.99722,15.6342],[-80.37553,7.99716,15.6342],[-80.38196,7.98347,4.3757],[-80.38868,7.97522,3.3498],[-80.39307,7.95693,3.7444],[-80.40447,7.94187,15.6048],[-80.41475,7.93396,17.05],[-80.42751,7.93125,15.7565],[-80.45901,7.93257,8.9003],[-80.49141,7.92342,29.7997],[-80.5042,7.91122,37.8985],[-80.53454,7.85583,38.0459],[-80.54624,7.84133,52.9143],[-80.56066,7.82952,57.602],[-80.57378,7.82146,70.8084],[-80.57877,7.81526,67.1129],[-80.57996,7.81131,71.4005],[-80.57539,7.80531,83.3663],[-80.57451,7.78965,184.2886],[-80.57482,7.7825,154.0921],[-80.57329,7.77351,71.2709],[-80.57053,7.76606,67.7132],[-80.55758,7.74891,122.5949],[-80.55428,7.74116,96.6928],[-80.55311,7.73356,107.2351],[-80.55286,7.72206,112.4852],[-80.55678,7.70888,113.4033],[-80.56735,7.6908,145.5235],[-80.57988,7.67894,120.1209],[-80.58815,7.6725,110.4025],[-80.59528,7.66969,117.8701],[-80.6081,7.66824,133.2417],[-80.61394,7.6631,167.8721],[-80.66461,7.58318,373.62],[-80.71969,7.52959,572.1716],[-80.72207,7.50174,1061.6284],[-80.71507,7.4589,681.8262],[-80.69925,7.41071,462.9131],[-80.67347,7.37596,721.9449],[-80.66714,7.35252,1373.2749],[-80.6666,7.3378,1246.8098],[-80.66877,7.3273,970.8414],[-80.66807,7.32281,1110.2394],[-80.65337,7.318,853.3663],[-80.64425,7.31258,965.5056],[-80.6235,7.2972,329.2986],[-80.61329,7.28581,94.2975],[-80.60678,7.27183,259.5181],[-80.60408,7.23672,112.6609]]]}}