{"type":"Feature","properties":{"GID_3":"PAN.13.10.1_1","GID_0":"PAN","country":"Panama","GID_1":"PAN.13_1","province":"Veraguas","NL_NAME_1":"NA","GID_2":"PAN.13.10_1","county":"Santiago","NL_NAME_2":"NA","city":"CantodelLlano","VARNAME_3":"NA","NL_NAME_3":"NA","TYPE_3":"Corregimiento","ENGTYPE_3":"Municipality","CC_3":"NA","HASC_3":"NA","name":"Cantodel_Llano.city"},
"geometry":{"type": "MultiPolygon","coordinates": [[[[-80.9042,8.2153,59.659],[-80.9156,8.2116,43.4391],[-80.9221,8.2187,53.6995],[-80.9357,8.2248,55.8722],[-80.9501,8.229,76.8066],[-80.9597,8.2286,85.7106],[-80.9701,8.2174,61.7237],[-80.9728,8.209,73.0877],[-80.9781,8.2004,71.504],[-80.9835,8.1753,88.6783],[-80.9739,8.1642,124.5918],[-80.9532,8.1486,74.9944],[-80.9492,8.1482,76.1738],[-80.9438,8.145,118.8433],[-80.9378,8.1338,151.8265],[-80.9327,8.1289,94.1569],[-80.9155,8.1201,58.0019],[-80.9058,8.1133,56.3607],[-80.8805,8.1078,37.9506],[-80.8515,8.1136,28.5946],[-80.8461,8.1186,36.4445],[-80.8493,8.1247,35.0491],[-80.8556,8.1276,44.3594],[-80.8717,8.1309,40.6102],[-80.8736,8.1348,46.1652],[-80.8691,8.139,41.6302],[-80.8621,8.1404,43.9498],[-80.8403,8.1323,35.8799],[-80.8366,8.1433,66.1808],[-80.8377,8.148,55.6257],[-80.8471,8.1637,51.5402],[-80.8524,8.1663,54.3487],[-80.8701,8.1693,65.3737],[-80.8788,8.175,77.8436],[-80.8812,8.1782,66.1004],[-80.8804,8.1807,60.9068],[-80.8678,8.1843,36.8106],[-80.8652,8.1866,37.0915],[-80.8802,8.1936,60.812],[-80.893,8.191,42.3432],[-80.9042,8.2153,59.659]]]]}}