{"type":"Feature","properties":{"GID_3":"PAN.10.6.4_1","GID_0":"PAN","country":"Panama","GID_1":"PAN.10_1","province":"NgöbeBuglé","NL_NAME_1":"NA","GID_2":"PAN.10.6_1","county":"NoleDuima","NL_NAME_2":"NA","city":"Lajero","VARNAME_3":"NA","NL_NAME_3":"NA","TYPE_3":"Corregimiento","ENGTYPE_3":"Municipality","CC_3":"NA","HASC_3":"NA","name":"Lajero.city"},
"geometry":{"type": "MultiPolygon","coordinates": [[[[-81.7405,8.277,77.0092],[-81.7457,8.2857,129.939],[-81.7483,8.2986,247.6815],[-81.7533,8.3085,244.7613],[-81.775,8.2945,274.6562],[-81.7832,8.2718,208.4776],[-81.7685,8.2743,230.129],[-81.7666,8.2727,206.2143],[-81.7668,8.2706,207.1158],[-81.7713,8.2663,165.6449],[-81.7686,8.2635,260.1702],[-81.7681,8.2603,295.1507],[-81.7607,8.2582,248.324],[-81.7584,8.2611,273.8591],[-81.7619,8.2618,329.9608],[-81.7614,8.2645,282.5522],[-81.7492,8.2745,185.6722],[-81.7405,8.277,77.0092]]]]}}