{"type": "Feature","bbox": [-79.9871,8.4562,-79.9132,8.5202],"geometry": {"type": "MultiPolygon","coordinates": [[[[-79.9871,8.4931,61.978],[-79.9867,8.4777,46.4086],[-79.9838,8.4683,42.6161],[-79.9682,8.4562,0.0],[-79.9582,8.4626,0.0],[-79.9568,8.4663,18.7999],[-79.9512,8.4676,0.0],[-79.9524,8.4707,1.1152],[-79.9504,8.4793,0.0],[-79.9432,8.4929,6.2562],[-79.939,8.4943,6.6241],[-79.9318,8.5001,2.8376],[-79.9137,8.5076,12.4962],[-79.9132,8.5121,13.9352],[-79.9211,8.5152,25.1995],[-79.9323,8.5123,31.6286],[-79.9432,8.5192,60.8759],[-79.9587,8.5185,66.5042],[-79.9685,8.5202,95.2903],[-79.9819,8.508,106.5236],[-79.9831,8.4966,83.1218],[-79.9871,8.4931,61.978]]]]}
,"properties": {"GID_3": "PAN.11.6.8_1","GID_0": "PAN","country": "Panama","GID_1": "PAN.11_1","province": "PanamáOeste","NL_NAME_1": "NA","GID_2": "PAN.11.6_1","county": "SanCarlos","NL_NAME_2": "NA","city": "SanCarlos","VARNAME_3": "NA","NL_NAME_3": "NA","TYPE_3": "Corregimiento","ENGTYPE_3": "Municipality","CC_3": "NA","HASC_3": "NA","name": "San_Carlos.city","area_km2": 30.61573,"hist_schema_id": "Elevation0-9000","hist_area_km2": {"0": 1.13239,"25": 9.20583,"50": 11.76405,"75": 6.91984,"100": 1.59363}}}