{"type":"Feature","properties":{"GID_3":"PAN.11.6.9_1","GID_0":"PAN","country":"Panama","GID_1":"PAN.11_1","province":"PanamáOeste","NL_NAME_1":"NA","GID_2":"PAN.11.6_1","county":"SanCarlos","NL_NAME_2":"NA","city":"SanJosé","VARNAME_3":"NA","NL_NAME_3":"NA","TYPE_3":"Corregimiento","ENGTYPE_3":"Municipality","CC_3":"NA","HASC_3":"NA","name":"San_José.city"},
"geometry":{"type": "MultiPolygon","coordinates": [[[[-79.9867,8.5652,176.6294],[-79.974,8.5524,167.9427],[-79.9695,8.5316,117.9856],[-79.946,8.5192,53.0521],[-79.9404,8.5182,55.2033],[-79.9334,8.5127,31.6286],[-79.927,8.5126,17.0691],[-79.9211,8.5152,25.1995],[-79.9121,8.5121,13.9352],[-79.9007,8.5221,14.5686],[-79.8947,8.5226,5.2924],[-79.8976,8.5307,25.1561],[-79.9017,8.5361,33.5594],[-79.9073,8.542,38.1781],[-79.9154,8.5464,54.412],[-79.9325,8.5536,79.5127],[-79.9463,8.5533,83.6178],[-79.9601,8.5602,142.9259],[-79.9669,8.5603,126.7123],[-79.9732,8.563,144.5183],[-79.9867,8.5652,176.6294]]]]}}