{"type":"Feature","properties":{"GID_3":"PAN.2.9.3_1","GID_0":"PAN","country":"Panama","GID_1":"PAN.2_1","province":"Chiriquí","NL_NAME_1":"NA","GID_2":"PAN.2.9_1","county":"Remedios","NL_NAME_2":"NA","city":"ElPuerto","VARNAME_3":"NA","NL_NAME_3":"NA","TYPE_3":"Corregimiento","ENGTYPE_3":"Municipality","CC_3":"NA","HASC_3":"NA","name":"El_Puerto.city"},
"geometry":{"type": "MultiPolygon","coordinates": [[[[-81.7518,8.1552,0.0],[-81.7532,8.1557,0.0],[-81.7546,8.1521,0.0],[-81.7515,8.1521,0.0],[-81.7518,8.1552,0.0]]],
[[[-81.7557,8.1882,2.1397],[-81.7571,8.1888,0.0],[-81.7593,8.1846,0.0],[-81.7579,8.1804,0.0],[-81.756,8.1801,0.4215],[-81.7576,8.1774,0.0],[-81.7543,8.1785,0.0],[-81.7554,8.1821,1.3908],[-81.7543,8.1879,0.9816],[-81.7557,8.1882,2.1397]]],
[[[-81.7607,8.1707,0.0],[-81.7624,8.1713,0.0],[-81.7643,8.1693,0.0],[-81.7601,8.1685,0.0],[-81.7607,8.1707,0.0]]],
[[[-81.7618,8.2218,10.1684],[-81.7674,8.2272,8.4179],[-81.7722,8.2211,6.4818],[-81.7767,8.2223,9.1944],[-81.7836,8.2308,16.5939],[-81.7863,8.2316,21.9956],[-81.7977,8.227,12.7822],[-81.8026,8.2126,9.2806],[-81.8019,8.207,12.0967],[-81.7961,8.2013,57.0797],[-81.7929,8.1955,139.4985],[-81.7917,8.1852,8.0959],[-81.7851,8.1829,4.0719],[-81.784,8.1797,2.9394],[-81.7894,8.1711,3.3907],[-81.7915,8.1612,2.7255],[-81.7984,8.1653,14.7126],[-81.8034,8.1605,7.0938],[-81.8034,8.1531,4.021],[-81.8054,8.1519,0.7288],[-81.8037,8.1507,2.4864],[-81.8046,8.1488,3.1311],[-81.8024,8.1479,0.0],[-81.7999,8.1426,0.5273],[-81.791,8.1354,0.0],[-81.7743,8.1299,2.2779],[-81.7624,8.1315,1.0692],[-81.7582,8.1412,0.0],[-81.7601,8.1404,0.7938],[-81.7613,8.1382,0.5069],[-81.7637,8.139,1.0491],[-81.7643,8.1365,5.0357],[-81.7654,8.1382,0.0],[-81.761,8.1429,0.0],[-81.7615,8.1493,2.7639],[-81.7599,8.154,1.7411],[-81.7582,8.1557,2.0838],[-81.7557,8.1551,0.7944],[-81.751,8.1643,0.0],[-81.7521,8.1699,0.0],[-81.7607,8.1668,0.0],[-81.7693,8.1674,0.0],[-81.7793,8.1754,3.5536],[-81.7785,8.1765,1.3947],[-81.7754,8.1729,3.96],[-81.7679,8.1687,0.0],[-81.7632,8.1724,0.5049],[-81.7618,8.1799,0.0],[-81.7629,8.1854,1.8373],[-81.7596,8.1954,0.0],[-81.7623,8.1985,0.0],[-81.7621,8.202,2.3943],[-81.7588,8.2052,4.085],[-81.7567,8.2167,21.3424],[-81.758,8.2228,10.3852],[-81.7618,8.2218,10.1684]]],
[[[-81.7596,8.1899,0.0],[-81.7618,8.1865,7.0702],[-81.7613,8.1846,0.0],[-81.7596,8.1868,0.0],[-81.7596,8.1899,0.0]]]]}}