{"type":"Feature","properties":{"GID_3":"PAN.13.2.7_1","GID_0":"PAN","country":"Panama","GID_1":"PAN.13_1","province":"Veraguas","NL_NAME_1":"NA","GID_2":"PAN.13.2_1","county":"Calobre","NL_NAME_2":"NA","city":"LaRayadeCalobre","VARNAME_3":"NA","NL_NAME_3":"NA","TYPE_3":"Corregimiento","ENGTYPE_3":"Municipality","CC_3":"NA","HASC_3":"NA","name":"La_Rayade_Calobre.city"},
"geometry":{"type": "MultiPolygon","coordinates": [[[[-80.8205,8.2203,48.8809],[-80.8127,8.219,38.9921],[-80.8115,8.2168,35.1828],[-80.8137,8.2139,38.3802],[-80.8206,8.21,50.5027],[-80.8221,8.2036,40.8832],[-80.8272,8.1991,36.952],[-80.8255,8.196,23.1565],[-80.815,8.1894,18.2384],[-80.803,8.1868,20.2396],[-80.7896,8.1806,23.2968],[-80.7864,8.1702,36.8829],[-80.7719,8.1618,41.2878],[-80.7682,8.1827,20.7342],[-80.7763,8.1996,24.303],[-80.7795,8.2213,49.8996],[-80.7785,8.2258,61.8924],[-80.7749,8.2283,25.1866],[-80.7723,8.2281,26.8968],[-80.7582,8.2181,76.3492],[-80.7516,8.217,29.8237],[-80.7488,8.2207,42.0093],[-80.7469,8.2304,49.2967],[-80.7424,8.2411,70.8873],[-80.7743,8.2471,37.1748],[-80.7799,8.247,42.8195],[-80.7906,8.242,57.3095],[-80.7984,8.2341,48.4494],[-80.8057,8.2363,40.2374],[-80.8076,8.2355,50.291],[-80.8205,8.2203,48.8809]]]]}}