{"type":"Feature","properties":{"GID_2":"PAN.10.2_1","GID_0":"PAN","country":"Panama","GID_1":"PAN.10_1","province":"NgöbeBuglé","NL_NAME_1":"NA","county":"Kankintú","VARNAME_2":"NA","NL_NAME_2":"NA","TYPE_2":"Distrito","ENGTYPE_2":"District","CC_2":"NA","HASC_2":"PA.NB.KK","name":"Kankintú.county"},
"geometry":{"type": "MultiPolygon","coordinates": [[[[-81.6615,8.5571,1820.6448],[-81.6604,8.5605,1862.4854],[-81.6552,8.563,1882.1248],[-81.6474,8.5702,1658.369],[-81.6379,8.5751,1538.8855],[-81.6329,8.5741,1776.2546],[-81.6254,8.583,1651.2729],[-81.6223,8.5965,1571.0033],[-81.6149,8.6066,1466.7689],[-81.6206,8.6115,1281.9272],[-81.6215,8.6257,991.6068],[-81.6237,8.6329,945.502],[-81.623,8.6452,997.7535],[-81.6165,8.6583,850.7128],[-81.6165,8.6736,661.4741],[-81.62,8.68,590.785],[-81.6305,8.6912,834.9828],[-81.638,8.7021,779.618],[-81.6607,8.7196,1002.1199],[-81.6682,8.7224,890.6054],[-81.6815,8.7466,837.7588],[-81.6819,8.7503,763.703],[-81.679,8.7559,623.2546],[-81.6809,8.7601,619.4145],[-81.6873,8.7624,969.8716],[-81.7012,8.7623,703.5817],[-81.7107,8.7653,572.4597],[-81.7184,8.7712,319.3765],[-81.7201,8.7814,563.752],[-81.7342,8.7885,246.4277],[-81.7345,8.8013,246.8393],[-81.7397,8.8167,341.4093],[-81.7408,8.8278,174.3801],[-81.7439,8.8316,154.8613],[-81.7491,8.8334,281.3138],[-81.7519,8.8385,270.8399],[-81.7501,8.8428,126.1586],[-81.7522,8.843,122.0423],[-81.7541,8.8493,90.4295],[-81.7538,8.8781,108.7648],[-81.7514,8.8986,52.8818],[-81.754,8.9114,47.0204],[-81.7428,8.9241,32.3958],[-81.7544,8.9414,38.9609],[-81.7553,8.9559,24.7221],[-81.7507,8.9692,30.3219],[-81.7554,8.9813,13.7665],[-81.7608,8.9783,20.8137],[-81.7696,8.9784,0.0],[-81.7732,8.9615,0.9988],[-81.781,8.949,0.0],[-81.7907,8.9407,0.0],[-81.8054,8.936,3.8415],[-81.8087,8.9418,4.1966],[-81.8115,8.941,2.7002],[-81.811,8.9374,1.6941],[-81.8154,8.941,1.4161],[-81.821,8.9415,2.9488],[-81.8221,8.9451,0.0],[-81.8135,8.9432,0.0],[-81.8115,8.9443,0.0],[-81.8265,8.9576,0.0],[-81.8357,8.9618,4.4195],[-81.8512,8.9607,0.0],[-81.8554,8.9629,1.8086],[-81.8538,8.9643,0.0],[-81.8576,8.9657,0.0],[-81.861,8.9693,0.0],[-81.8632,8.9682,3.2749],[-81.8624,8.9657,0.0],[-81.8674,8.9651,0.2557],[-81.8757,8.9604,2.1713],[-81.8918,8.9601,2.08],[-81.894,8.9563,2.3941],[-81.8999,8.956,0.0],[-81.9007,8.9576,0.0],[-81.8971,8.9624,0.0],[-81.8962,8.9674,0.0],[-81.8999,8.9712,2.5992],[-81.8993,8.9765,3.202],[-81.8968,8.9754,0.6425],[-81.896,8.9721,0.0],[-81.8938,8.9729,0.0],[-81.8907,8.969,0.0],[-81.8924,8.9732,0.0],[-81.9013,8.9813,1.099],[-81.914,8.9829,2.7455],[-81.9207,8.991,0.0],[-81.921,8.9887,1.9984],[-81.9243,8.9888,0.7241],[-81.9251,8.9854,4.0977],[-81.929,8.9824,0.0],[-81.9307,8.9788,0.0],[-81.9296,8.976,0.5138],[-81.9221,8.9718,0.0],[-81.9221,8.964,0.0],[-81.9262,8.9538,2.1242],[-81.936,8.9454,14.7238],[-81.9488,8.9426,0.0],[-81.9499,8.9388,1.9382],[-81.9524,8.939,0.0],[-81.9543,8.9426,1.1903],[-81.9565,8.9404,17.6921],[-81.9593,8.941,1.0761],[-81.9601,8.939,3.7317],[-81.9612,8.9421,9.0646],[-81.9674,8.941,7.5035],[-81.9701,8.9435,9.5043],[-81.9726,8.9418,4.2744],[-81.974,8.944,0.0],[-81.9768,8.9412,2.2756],[-81.9812,8.941,2.6861],[-81.9893,8.9513,0.0],[-81.9954,8.956,0.0],[-82.0005,8.9571,0.0],[-82.0054,8.9544,15.9471],[-82.0127,8.9465,17.0425],[-82.0178,8.9216,8.665],[-82.053,8.8951,8.0819],[-82.0626,8.9011,12.9011],[-82.0744,8.8993,120.7312],[-82.0772,8.9232,5.7847],[-82.0829,8.9249,6.9805],[-82.084,8.9277,0.0],[-82.0864,8.9168,161.2022],[-82.0927,8.911,134.7929],[-82.0906,8.9064,357.4284],[-82.0927,8.9029,423.7427],[-82.1021,8.9015,470.9582],[-82.1244,8.906,624.1119],[-82.129,8.9012,512.6201],[-82.1451,8.8978,423.4341],[-82.1576,8.8895,111.1996],[-82.1617,8.8782,141.1016],[-82.1686,8.8702,62.4267],[-82.1666,8.8624,68.4776],[-82.1675,8.8549,123.4601],[-82.1787,8.8474,107.6264],[-82.189,8.8617,65.8755],[-82.1894,8.8673,62.7732],[-82.1855,8.8729,59.8961],[-82.1861,8.8803,56.8144],[-82.1926,8.8946,57.482],[-82.2125,8.8959,82.2058],[-82.217,8.8997,87.8361],[-82.2149,8.9074,185.4897],[-82.2148,8.9219,304.0838],[-82.2091,8.9209,175.162],[-82.201,8.9144,156.8021],[-82.1977,8.9163,80.7118],[-82.1967,8.9305,129.17],[-82.1994,8.9357,192.5481],[-82.1951,8.9387,113.957],[-82.1964,8.942,41.6265],[-82.1933,8.9429,16.3395],[-82.1945,8.9495,14.5304],[-82.2057,8.9539,144.0284],[-82.2102,8.957,218.2272],[-82.2097,8.9593,198.9599],[-82.2127,8.9625,192.5313],[-82.2274,8.9673,419.6245],[-82.2367,8.9748,272.2442],[-82.2447,8.9738,172.2608],[-82.254,8.9773,451.9956],[-82.2666,8.9792,489.1751],[-82.272,8.9781,495.0403],[-82.2729,8.9812,412.8412],[-82.2706,8.9851,352.891],[-82.2674,8.9867,353.9528],[-82.2676,8.9893,335.6375],[-82.2711,8.9899,299.1287],[-82.271,8.9883,312.3279],[-82.2736,8.9876,290.3716],[-82.2788,8.9915,344.1623],[-82.2798,8.9941,271.654],[-82.2755,8.9996,218.7751],[-82.28,9.0058,83.5211],[-82.2821,9.0058,103.7277],[-82.2857,9.0025,175.8965],[-82.2951,9.0064,146.4553],[-82.3007,8.9986,129.4062],[-82.3084,8.9989,103.3909],[-82.3205,9.0047,76.209],[-82.3258,9.0097,82.2442],[-82.3256,9.0132,81.1419],[-82.319,9.0165,48.0193],[-82.3297,9.025,224.5255],[-82.3264,9.0348,326.5147],[-82.3244,9.0372,238.7079],[-82.3201,9.0385,152.5737],[-82.3122,9.0346,99.9327],[-82.3085,9.0347,98.2122],[-82.3083,9.0369,100.605],[-82.3143,9.0427,91.5564],[-82.3147,9.0457,89.1972],[-82.3033,9.05,17.528],[-82.2981,9.0572,20.1032],[-82.2929,9.0606,10.6621],[-82.2821,9.0636,3.7487],[-82.2778,9.0685,23.0085],[-82.2805,9.0745,5.5558],[-82.2774,9.0759,14.1054],[-82.2744,9.0805,17.178],[-82.2757,9.0869,14.6598],[-82.2833,9.0876,83.9504],[-82.2867,9.079,140.8129],[-82.2899,9.0778,99.0963],[-82.2931,9.0791,150.874],[-82.294,9.0868,105.9449],[-82.3006,9.0863,271.7127],[-82.3008,9.0914,164.6848],[-82.3205,9.0933,233.4308],[-82.3113,9.1026,113.055],[-82.3098,9.099,194.6759],[-82.3051,9.099,183.7388],[-82.2999,9.1143,47.0606],[-82.3008,9.1168,31.0132],[-82.3028,9.1176,30.2087],[-82.3069,9.1124,59.9366],[-82.3091,9.1122,83.0179],[-82.3094,9.1195,92.9388],[-82.3138,9.1254,121.4428],[-82.3171,9.1354,162.8891],[-82.3234,9.1241,202.3086],[-82.3294,9.1209,365.4571],[-82.3361,9.1196,315.0033],[-82.341,9.1149,171.3104],[-82.342,9.1095,140.9375],[-82.3407,9.1057,131.711],[-82.3437,9.1018,104.1387],[-82.3454,9.0924,190.7062],[-82.3584,9.0837,110.9939],[-82.3496,9.0767,137.0806],[-82.3485,9.0732,170.4348],[-82.3561,9.0705,112.9827],[-82.3569,9.065,133.105],[-82.365,9.0541,230.209],[-82.3652,9.0509,216.0085],[-82.3708,9.0473,286.6739],[-82.3727,9.0419,371.1804],[-82.3768,9.0396,405.8649],[-82.3847,9.0386,468.145],[-82.3795,9.0321,429.6029],[-82.3798,9.0287,378.6376],[-82.3837,9.026,437.9503],[-82.4064,9.0258,453.5291],[-82.4106,9.0221,403.2383],[-82.4156,9.0121,479.5149],[-82.4246,9.0087,594.2673],[-82.4347,9.0074,279.5555],[-82.4427,9.0023,356.6101],[-82.4455,8.9981,344.5619],[-82.441,8.9929,302.8741],[-82.4258,8.9847,821.8045],[-82.4192,8.9842,688.4237],[-82.4124,8.9805,598.5952],[-82.398,8.9785,439.8371],[-82.3843,8.9726,528.8028],[-82.3725,8.9728,362.7479],[-82.3661,8.97,407.5909],[-82.3453,8.9505,775.2449],[-82.3424,8.9443,1122.4351],[-82.3416,8.938,1198.9745],[-82.3379,8.9329,1418.8468],[-82.337,8.9239,1263.9181],[-82.3294,8.9167,1489.8468],[-82.3277,8.903,1367.8348],[-82.3413,8.893,1593.2444],[-82.3435,8.8893,1612.1057],[-82.3435,8.8815,1646.3838],[-82.3495,8.8615,1876.1315],[-82.3475,8.852,1778.3062],[-82.3502,8.8484,2018.1183],[-82.349,8.8407,2020.0786],[-82.3573,8.8283,2131.6414],[-82.3732,8.831,1922.5934],[-82.3681,8.8273,2182.7651],[-82.3402,8.8218,2053.0103],[-82.3314,8.817,1784.5375],[-82.3223,8.8187,1237.5406],[-82.3146,8.8158,1431.5756],[-82.3111,8.818,1411.8379],[-82.3005,8.8146,1216.4197],[-82.2844,8.7964,1312.5878],[-82.2719,8.7764,1433.8529],[-82.2608,8.7664,1569.9276],[-82.2568,8.7674,1651.8104],[-82.2557,8.7745,1840.5024],[-82.251,8.7719,1622.5175],[-82.2426,8.7747,1688.0878],[-82.2363,8.7687,1501.1935],[-82.2257,8.7677,1425.4801],[-82.2237,8.77,1430.7838],[-82.215,8.7657,1216.0017],[-82.2022,8.7622,1041.9688],[-82.2009,8.7639,1078.2391],[-82.205,8.7703,1058.7194],[-82.2074,8.7788,1083.1444],[-82.2067,8.7812,1021.8848],[-82.2038,8.7821,972.8423],[-82.1985,8.7802,894.1474],[-82.1777,8.7642,1177.0977],[-82.1674,8.7628,1090.1345],[-82.1613,8.7587,1075.8868],[-82.1494,8.7615,1153.1641],[-82.1466,8.7597,1139.9274],[-82.1284,8.7595,1211.2317],[-82.101,8.7547,1130.6688],[-82.1007,8.7435,918.8241],[-82.0934,8.7352,1069.8865],[-82.0937,8.7264,984.1379],[-82.1016,8.7092,1133.9167],[-82.1099,8.7019,1595.3451],[-82.1114,8.6986,1618.9363],[-82.1125,8.6915,1619.3352],[-82.1085,8.6792,1433.4598],[-82.1122,8.6678,1629.2241],[-82.1177,8.6622,1590.2167],[-82.1189,8.6581,1464.9904],[-82.1133,8.6475,1935.1083],[-82.0892,8.638,1552.8495],[-82.0857,8.632,1557.9757],[-82.0747,8.6226,1583.2124],[-82.0712,8.6224,1624.6555],[-82.0595,8.6272,1333.4852],[-82.0429,8.6283,1228.5106],[-82.0333,8.6335,1313.0519],[-82.02,8.6436,1264.4449],[-82.0012,8.6432,1216.4531],[-81.9798,8.6527,1091.2107],[-81.9603,8.6503,1460.0509],[-81.9401,8.6602,895.73],[-81.9379,8.6598,879.1763],[-81.9291,8.6491,1139.1923],[-81.918,8.6477,1536.8779],[-81.9003,8.6563,2046.2876],[-81.8876,8.665,1964.8339],[-81.8763,8.6696,1480.8459],[-81.8663,8.6599,1678.7714],[-81.8646,8.655,1504.5916],[-81.8664,8.6412,1922.6429],[-81.8655,8.6299,1490.9355],[-81.8678,8.6189,1720.8506],[-81.8657,8.6138,1557.8372],[-81.8439,8.6033,1967.9288],[-81.832,8.5911,1884.7443],[-81.815,8.5803,2013.3784],[-81.8121,8.5655,1719.5726],[-81.8061,8.5557,1627.2482],[-81.7783,8.5358,1263.3645],[-81.7756,8.532,1161.9419],[-81.7744,8.5226,1301.0564],[-81.7683,8.5121,1551.752],[-81.7483,8.4981,1625.7975],[-81.7432,8.4897,1311.2371],[-81.7285,8.4933,1471.0962],[-81.7197,8.5008,1569.0249],[-81.7169,8.5067,1596.6248],[-81.7118,8.5037,1632.1226],[-81.7074,8.5081,1744.9976],[-81.6994,8.509,1771.3126],[-81.6877,8.5069,1607.7604],[-81.6751,8.5117,1611.8577],[-81.6709,8.5194,1525.7349],[-81.6695,8.5285,1418.5696],[-81.6626,8.5403,1704.2231],[-81.6615,8.5571,1820.6448]]],
[[[-81.8935,8.9665,2.3193],[-81.8954,8.9671,0.0],[-81.8921,8.961,0.0],[-81.8918,8.964,0.0],[-81.8935,8.9665,2.3193]]],
[[[-81.9999,8.9999,0.0],[-81.9999,9.0001,0.0],[-82.0001,9.0001,0.0],[-82.0001,8.9999,0.0],[-81.9999,8.9999,0.0]]]]}}