{"type": "Feature","bbox": [-80.5711,7.349,-80.436,7.4815],"geometry": {"type": "MultiPolygon","coordinates": [[[[-80.4789,7.4637,306.471],[-80.4888,7.4692,198.7618],[-80.4994,7.469,361.6612],[-80.5034,7.4721,348.8073],[-80.5053,7.4779,351.5261],[-80.5135,7.4786,259.9187],[-80.5156,7.4815,309.9509],[-80.5253,7.4744,285.2353],[-80.5417,7.4695,123.9646],[-80.533,7.4425,36.2709],[-80.5423,7.4408,35.1076],[-80.5439,7.4299,122.3596],[-80.5711,7.4007,503.2597],[-80.5579,7.3928,398.4266],[-80.5489,7.3821,228.0847],[-80.5412,7.3847,377.1067],[-80.5306,7.3796,227.1056],[-80.5205,7.3835,395.8843],[-80.5156,7.3797,354.5597],[-80.507,7.3771,450.7125],[-80.5005,7.3691,229.3252],[-80.487799999999993,7.3644,259.8715],[-80.4804,7.3638,469.6882],[-80.4763,7.3591,409.6035],[-80.469,7.3558,462.0975],[-80.4594,7.3574,455.6413],[-80.449,7.3492,215.9503],[-80.4386,7.349,53.5455],[-80.4383,7.3585,109.4397],[-80.436,7.3654,42.4249],[-80.4412,7.3712,44.008],[-80.4456,7.3805,28.8344],[-80.4471,7.3872,21.3149],[-80.4464,7.3934,13.0078],[-80.454,7.4047,15.6114],[-80.4549,7.4204,15.8567],[-80.4558,7.4227,16.9318],[-80.4637,7.427,22.2577],[-80.4638,7.442,25.6028],[-80.4686,7.449,35.2577],[-80.475,7.4524,99.7331],[-80.4789,7.4637,306.471]]]]}
,"properties": {"GID_3": "PAN.9.7.4_1","GID_0": "PAN","country": "Panama","GID_1": "PAN.9_1","province": "LosSantos","NL_NAME_1": "NA","GID_2": "PAN.9.7_1","county": "Tonosí","NL_NAME_2": "NA","city": "ElBebedero","VARNAME_3": "NA","NL_NAME_3": "NA","TYPE_3": "Corregimiento","ENGTYPE_3": "Municipality","CC_3": "NA","HASC_3": "NA","name": "El_Bebedero.city","area_km2": 115.88973,"hist_schema_id": "Elevation0-9000","hist_area_km2": {"0": 0.1682,"25": 34.92201,"50": 14.90646,"75": 7.04335,"100": 5.90795,"125": 4.33104,"150": 2.62807,"175": 3.2588,"200": 2.79624,"225": 3.32191,"250": 3.17472,"275": 3.30092,"300": 2.90149,"325": 2.39689,"350": 1.97641,"375": 2.12363,"400": 3.19594,"425": 3.36417,"450": 3.217,"475": 2.69136,"500": 2.52314,"525": 1.9344,"550": 1.36669,"575": 0.77796,"600": 0.63077,"625": 0.3364,"650": 0.2523,"675": 0.18923,"700": 0.14718,"725": 0.10513}}}