{"type": "Feature","bbox": [-81.8015,7.7979,-81.4985,7.9415],"geometry": {"type": "MultiPolygon","coordinates": [[[[-81.7579,7.8232,29.8503],[-81.7585,7.8254,0.0],[-81.7604,7.8235,25.1659],[-81.7585,7.8132,26.6083],[-81.7618,7.8151,32.9572],[-81.7679,7.8137,0.0],[-81.7685,7.8085,0.0],[-81.7663,7.8082,10.1556],[-81.766,7.8068,0.0],[-81.7688,7.8004,12.6485],[-81.7632,7.7979,1.8502],[-81.7618,7.7979,1.8502],[-81.7588,7.8065,0.0],[-81.7562,7.8021,0.7278],[-81.7546,7.8037,0.0],[-81.7554,7.8107,20.9269],[-81.754,7.8107,12.0156],[-81.754,7.8129,19.9892],[-81.7551,7.8146,11.6817],[-81.7532,7.8151,11.6817],[-81.7532,7.8171,9.3805],[-81.7554,7.8185,44.5682],[-81.7543,7.8246,10.3202],[-81.7579,7.8232,29.8503]]],
[[[-81.7726,7.8146,0.0],[-81.7715,7.8187,0.1901],[-81.7729,7.8182,0.0],[-81.7737,7.8137,0.0],[-81.7726,7.8146,0.0]]],
[[[-81.7571,7.8387,0.0],[-81.7574,7.8404,12.0343],[-81.7604,7.8376,17.9115],[-81.7607,7.8349,0.0],[-81.7576,7.8365,7.8463],[-81.7571,7.8387,0.0]]],
[[[-81.7949,7.8721,1.9709],[-81.7946,7.8735,1.9709],[-81.7976,7.8679,0.0],[-81.7957,7.8593,71.9986],[-81.8015,7.8537,1.0042],[-81.7982,7.8493,0.0],[-81.7962,7.8549,21.6451],[-81.7932,7.8515,0.0],[-81.7904,7.851,0.0],[-81.7885,7.8524,33.6194],[-81.7874,7.8499,0.0],[-81.7854,7.8507,0.0],[-81.7865,7.8554,0.0],[-81.7849,7.8604,0.0],[-81.7829,7.8615,0.0],[-81.7835,7.8646,0.0],[-81.7868,7.8657,0.0],[-81.7868,7.8701,0.0],[-81.7901,7.8646,26.6624],[-81.7946,7.8651,24.1435],[-81.7949,7.8721,1.9709]]],
[[[-81.7763,7.8693,0.0],[-81.7796,7.8693,0.4766],[-81.779,7.8674,0.0],[-81.7815,7.8646,4.5677],[-81.7807,7.8607,0.0],[-81.7768,7.8612,0.0],[-81.7754,7.8662,0.0],[-81.7763,7.8693,0.0]]],
[[[-81.7399,7.8104,0.0],[-81.7396,7.8132,0.0],[-81.7407,7.8132,0.0],[-81.7421,7.8085,0.0],[-81.741,7.8085,0.0],[-81.7399,7.8104,0.0]]],
[[[-81.7387,7.8179,0.0],[-81.7401,7.8171,1.4943],[-81.739,7.8132,0.0],[-81.7382,7.8148,0.0],[-81.7387,7.8179,0.0]]],
[[[-81.7526,7.8412,0.0],[-81.7537,7.8426,0.0],[-81.7557,7.8401,0.0],[-81.754,7.8401,0.0],[-81.7526,7.8412,0.0]]],
[[[-81.5093,7.851,418.1533],[-81.4985,7.8608,277.1242],[-81.502,7.8715,73.2685],[-81.5052,7.876,56.2976],[-81.5211,7.8856,32.2283],[-81.5314,7.8877,33.2234],[-81.5403,7.8917,29.6073],[-81.5517,7.9023,9.2543],[-81.5592,7.9062,13.1507],[-81.5636,7.911,12.3002],[-81.5735,7.9172,25.3998],[-81.5835,7.9296,25.8718],[-81.5857,7.9314,18.6805],[-81.5837,7.9279,20.4571],[-81.5865,7.9296,19.8075],[-81.5901,7.9357,11.0244],[-81.6038,7.9326,7.8825],[-81.6113,7.9385,5.2679],[-81.6193,7.9415,0.0],[-81.6235,7.9387,0.0],[-81.6251,7.9315,7.18],[-81.6235,7.9307,7.18],[-81.6235,7.9212,0.0],[-81.6188,7.9174,4.0304],[-81.6193,7.9137,0.0],[-81.6176,7.9132,0.0],[-81.6168,7.9101,4.9907],[-81.6179,7.9074,5.758],[-81.6263,7.9057,0.0],[-81.6263,7.9043,4.354],[-81.6246,7.9043,0.0],[-81.6232,7.9007,0.0],[-81.6204,7.9026,0.0],[-81.6179,7.9024,14.9688],[-81.6157,7.8968,0.0],[-81.6118,7.8954,0.0],[-81.6074,7.8999,0.0],[-81.606,7.8979,0.0],[-81.6035,7.8993,6.1637],[-81.6024,7.8974,6.0568],[-81.599,7.8971,20.2749],[-81.5965,7.8946,0.0],[-81.5949,7.8951,0.0],[-81.5932,7.8929,4.0788],[-81.5935,7.8896,20.1674],[-81.596,7.8882,0.0],[-81.596,7.8846,0.0],[-81.5971,7.8835,20.3714],[-81.5993,7.8843,0.0],[-81.6046,7.8804,5.8091],[-81.5993,7.8732,2.1185],[-81.6038,7.8721,11.0106],[-81.6085,7.8749,7.441],[-81.609,7.8771,0.0],[-81.6104,7.8768,13.8865],[-81.6118,7.871,0.0],[-81.6113,7.8635,0.0],[-81.6057,7.8679,9.1236],[-81.6015,7.864,17.9987],[-81.5965,7.8662,0.0],[-81.5949,7.8693,54.5457],[-81.5862,7.8721,43.7896],[-81.5854,7.8701,0.0],[-81.5796,7.871,13.3188],[-81.5782,7.8682,0.0],[-81.579,7.8657,0.0],[-81.5771,7.8637,0.0],[-81.5738,7.8635,9.9253],[-81.5729,7.861,0.0],[-81.564,7.8615,0.0],[-81.571,7.8518,6.1753],[-81.5749,7.8521,0.0],[-81.5774,7.8549,24.4939],[-81.579,7.8549,0.0],[-81.5807,7.8515,21.1376],[-81.5857,7.8518,11.1575],[-81.5837,7.8479,0.0],[-81.5815,7.8476,14.9419],[-81.5799,7.8426,20.7988],[-81.5821,7.8404,0.0],[-81.5788,7.839,0.0],[-81.5771,7.8399,4.8951],[-81.5762,7.8382,0.0],[-81.5785,7.8324,0.0],[-81.5865,7.8315,48.3798],[-81.589,7.8332,0.0],[-81.5885,7.8268,0.0],[-81.586,7.8257,82.707],[-81.5879,7.8249,0.0],[-81.5854,7.8224,33.043],[-81.5516,7.835,231.0752],[-81.5227,7.8362,437.7617],[-81.5093,7.851,418.1533]]],
[[[-81.5862,7.9315,18.6805],[-81.5858,7.9315,18.6805],[-81.5863,7.9318,18.6805],[-81.5862,7.9315,18.6805]]]]}
,"properties": {"GID_3": "PAN.13.5.8_1","GID_0": "PAN","country": "Panama","GID_1": "PAN.13_1","province": "Veraguas","NL_NAME_1": "NA","GID_2": "PAN.13.5_1","county": "LasPalmas","NL_NAME_2": "NA","city": "Pixvae","VARNAME_3": "NA","NL_NAME_3": "NA","TYPE_3": "Corregimiento","ENGTYPE_3": "Municipality","CC_3": "NA","HASC_3": "NA","name": "Pixvae.city","area_km2": 88.83913,"hist_schema_id": "Elevation0-9000","hist_area_km2": {"0": 10.3751,"25": 11.08882,"50": 9.53503,"75": 8.10684,"100": 7.24576,"125": 6.34264,"150": 5.71255,"175": 5.06149,"200": 3.38133,"225": 3.46537,"250": 2.9193,"275": 2.64627,"300": 2.9823,"325": 2.28924,"350": 1.80623,"375": 1.34417,"400": 1.30219,"425": 0.86113,"450": 0.54608,"475": 0.86113,"500": 0.29405,"525": 0.23104,"550": 0.18903,"575": 0.18903,"600": 0.06301}}}