{"type": "Feature","bbox": [-79.4886,9.0538,-79.4597,9.0734],"geometry": {"type": "MultiPolygon","coordinates": [[[[-79.4886,9.0648,89.1396],[-79.4823,9.0538,86.6817],[-79.4768,9.0624,54.3489],[-79.4597,9.0646,55.681399999999996],[-79.4632,9.0709,77.4203],[-79.4698,9.0734,89.986],[-79.4886,9.0648,89.1396]]]]}
,"properties": {"GID_3": "PAN.12.7.2_1","GID_0": "PAN","country": "Panama","GID_1": "PAN.12_1","province": "Panamá","NL_NAME_1": "NA","GID_2": "PAN.12.7_1","county": "SanMiguelito","NL_NAME_2": "NA","city": "ArnulfoArias","VARNAME_3": "NA","NL_NAME_3": "NA","TYPE_3": "Corregimiento","ENGTYPE_3": "Municipality","CC_3": "NA","HASC_3": "NA","name": "Arnulfo_Arias.city","area_km2": 2.847483,"hist_schema_id": "Elevation0-9000","hist_area_km2": {"25": 0.083749,"50": 1.046867,"75": 0.963118,"100": 0.690936,"125": 0.062812}}}