{"type":"Feature","properties":{"GID_3":"PAN.4.2.6_1","GID_0":"PAN","country":"Panama","GID_1":"PAN.4_1","province":"Colón","NL_NAME_1":"NA","GID_2":"PAN.4.2_1","county":"Colón","NL_NAME_2":"NA","city":"Cristóbal","VARNAME_3":"NA","NL_NAME_3":"NA","TYPE_3":"Corregimiento","ENGTYPE_3":"Municipality","CC_3":"NA","HASC_3":"NA","name":"Cristóbal.city"},
"geometry":{"type": "MultiPolygon","coordinates": [[[[-79.9747,9.1265,25.0],[-79.9746,9.1265,25.0],[-79.9746,9.1268,25.0],[-79.9747,9.1265,25.0]]],
[[[-79.939,9.1812,34.2334],[-79.941,9.1821,25.0],[-79.939,9.179,25.0],[-79.941,9.1785,28.626],[-79.9407,9.1765,25.0],[-79.9388,9.1757,34.722],[-79.9374,9.179,28.7306],[-79.939,9.1812,34.2334]]],
[[[-79.9299,9.1921,25.0],[-79.9337,9.1929,26.2831],[-79.9313,9.1915,26.7098],[-79.9349,9.1918,26.8963],[-79.9351,9.1907,26.8963],[-79.9318,9.1896,25.0],[-79.9299,9.1921,25.0]]],
[[[-79.9307,9.1951,33.7053],[-79.9318,9.194,33.7053],[-79.9293,9.1943,32.6435],[-79.9282,9.1965,28.3453],[-79.9299,9.1951,32.6435],[-79.9307,9.1951,33.7053]]],
[[[-79.9301,9.1982,30.0112],[-79.9346,9.1988,26.4667],[-79.9313,9.1965,28.6327],[-79.9296,9.1968,28.3453],[-79.9301,9.1982,30.0112]]],
[[[-79.9143,9.211,29.6576],[-79.9171,9.2118,32.7879],[-79.9146,9.2079,25.0],[-79.9112,9.2085,29.6816],[-79.9124,9.211,25.0],[-79.9143,9.211,29.6576]]],
[[[-79.9135,9.2149,43.7413],[-79.9174,9.2143,38.3385],[-79.9149,9.2124,34.5263],[-79.9126,9.2132,25.0],[-79.9135,9.2149,43.7413]]],
[[[-79.914,9.2188,28.957],[-79.9154,9.2213,25.0],[-79.9182,9.2196,30.9101],[-79.9115,9.2149,25.0],[-79.9112,9.2132,25.0],[-79.9079,9.2149,26.5469],[-79.909,9.2179,25.0],[-79.9121,9.2182,58.8004],[-79.9126,9.2199,27.461],[-79.914,9.2188,28.957]]],
[[[-79.9054,9.2107,33.5941],[-79.9062,9.2118,33.5941],[-79.9068,9.2096,29.8005],[-79.9099,9.2076,29.6816],[-79.9057,9.2068,28.5367],[-79.9054,9.2107,33.5941]]],
[[[-79.8871,9.2087,25.0],[-79.8868,9.2099,29.2355],[-79.8879,9.2107,25.0],[-79.8885,9.2076,25.0],[-79.8871,9.2087,25.0]]],
[[[-79.8838,9.2099,25.0],[-79.8868,9.211,25.0],[-79.8857,9.2085,25.0],[-79.8835,9.2087,25.0],[-79.8838,9.2099,25.0]]],
[[[-79.8965,9.2126,28.2148],[-79.8962,9.214,25.0],[-79.8976,9.2121,25.0],[-79.8993,9.2124,25.0],[-79.8999,9.211,25.0],[-79.8971,9.2113,27.2011],[-79.899,9.2082,25.0],[-79.8943,9.2082,25.0],[-79.8938,9.2099,33.4963],[-79.8965,9.2126,28.2148]]],
[[[-79.8901,9.2124,25.0],[-79.8932,9.2137,25.0],[-79.894,9.2104,33.4963],[-79.8918,9.209,25.0],[-79.8918,9.2113,39.5805],[-79.8899,9.2101,25.0],[-79.8901,9.2124,25.0]]],
[[[-79.9001,9.2229,25.0],[-79.8999,9.2243,25.0],[-79.9018,9.2232,25.0],[-79.9018,9.2213,25.0],[-79.9004,9.2215,25.0],[-79.9001,9.2229,25.0]]],
[[[-79.8857,9.2321,46.4544],[-79.8865,9.2343,28.5204],[-79.8876,9.2318,37.7463],[-79.8932,9.2315,25.0],[-79.8929,9.229,56.1576],[-79.8962,9.2313,28.0455],[-79.8974,9.2299,25.0],[-79.8954,9.2257,25.0],[-79.8915,9.2237,25.0],[-79.8879,9.2307,37.7463],[-79.8857,9.2321,46.4544]]],
[[[-79.9085,9.2388,25.0],[-79.9118,9.239,25.0],[-79.9132,9.2376,31.6693],[-79.9101,9.2343,35.6786],[-79.9149,9.2326,25.0],[-79.9135,9.229,25.0],[-79.9165,9.2307,25.0],[-79.9168,9.2276,29.8767],[-79.9185,9.2285,25.0],[-79.9174,9.2257,25.0],[-79.9165,9.2279,29.8767],[-79.9118,9.2276,29.4421],[-79.9079,9.2301,25.0],[-79.9085,9.2388,25.0]]],
[[[-79.7899,9.1329,25.9324],[-79.7962,9.1332,25.0],[-79.7971,9.1293,29.9651],[-79.7996,9.1307,25.0],[-79.8007,9.1276,25.0],[-79.8007,9.1254,25.0],[-79.7946,9.1199,25.0],[-79.7865,9.1196,25.0],[-79.7851,9.1229,25.0],[-79.7804,9.1243,40.22],[-79.7832,9.1276,29.0989],[-79.7874,9.124,47.4768],[-79.7885,9.1265,28.9837],[-79.7918,9.1265,38.4064],[-79.7885,9.1313,45.3234],[-79.7899,9.1329,25.9324]]],
[[[-79.7871,9.1276,25.0],[-79.7868,9.1301,25.3699],[-79.7885,9.1301,27.7419],[-79.7882,9.1276,25.0],[-79.7871,9.1276,25.0]]],
[[[-79.7785,9.1457,25.0],[-79.7796,9.1465,25.0],[-79.7787,9.1435,28.3957],[-79.7782,9.1438,26.9358],[-79.7785,9.1457,25.0]]],
[[[-79.8026,9.1815,25.9507],[-79.804,9.1824,25.5],[-79.8029,9.1785,30.5655],[-79.8063,9.1774,25.0],[-79.8063,9.176,29.9109],[-79.8035,9.1701,25.0],[-79.7985,9.1685,25.0],[-79.7924,9.1763,29.7171],[-79.7943,9.1763,35.6013],[-79.7943,9.1779,31.6135],[-79.7971,9.1793,27.152],[-79.7982,9.1757,26.8085],[-79.8026,9.1815,25.9507]]],
[[[-79.7355,9.1917,250.4442],[-79.752,9.1907,205.8548],[-79.7568,9.1924,181.9956],[-79.7739,9.2143,126.7623],[-79.7984,9.2329,52.4182],[-79.8002,9.2371,36.8516],[-79.8018,9.2357,45.4712],[-79.801,9.2343,26.4809],[-79.806,9.2329,35.9305],[-79.809,9.2371,42.2004],[-79.8107,9.2457,30.9993],[-79.8126,9.2485,25.0],[-79.8174,9.2468,32.6416],[-79.816,9.2507,25.0],[-79.8182,9.2543,25.0],[-79.8238,9.2571,25.0],[-79.8246,9.2532,27.3027],[-79.8224,9.2521,41.9132],[-79.8257,9.2521,26.3442],[-79.8254,9.2499,30.7173],[-79.8274,9.2518,29.3145],[-79.8288,9.2504,30.2863],[-79.8262,9.2454,25.0],[-79.8254,9.2474,33.8114],[-79.824,9.2471,28.1998],[-79.8279,9.2324,27.7798],[-79.8299,9.231,27.0987],[-79.8313,9.2326,25.0],[-79.834,9.2321,26.6437],[-79.8371,9.2338,25.0],[-79.8337,9.2307,25.0],[-79.8362,9.2279,30.6572],[-79.8368,9.2301,25.0],[-79.839,9.2296,27.3867],[-79.839,9.2321,25.0],[-79.844,9.2313,25.0],[-79.8429,9.229,26.6247],[-79.8404,9.2304,25.0],[-79.8379,9.2265,29.0118],[-79.8401,9.2232,25.0],[-79.839,9.2196,25.0],[-79.8362,9.2193,27.6823],[-79.8343,9.224,38.1084],[-79.8332,9.2237,28.3048],[-79.8337,9.2213,25.0],[-79.8318,9.2218,28.7019],[-79.8321,9.224,32.5655],[-79.831,9.2226,25.3812],[-79.8293,9.2232,25.3812],[-79.8318,9.2268,48.7558],[-79.8285,9.2254,30.0],[-79.8262,9.2268,45.1404],[-79.8282,9.2251,30.0],[-79.8282,9.2226,31.6984],[-79.826,9.2204,25.0],[-79.8246,9.2137,43.3872],[-79.8288,9.2146,29.583],[-79.8285,9.2121,39.9233],[-79.8304,9.2104,57.6209],[-79.8321,9.2129,25.0],[-79.8318,9.2076,32.1506],[-79.8346,9.2107,25.0],[-79.8365,9.2096,29.537],[-79.8362,9.2079,34.4576],[-79.8393,9.2082,30.8314],[-79.8393,9.2063,48.2207],[-79.8435,9.2049,51.2567],[-79.8457,9.2049,37.0849],[-79.8468,9.2068,26.4526],[-79.8482,9.2051,48.0883],[-79.8515,9.2057,25.0],[-79.8476,9.2029,51.999],[-79.851,9.2026,25.0],[-79.8512,9.2007,37.7118],[-79.8532,9.2013,31.3302],[-79.8562,9.1985,26.7998],[-79.8551,9.1921,48.5392],[-79.8585,9.1915,25.0],[-79.8596,9.1871,27.674],[-79.8574,9.1849,25.0],[-79.8529,9.1854,25.0],[-79.8493,9.189,25.0],[-79.8496,9.1912,25.0],[-79.8457,9.1932,38.5225],[-79.8443,9.1924,25.0],[-79.8471,9.1912,31.389],[-79.8474,9.1893,38.7009],[-79.8426,9.1882,28.2248],[-79.8421,9.1899,50.3177],[-79.8371,9.1904,25.0],[-79.8368,9.1935,25.0],[-79.8349,9.1929,25.0],[-79.8329,9.1949,29.5831],[-79.8307,9.1943,53.3108],[-79.8296,9.1918,25.0],[-79.8249,9.1926,25.0],[-79.8249,9.1962,25.0],[-79.8229,9.1938,36.0418],[-79.8204,9.1943,25.0],[-79.8204,9.1962,27.6692],[-79.8163,9.1979,25.0],[-79.8146,9.2004,25.9117],[-79.8165,9.2035,37.4415],[-79.8129,9.2032,29.1193],[-79.8149,9.2074,34.8254],[-79.8129,9.2076,27.0643],[-79.8087,9.2032,25.0],[-79.8079,9.1993,30.7651],[-79.8099,9.1962,27.9682],[-79.8176,9.1971,28.9637],[-79.8185,9.1949,27.7088],[-79.8171,9.1924,25.0],[-79.8204,9.1915,37.9023],[-79.826,9.1862,30.4572],[-79.8282,9.1876,27.3891],[-79.8285,9.1857,34.6881],[-79.8304,9.186,27.709],[-79.831,9.1832,28.4835],[-79.829,9.1838,39.4847],[-79.8299,9.1812,36.5749],[-79.8335,9.179,25.0],[-79.8285,9.1782,25.0],[-79.8276,9.1815,31.946],[-79.821,9.1818,25.0],[-79.8246,9.1851,37.3261],[-79.8235,9.1865,35.3344],[-79.8199,9.186,25.0],[-79.8168,9.189,53.7322],[-79.8138,9.1876,54.7912],[-79.8149,9.1838,25.0],[-79.8107,9.1868,29.2684],[-79.8065,9.1871,53.1502],[-79.8049,9.1832,25.0],[-79.8043,9.1843,25.5],[-79.8049,9.1862,27.0005],[-79.8037,9.1843,25.5],[-79.801,9.1851,25.5],[-79.7996,9.1818,25.5],[-79.7946,9.1793,28.0935],[-79.7921,9.1815,34.5976],[-79.7899,9.1807,29.8242],[-79.7893,9.1824,49.6881],[-79.7876,9.1824,41.7358],[-79.7904,9.1774,25.5],[-79.7874,9.1771,43.5551],[-79.7913,9.1743,28.1597],[-79.7835,9.1738,51.9851],[-79.784,9.1713,45.6292],[-79.7857,9.1726,28.5126],[-79.7868,9.1707,34.4521],[-79.7854,9.1618,54.6568],[-79.7893,9.1696,32.2682],[-79.794,9.1726,25.5],[-79.7971,9.1682,25.0],[-79.7946,9.1646,32.2464],[-79.7999,9.166,25.0],[-79.8001,9.164,31.3957],[-79.804,9.1679,28.3965],[-79.8065,9.1632,25.0],[-79.8063,9.1601,26.618],[-79.8051,9.1582,25.0],[-79.8026,9.1599,31.463],[-79.8001,9.156,29.0363],[-79.7974,9.1599,26.3159],[-79.7935,9.156,33.4735],[-79.7976,9.1538,25.0],[-79.7996,9.1504,25.0],[-79.7979,9.1493,26.4511],[-79.7954,9.1535,25.0],[-79.794,9.1532,32.4539],[-79.7962,9.1488,26.4511],[-79.796,9.1457,34.9953],[-79.7929,9.146,31.2984],[-79.7932,9.1426,34.9688],[-79.7946,9.1413,34.6238],[-79.7968,9.1424,25.0],[-79.7965,9.1368,25.0],[-79.7915,9.1382,25.0],[-79.791,9.1362,25.0],[-79.7882,9.1371,42.3942],[-79.7874,9.1354,25.0],[-79.7838,9.1413,32.5577],[-79.7801,9.1424,40.0873],[-79.7807,9.1479,35.1469],[-79.7779,9.1479,33.2318],[-79.7765,9.1443,39.0107],[-79.7787,9.1418,27.1457],[-79.7757,9.1421,39.032],[-79.7743,9.1401,27.0723],[-79.7757,9.1393,28.1873],[-79.7771,9.1407,25.0],[-79.779,9.1388,26.8615],[-79.7807,9.141,25.0],[-79.7835,9.1407,32.5577],[-79.7846,9.1313,36.6282],[-79.7862,9.1304,25.3699],[-79.7815,9.1274,30.7751],[-79.7801,9.1296,33.488],[-79.7774,9.1265,28.9347],[-79.7782,9.1243,25.6099],[-79.7763,9.1218,25.0],[-79.7757,9.1235,32.2141],[-79.7718,9.124,39.4673],[-79.7754,9.1188,31.7789],[-79.7754,9.1174,30.0068],[-79.7729,9.1168,29.8446],[-79.7751,9.1154,25.0],[-79.7654,9.116,25.0],[-79.764,9.1182,28.6327],[-79.7551,9.1226,28.7333],[-79.746,9.1232,27.1654],[-79.7404,9.1218,25.0],[-79.7343,9.1232,28.572],[-79.7299,9.1204,25.0],[-79.7229,9.1196,25.0],[-79.7201,9.1207,29.5197],[-79.7182,9.1185,25.0],[-79.7101,9.1182,25.0],[-79.7096,9.1165,25.0],[-79.7065,9.1179,25.9985],[-79.7071,9.1165,27.2153],[-79.6976,9.1129,25.0],[-79.6935,9.1146,28.8538],[-79.6896,9.1174,25.0],[-79.6893,9.1204,26.453],[-79.6924,9.1246,36.938],[-79.6943,9.1326,30.4129],[-79.6899,9.1324,25.0],[-79.6882,9.1349,26.164],[-79.6871,9.1326,26.5641],[-79.6857,9.1332,26.5641],[-79.684,9.1368,33.2903],[-79.6776,9.1391,25.8128],[-79.6772,9.1451,47.1751],[-79.672,9.1522,28.0368],[-79.6609,9.155,42.9284],[-79.6584,9.1587,29.4374],[-79.6587,9.1737,46.369],[-79.6658,9.1763,41.9781],[-79.6683,9.1802,36.7807],[-79.6734,9.1795,43.4982],[-79.694,9.1856,93.9254],[-79.7026,9.1858,156.4505],[-79.7188,9.1899,174.1288],[-79.7355,9.1917,250.4442]]],
[[[-79.8354,9.1868,25.0],[-79.8374,9.1882,38.5449],[-79.839,9.186,39.0069],[-79.8371,9.1857,25.0],[-79.8354,9.1868,25.0]]],
[[[-79.8101,9.2021,25.0],[-79.8124,9.2035,29.4485],[-79.8138,9.2001,25.9117],[-79.811,9.1996,25.979],[-79.8101,9.2021,25.0]]],
[[[-79.8374,9.246,31.744],[-79.839,9.2465,31.744],[-79.839,9.2426,30.6561],[-79.8371,9.2432,25.0],[-79.8374,9.246,31.744]]],
[[[-79.8407,9.1868,33.9034],[-79.8415,9.1876,28.2248],[-79.8435,9.1876,28.2248],[-79.8421,9.1854,25.0],[-79.8407,9.1868,33.9034]]],
[[[-79.8607,9.1968,25.0],[-79.8585,9.1976,47.3897],[-79.8576,9.201,25.0],[-79.8604,9.2004,35.327],[-79.8607,9.1968,25.0]]],
[[[-79.8449,9.224,27.4526],[-79.846,9.2251,26.4114],[-79.8463,9.2221,29.9881],[-79.8429,9.2162,25.0],[-79.8424,9.2193,33.2232],[-79.8449,9.224,27.4526]]],
[[[-79.8526,9.2468,34.13],[-79.8535,9.2482,25.5748],[-79.8574,9.2471,26.1058],[-79.8546,9.2429,38.837],[-79.8557,9.241,64.3589],[-79.8576,9.2418,34.8219],[-79.859,9.239,28.0227],[-79.8562,9.2357,44.6215],[-79.8576,9.2346,47.9125],[-79.8574,9.2315,43.6709],[-79.8596,9.2332,43.4677],[-79.8593,9.236,25.0],[-79.8654,9.2332,28.3672],[-79.8635,9.2379,25.0],[-79.8665,9.2374,44.7482],[-79.8668,9.239,28.508],[-79.869,9.239,25.0],[-79.8665,9.2357,26.0273],[-79.8693,9.2346,38.9897],[-79.8721,9.2393,25.0],[-79.8737,9.2379,34.7388],[-79.8737,9.2343,41.9613],[-79.8712,9.2313,34.0493],[-79.8729,9.2282,34.6646],[-79.8724,9.2243,25.0],[-79.8676,9.2226,37.9373],[-79.8696,9.219,26.8411],[-79.8693,9.2154,25.0],[-79.8674,9.2135,25.0],[-79.8696,9.2054,25.0],[-79.8671,9.2018,25.0],[-79.8637,9.2049,25.0],[-79.8651,9.2074,50.9615],[-79.8635,9.2074,31.4981],[-79.8604,9.211,45.306399999999996],[-79.8599,9.2093,43.1806],[-79.861,9.2065,25.0],[-79.8579,9.209,29.7744],[-79.8551,9.2071,25.0],[-79.8549,9.209,36.6828],[-79.8529,9.2082,25.0],[-79.8512,9.2104,25.0],[-79.8479,9.2232,26.4538],[-79.851,9.2235,31.2637],[-79.8515,9.2265,25.0],[-79.854,9.226,44.0727],[-79.8538,9.2282,25.0],[-79.8562,9.2287,33.0876],[-79.8538,9.2293,27.0763],[-79.8501,9.234,61.1539],[-79.8485,9.2326,25.5201],[-79.8485,9.2351,25.0],[-79.8463,9.2349,26.5382],[-79.846,9.2326,26.1219],[-79.8432,9.2335,25.0],[-79.8465,9.2393,25.0],[-79.8468,9.2374,26.0709],[-79.8493,9.2376,26.3193],[-79.8493,9.2429,25.0],[-79.8526,9.2468,34.13]]],
[[[-79.8274,9.2601,34.3031],[-79.8296,9.2607,28.0049],[-79.8279,9.259,34.3031],[-79.829,9.2579,35.0907],[-79.8282,9.2554,25.0],[-79.8251,9.2576,35.4281],[-79.8274,9.2601,34.3031]]],
[[[-79.8243,9.2596,28.7307],[-79.8221,9.2588,25.0],[-79.8257,9.261,25.0],[-79.8254,9.2601,27.0039],[-79.8243,9.2596,28.7307]]],
[[[-79.9343,9.2396,29.18],[-79.934,9.2415,25.0],[-79.9362,9.239,34.6013],[-79.9385,9.2412,25.0],[-79.9404,9.2376,25.0],[-79.9362,9.2368,25.0],[-79.9343,9.2396,29.18]]],
[[[-79.9265,9.2558,25.0],[-79.9279,9.2585,25.0],[-79.9285,9.2549,25.0],[-79.9318,9.2538,25.0],[-79.9296,9.2532,25.0],[-79.9307,9.2513,25.0],[-79.9285,9.2507,36.7235],[-79.9279,9.2471,25.0],[-79.926,9.2479,29.013],[-79.9265,9.2558,25.0]]],
[[[-80.0004,9.1745,27.5055],[-79.9998,9.1669,21.089],[-79.9863,9.1575,64.5684],[-79.9723,9.1446,30.7803],[-79.972,9.1389,75.3808],[-79.9746,9.1268,25.0],[-79.9721,9.1285,31.9029],[-79.9701,9.1276,27.4641],[-79.9726,9.1251,26.3501],[-79.9724,9.1212,25.0],[-79.9707,9.1207,25.0],[-79.9715,9.1226,25.0],[-79.9696,9.1243,25.0],[-79.9699,9.1265,28.3532],[-79.9674,9.126,25.9696],[-79.9662,9.1293,32.2101],[-79.9654,9.1274,25.0],[-79.9621,9.1282,25.0],[-79.9626,9.1335,25.0],[-79.9646,9.1321,27.1745],[-79.9662,9.1357,33.0456],[-79.9629,9.1354,25.0],[-79.9649,9.1388,28.3197],[-79.9618,9.1396,25.0],[-79.9621,9.1449,28.5056],[-79.9596,9.1435,25.0],[-79.9574,9.1551,28.0571],[-79.9582,9.1576,25.0],[-79.9596,9.1563,37.4394],[-79.9621,9.1568,32.0915],[-79.9635,9.1624,51.3946],[-79.9607,9.1632,25.0],[-79.9587,9.166,25.0],[-79.9579,9.1707,25.0],[-79.9615,9.1735,26.3458],[-79.9615,9.1771,33.2188],[-79.959,9.1763,25.0],[-79.9568,9.1812,31.9043],[-79.9574,9.1862,47.5501],[-79.9532,9.191,25.0],[-79.9546,9.1935,25.0],[-79.9574,9.1921,36.3011],[-79.9596,9.1982,30.7362],[-79.9557,9.2038,36.045],[-79.9563,9.209,39.4669],[-79.9526,9.2162,33.6135],[-79.9465,9.2199,30.6607],[-79.9454,9.2249,25.0],[-79.9437,9.2251,25.0],[-79.9437,9.2263,25.0],[-79.946,9.2268,25.0],[-79.9382,9.2315,34.572],[-79.9413,9.2332,27.7594],[-79.9443,9.2324,25.0],[-79.9415,9.2354,25.0],[-79.9426,9.2396,27.4453],[-79.9488,9.2374,63.6637],[-79.9463,9.2446,25.0],[-79.9429,9.2471,30.8465],[-79.9413,9.2532,25.0],[-79.9418,9.2593,31.3592],[-79.9376,9.2568,25.0],[-79.9326,9.2574,27.3603],[-79.9304,9.2624,7.8426],[-79.9243,9.2676,26.307],[-79.9215,9.2676,29.1425],[-79.9151,9.2607,27.383],[-79.9115,9.2624,34.4531],[-79.8976,9.2632,25.5041],[-79.8899,9.271,38.4151],[-79.8863,9.2721,29.7396],[-79.8835,9.2765,35.9],[-79.879,9.2788,36.0678],[-79.8785,9.281,25.0],[-79.8826,9.2807,25.9179],[-79.8838,9.2835,25.0],[-79.8724,9.2832,25.0],[-79.8735,9.2882,25.0],[-79.876,9.2893,25.0],[-79.8771,9.2879,47.8543],[-79.8765,9.2904,36.843],[-79.8782,9.2926,31.1918],[-79.8771,9.2943,43.7133],[-79.8688,9.2904,25.0],[-79.8718,9.2924,25.0],[-79.8718,9.2946,25.0],[-79.8624,9.2946,27.6294],[-79.8643,9.2968,35.1353],[-79.8618,9.3015,25.0],[-79.8682,9.3018,27.4179],[-79.8685,9.3004,25.0],[-79.8662,9.2993,25.0],[-79.8712,9.2976,33.896],[-79.8726,9.301,25.0],[-79.8751,9.3013,25.0],[-79.8754,9.3035,25.0],[-79.8724,9.3043,34.1558],[-79.8699,9.3018,25.0],[-79.8699,9.304,25.0],[-79.8721,9.306,25.0],[-79.8704,9.3085,28.7254],[-79.8732,9.3107,34.0572],[-79.8712,9.311,37.7308],[-79.8693,9.3093,26.7277],[-79.8674,9.3104,27.1922],[-79.869,9.314,35.8821],[-79.8679,9.3163,30.4973],[-79.8674,9.3143,25.0],[-79.864,9.3138,49.849],[-79.8657,9.3051,25.0],[-79.864,9.3068,25.0],[-79.8599,9.3054,25.0],[-79.8624,9.3099,41.1954],[-79.861,9.3087,25.0],[-79.8587,9.3096,27.881],[-79.8582,9.3138,62.1048],[-79.8551,9.316,25.0],[-79.8578,9.3314,38.2921],[-79.8659,9.3447,12.9713],[-79.857,9.3536,19.6224],[-79.8554,9.3758,26.498],[-79.8513,9.3874,4.1823],[-79.8535,9.3896,5.4815],[-79.8587,9.3893,6.8159],[-79.8571,9.3918,0.0],[-79.8574,9.3965,0.0],[-79.8593,9.3976,2.2924],[-79.859,9.4004,3.9385],[-79.8613,9.4032,1.4291],[-79.8688,9.4049,0.655],[-79.874,9.404,0.5129],[-79.8771,9.3985,1.8501],[-79.8815,9.3976,1.3618],[-79.8846,9.394,5.5204],[-79.8849,9.3924,0.0],[-79.881,9.3926,1.6668],[-79.8807,9.389,0.0],[-79.8868,9.3871,0.0],[-79.889,9.384,0.3995],[-79.8863,9.381,0.6073],[-79.881,9.3807,3.9183],[-79.8818,9.3782,2.5809],[-79.8871,9.3776,2.474],[-79.8882,9.376,3.8575],[-79.8874,9.3721,3.4546],[-79.8835,9.371,0.2881],[-79.8846,9.3699,1.8388],[-79.8838,9.3671,2.8131],[-79.8863,9.3665,0.2255],[-79.8868,9.3649,0.0],[-79.8846,9.361,3.7763],[-79.8821,9.3604,3.2017],[-79.8815,9.3579,4.1032],[-79.8829,9.3574,1.3656],[-79.8821,9.3549,3.5893],[-79.8846,9.3571,1.3656],[-79.8851,9.3535,8.872],[-79.8879,9.3518,3.9819],[-79.8904,9.3446,9.3031],[-79.884,9.3412,21.0865],[-79.8887,9.336,8.7008],[-79.9032,9.3376,7.6774],[-79.9021,9.3454,6.2105],[-79.9068,9.3499,0.4546],[-79.9046,9.3451,2.5319],[-79.9115,9.3354,2.4192],[-79.9165,9.3321,0.0],[-79.9171,9.3243,2.2254],[-79.9157,9.3185,1.908],[-79.9171,9.3104,2.5187],[-79.9218,9.3104,3.3],[-79.9221,9.3118,2.6765],[-79.926,9.3126,0.5651],[-79.9287,9.3099,6.083],[-79.9357,9.3101,7.8744],[-79.9463,9.3126,3.3976],[-79.9504,9.316,0.0],[-79.9512,9.3229,5.8769],[-79.944,9.3271,0.0],[-79.9485,9.3288,11.3495],[-79.9465,9.3332,8.2425],[-79.9488,9.3412,13.621],[-79.9474,9.3457,3.5072],[-79.9482,9.3471,0.0],[-79.951,9.3465,7.6005],[-79.9465,9.3504,1.3534],[-79.9451,9.3538,0.0],[-79.9463,9.3582,0.0],[-79.949,9.3596,3.021],[-79.9493,9.3635,0.5847],[-79.9465,9.3682,5.5724],[-79.9485,9.3699,0.6942],[-79.9512,9.3665,0.6616],[-79.951,9.3704,2.0099],[-79.949,9.3724,1.1595],[-79.9521,9.3721,0.0],[-79.9604,9.3693,2.3738],[-79.9638,9.3646,4.0642],[-79.9654,9.3663,2.9686],[-79.971,9.366,0.1922],[-79.979,9.3626,0.0],[-79.9849,9.3565,7.9433],[-79.9837,9.3538,0.0],[-79.9907,9.3435,0.0],[-79.991,9.3404,35.8529],[-79.9938,9.339,0.0],[-79.9985,9.331,0.0],[-80.0035,9.3271,5.9316],[-80.0037,9.3246,16.102],[-79.999,9.3207,4.1476],[-79.9987,9.316,0.0],[-80.0021,9.3182,2.1077],[-80.0076,9.3146,6.4468],[-80.014,9.3143,2.4276],[-80.0199,9.3118,8.0708],[-80.0193,9.3074,13.7865],[-80.0212,9.3029,27.0797],[-80.0396,9.2915,5.688],[-80.0482,9.281,3.1403],[-80.0479,9.2782,8.4148],[-80.0532,9.2743,3.9706],[-80.0491,9.272,24.2637],[-80.0444,9.2735,7.0096],[-80.0417,9.277,11.6047],[-80.0358,9.2753,18.6793],[-80.0296,9.2816,22.8264],[-80.0265,9.2829,17.7875],[-80.0177,9.2784,58.1607],[-80.0129,9.2716,40.5904],[-80.0142,9.229,86.727],[-80.0106,9.2172,30.9038],[-80.0094,9.2003,15.0332],[-80.0004,9.1745,27.5055]]],
[[[-79.9013,9.2432,29.5286],[-79.9051,9.2432,26.5826],[-79.9037,9.2415,29.1399],[-79.9068,9.2385,49.7201],[-79.906,9.2296,25.0],[-79.8985,9.2349,25.0],[-79.8962,9.239,29.3025],[-79.8982,9.241,32.0875],[-79.9013,9.2379,45.6599],[-79.9013,9.2432,29.5286]]],
[[[-79.8685,9.2801,37.188],[-79.871,9.2804,25.0],[-79.8712,9.2779,25.0],[-79.8676,9.2774,33.8358],[-79.8685,9.2801,37.188]]],
[[[-79.8674,9.3079,28.542],[-79.869,9.3087,27.9787],[-79.8696,9.3065,25.0],[-79.8671,9.3068,25.0],[-79.8674,9.3079,28.542]]],
[[[-79.8571,9.2571,25.0],[-79.8562,9.261,29.6267],[-79.8593,9.2607,26.3499],[-79.8624,9.2582,25.0],[-79.8615,9.2568,26.8715],[-79.8571,9.2571,25.0]]],
[[[-79.8601,9.2668,33.176],[-79.8613,9.2687,36.1208],[-79.8629,9.266,32.5358],[-79.8562,9.2643,27.8465],[-79.8571,9.2668,25.0],[-79.8596,9.2657,26.5487],[-79.8601,9.2668,33.176]]],
[[[-79.8665,9.2846,36.397],[-79.8682,9.286,25.0],[-79.869,9.2829,25.0],[-79.8651,9.2779,29.1179],[-79.8637,9.2788,25.0],[-79.8637,9.2818,25.0],[-79.8665,9.2846,36.397]]],
[[[-79.8424,9.3035,38.0615],[-79.8465,9.304,25.3021],[-79.8435,9.3015,40.7688],[-79.8496,9.2999,46.3615],[-79.8479,9.3018,25.0],[-79.8487,9.3029,25.0],[-79.8596,9.3035,25.0],[-79.8582,9.3013,25.0],[-79.8596,9.2982,25.0],[-79.8574,9.2971,51.0837],[-79.8607,9.2974,25.0],[-79.8587,9.296,29.1374],[-79.8604,9.2949,25.0],[-79.8593,9.2929,29.1997],[-79.8604,9.2913,30.4629],[-79.8657,9.2924,25.0],[-79.8649,9.2874,29.373],[-79.8596,9.2896,30.212],[-79.8621,9.2865,25.0],[-79.8585,9.2865,25.0],[-79.8543,9.289,38.4355],[-79.8535,9.2929,27.8994],[-79.8507,9.2935,25.0],[-79.8501,9.2924,25.0],[-79.8524,9.2918,25.0],[-79.8518,9.2896,25.0],[-79.8538,9.2868,43.1866],[-79.8576,9.2843,40.9376],[-79.861,9.2846,25.0],[-79.8621,9.2796,25.0],[-79.8565,9.2793,45.9641],[-79.8554,9.2776,27.9181],[-79.8529,9.2793,63.3927],[-79.8474,9.279,25.0],[-79.8465,9.2846,33.8644],[-79.8418,9.2838,54.6835],[-79.839,9.2851,25.0],[-79.8396,9.2946,76.893],[-79.8385,9.2957,32.3113],[-79.836,9.2962,30.4874],[-79.8365,9.2935,25.0],[-79.8324,9.2932,25.0],[-79.8313,9.2985,44.1535],[-79.8346,9.2987,48.8448],[-79.8368,9.3021,25.0],[-79.8399,9.3013,47.8092],[-79.8424,9.3035,38.0615]]],
[[[-79.8518,9.3079,25.0],[-79.8521,9.3079,25.0],[-79.8521,9.3076,25.0],[-79.8519,9.3078,25.0],[-79.8518,9.3079,25.0]]],
[[[-79.8518,9.3079,25.0],[-79.8515,9.3082,34.963],[-79.8518,9.3082,25.0],[-79.8518,9.3079,25.0]]],
[[[-79.8514,9.3084,34.963],[-79.8515,9.3085,34.963],[-79.8515,9.3082,34.963],[-79.8514,9.3084,34.963]]]]}}