{"type":"Feature","properties":{"GID_3":"PAN.3.5.5_1","GID_0":"PAN","country":"Panama","GID_1":"PAN.3_1","province":"Coclé","NL_NAME_1":"NA","GID_2":"PAN.3.5_1","county":"Olá","NL_NAME_2":"NA","city":"Olá","VARNAME_3":"NA","NL_NAME_3":"NA","TYPE_3":"Corregimiento","ENGTYPE_3":"Municipality","CC_3":"NA","HASC_3":"NA","name":"Olá.city"},
"geometry":{"type": "MultiPolygon","coordinates": [[[[-80.6691,8.3916,348.1603],[-80.6647,8.4013,400.9012],[-80.662,8.404,262.7657],[-80.6513,8.3995,153.7336],[-80.6375,8.4074,128.2575],[-80.6352,8.4167,122.6694],[-80.6361,8.4192,108.0717],[-80.6344,8.4209,97.0009],[-80.6322,8.4192,110.8242],[-80.63,8.412,132.7978],[-80.6227,8.4046,141.6715],[-80.6112,8.4045,69.1584],[-80.6042,8.3906,65.214],[-80.5979,8.3986,68.776],[-80.5914,8.4037,89.8524],[-80.5994,8.4078,62.0529],[-80.6059,8.414,94.4155],[-80.6051,8.4262,115.4765],[-80.6083,8.4396,79.9814],[-80.6087,8.4509,90.3289],[-80.61,8.452,107.3667],[-80.6149,8.4503,59.9392],[-80.6243,8.456,79.885],[-80.6321,8.4757,423.9362],[-80.6344,8.4878,525.9703],[-80.6337,8.506,531.7878],[-80.6364,8.5205,571.9667],[-80.6292,8.5286,442.9574],[-80.6231,8.5291,431.8095],[-80.6211,8.5417,333.9907],[-80.6328,8.543,360.5892],[-80.638,8.5504,411.8201],[-80.6428,8.5527,480.9663],[-80.6483,8.5522,631.7254],[-80.6609,8.5472,824.7709],[-80.6675,8.5504,891.097],[-80.6758,8.5492,1062.8369],[-80.6909,8.5408,919.8323],[-80.6776,8.5274,626.9902],[-80.6736,8.5176,567.0323],[-80.6738,8.5074,425.597],[-80.6676,8.5013,352.5002],[-80.6627,8.4881,221.3104],[-80.6635,8.4802,287.951],[-80.6618,8.475,218.094],[-80.6586,8.4716,163.4021],[-80.652,8.4699,203.6765],[-80.6508,8.4674,184.3796],[-80.6512,8.441,109.5303],[-80.6466,8.4276,99.5641],[-80.6586,8.4306,117.0581],[-80.6717,8.4195,285.1558],[-80.6859,8.4127,245.5439],[-80.6767,8.4051,216.0199],[-80.6691,8.3916,348.1603]]]]}}