{"type": "Feature","bbox": [-82.9342,8.8279,-81.9157,9.6165],"geometry": {"type": "MultiPolygon","coordinates": [[[[-82.1326,8.9003,444.2785],[-82.129,8.9012,512.6201],[-82.1244,8.906,624.1119],[-82.1021,8.9015,470.9582],[-82.0922,8.9031,476.8261],[-82.0906,8.9064,357.4284],[-82.0927,8.911,134.7929],[-82.0863,8.9173,145.314],[-82.0837,8.9299,0.0],[-82.0854,8.9324,4.5793],[-82.0846,8.934,0.0],[-82.1032,8.9315,1.5131],[-82.1096,8.9326,5.938],[-82.1115,8.9429,27.2428],[-82.114,8.9449,16.0586],[-82.1151,8.9513,0.0],[-82.1232,8.9596,0.8289],[-82.1265,8.9657,0.0],[-82.1318,8.9693,5.6862],[-82.1296,8.9738,0.0],[-82.1299,8.9799,8.5814],[-82.1338,8.9838,7.6494],[-82.1343,8.9874,0.0],[-82.1385,8.9901,9.3802],[-82.1407,8.9904,2.2992],[-82.1421,8.9871,0.0],[-82.1465,8.9862,3.2625],[-82.1596,8.9949,1.4374],[-82.1637,8.9924,1.553],[-82.1676,8.9921,0.0],[-82.1704,8.9949,0.0],[-82.1776,8.9965,-0.1323],[-82.179,9.0037,0.0],[-82.1818,9.0049,4.5355],[-82.1879,9.0004,0.0],[-82.1879,8.9974,2.4008],[-82.1854,8.9932,0.0],[-82.1873,8.9913,0.0],[-82.2121,8.9896,4.1242],[-82.214,8.9904,4.1242],[-82.2143,8.9929,0.7924],[-82.2182,8.9943,13.1872],[-82.2213,8.999,0.0],[-82.2304,8.9979,3.2353],[-82.2376,9.0015,0.5244],[-82.2435,8.9976,0.6485],[-82.249,9.0099,0.0],[-82.2562,9.0132,1.8574],[-82.2635,9.0126,6.4528],[-82.2646,9.0157,4.7928],[-82.2607,9.019,7.3381],[-82.2546,9.0154,0.0],[-82.2482,9.021,0.0],[-82.2499,9.0279,3.0086],[-82.2471,9.0313,0.0615],[-82.2462,9.0354,0.0],[-82.2465,9.0399,0.0],[-82.2485,9.0424,0.0],[-82.2479,9.0482,0.0],[-82.2496,9.0504,3.387],[-82.2474,9.0601,2.9203],[-82.2482,9.0685,0.0],[-82.246,9.0743,1.2463],[-82.2468,9.0804,0.0],[-82.2438,9.0851,0.989],[-82.2438,9.0899,1.6533],[-82.2468,9.0901,0.9204],[-82.2485,9.0885,0.0],[-82.246,9.0879,0.0],[-82.2479,9.0851,3.9502],[-82.2521,9.0851,13.0366],[-82.2588,9.0918,0.595],[-82.2613,9.0915,1.2192],[-82.2699,9.0957,25.835],[-82.2707,9.1004,0.0],[-82.2746,9.0979,3.8783],[-82.2751,9.1029,0.0],[-82.2774,9.1018,25.1486],[-82.2801,9.1074,11.6482],[-82.279,9.1112,7.7022],[-82.2726,9.1151,0.0],[-82.2679,9.1135,0.0],[-82.264,9.1096,0.0],[-82.2532,9.1099,0.9763],[-82.2546,9.1126,3.7269],[-82.2588,9.1129,5.758],[-82.2696,9.1196,11.5815],[-82.2696,9.1224,5.6395],[-82.2671,9.1257,0.0],[-82.2674,9.1318,0.0],[-82.2629,9.1351,0.0],[-82.2665,9.1376,0.0],[-82.2688,9.1351,6.7452],[-82.2707,9.1365,6.0855],[-82.2721,9.1413,5.7138],[-82.2701,9.1507,29.0279],[-82.2618,9.1543,31.0626],[-82.2582,9.1529,0.0],[-82.2543,9.1543,12.6964],[-82.254,9.1621,2.712],[-82.2579,9.1649,10.8756],[-82.256,9.169,7.773],[-82.2454,9.1696,1.481],[-82.244,9.1715,1.7309],[-82.241,9.1701,0.0],[-82.2382,9.1735,0.0],[-82.2351,9.1724,-0.0926],[-82.2346,9.174,8.782],[-82.2304,9.1724,6.316],[-82.2296,9.1701,0.0],[-82.2262,9.1701,18.2288],[-82.224,9.1674,21.6801],[-82.2199,9.1662,1.022],[-82.2121,9.1674,1.1559],[-82.2118,9.1704,0.0],[-82.2099,9.1707,0.2928],[-82.2085,9.1676,0.0],[-82.2043,9.1701,0.3241],[-82.2065,9.1668,0.0],[-82.2024,9.1668,0.0],[-82.2035,9.1626,1.2682],[-82.2015,9.1582,0.0],[-82.1996,9.159,0.0],[-82.2001,9.1607,1.8247],[-82.1974,9.1615,0.1178],[-82.1968,9.1601,0.0],[-82.1954,9.1615,1.5696],[-82.1954,9.159,0.3703],[-82.1926,9.1582,0.4586],[-82.1912,9.1526,1.9468],[-82.1876,9.151,0.331],[-82.1879,9.1496,0.1603],[-82.1854,9.1507,3.2128],[-82.1854,9.1485,0.0],[-82.1832,9.149,1.6628],[-82.1849,9.1463,0.1112],[-82.1826,9.1471,0.1769],[-82.1821,9.1493,4.1333],[-82.1757,9.1488,6.2523],[-82.1749,9.1518,0.0],[-82.1707,9.1551,0.0],[-82.1749,9.1626,2.1883],[-82.1729,9.1643,0.2891],[-82.1735,9.1663,0.2523],[-82.171,9.1679,0.0999],[-82.1746,9.1676,0.0],[-82.1751,9.1654,4.3123],[-82.1776,9.166,1.4522],[-82.1793,9.1676,5.761],[-82.1776,9.169,0.1159],[-82.181,9.1724,0.0],[-82.1804,9.1765,0.0],[-82.1832,9.1754,23.3223],[-82.1835,9.1776,0.5568],[-82.1851,9.1774,0.5568],[-82.1815,9.1832,9.118],[-82.1807,9.1899,0.0866],[-82.1762,9.189,0.4278],[-82.1743,9.1951,0.2177],[-82.1718,9.1943,0.0],[-82.1721,9.1965,0.0],[-82.1743,9.1974,0.0],[-82.1743,9.196,0.0],[-82.184,9.1949,0.0],[-82.1851,9.1904,0.0],[-82.184,9.1893,0.0],[-82.1871,9.1879,0.1752],[-82.186,9.1901,0.2415],[-82.1888,9.1896,0.5664],[-82.189,9.1932,0.0],[-82.1871,9.1949,0.0],[-82.1885,9.1968,0.0],[-82.1918,9.196,2.9991],[-82.1943,9.2057,0.0],[-82.199,9.2074,0.0],[-82.2043,9.206,1.7578],[-82.1985,9.2126,0.0],[-82.1982,9.2185,0.402],[-82.2035,9.2176,6.6224],[-82.204,9.2207,0.0],[-82.2063,9.2204,0.8741],[-82.2068,9.2165,0.9317],[-82.204,9.2149,0.1219],[-82.204,9.2126,0.0],[-82.2054,9.2124,0.0],[-82.2082,9.2154,0.0],[-82.2096,9.2129,0.1005],[-82.2076,9.211,8.5948],[-82.2096,9.2107,0.0],[-82.2096,9.209,1.7651],[-82.2107,9.2137,1.7393],[-82.2138,9.2129,1.4873],[-82.214,9.2162,-0.215],[-82.2099,9.2157,-0.0489],[-82.209,9.2188,0.0],[-82.2101,9.219,0.5606],[-82.2093,9.2229,0.4424],[-82.2104,9.2243,0.0],[-82.2124,9.2224,0.0],[-82.2112,9.2207,0.2299],[-82.2138,9.2207,0.0],[-82.2149,9.2179,0.3961],[-82.2171,9.2201,5.6955],[-82.2121,9.2257,0.4395],[-82.2118,9.2285,0.0],[-82.2143,9.2307,0.0],[-82.2171,9.2274,0.0],[-82.2149,9.2279,0.6442],[-82.2143,9.2251,0.3923],[-82.2193,9.2246,0.5887],[-82.226,9.2176,5.1213],[-82.229,9.2165,0.0],[-82.2288,9.2115,0.0],[-82.2301,9.2093,1.0232],[-82.2268,9.2062,0.0],[-82.2237,9.206,17.2278],[-82.2268,9.2026,0.0],[-82.2237,9.2021,6.4134],[-82.2207,9.1982,2.3786],[-82.2229,9.1951,20.7888],[-82.2265,9.1957,0.0],[-82.2301,9.1899,4.5002],[-82.2387,9.1899,4.4859],[-82.2399,9.1912,5.3254],[-82.2421,9.196,0.0],[-82.2457,9.199,3.987],[-82.2449,9.2004,0.0],[-82.244,9.199,0.0],[-82.2421,9.1996,0.0],[-82.2421,9.2018,0.0],[-82.2468,9.206,0.1111],[-82.2454,9.2087,0.6039],[-82.2474,9.2107,0.7494],[-82.2446,9.214,0.0],[-82.2518,9.2179,0.2792],[-82.2515,9.2157,0.0],[-82.2543,9.2124,0.0],[-82.2485,9.2101,0.3875],[-82.2518,9.2071,0.0],[-82.2496,9.2038,0.2786],[-82.2479,9.2038,0.6459],[-82.2485,9.2001,10.6809],[-82.2524,9.2026,0.2365],[-82.2532,9.2054,0.2603],[-82.2554,9.2046,0.0],[-82.2532,9.2038,0.2603],[-82.254,9.2015,0.0],[-82.2521,9.1999,0.0],[-82.2524,9.1982,1.0218],[-82.2543,9.1979,0.0],[-82.2515,9.1946,0.0],[-82.2479,9.1938,7.6379],[-82.249,9.1871,8.8844],[-82.2554,9.1843,0.0],[-82.2565,9.181,1.6435],[-82.2588,9.1799,17.6911],[-82.2621,9.1801,10.6549],[-82.2626,9.1829,0.3274],[-82.266,9.1832,4.2729],[-82.2688,9.1865,0.379],[-82.2718,9.184,0.0],[-82.2776,9.1857,0.0],[-82.2801,9.1885,36.2942],[-82.281,9.194,2.6763],[-82.279,9.1946,1.4689],[-82.2774,9.1918,0.0],[-82.2763,9.1924,0.086],[-82.2771,9.1938,0.3763],[-82.2732,9.1935,0.0],[-82.2751,9.1993,0.078],[-82.2732,9.2026,0.0],[-82.2754,9.2021,0.0],[-82.2749,9.2043,0.0],[-82.2763,9.2057,0.0],[-82.2785,9.2051,11.7531],[-82.2774,9.2071,0.0],[-82.2787,9.211,0.0],[-82.2824,9.211,1.2323],[-82.2826,9.2121,1.5145],[-82.2804,9.2118,0.0],[-82.2821,9.2129,1.5145],[-82.2818,9.2149,0.0],[-82.2865,9.2165,17.0448],[-82.2887,9.226,0.6815],[-82.2918,9.2263,0.3928],[-82.2907,9.2237,0.4992],[-82.2937,9.2199,1.1895],[-82.2918,9.2154,0.5014],[-82.2929,9.2135,0.0],[-82.2899,9.2087,0.0],[-82.2815,9.2015,3.0171],[-82.2821,9.1993,0.0],[-82.2857,9.201,0.0],[-82.2862,9.1982,2.8253],[-82.289,9.1976,24.3191],[-82.296,9.2013,0.0],[-82.3043,9.2013,3.7603],[-82.3118,9.2054,2.9567],[-82.311,9.1996,0.0],[-82.3084,9.1985,11.2819],[-82.3071,9.1921,3.7259],[-82.3093,9.1932,0.0],[-82.3087,9.1901,8.0854],[-82.3129,9.1885,34.6094],[-82.3174,9.1929,0.0],[-82.3174,9.1904,19.8775],[-82.3201,9.1896,11.3575],[-82.3221,9.1919,0.7237],[-82.3254,9.1913,12.2383],[-82.3318,9.194,6.2716],[-82.3337,9.1968,1.7593],[-82.3373,9.1957,0.0],[-82.3385,9.1974,0.4401],[-82.336,9.1982,0.4281],[-82.336,9.2004,0.8552],[-82.3393,9.1977,0.4401],[-82.3418,9.201,6.0783],[-82.3407,9.2018,2.2557],[-82.3415,9.2038,0.0],[-82.3435,9.2018,6.0783],[-82.3493,9.2065,0.5208],[-82.3554,9.2068,7.6034],[-82.3543,9.2087,1.6159],[-82.356,9.2121,0.2904],[-82.3532,9.2118,0.0],[-82.3515,9.2154,0.0],[-82.3554,9.2146,0.1168],[-82.3554,9.2163,0.0],[-82.3579,9.2151,1.5694],[-82.3582,9.2177,4.6437],[-82.3601,9.219,0.0],[-82.3618,9.2171,1.7861],[-82.364,9.2207,0.0],[-82.3629,9.2265,0.7009],[-82.3682,9.229,1.3502],[-82.3668,9.2329,1.627],[-82.3682,9.236,0.0],[-82.366,9.2374,0.0],[-82.3663,9.2393,0.0],[-82.3682,9.2399,0.0],[-82.3682,9.244,6.2126],[-82.3707,9.2429,3.5845],[-82.369,9.2449,8.4895],[-82.3651,9.2437,0.0],[-82.3613,9.2457,1.1065],[-82.3623,9.2491,0.0],[-82.3649,9.2485,31.7018],[-82.3688,9.2507,0.0],[-82.3718,9.2496,0.9965],[-82.3743,9.2541,0.0],[-82.3801,9.254,0.0],[-82.3807,9.2576,0.0],[-82.3865,9.2574,0.0],[-82.3913,9.2638,0.0],[-82.3974,9.2646,2.481],[-82.3946,9.2671,0.0],[-82.3971,9.2696,0.0],[-82.3976,9.2729,0.0],[-82.3926,9.2732,0.0],[-82.3976,9.279,0.7176],[-82.3976,9.2879,0.0],[-82.3996,9.2887,0.4382],[-82.3946,9.289,0.9335],[-82.3896,9.2868,0.0],[-82.3885,9.2885,0.0],[-82.3857,9.2885,0.0],[-82.3815,9.2832,0.0],[-82.3793,9.2849,0.3768],[-82.3749,9.2813,0.0],[-82.371,9.2832,0.246],[-82.3657,9.2796,0.0],[-82.3629,9.2832,1.4322],[-82.3574,9.2838,0.0],[-82.357,9.2937,0.0],[-82.351,9.2943,1.8439],[-82.349,9.2907,0.8855],[-82.3501,9.2951,1.8439],[-82.3443,9.2957,1.0883],[-82.3465,9.3001,0.1024],[-82.3457,9.3024,0.0],[-82.351,9.3105,0.0],[-82.3785,9.3274,0.0],[-82.386,9.3349,2.1463],[-82.3887,9.3438,0.0],[-82.3782,9.3701,0.0],[-82.3721,9.369,0.0],[-82.3676,9.3746,0.6239],[-82.369,9.3791,7.9029],[-82.3623,9.3751,0.0],[-82.3571,9.3821,0.3756],[-82.3526,9.384,0.0],[-82.3565,9.3974,3.1154],[-82.3537,9.3993,0.0],[-82.3521,9.4065,1.1122],[-82.3535,9.4093,1.445],[-82.3507,9.416,6.6975],[-82.3443,9.4193,0.3079],[-82.344,9.4226,2.1161],[-82.3418,9.4251,6.2875],[-82.341,9.429,0.0],[-82.3426,9.4318,9.1318],[-82.3532,9.4349,1.2653],[-82.3524,9.4326,0.0],[-82.3551,9.4274,0.0],[-82.3557,9.4224,9.0623],[-82.3637,9.416,5.067],[-82.3743,9.4157,0.0],[-82.3865,9.4193,1.2682],[-82.4426,9.4668,0.0],[-82.4574,9.4818,1.8491],[-82.4679,9.489,1.8373],[-82.5104,9.5276,1.693],[-82.5265,9.5396,11.8992],[-82.5368,9.5505,0.0],[-82.5607,9.5693,3.3101],[-82.5645,9.5639,4.8336],[-82.5617,9.5585,0.6103],[-82.5525,9.5493,3.4826],[-82.5552,9.5416,1.2971],[-82.5592,9.5395,0.8613],[-82.563,9.5403,0.0],[-82.568,9.5448,10.4056],[-82.5735,9.5533,0.5],[-82.5801,9.5572,0.5],[-82.5918,9.5597,1.5768],[-82.6005,9.5588,2.7251],[-82.6027,9.5568,15.6618],[-82.6039,9.5515,2.602],[-82.5987,9.5407,1.0],[-82.5981,9.534,3.3001],[-82.6045,9.5212,2.0],[-82.6034,9.5116,7.9791],[-82.6046,9.5064,4.5907],[-82.611,9.5003,10.3343],[-82.6178,9.4982,4.815],[-82.6346,9.5023,9.1039],[-82.6354,9.5006,8.5045],[-82.6335,9.4951,5.7703],[-82.637,9.4942,8.6972],[-82.648,9.4975,9.7695],[-82.6593,9.5101,14.5668],[-82.6614,9.5085,11.5507],[-82.6617,9.5025,16.3797],[-82.6681,9.5006,12.095],[-82.6716,9.5018,13.2694],[-82.6725,9.5094,10.4435],[-82.6752,9.5129,9.9252],[-82.6789,9.5077,7.5],[-82.6814,9.5068,11.8751],[-82.6909,9.5119,12.5216],[-82.6931,9.5213,9.7332],[-82.7003,9.5282,14.4895],[-82.6994,9.5306,9.0],[-82.6921,9.5351,16.4902],[-82.6945,9.5426,12.2123],[-82.703,9.5455,16.2563],[-82.7054,9.5522,15.0868],[-82.7076,9.5539,16.2047],[-82.7099,9.5536,15.5832],[-82.7143,9.5455,15.9136],[-82.72,9.551,17.3234],[-82.7289,9.5541,19.4048],[-82.7263,9.5599,11.8192],[-82.7292,9.5641,19.3721],[-82.7434,9.5685,13.626],[-82.7434,9.5736,12.0],[-82.7474,9.5817,16.1421],[-82.7458,9.5871,21.1819],[-82.7428,9.59,19.9833],[-82.7451,9.5926,19.4743],[-82.7475,9.593,19.711],[-82.752,9.5903,19.832],[-82.7607,9.5941,22.3057],[-82.763,9.5937,21.7152],[-82.7693,9.5878,18.8651],[-82.7764,9.5851,19.1966],[-82.7933,9.5987,62.7422],[-82.8009,9.5994,20.4569],[-82.8035,9.5966,30.5383],[-82.8066,9.5963,21.4397],[-82.816,9.5973,25.1611],[-82.8185,9.6022,30.8189],[-82.825,9.6051,29.1504],[-82.8272,9.6112,26.039],[-82.8352,9.6119,27.4841],[-82.8396,9.6152,45.6444],[-82.8469,9.6165,33.5694],[-82.8582,9.6129,33.3383],[-82.8602,9.6098,36.9715],[-82.8635,9.5955,35.6461],[-82.8595,9.5915,44.4922],[-82.8641,9.59,37.6012],[-82.8739,9.5943,33.5],[-82.8771,9.5925,63.6175],[-82.878,9.5798,41.2149],[-82.8833,9.5718,43.4832],[-82.8851,9.5644,45.0474],[-82.8813,9.5636,43.7269],[-82.8812,9.5568,49.3752],[-82.8775,9.5533,79.0571],[-82.8712,9.5554,55.1985],[-82.8685,9.5539,53.555],[-82.8691,9.5506,47.5547],[-82.8675,9.545,71.2993],[-82.8742,9.538,62.2582],[-82.8719,9.5334,68.209],[-82.873,9.527,58.208],[-82.872,9.5236,56.6026],[-82.8648,9.5181,81.0978],[-82.8555,9.5198,72.6322],[-82.8531,9.5168,72.0707],[-82.8572,9.5128,71.588],[-82.856,9.5117,68.6897],[-82.8475,9.5142,123.788],[-82.8478,9.5086,84.1559],[-82.8425,9.5043,76.4817],[-82.8442,9.4991,99.6472],[-82.8411,9.4971,109.7553],[-82.9341,9.4751,620.204],[-82.9342,9.0787,2766.2461],[-82.9311,9.0789,2774.5461],[-82.9276,9.0744,2905.3352],[-82.9143,9.0828,3034.3579],[-82.9061,9.0821,3109.907],[-82.8928,9.089,3240.4541],[-82.8875,9.0877,3231.8477],[-82.8871,9.0798,3037.3782],[-82.8823,9.0707,3006.1489],[-82.8795,9.07,3063.4565],[-82.878,9.0607,2902.0803],[-82.8742,9.0575,2829.5947],[-82.8707,9.0574,2835.5842],[-82.8705,9.0556,2846.5879],[-82.8682,9.0544,2857.1326],[-82.8639,9.0578,2828.5693],[-82.8632,9.056,2839.9695],[-82.8586,9.0564,2917.564],[-82.8588,9.0537,2896.3315],[-82.8569,9.0533,2945.3445],[-82.8577,9.0507,2957.5986],[-82.855,9.046,2959.6528],[-82.8507,9.0464,2889.5259],[-82.8465,9.042,2804.7942],[-82.8443,9.0429,2815.5452],[-82.8446,9.0404,2818.2468],[-82.8401,9.0399,2822.9521],[-82.8356,9.0338,2912.0657],[-82.83,9.0356,2915.8452],[-82.8239,9.0334,3032.5564],[-82.8233,9.0304,3100.354],[-82.8184,9.0305,3122.2483],[-82.8138,9.0234,2935.6858],[-82.815,9.0196,2951.6228],[-82.8035,9.0142,2783.4316],[-82.8053,9.0096,2756.4229],[-82.7996,9.0034,2658.0107],[-82.7852,9.0036,2578.3062],[-82.7823,9.0054,2567.6199],[-82.7777,9.0031,2539.4231],[-82.7741,9.0037,2548.1226],[-82.7708,8.9997,2589.9111],[-82.7546,8.9945,2511.5903],[-82.7485,8.9908,2439.6733],[-82.7444,8.9857,2365.5784],[-82.7414,8.9852,2340.4941],[-82.7365,8.9764,2334.1379],[-82.742,8.9664,2254.2417],[-82.7356,8.9617,2160.415],[-82.7294,8.9597,2172.6724],[-82.727,8.9551,2105.0708],[-82.7166,8.9487,2245.8977],[-82.7122,8.9225,2406.3442],[-82.7205,8.9207,2421.8389],[-82.7252,8.9171,2350.291],[-82.7175,8.9045,2021.7614],[-82.7117,8.8997,2219.6694],[-82.7089,8.8992,2248.7854],[-82.7108,8.9065,2179.4482],[-82.7094,8.9099,2285.1621],[-82.6994,8.9195,2160.6809],[-82.6937,8.9007,2383.3474],[-82.6741,8.8899,2160.1733],[-82.6699,8.8908,2081.9004],[-82.6656,8.8941,2129.1787],[-82.6538,8.8844,2426.916],[-82.6416,8.9074,2506.46],[-82.6368,8.9076,2592.2544],[-82.6301,8.901,2657.1641],[-82.6274,8.9002,2409.4863],[-82.6156,8.9022,2355.3394],[-82.599,8.9112,2309.844],[-82.5955,8.9104,2396.907],[-82.591,8.9065,2360.1729],[-82.5837,8.9088,2640.3965],[-82.5698,8.9035,2461.1091],[-82.5648,8.8924,2258.5063],[-82.5564,8.8854,2327.0962],[-82.5536,8.8793,2240.4692],[-82.5351,8.863,2673.25],[-82.5302,8.8655,2833.3237],[-82.5159,8.8808,2379.7393],[-82.5074,8.8834,2255.4866],[-82.4884,8.8839,1948.4043],[-82.4831,8.8817,1780.6539],[-82.4706,8.8722,1812.6328],[-82.4587,8.8694,2032.561],[-82.4449,8.8576,1891.9108],[-82.4319,8.8528,1695.7104],[-82.4241,8.8522,1591.7726],[-82.4102,8.8442,1542.8389],[-82.402,8.8437,1603.4771],[-82.3847,8.8382,1694.6987],[-82.3817,8.8338,1710.3333],[-82.3781,8.8322,1839.7933],[-82.3586,8.8279,2046.6758],[-82.3563,8.8291,2091.9419],[-82.3489,8.8413,2020.0786],[-82.3502,8.8484,2018.1183],[-82.3475,8.852,1778.3062],[-82.3495,8.8615,1876.1315],[-82.3435,8.8815,1646.3838],[-82.3432,8.8901,1612.1057],[-82.3274,8.9042,1328.4028],[-82.3294,8.9167,1489.8468],[-82.337,8.9239,1263.9181],[-82.3379,8.9329,1418.8468],[-82.3416,8.938,1198.9745],[-82.3437,8.9476,970.9917],[-82.3463,8.9518,755.0339],[-82.3661,8.97,407.5909],[-82.3725,8.9728,362.7479],[-82.3843,8.9726,528.8028],[-82.398,8.9785,439.8371],[-82.4124,8.9805,598.5952],[-82.4192,8.9842,688.4237],[-82.4258,8.9847,821.8045],[-82.441,8.9929,302.8741],[-82.4455,8.9981,344.5619],[-82.4427,9.0023,356.6101],[-82.4347,9.0074,279.5555],[-82.4246,9.0087,594.2673],[-82.4156,9.0121,479.5149],[-82.4106,9.0221,403.2383],[-82.4064,9.0258,453.5291],[-82.3837,9.026,437.9503],[-82.3798,9.0287,378.6376],[-82.3795,9.0321,429.6029],[-82.3847,9.0386,468.145],[-82.3768,9.0396,405.8649],[-82.3727,9.0419,371.1804],[-82.3708,9.0473,286.6739],[-82.3652,9.0509,216.0085],[-82.365,9.0541,230.209],[-82.3569,9.065,133.105],[-82.3561,9.0705,112.9827],[-82.3485,9.0732,170.4348],[-82.3496,9.0767,137.0806],[-82.3584,9.0837,110.9939],[-82.3454,9.0924,190.7062],[-82.3437,9.1018,104.1387],[-82.3407,9.1057,131.711],[-82.342,9.1095,140.9375],[-82.341,9.1149,171.3104],[-82.3361,9.1196,315.0033],[-82.3294,9.1209,365.4571],[-82.3234,9.1241,202.3086],[-82.3171,9.1354,162.8891],[-82.3138,9.1254,121.4428],[-82.3094,9.1195,92.9388],[-82.3091,9.1122,83.0179],[-82.3069,9.1124,59.9366],[-82.3028,9.1176,30.2087],[-82.3008,9.1168,31.0132],[-82.2999,9.1143,47.0606],[-82.3051,9.099,183.7388],[-82.3098,9.099,194.6759],[-82.3113,9.1026,113.055],[-82.3205,9.0933,233.4308],[-82.3008,9.0914,164.6848],[-82.3006,9.0863,271.7127],[-82.294,9.0868,105.9449],[-82.2931,9.0791,150.874],[-82.2899,9.0778,99.0963],[-82.2867,9.079,140.8129],[-82.2833,9.0876,83.9504],[-82.2757,9.0869,14.6598],[-82.2744,9.0805,17.178],[-82.2774,9.0759,14.1054],[-82.2805,9.0745,5.5558],[-82.2778,9.0685,23.0085],[-82.2821,9.0636,3.7487],[-82.2929,9.0606,10.6621],[-82.2981,9.0572,20.1032],[-82.3033,9.05,17.528],[-82.3147,9.0457,89.1972],[-82.3143,9.0427,91.5564],[-82.3083,9.0369,100.605],[-82.3085,9.0347,98.2122],[-82.3122,9.0346,99.9327],[-82.3201,9.0385,152.5737],[-82.3244,9.0372,238.7079],[-82.3264,9.0348,326.5147],[-82.3297,9.025,224.5255],[-82.319,9.0165,48.0193],[-82.3256,9.0132,81.1419],[-82.3251,9.0087,110.6317],[-82.3101,8.9994,121.0683],[-82.3021,8.9984,129.4062],[-82.3002,8.9989,196.0662],[-82.2957,9.0062,146.4553],[-82.2857,9.0025,175.8965],[-82.2821,9.0058,103.7277],[-82.28,9.0058,83.5211],[-82.2755,8.9996,218.7751],[-82.2798,8.9941,271.654],[-82.2788,8.9915,344.1623],[-82.2736,8.9876,290.3716],[-82.271,8.9883,312.3279],[-82.2711,8.9899,299.1287],[-82.2676,8.9893,335.6375],[-82.2674,8.9867,353.9528],[-82.2706,8.9851,352.891],[-82.2729,8.9812,412.8412],[-82.272,8.9781,495.0403],[-82.2666,8.9792,489.1751],[-82.254,8.9773,451.9956],[-82.2447,8.9738,172.2608],[-82.2367,8.9748,272.2442],[-82.2274,8.9673,419.6245],[-82.2127,8.9625,192.5313],[-82.2097,8.9593,198.9599],[-82.2102,8.957,218.2272],[-82.2057,8.9539,144.0284],[-82.1945,8.9495,14.5304],[-82.1933,8.9429,16.3395],[-82.1964,8.942,41.6265],[-82.1951,8.9387,113.957],[-82.1994,8.9357,192.5481],[-82.1967,8.9305,129.17],[-82.1977,8.9163,80.7118],[-82.201,8.9144,156.8021],[-82.2091,8.9209,175.162],[-82.2148,8.9219,304.0838],[-82.2149,8.9074,185.4897],[-82.217,8.8997,87.8361],[-82.2125,8.8959,82.2058],[-82.1926,8.8946,57.482],[-82.1861,8.8803,56.8144],[-82.1855,8.8729,59.8961],[-82.1891,8.8683,64.3227],[-82.1894,8.8631,65.0485],[-82.1797,8.8477,88.3004],[-82.1762,8.848,145.9476],[-82.1675,8.8549,123.4601],[-82.1666,8.8624,68.4776],[-82.1686,8.8702,62.4267],[-82.1617,8.8782,141.1016],[-82.1583,8.8887,94.4559],[-82.1486,8.8962,333.4647],[-82.1326,8.9003,444.2785]]],
[[[-82.1632,9.1624,0.0],[-82.164,9.1637,0.0],[-82.1654,9.1626,0.0],[-82.1651,9.1582,0.0],[-82.1632,9.1576,0.3778],[-82.1632,9.1557,0.2981],[-82.1668,9.1526,0.0],[-82.1649,9.1479,18.7032],[-82.169,9.1521,0.0],[-82.1729,9.1515,0.0],[-82.1746,9.1468,2.2313],[-82.1657,9.136,1.8901],[-82.1579,9.1321,4.8345],[-82.159,9.1393,0.0],[-82.1607,9.1401,7.2606],[-82.1596,9.1424,1.6459],[-82.1571,9.1418,0.0],[-82.1529,9.1451,0.6504],[-82.1562,9.1496,0.0],[-82.1546,9.1513,0.3902],[-82.1551,9.1549,0.0871],[-82.1632,9.1624,0.0]]],
[[[-82.166,9.1568,0.1173],[-82.1682,9.1582,0.1357],[-82.1676,9.1546,0.0],[-82.1654,9.156,0.1173],[-82.166,9.1568,0.1173]]],
[[[-82.1585,9.1713,0.2385],[-82.1588,9.1729,0.5132],[-82.1607,9.1729,0.0],[-82.1596,9.1699,0.1811],[-82.1585,9.1713,0.2385]]],
[[[-82.076,8.9243,40.416],[-82.0772,8.9232,5.7847],[-82.0768,8.9151,88.909],[-82.0744,8.8993,120.7312],[-82.0626,8.9011,12.9011],[-82.053,8.8951,8.0819],[-82.0178,8.9216,8.665],[-82.0127,8.9465,17.0425],[-82.0054,8.9544,15.9471],[-82.0005,8.9571,0.0],[-82.0098,8.9579,1.328],[-82.0307,8.9457,0.9687],[-82.0532,8.9415,2.9715],[-82.0529,8.9374,0.927],[-82.0565,8.9374,0.0],[-82.0568,8.9349,4.7983],[-82.0604,8.9388,0.0],[-82.071,8.9365,0.0],[-82.0721,8.9349,0.0],[-82.0696,8.936,0.0],[-82.069,8.9335,3.4822],[-82.0729,8.9326,0.0],[-82.0729,8.9304,0.0],[-82.0702,8.9293,4.1398],[-82.0702,8.9279,0.0],[-82.0724,8.9276,0.0],[-82.0724,8.9251,24.1359],[-82.0754,8.9257,0.0],[-82.076,8.9243,40.416]]],
[[[-82.081,8.9329,0.0],[-82.0801,8.9335,0.0],[-82.0804,8.9354,0.0],[-82.0832,8.9332,0.0],[-82.081,8.9329,0.0]]],
[[[-82.0954,9.1518,0.0],[-82.0949,9.1529,0.1713],[-82.0974,9.1529,0.0],[-82.0968,9.1515,0.0],[-82.0954,9.1518,0.0]]],
[[[-82.0504,9.1807,11.4287],[-82.0512,9.1824,0.0],[-82.0537,9.181,0.0],[-82.0537,9.1685,0.2442],[-82.0568,9.1635,6.64],[-82.0563,9.1587,3.2342],[-82.0601,9.1518,0.0],[-82.0529,9.1468,0.0],[-82.0493,9.1463,11.3238],[-82.0326,9.131,3.3767],[-82.0268,9.1304,0.0],[-82.0218,9.1321,4.0351],[-82.0188,9.134,6.4851],[-82.0143,9.1424,7.1501],[-82.0118,9.1438,11.8313],[-82.0074,9.1432,0.0],[-82.0079,9.1449,3.1048],[-82.0118,9.146,0.0],[-82.0135,9.149,0.0],[-82.0193,9.1471,0.0],[-82.0221,9.1485,4.5957],[-82.0235,9.1499,1.4019],[-82.0224,9.1554,0.0],[-82.0282,9.1565,7.8058],[-82.031,9.1607,3.2388],[-82.0299,9.1688,0.0],[-82.0332,9.169,12.5823],[-82.0338,9.1704,12.5823],[-82.0385,9.1699,10.5333],[-82.046,9.1788,0.0],[-82.0504,9.1807,11.4287]]],
[[[-82.0899,9.1601,0.0],[-82.0888,9.1632,0.6886],[-82.0904,9.1626,0.6886],[-82.0913,9.1596,0.0],[-82.0882,9.1601,0.0],[-82.0893,9.1607,0.0],[-82.0899,9.1601,0.0]]],
[[[-82.1232,9.2357,0.0],[-82.1268,9.2376,0.0],[-82.1324,9.2337,1.2792],[-82.1346,9.2335,6.6706],[-82.1365,9.2354,1.7011],[-82.1387,9.2324,0.0],[-82.1413,9.2329,0.0],[-82.1429,9.2313,0.0],[-82.1415,9.2287,1.188],[-82.1449,9.229,0.0],[-82.144,9.2279,0.2466],[-82.1454,9.2257,0.0425],[-82.1479,9.2257,0.0],[-82.1493,9.2201,0.0],[-82.1465,9.2204,0.0],[-82.1462,9.2218,0.0],[-82.1451,9.2207,0.0],[-82.1443,9.2224,0.0],[-82.1435,9.219,0.1509],[-82.1454,9.219,0.0],[-82.1446,9.2176,0.1653],[-82.1462,9.2174,0.0],[-82.1462,9.2151,0.2245],[-82.1474,9.2176,0.0],[-82.1507,9.2154,0.0],[-82.1487,9.2157,0.0],[-82.1482,9.2121,0.0],[-82.1457,9.2121,0.0],[-82.1446,9.2137,0.0],[-82.1435,9.2113,1.2911],[-82.1449,9.2093,0.2127],[-82.1474,9.2104,0.0],[-82.1499,9.2076,0.0],[-82.1496,9.2051,0.4555],[-82.1557,9.2035,0.3467],[-82.1529,9.2013,0.0],[-82.1474,9.201,1.2332],[-82.1446,9.2024,0.249],[-82.144,9.2065,3.9469],[-82.1438,9.2051,0.0],[-82.1413,9.2054,1.8602],[-82.1432,9.2007,0.0998],[-82.1382,9.2015,0.0951],[-82.1338,9.1996,0.0842],[-82.1415,9.1976,0.0],[-82.1404,9.1951,0.0],[-82.1379,9.1982,0.0457],[-82.1357,9.1979,0.634],[-82.1387,9.1954,0.0],[-82.1396,9.191,2.2544],[-82.1421,9.1912,8.785],[-82.1471,9.1965,1.9223],[-82.151,9.1976,0.0],[-82.1532,9.1965,0.1077],[-82.1532,9.1938,0.0],[-82.1513,9.1951,0.3161],[-82.1515,9.1901,1.4523],[-82.1526,9.1904,0.1616],[-82.154,9.1871,1.1043],[-82.1543,9.1882,1.1043],[-82.1532,9.1918,0.0743],[-82.1557,9.1896,0.3785],[-82.1593,9.191,0.0],[-82.1588,9.1876,0.0],[-82.1568,9.1865,0.0],[-82.1579,9.1835,0.0],[-82.1554,9.1799,1.3574],[-82.1579,9.1785,0.0],[-82.1562,9.1774,0.9595],[-82.1571,9.1751,0.0],[-82.1537,9.1749,3.0545],[-82.1568,9.1726,0.0],[-82.1554,9.1715,0.222],[-82.156,9.1696,0.3507],[-82.154,9.1688,1.9049],[-82.1532,9.1629,0.0],[-82.1573,9.1615,0.4145],[-82.1554,9.1635,0.0],[-82.1571,9.1662,0.1229],[-82.1565,9.1685,0.3079],[-82.1615,9.1693,0.1276],[-82.1618,9.1682,0.1125],[-82.1576,9.1668,0.1229],[-82.1601,9.1646,0.0622],[-82.1607,9.1615,0.0],[-82.1543,9.1549,1.6477],[-82.1535,9.1479,0.0],[-82.1507,9.151,0.4772],[-82.1501,9.1504,0.386],[-82.1513,9.149,0.0761],[-82.1496,9.1485,0.0],[-82.1476,9.1521,1.8408],[-82.1432,9.154,2.4424],[-82.1429,9.1515,0.0],[-82.1379,9.1507,9.0396],[-82.139,9.146,0.0],[-82.136,9.1457,1.2037],[-82.1365,9.1474,3.031],[-82.1351,9.1479,5.5471],[-82.1307,9.1443,1.4978],[-82.1293,9.1404,0.0],[-82.1276,9.141,12.4182],[-82.119,9.1365,0.0],[-82.116,9.1413,3.4949],[-82.1121,9.1413,3.3704],[-82.1107,9.139,14.034],[-82.1137,9.1357,0.0],[-82.0982,9.129,0.0],[-82.1001,9.1332,0.0],[-82.099,9.1351,0.8465],[-82.0954,9.1349,0.9435],[-82.0965,9.1357,1.2792],[-82.0957,9.1388,0.0],[-82.0979,9.141,1.7699],[-82.0963,9.1457,0.0],[-82.0971,9.1471,0.0],[-82.1004,9.1463,0.7701],[-82.0974,9.1496,0.1583],[-82.1007,9.1532,0.0],[-82.099,9.1543,0.177],[-82.0957,9.1535,0.1713],[-82.0949,9.1576,0.2228],[-82.0924,9.1579,0.0],[-82.0921,9.1604,0.0],[-82.0937,9.161,0.0],[-82.0935,9.1596,0.1622],[-82.0974,9.1585,0.0],[-82.0974,9.1549,0.0503],[-82.1001,9.1549,0.177],[-82.1007,9.1574,0.5101],[-82.0982,9.1607,1.4603],[-82.0949,9.1618,1.1614],[-82.0943,9.1643,0.2595],[-82.0921,9.1632,0.0],[-82.0912,9.1663,0.285],[-82.0899,9.1651,0.0],[-82.0899,9.1674,0.0931],[-82.094,9.1674,0.0],[-82.0929,9.1693,0.65],[-82.0907,9.1696,0.0461],[-82.091,9.1726,3.4344],[-82.0885,9.1679,0.0],[-82.0876,9.1704,0.2246],[-82.0835,9.1721,0.898],[-82.0821,9.1746,1.4071],[-82.0718,9.1738,0.0],[-82.0721,9.1774,3.9246],[-82.0874,9.1804,0.3335],[-82.0896,9.1788,0.0],[-82.0974,9.1788,0.0912],[-82.0996,9.1768,3.7001],[-82.0999,9.1782,0.0495],[-82.0957,9.1824,0.0],[-82.0996,9.1838,0.0761],[-82.101,9.1829,0.0559],[-82.1004,9.1804,0.3774],[-82.1032,9.181,1.7384],[-82.1029,9.1826,0.0559],[-82.1085,9.1812,0.3659],[-82.1071,9.1843,0.2654],[-82.1099,9.1865,1.8914],[-82.1124,9.186,9.4444],[-82.1118,9.1871,1.1586],[-82.1101,9.1874,0.1435],[-82.111,9.1887,0.1435],[-82.1076,9.1887,0.0929],[-82.1046,9.1865,0.0],[-82.1024,9.1893,0.0],[-82.1096,9.1899,0.2455],[-82.1115,9.1918,0.0],[-82.1132,9.189,0.0683],[-82.1149,9.1904,0.8638],[-82.1151,9.1951,0.0],[-82.1087,9.1949,2.6173],[-82.1038,9.1912,0.0],[-82.1024,9.1918,0.0],[-82.1029,9.1932,0.1021],[-82.0982,9.1935,0.0],[-82.0979,9.1962,0.4944],[-82.1029,9.2015,0.0],[-82.1035,9.2051,2.9658],[-82.1079,9.2104,1.1207],[-82.106,9.2162,0.84],[-82.1071,9.2218,5.3992],[-82.1104,9.2235,1.4297],[-82.1137,9.229,4.324],[-82.1185,9.2315,1.8489],[-82.1226,9.2276,1.3163],[-82.1274,9.2274,0.0],[-82.1279,9.2293,2.1557],[-82.1221,9.229,5.7301],[-82.1176,9.2329,0.0],[-82.1201,9.2338,0.0],[-82.1224,9.2321,2.955],[-82.1232,9.2357,0.0]]],
[[[-82.091,9.186,0.4976],[-82.0921,9.1879,0.0],[-82.0935,9.1874,0.3721],[-82.0924,9.1849,0.2536],[-82.0901,9.1843,0.2534],[-82.091,9.186,0.4976]]],
[[[-82.0976,9.1871,0.5364],[-82.0963,9.1882,0.0],[-82.0987,9.1885,0.5364],[-82.1001,9.1851,0.0761],[-82.0979,9.1843,0.1902],[-82.0976,9.1871,0.5364]]],
[[[-82.0888,9.1865,0.516],[-82.0896,9.1882,0.3594],[-82.091,9.1879,0.0],[-82.0882,9.1851,0.0],[-82.0888,9.1865,0.516]]],
[[[-81.9179,9.211,0.0],[-81.9157,9.211,0.0],[-81.916,9.2124,0.0],[-81.9201,9.2118,0.0],[-81.9179,9.211,0.0]]],
[[[-81.9238,9.2135,0.0],[-81.9271,9.214,0.0],[-81.926,9.2124,2.2642],[-81.9218,9.2124,0.0],[-81.9238,9.2135,0.0]]],
[[[-82.189,9.1479,0.0],[-82.1879,9.1474,0.0],[-82.1876,9.149,0.1603],[-82.1904,9.1485,0.1045],[-82.189,9.1479,0.0]]],
[[[-82.1743,9.1832,0.0],[-82.1718,9.1826,0.0],[-82.1718,9.1843,0.0],[-82.174,9.1846,0.0],[-82.1743,9.1832,0.0]]],
[[[-82.1749,9.219,0.0],[-82.1749,9.221,0.0],[-82.1776,9.2218,0.0],[-82.1765,9.2201,0.2345],[-82.1793,9.2188,0.0],[-82.1771,9.2176,0.1746],[-82.1749,9.219,0.0]]],
[[[-82.1679,9.1849,0.0],[-82.1701,9.1862,0.0],[-82.1715,9.184,0.0],[-82.1699,9.1832,0.0],[-82.1679,9.1849,0.0]]],
[[[-82.1685,9.1896,0.0],[-82.1685,9.1912,0.0],[-82.171,9.1912,0.0],[-82.1732,9.1868,0.0],[-82.169,9.1882,0.111],[-82.1668,9.1835,0.0],[-82.1637,9.1837,0.0],[-82.1632,9.1857,0.1289],[-82.1654,9.1857,0.252],[-82.1685,9.1896,0.0]]],
[[[-82.1621,9.209,0.0],[-82.1635,9.2113,0.2003],[-82.1635,9.2063,0.0],[-82.1615,9.2062,0.0],[-82.1621,9.209,0.0]]],
[[[-82.1693,9.2196,0.7001],[-82.1687,9.2215,0.0],[-82.1704,9.2218,0.6139],[-82.174,9.2162,0.0],[-82.1701,9.2154,0.0],[-82.1682,9.2182,0.0],[-82.1693,9.2196,0.7001]]],
[[[-82.1829,9.2218,0.0825],[-82.1837,9.224,0.0],[-82.1896,9.2235,0.2555],[-82.1937,9.2201,0.0],[-82.1907,9.2221,0.2555],[-82.1907,9.2207,0.065],[-82.1862,9.2188,0.0708],[-82.1865,9.2224,1.0652],[-82.1846,9.2221,0.7037],[-82.1849,9.2207,0.0],[-82.1829,9.2218,0.0825]]],
[[[-82.1799,9.2207,0.0],[-82.1807,9.2235,0.0],[-82.1818,9.2196,0.0],[-82.1793,9.2199,0.0],[-82.1799,9.2207,0.0]]],
[[[-82.1743,9.2357,0.5589],[-82.1768,9.2371,0.0],[-82.1757,9.2349,0.0],[-82.1771,9.2335,0.0],[-82.1729,9.2349,0.4967],[-82.1743,9.2357,0.5589]]],
[[[-82.1857,9.2607,0.9833],[-82.1868,9.2618,0.9833],[-82.1846,9.2565,0.0],[-82.1826,9.2557,0.7158],[-82.184,9.259,1.4517],[-82.181,9.2588,0.0],[-82.1832,9.2612,0.2918],[-82.1857,9.2607,0.9833]]],
[[[-82.191,9.259,0.2193],[-82.1907,9.2615,0.0],[-82.1913,9.2621,0.0],[-82.1929,9.2593,0.279],[-82.191,9.259,0.2193]]],
[[[-82.1899,9.2632,0.0],[-82.191,9.2654,0.0],[-82.1921,9.2649,0.0],[-82.1915,9.2632,0.0],[-82.1899,9.2632,0.0]]],
[[[-82.1749,9.2657,0.6033],[-82.1749,9.2671,0.0],[-82.1774,9.2662,0.0977],[-82.1768,9.2638,0.8583],[-82.1801,9.2621,0.4925],[-82.1771,9.2621,0.9214],[-82.1749,9.2657,0.6033]]],
[[[-82.1787,9.2674,0.0],[-82.1782,9.2685,0.0],[-82.1799,9.2679,0.0798],[-82.1801,9.266,0.1346],[-82.1799,9.2654,0.0],[-82.1787,9.266,0.0977],[-82.1799,9.2671,0.0798],[-82.1787,9.2674,0.0]]],
[[[-82.1588,9.2293,0.2232],[-82.161,9.2301,0.0],[-82.1604,9.2232,0.0],[-82.1574,9.2243,0.3344],[-82.1588,9.2293,0.2232]]],
[[[-82.1687,9.2401,0.0],[-82.1679,9.2424,0.0],[-82.1729,9.2415,0.0],[-82.1721,9.2399,0.0],[-82.1687,9.2401,0.0]]],
[[[-82.1501,9.2429,0.0],[-82.1579,9.2437,0.2247],[-82.1596,9.2401,0.2507],[-82.1535,9.239,1.6026],[-82.151,9.2401,0.4687],[-82.1501,9.2429,0.0]]],
[[[-82.1615,9.2451,0.2758],[-82.1657,9.2463,0.0],[-82.1671,9.2443,0.0],[-82.166,9.2429,0.0],[-82.1612,9.2435,0.0],[-82.1615,9.2451,0.2758]]],
[[[-82.1518,9.2196,0.0803],[-82.1543,9.2204,0.2356],[-82.1526,9.2171,0.0786],[-82.1507,9.2165,0.0],[-82.1501,9.2182,0.0],[-82.1518,9.2196,0.0803]]],
[[[-82.1371,9.2429,0.0],[-82.1368,9.2454,0.0],[-82.1401,9.244,0.0],[-82.1387,9.2426,0.5336],[-82.1371,9.2429,0.0]]],
[[[-82.0368,9.2551,5.5663],[-82.0407,9.2563,1.3496],[-82.0415,9.2549,0.0],[-82.0362,9.2518,0.0],[-82.0329,9.2524,0.0],[-82.0343,9.2543,2.12],[-82.0368,9.2551,5.5663]]],
[[[-82.0552,9.266,1.8405],[-82.0565,9.2674,0.0],[-82.0585,9.2668,4.1531],[-82.0543,9.264,5.1067],[-82.051,9.2638,2.1051],[-82.0512,9.2646,2.1051],[-82.0552,9.266,1.8405]]],
[[[-82.1318,9.2668,0.0],[-82.1324,9.2685,0.2957],[-82.1346,9.2682,0.1948],[-82.1335,9.2662,0.0],[-82.1318,9.2668,0.0]]],
[[[-82.1296,9.2701,0.0],[-82.1321,9.2712,0.0],[-82.1332,9.269,0.2311],[-82.1299,9.269,0.3777],[-82.1296,9.2701,0.0]]],
[[[-82.1988,9.3576,0.0],[-82.1993,9.3615,0.0],[-82.2038,9.3601,0.7207],[-82.2085,9.3568,0.0],[-82.2146,9.3474,0.53],[-82.2085,9.3476,0.8489],[-82.2065,9.3446,0.0],[-82.2087,9.3418,0.0],[-82.2065,9.339,3.5759],[-82.1996,9.3385,3.3258],[-82.1949,9.3351,0.0],[-82.1926,9.3365,0.6018],[-82.1899,9.3351,0.0],[-82.1893,9.3371,3.7211],[-82.1876,9.3371,3.7211],[-82.1865,9.334,0.0],[-82.1885,9.3335,0.0],[-82.1851,9.3301,0.0],[-82.1824,9.3296,0.0],[-82.1854,9.334,0.0],[-82.1826,9.3396,2.8849],[-82.1815,9.3399,2.8849],[-82.1813,9.3379,0.0],[-82.1832,9.3365,0.5665],[-82.1826,9.3346,0.0],[-82.1813,9.3368,0.1767],[-82.1793,9.3351,0.0],[-82.1787,9.3374,1.5445],[-82.1771,9.3374,1.5445],[-82.176,9.3351,0.1561],[-82.1804,9.3332,0.0],[-82.1743,9.3338,5.6213],[-82.1765,9.3304,0.0],[-82.1732,9.3315,0.0],[-82.1735,9.3288,0.0],[-82.1721,9.3279,0.0],[-82.1704,9.3296,13.7901],[-82.1687,9.3257,0.5087],[-82.1729,9.3232,0.0],[-82.1643,9.3237,5.7867],[-82.1632,9.3212,0.0],[-82.1663,9.3221,0.0],[-82.1674,9.3193,0.0],[-82.1635,9.3201,0.1578],[-82.164,9.3176,0.0],[-82.1626,9.3179,0.0],[-82.1624,9.3193,0.0558],[-82.1582,9.3179,2.244],[-82.1607,9.3146,0.1714],[-82.1635,9.3137,0.0],[-82.1618,9.3126,0.0],[-82.1571,9.3157,0.6068],[-82.1573,9.3137,0.0],[-82.151,9.3093,0.8152],[-82.1562,9.3063,1.4202],[-82.1612,9.3068,22.8585],[-82.1704,9.3118,6.6829],[-82.1726,9.3104,8.5379],[-82.1724,9.309,8.5379],[-82.1682,9.3054,2.9885],[-82.1723,9.3068,0.0],[-82.1746,9.3049,0.7254],[-82.1732,9.3074,1.1092],[-82.1754,9.3087,1.0456],[-82.1774,9.3076,0.5733],[-82.1754,9.3115,0.0],[-82.1782,9.3113,2.1806],[-82.1774,9.3143,0.0],[-82.1815,9.3154,25.2061],[-82.184,9.3188,0.0],[-82.1876,9.3182,1.7464],[-82.1871,9.3196,0.0],[-82.1851,9.319,0.0],[-82.1857,9.3204,0.0],[-82.1915,9.3199,27.4723],[-82.1971,9.3218,13.1581],[-82.1974,9.3232,0.0],[-82.2021,9.324,4.1734],[-82.2193,9.3343,0.0],[-82.2207,9.3335,0.0],[-82.2204,9.3285,0.0],[-82.2154,9.3226,0.0],[-82.2132,9.3226,6.943],[-82.2107,9.319,1.3897],[-82.211,9.3165,0.0],[-82.2068,9.3182,1.6143],[-82.2063,9.3154,0.0],[-82.2029,9.316,2.3905],[-82.2032,9.314,0.2233],[-82.2079,9.3151,0.0],[-82.2068,9.3126,0.2812],[-82.2107,9.3118,0.0],[-82.211,9.3104,0.0],[-82.2076,9.3107,1.6719],[-82.2068,9.3085,0.0],[-82.2035,9.3126,0.2873],[-82.2024,9.3099,0.0],[-82.2004,9.3096,0.1325],[-82.2001,9.3065,0.0],[-82.1968,9.3074,0.0],[-82.1976,9.3046,0.0],[-82.1926,9.2982,0.0869],[-82.191,9.299,0.0785],[-82.1882,9.2968,0.0859],[-82.1899,9.3004,0.0785],[-82.194,9.3018,0.0],[-82.1935,9.3043,0.1305],[-82.1904,9.3024,0.0],[-82.1899,9.3029,0.0],[-82.1913,9.3049,0.1158],[-82.1851,9.3029,0.0557],[-82.1837,9.3043,0.0546],[-82.1854,9.3063,1.1137],[-82.184,9.3063,1.1108],[-82.1815,9.3026,0.1708],[-82.1765,9.3013,2.2209],[-82.1751,9.2987,0.0],[-82.1704,9.2982,0.0],[-82.1704,9.3007,1.9196],[-82.169,9.3007,1.9196],[-82.1657,9.2974,0.0657],[-82.1582,9.2979,7.2103],[-82.159,9.2901,0.0],[-82.1573,9.289,3.9708],[-82.1565,9.2832,0.0],[-82.1535,9.284,7.1949],[-82.1546,9.2801,0.0],[-82.1535,9.2818,0.0],[-82.1499,9.2821,4.2777],[-82.1526,9.2771,0.0],[-82.1554,9.2768,0.0],[-82.1546,9.2751,0.0],[-82.1526,9.2751,0.0],[-82.1507,9.2768,0.0],[-82.1499,9.2746,2.3689],[-82.1513,9.2712,2.8759],[-82.1529,9.2715,0.0],[-82.1521,9.2729,0.0],[-82.1537,9.2726,0.0],[-82.1526,9.2704,2.0319],[-82.1543,9.2682,9.4231],[-82.1571,9.2676,0.0],[-82.1554,9.2638,9.9072],[-82.1599,9.2596,0.1815],[-82.1521,9.2543,9.7786],[-82.1479,9.2476,0.373],[-82.1415,9.246,1.2754],[-82.1371,9.2496,0.0],[-82.1368,9.2515,0.0],[-82.1393,9.2543,0.0],[-82.1435,9.254,0.0712],[-82.1429,9.256,0.0],[-82.1457,9.2571,0.0],[-82.1454,9.2626,0.0],[-82.1426,9.2621,0.6839],[-82.1421,9.2638,1.4923],[-82.1379,9.2651,0.0],[-82.1385,9.2685,0.9976],[-82.1415,9.2693,0.9878],[-82.1385,9.2701,0.0],[-82.1363,9.2679,0.0],[-82.1312,9.2729,0.0768],[-82.1296,9.2776,0.0],[-82.1226,9.279,0.2593],[-82.1162,9.2863,0.6347],[-82.1107,9.289,0.6206],[-82.1068,9.2882,0.0],[-82.0996,9.2924,2.7693],[-82.0924,9.2926,10.6323],[-82.0807,9.2904,0.0],[-82.0821,9.2951,0.0],[-82.0857,9.2982,9.4248],[-82.0888,9.304,9.2995],[-82.0893,9.3079,5.0618],[-82.1071,9.3174,4.9381],[-82.1096,9.3201,5.297],[-82.1149,9.3201,9.6972],[-82.1157,9.3182,11.1496],[-82.1204,9.316,8.4568],[-82.1307,9.321,4.9315],[-82.1374,9.3274,0.0],[-82.1385,9.3307,0.0],[-82.141,9.3315,5.94],[-82.1435,9.3357,0.0],[-82.1446,9.3421,0.0],[-82.1499,9.3443,0.0],[-82.1535,9.3432,8.2424],[-82.1562,9.3462,0.0],[-82.1635,9.3482,4.0176],[-82.1637,9.3496,0.0],[-82.1663,9.3465,5.9326],[-82.1723,9.3438,1.4363],[-82.1785,9.344,0.0],[-82.184,9.3468,4.2179],[-82.1857,9.3499,4.0504],[-82.1899,9.3482,12.8131],[-82.1951,9.3496,1.9064],[-82.2001,9.3538,10.8146],[-82.1988,9.3576,0.0]]],
[[[-82.1593,9.2612,0.2756],[-82.1621,9.2626,0.0],[-82.166,9.2621,0.0],[-82.1635,9.2601,0.0],[-82.1593,9.2612,0.2756]]],
[[[-82.1679,9.261,0.2567],[-82.1682,9.2626,0.0],[-82.1704,9.2615,0.5339],[-82.1699,9.2604,0.0],[-82.1679,9.261,0.2567]]],
[[[-82.1582,9.2643,0.1216],[-82.1582,9.2657,0.0],[-82.1612,9.2649,0.0],[-82.1599,9.264,0.3159],[-82.1582,9.2643,0.1216]]],
[[[-82.1643,9.2701,0.1916],[-82.1665,9.2707,0.0],[-82.1668,9.2696,0.0],[-82.1654,9.2682,0.0],[-82.1621,9.2685,0.0],[-82.1629,9.2701,0.1916],[-82.1643,9.2701,0.1916]]],
[[[-82.1704,9.2746,0.0],[-82.1699,9.2774,0.0],[-82.1718,9.2774,0.0],[-82.1732,9.2754,0.0],[-82.1721,9.274,0.0],[-82.1704,9.2746,0.0]]],
[[[-82.1726,9.2796,0.0],[-82.1718,9.2782,0.0],[-82.1718,9.2815,0.0],[-82.1726,9.2815,0.0],[-82.1726,9.2796,0.0]]],
[[[-82.1804,9.2882,0.0],[-82.1824,9.2879,0.0],[-82.1799,9.2862,0.0],[-82.1804,9.2871,0.0],[-82.1801,9.2882,0.0],[-82.1804,9.2882,0.0]]],
[[[-82.1918,9.2887,0.0],[-82.1937,9.291,0.276],[-82.1935,9.2885,0.3308],[-82.1954,9.2882,0.3308],[-82.1937,9.2868,0.0],[-82.1926,9.2882,0.0],[-82.191,9.2876,0.0],[-82.1918,9.2887,0.0]]],
[[[-82.1762,9.2996,0.0],[-82.1796,9.3007,0.0],[-82.1787,9.2993,0.0644],[-82.1815,9.299,0.0],[-82.1829,9.2962,0.0],[-82.1774,9.2951,0.0],[-82.1765,9.2976,0.0],[-82.1743,9.2954,0.0],[-82.1762,9.2996,0.0]]],
[[[-82.1871,9.3007,0.1555],[-82.1879,9.3018,0.0],[-82.189,9.3018,0.0],[-82.1862,9.2987,0.0],[-82.1871,9.3007,0.1555]]],
[[[-82.1804,9.3006,0.0],[-82.1821,9.3029,0.1708],[-82.184,9.3029,0.0557],[-82.1824,9.2996,0.0],[-82.1804,9.3006,0.0]]],
[[[-82.1571,9.2732,1.5067],[-82.1601,9.274,0.5239],[-82.1618,9.2729,2.1858],[-82.1604,9.2704,0.0],[-82.1568,9.2699,0.0],[-82.1557,9.2712,0.0],[-82.1571,9.2732,1.5067]]],
[[[-82.159,9.2754,0.5239],[-82.1573,9.2751,0.0],[-82.1573,9.2768,0.1201],[-82.1607,9.2763,0.0],[-82.1607,9.2749,0.0],[-82.159,9.2754,0.5239]]],
[[[-82.1674,9.3499,1.0302],[-82.1696,9.351,0.0],[-82.1682,9.3493,1.0302],[-82.1663,9.3493,0.0],[-82.1674,9.3499,1.0302]]],
[[[-82.204,9.1565,0.0],[-82.2049,9.1587,0.2524],[-82.2057,9.1587,0.2524],[-82.2051,9.1563,0.0],[-82.204,9.1565,0.0]]],
[[[-82.2051,9.1643,0.0],[-82.2074,9.1654,0.1172],[-82.209,9.1624,0.6478],[-82.2121,9.1621,0.0],[-82.2135,9.1585,0.0],[-82.2074,9.161,2.5522],[-82.2065,9.1585,0.0],[-82.204,9.1635,0.7624],[-82.2051,9.1643,0.0]]],
[[[-82.2471,9.1618,1.8573],[-82.2462,9.1635,0.0],[-82.2524,9.1612,0.0],[-82.2493,9.1607,11.4948],[-82.2471,9.1618,1.8573]]],
[[[-82.2718,9.1915,0.1869],[-82.2712,9.1932,0.1735],[-82.274,9.1921,0.0],[-82.2737,9.191,0.1869],[-82.2718,9.1915,0.1869]]],
[[[-82.2412,9.2146,0.167],[-82.2412,9.2168,0.4536],[-82.2435,9.2168,0.0],[-82.2435,9.2146,0.0],[-82.2412,9.2146,0.167]]],
[[[-82.2054,9.2224,0.0],[-82.2065,9.2232,0.5467],[-82.2085,9.2235,0.4424],[-82.2074,9.2215,0.0],[-82.2054,9.2224,0.0]]],
[[[-82.2254,9.2282,0.0],[-82.2246,9.231,0.0],[-82.2254,9.231,0.0],[-82.226,9.2285,0.0],[-82.2254,9.2282,0.0]]],
[[[-82.2715,9.1985,0.0],[-82.2724,9.2001,0.3452],[-82.2746,9.1999,0.078],[-82.2735,9.1985,0.0],[-82.2715,9.1985,0.0]]],
[[[-82.2546,9.206,0.0],[-82.2543,9.2071,0.0],[-82.2571,9.2068,0.0],[-82.2557,9.2054,0.0],[-82.2546,9.206,0.0]]],
[[[-82.2543,9.2093,0.0],[-82.2535,9.2104,0.0],[-82.2554,9.2115,0.0],[-82.2554,9.2093,0.0],[-82.2543,9.2093,0.0]]],
[[[-82.3229,9.2199,0.0],[-82.324,9.2218,4.9639],[-82.3262,9.221,0.0],[-82.3246,9.2201,3.1852],[-82.3249,9.2149,2.4628],[-82.321,9.2124,0.0],[-82.3224,9.2146,0.0],[-82.3229,9.2199,0.0]]],
[[[-82.2196,9.2315,0.5488],[-82.2207,9.2335,0.2959],[-82.2221,9.2332,0.2959],[-82.2207,9.2285,0.0],[-82.2193,9.2285,0.0],[-82.2196,9.2315,0.5488]]],
[[[-82.2254,9.2335,0.0],[-82.2257,9.2357,0.0],[-82.2276,9.2354,0.0],[-82.2262,9.2332,0.0],[-82.2254,9.2335,0.0]]],
[[[-82.2221,9.2418,0.0],[-82.2224,9.2437,0.2247],[-82.2251,9.2437,0.3496],[-82.2251,9.2379,0.3848],[-82.2218,9.2349,0.0],[-82.219,9.2365,0.1693],[-82.2182,9.2349,0.0],[-82.2179,9.2374,0.1748],[-82.221,9.239,0.2916],[-82.2201,9.2407,0.0],[-82.2232,9.2404,0.625],[-82.2221,9.2418,0.0]]],
[[[-82.2265,9.2415,0.4547],[-82.2299,9.2418,0.3379],[-82.2304,9.239,0.7187],[-82.2288,9.2371,0.153],[-82.2268,9.2376,0.6341],[-82.2265,9.2415,0.4547]]],
[[[-82.2335,9.2504,0.1025],[-82.2332,9.2524,0.0],[-82.2346,9.2529,0.0],[-82.2365,9.2526,0.2984],[-82.2368,9.2501,0.3746],[-82.2393,9.251,0.3785],[-82.239,9.2465,0.0],[-82.2363,9.2429,0.215],[-82.2387,9.2407,0.0],[-82.2351,9.2399,0.0],[-82.2376,9.2388,0.0],[-82.2374,9.2365,0.0],[-82.2312,9.239,0.3501],[-82.2315,9.2424,0.0],[-82.2349,9.2424,0.215],[-82.2346,9.2446,0.0],[-82.2363,9.2463,0.2518],[-82.2335,9.2504,0.1025]]],
[[[-82.2301,9.2482,0.3404],[-82.2326,9.2496,0.1025],[-82.2343,9.2468,0.1371],[-82.2326,9.2474,0.5041],[-82.2324,9.2451,0.0],[-82.2279,9.2463,0.2639],[-82.2301,9.2482,0.3404]]],
[[[-82.2221,9.2488,0.0],[-82.2235,9.2501,0.6706],[-82.2254,9.2482,0.0],[-82.2249,9.2479,0.0],[-82.2221,9.2488,0.0]]],
[[[-82.2471,9.2782,0.0],[-82.2499,9.279,0.0],[-82.2487,9.2757,0.0],[-82.2468,9.276,0.0],[-82.2471,9.2782,0.0]]],
[[[-82.3449,9.2432,3.9209],[-82.3509,9.2432,0.0],[-82.3521,9.2415,0.0],[-82.3512,9.2382,0.0],[-82.3401,9.2321,1.4281],[-82.3326,9.2326,2.6686],[-82.3265,9.224,2.2107],[-82.3249,9.2237,0.0],[-82.3279,9.2304,1.5424],[-82.3287,9.2377,0.0],[-82.339,9.239,6.647],[-82.3426,9.2429,0.0],[-82.3449,9.2432,3.9209]]],
[[[-82.289,9.2968,5.8161],[-82.2913,9.2979,0.7041],[-82.2929,9.2962,0.2278],[-82.2924,9.291,1.5361],[-82.2946,9.2874,3.7556],[-82.2935,9.2849,2.699],[-82.2965,9.2826,0.0],[-82.2943,9.2779,1.7416],[-82.2962,9.2707,4.1062],[-82.2926,9.2707,4.413],[-82.2918,9.269,9.5758],[-82.2957,9.2676,0.0],[-82.2965,9.2618,0.0],[-82.2993,9.2582,0.0],[-82.2951,9.256,5.7769],[-82.2968,9.2538,0.0],[-82.294,9.2485,0.0],[-82.2868,9.2476,1.1896],[-82.2857,9.246,1.3037],[-82.2826,9.2471,4.0017],[-82.2812,9.2454,3.3814],[-82.286,9.2429,0.6725],[-82.2896,9.2457,0.0],[-82.2935,9.2454,0.5512],[-82.2954,9.2382,0.954],[-82.2904,9.2343,0.2905],[-82.2857,9.236,2.5405],[-82.2887,9.2321,0.0],[-82.281,9.2271,1.4538],[-82.2846,9.2246,0.0],[-82.2804,9.2193,0.0],[-82.2774,9.2196,1.45],[-82.2674,9.2124,0.6326],[-82.2601,9.2151,0.0],[-82.2554,9.2137,0.0],[-82.2526,9.2168,0.0],[-82.2526,9.2213,0.0],[-82.2551,9.2226,0.0],[-82.2557,9.2251,2.9758],[-82.2596,9.2257,0.14],[-82.2596,9.2324,0.0],[-82.2629,9.231,0.2044],[-82.2651,9.2338,0.5586],[-82.2688,9.2338,0.3182],[-82.2679,9.2351,0.3182],[-82.261,9.2346,0.0],[-82.2574,9.2415,2.9591],[-82.2546,9.244,4.5268],[-82.2529,9.2424,0.1517],[-82.2521,9.2451,0.9843],[-82.2487,9.2412,0.0],[-82.2446,9.2457,0.5424],[-82.2426,9.2443,0.2962],[-82.2446,9.2437,0.0],[-82.2435,9.2407,0.0],[-82.2426,9.2421,0.1239],[-82.2407,9.2415,0.0],[-82.2418,9.2437,0.1239],[-82.2387,9.2424,0.0],[-82.2404,9.2451,0.1599],[-82.2404,9.251,0.3785],[-82.2371,9.2532,0.5166],[-82.2399,9.2543,0.5429],[-82.236,9.2554,0.3886],[-82.2387,9.256,0.2607],[-82.2399,9.2585,0.1464],[-82.2426,9.2565,1.19],[-82.2412,9.2624,0.0],[-82.2446,9.2671,0.0],[-82.2435,9.2696,0.0],[-82.2449,9.2699,0.0],[-82.2457,9.2679,0.0],[-82.244,9.2649,0.0],[-82.2438,9.2626,0.9516],[-82.2449,9.2626,0.9516],[-82.2471,9.2657,3.7164],[-82.2471,9.2688,0.527],[-82.2493,9.2693,1.8415],[-82.2485,9.2735,0.0],[-82.2513,9.2771,0.7003],[-82.256,9.2785,2.3568],[-82.2562,9.2807,0.0],[-82.2588,9.2826,0.0],[-82.2579,9.2882,0.0],[-82.2621,9.2951,0.3828],[-82.2696,9.2946,0.0],[-82.2715,9.2901,0.0],[-82.2693,9.2863,31.9563],[-82.2743,9.2857,1.1193],[-82.276,9.2893,0.0],[-82.2812,9.2896,0.6267],[-82.2821,9.2857,0.4514],[-82.2849,9.2871,0.0],[-82.284,9.2824,5.4159],[-82.2862,9.281,5.8481],[-82.2868,9.2851,0.67],[-82.2901,9.2843,0.1505],[-82.2887,9.2868,0.491],[-82.2896,9.2893,0.9695],[-82.2874,9.2887,0.0],[-82.2851,9.2904,0.0],[-82.2862,9.2949,3.7953],[-82.289,9.2968,5.8161]]],
[[[-82.3524,9.2727,0.5366],[-82.3532,9.2749,0.0],[-82.3543,9.2721,0.0],[-82.3526,9.2715,0.0],[-82.3524,9.2727,0.5366]]],
[[[-82.3768,9.2785,0.0],[-82.3768,9.281,0.4817],[-82.3779,9.281,0.4817],[-82.3782,9.2804,0.6588],[-82.3757,9.2749,0.0],[-82.3735,9.2743,0.0],[-82.3735,9.2765,0.0],[-82.3768,9.2785,0.0]]],
[[[-82.3446,9.292,0.0],[-82.3451,9.2935,0.0],[-82.3465,9.2935,0.0],[-82.3437,9.2901,0.0],[-82.3446,9.292,0.0]]],
[[[-82.3518,9.2913,0.0],[-82.3512,9.2926,0.0],[-82.3543,9.2924,0.0],[-82.3535,9.2915,0.0],[-82.3518,9.2913,0.0]]],
[[[-82.1999,9.2971,0.0],[-82.2012,9.2979,0.0],[-82.2024,9.2962,0.0],[-82.2015,9.2943,0.1923],[-82.1946,9.291,0.276],[-82.196,9.2929,0.1041],[-82.1943,9.2943,0.3194],[-82.1979,9.2937,0.3527],[-82.1976,9.2954,0.095],[-82.1999,9.2971,0.0]]],
[[[-82.1949,9.299,0.0639],[-82.1963,9.3007,0.0],[-82.196,9.2976,0.2435],[-82.1912,9.2937,0.0],[-82.1918,9.2968,0.2212],[-82.1949,9.299,0.0639]]],
[[[-82.2271,9.356,0.0],[-82.2282,9.3571,0.0],[-82.2276,9.3551,4.2807],[-82.231,9.3532,2.7004],[-82.2357,9.3407,0.0],[-82.2379,9.3399,0.0],[-82.2371,9.3382,0.0],[-82.231,9.3401,0.0],[-82.2282,9.351,6.13],[-82.2249,9.3529,0.0],[-82.2271,9.356,0.0]]],
[[[-82.2737,9.4407,0.0],[-82.2757,9.4415,0.0],[-82.2763,9.4385,19.9612],[-82.2793,9.4382,16.032],[-82.2835,9.441,0.0],[-82.2871,9.441,0.0],[-82.2896,9.4382,16.2099],[-82.2943,9.4371,0.0],[-82.2965,9.434,0.0],[-82.3049,9.4315,0.0],[-82.3087,9.4282,3.3737],[-82.3238,9.4285,0.0],[-82.3243,9.4268,0.0],[-82.3215,9.4218,8.2486],[-82.3223,9.4185,14.0831],[-82.3251,9.4165,3.2534],[-82.3307,9.416,0.8373],[-82.3321,9.4129,0.0],[-82.3299,9.411,4.4101],[-82.3288,9.4049,3.9853],[-82.3243,9.4051,0.0],[-82.321,9.401,0.417],[-82.3165,9.4029,0.9789],[-82.3154,9.3974,0.0],[-82.314,9.3979,0.0],[-82.314,9.4012,0.8766],[-82.3104,9.3999,1.8041],[-82.3118,9.3968,0.2329],[-82.3099,9.3954,1.9444],[-82.311,9.3929,0.284],[-82.3049,9.3876,0.1895],[-82.3046,9.3851,0.0],[-82.3018,9.3851,1.3061],[-82.3035,9.3815,1.0827],[-82.3015,9.3807,1.6569],[-82.3029,9.3776,0.3171],[-82.2962,9.3799,0.5421],[-82.299,9.3754,0.0],[-82.2968,9.376,1.4604],[-82.2968,9.3737,0.0],[-82.291,9.3729,0.1704],[-82.2865,9.3704,0.0],[-82.2837,9.3635,0.0],[-82.2787,9.3665,0.2633],[-82.2782,9.371,3.3468],[-82.2757,9.3721,5.5876],[-82.276,9.3685,0.0],[-82.2724,9.3676,0.4417],[-82.2721,9.366,0.0],[-82.2757,9.3651,0.0834],[-82.2754,9.3624,0.2425],[-82.2785,9.3615,0.0],[-82.2768,9.3601,0.0],[-82.2718,9.3638,0.2926],[-82.274,9.3596,0.0],[-82.2704,9.3582,0.0],[-82.2624,9.3496,0.2849],[-82.2618,9.3499,0.2849],[-82.2624,9.3521,0.1064],[-82.2635,9.3538,0.4731],[-82.2613,9.3557,1.3859],[-82.2637,9.3585,9.8837],[-82.2596,9.3565,1.3859],[-82.2585,9.354,4.2804],[-82.2601,9.3526,0.4107],[-82.2582,9.3526,4.2504],[-82.2565,9.3501,1.6032],[-82.2582,9.3474,0.1232],[-82.2549,9.3476,2.876],[-82.2518,9.3438,0.0],[-82.2535,9.341,0.7028],[-82.2585,9.3421,0.0],[-82.2585,9.3385,0.3441],[-82.2543,9.3354,0.0],[-82.2518,9.3299,0.0],[-82.2504,9.3329,1.7312],[-82.2462,9.3346,0.0],[-82.2479,9.339,0.929],[-82.2404,9.3349,0.0],[-82.2385,9.3399,0.0],[-82.2415,9.3435,1.1684],[-82.2499,9.344,0.9379],[-82.2543,9.3485,2.876],[-82.2554,9.3526,4.1662],[-82.2538,9.3565,6.8487],[-82.249,9.3579,0.0],[-82.2476,9.3615,1.0872],[-82.241,9.3604,0.0],[-82.2376,9.3638,0.7644],[-82.2376,9.3674,0.0],[-82.2396,9.3685,2.9719],[-82.2396,9.3713,2.2898],[-82.2379,9.3726,0.0],[-82.2393,9.3774,3.7659],[-82.2343,9.3838,0.0],[-82.236,9.3882,6.8081],[-82.2351,9.3904,7.6516],[-82.2385,9.3913,2.211],[-82.244,9.3968,9.3974],[-82.2454,9.4018,2.2788],[-82.2554,9.4149,9.5594],[-82.256,9.4207,0.0],[-82.2582,9.4243,0.0],[-82.2562,9.4274,0.0],[-82.2565,9.431,0.0],[-82.2585,9.4313,0.0],[-82.2593,9.4343,0.0],[-82.2679,9.4371,0.0],[-82.2696,9.439,0.0],[-82.2735,9.4385,7.0401],[-82.2737,9.4407,0.0]]]]}
,"properties": {"GID_1": "PAN.1_1","GID_0": "PAN","country": "Panama","province": "BocasdelToro","VARNAME_1": "NA","NL_NAME_1": "NA","TYPE_1": "Provincia","ENGTYPE_1": "Province","CC_1": "NA","HASC_1": "PA.BC","ISO_1": "PA-1","name": "Bocasdel_Toro.province","area_km2": 4707.052,"hist_schema_id": "Elevation0-9000","hist_area_km2": {"0": 524.259,"25": 435.617,"50": 142.579,"75": 89.019,"100": 75.04,"125": 69.453,"150": 72.885,"175": 61.184,"200": 62.312,"225": 63.421,"250": 62.585,"275": 59.802,"300": 59.488,"325": 56.037,"350": 55.996,"375": 54.448,"400": 52.859,"425": 53.299,"450": 52.128,"475": 51.396,"500": 51.438,"525": 50.205,"550": 51.859,"575": 50.06,"600": 49.998,"625": 48.743,"650": 46.232,"675": 45.897,"700": 45.102,"725": 43.952,"750": 42.905,"775": 40.709,"800": 41.63,"825": 39.35,"850": 37.989,"875": 36.188,"900": 37.214,"925": 37.298,"950": 37.235,"975": 37.904,"1000": 37.694,"1025": 36.439,"1050": 39.432,"1075": 37.213,"1100": 37.528,"1125": 36.774,"1150": 35.959,"1175": 38.408,"1200": 35.834,"1225": 38.367,"1250": 36.525,"1275": 32.716,"1300": 34.035,"1325": 32.696,"1350": 34.707,"1375": 31.4,"1400": 31.379,"1425": 30.165,"1450": 30.041,"1475": 29.727,"1500": 30.627,"1525": 29.371,"1550": 28.827,"1575": 27.989,"1600": 29.748,"1625": 28.994,"1650": 28.011,"1675": 27.425,"1700": 27.362,"1725": 27.404,"1750": 26.693,"1775": 25.227,"1800": 25.604,"1825": 24.453,"1850": 25.06,"1875": 22.464,"1900": 24.013,"1925": 22.799,"1950": 21.208,"1975": 20.098,"2000": 19.68,"2025": 18.193,"2050": 19.219,"2075": 17.209,"2100": 16.121,"2125": 15.347,"2150": 13.881,"2175": 13.106,"2200": 13.755,"2225": 13.211,"2250": 12.479,"2275": 12.206,"2300": 13.295,"2325": 12.688,"2350": 12.458,"2375": 12.583,"2400": 11.997,"2425": 12.27,"2450": 12.416,"2475": 10.804,"2500": 10.218,"2525": 10.783,"2550": 10.217,"2575": 8.815,"2600": 8.166,"2625": 7.956,"2650": 7.684,"2675": 7.809,"2700": 7.537,"2725": 7.202,"2750": 7.537,"2775": 7.181,"2800": 6.7,"2825": 7.034,"2850": 6.385,"2875": 5.611,"2900": 5.569,"2925": 5.213,"2950": 4.522,"2975": 4.48,"3000": 3.685,"3025": 3.999,"3050": 3.685,"3075": 3.454,"3100": 3.015,"3125": 2.784,"3150": 2.282,"3175": 2.198,"3200": 1.905,"3225": 1.319,"3250": 1.13,"3275": 0.984,"3300": 0.691,"3325": 0.251}}}