{"type":"Feature","properties":{"ISO3166-1-Alpha-3":"PAN","country":"Panama","fill":"#F0F","id":"1958","name":"Bocas del Toro"},
"geometry":{"type": "MultiPolygon","coordinates": [[[[-82.01966,9.13748,30.7955],[-82.01048,9.14146,0.0],[-82.00876,9.14769,0.0],[-82.01622,9.15108,0.0],[-82.02311,9.15391,2.7896],[-82.02541,9.1607,0.0],[-82.02887,9.16919,0.0],[-82.03576,9.16975,7.4119],[-82.0415,9.17314,19.9223],[-82.04552,9.17937,0.0],[-82.05184,9.18219,0.0],[-82.05241,9.17766,8.824],[-82.04724,9.17257,27.675],[-82.05469,9.1618,12.2454],[-82.05526,9.15386,15.1474],[-82.05008,9.14594,1.0802],[-82.04204,9.14085,3.0928],[-82.03285,9.13463,20.2002],[-82.02711,9.13294,17.1023],[-82.01966,9.13748,30.7955]]],
[[[-82.18248,9.34585,1.8442],[-82.19131,9.34935,0.0],[-82.19603,9.3548,0.0],[-82.201,9.35619,37.2604],[-82.20617,9.35419,58.7574],[-82.21178,9.34935,26.381],[-82.21178,9.34317,0.0],[-82.19262,9.33389,0.0],[-82.17431,9.33039,0.0],[-82.15933,9.32315,55.2274],[-82.1503,9.30219,7.4675],[-82.16397,9.30842,7.4637],[-82.16397,9.30219,23.7901],[-82.15404,9.29629,28.4506],[-82.15026,9.28726,16.1494],[-82.1503,9.26435,20.2762],[-82.15172,9.25991,15.9103],[-82.15396,9.25918,26.48],[-82.15441,9.25837,8.4342],[-82.14363,9.24714,5.3267],[-82.13882,9.24531,0.6242],[-82.1302,9.26826,0.0],[-82.11417,9.28327,0.0],[-82.09398,9.29125,0.0],[-82.07462,9.28852,0.0],[-82.08528,9.30268,0.0],[-82.09773,9.31118,33.0132],[-82.12304,9.32266,0.0],[-82.14672,9.34463,0.0],[-82.15656,9.34935,0.0],[-82.16601,9.34496,23.2991],[-82.17439,9.34406,1.398],[-82.18248,9.34585,1.8442]]],
[[[-82.24169,9.33808,2.1246],[-82.24014,9.34195,0.8391],[-82.24157,9.34455,0.0],[-82.24596,9.34935,0.0],[-82.24596,9.35684,0.0],[-82.2318,9.37336,0.0],[-82.23876,9.39875,0.0],[-82.26643,9.43936,0.0],[-82.28551,9.43887,19.6501],[-82.30167,9.43232,1.6743],[-82.32848,9.41205,11.6021],[-82.28075,9.3747,11.0208],[-82.25967,9.35318,0.4107],[-82.24596,9.33006,0.0],[-82.24169,9.33808,2.1246]]],
[[[-82.72936,9.5449,18.1912],[-82.77109,9.57986,20.3767],[-82.82902,9.60272,33.0047],[-82.84747,9.60066,73.9659],[-82.86605,9.58507,70.1074],[-82.87739,9.56918,100.5486],[-82.87925,9.55991,54.3956],[-82.86713,9.53864,185.8053],[-82.86021,9.5112,109.8096],[-82.85592,9.50544,174.7457],[-82.84938,9.50348,211.2202],[-82.84478,9.50069,139.8252],[-82.84639,9.49255,340.7659],[-82.86129,9.4841,234.9056],[-82.91462,9.47686,428.5823],[-82.93331,9.47033,765.6346],[-82.9417,9.45635,714.3686],[-82.94429,9.43715,959.6963],[-82.9432,9.35431,1159.4873],[-82.94165,9.23442,1954.2786],[-82.93952,9.07064,2530.2366],[-82.93938,9.05958,2709.6375],[-82.90946,9.07201,2767.896],[-82.90023,9.07206,2852.4373],[-82.89328,9.06694,2618.7764],[-82.88969,9.05937,2394.1997],[-82.88687,9.05149,2294.0217],[-82.88243,9.04534,2335.6123],[-82.87656,9.04193,2265.3516],[-82.85409,9.03198,2452.3687],[-82.80817,8.99837,2383.679],[-82.7627,8.98299,2219.4722],[-82.74913,8.97408,2166.4868],[-82.72334,8.93093,2205.7544],[-82.71936,8.92152,2427.1116],[-82.72016,8.92024,2341.2175],[-82.71453,8.9162,2102.5742],[-82.69275,8.89432,2246.5203],[-82.62495,8.90279,2445.7468],[-82.56769,8.89974,2331.9441],[-82.55162,8.8937,2477.7888],[-82.54077,8.88478,2475.4204],[-82.52971,8.86297,2772.1489],[-82.49227,8.86127,2043.2656],[-82.44594,8.84651,2089.6548],[-82.36295,8.80879,2184.8179],[-82.35525,8.8275,2105.5222],[-82.34776,8.8575,1707.1141],[-82.33838,8.88935,1744.9652],[-82.33089,8.90437,1440.7694],[-82.33463,8.92499,1188.1243],[-82.34776,8.94938,839.4891],[-82.37026,8.96811,538.6708],[-82.40776,8.98124,526.7092],[-82.4284,8.98875,633.3148],[-82.43964,8.99999,287.724],[-82.42651,9.01312,573.3017],[-82.39277,9.02625,556.8043],[-82.37964,9.03937,414.9462],[-82.35339,9.06188,188.6615],[-82.35151,9.08624,142.0815],[-82.33838,9.11249,297.3977],[-82.32339,9.12751,268.8708],[-82.31401,9.12562,175.8222],[-82.31027,9.11438,89.3776],[-82.31587,9.09937,157.6068],[-82.30838,9.09187,242.4333],[-82.28776,9.08438,130.6172],[-82.28027,9.08061,41.0521],[-82.28965,9.06748,11.7799],[-82.30275,9.05061,14.8997],[-82.31776,9.03937,139.8112],[-82.32339,9.02436,240.679],[-82.32151,9.00937,91.4831],[-82.30089,9.00188,161.2707],[-82.28027,8.99811,177.8933],[-82.27275,8.98687,337.2584],[-82.26151,8.97749,338.1988],[-82.22588,8.97,349.2718],[-82.20151,8.95498,118.1635],[-82.19588,8.94188,41.6265],[-82.19963,8.92499,131.9799],[-82.21089,8.91749,254.0136],[-82.20901,8.89873,75.8232],[-82.19588,8.89124,66.2217],[-82.19214,8.88186,66.2128],[-82.1865,8.85561,79.4808],[-82.17901,8.84437,176.1977],[-82.16963,8.84812,96.1917],[-82.164,8.87062,63.6194],[-82.15087,8.89124,185.0656],[-82.13214,8.90062,501.2897],[-82.10214,8.90248,445.2531],[-82.06088,8.90248,7.412],[-82.03463,8.90811,14.373],[-82.01589,8.91938,8.2695],[-82.00837,8.94186,16.9464],[-82.00677,8.94651,14.5238],[-82.00675,8.94658,14.5238],[-82.02001,8.9453,14.1463],[-82.06762,8.93073,14.3816],[-82.08666,8.93171,12.1957],[-82.09781,8.93061,32.3504],[-82.10192,8.93163,4.3814],[-82.10538,8.93521,0.0],[-82.107,8.94188,0.0],[-82.10936,8.9453,0.0],[-82.11441,8.95075,0.0],[-82.12922,8.97321,0.0],[-82.12902,8.98139,0.0],[-82.14175,8.98896,2.2992],[-82.17764,9.00056,0.0],[-82.19469,8.99095,0.0],[-82.21882,8.99335,12.5494],[-82.24303,9.00446,0.0],[-82.26016,9.02098,2.7291],[-82.25621,9.01797,4.5721],[-82.25349,9.0163,4.0775],[-82.25048,9.0152,0.0],[-82.24596,9.01415,0.0],[-82.23908,9.07933,0.0],[-82.24454,9.08991,1.6533],[-82.26846,9.10236,0.0],[-82.27383,9.1166,5.8045],[-82.25894,9.11274,5.758],[-82.25341,9.11042,7.8754],[-82.25341,9.1166,0.0],[-82.26073,9.12788,0.0],[-82.26378,9.14655,0.0],[-82.26073,9.16405,34.8282],[-82.24962,9.17182,19.8326],[-82.22411,9.16966,46.8894],[-82.20812,9.16376,0.0],[-82.17764,9.14517,0.0],[-82.1717,9.15742,0.3863],[-82.17345,9.18476,0.0],[-82.17081,9.19977,0.0],[-82.17764,9.19977,0.0],[-82.17764,9.19294,1.856],[-82.18444,9.19294,0.0],[-82.18961,9.19831,0.0],[-82.19343,9.20409,0.0],[-82.1962,9.21117,0.0],[-82.19811,9.22028,0.0],[-82.20279,9.22069,0.0],[-82.20401,9.21922,2.0929],[-82.20397,9.21654,5.5232],[-82.20495,9.21345,0.0],[-82.21251,9.22004,0.5368],[-82.21687,9.21747,9.6199],[-82.21874,9.20864,45.4187],[-82.21923,9.19636,27.1034],[-82.22305,9.19278,31.1683],[-82.23107,9.19375,0.0],[-82.23815,9.20026,0.0],[-82.23908,9.21345,0.0],[-82.24596,9.21345,0.5534],[-82.24446,9.19758,0.5464],[-82.24791,9.187,22.6949],[-82.25548,9.1826,0.0],[-82.26643,9.18549,0.0],[-82.27306,9.19448,0.0],[-82.27595,9.20645,0.0],[-82.281,9.21662,0.0],[-82.2943,9.22028,0.0],[-82.28246,9.20209,2.3346],[-82.28824,9.19855,24.3191],[-82.30045,9.19709,123.4764],[-82.30797,9.18549,16.6412],[-82.31481,9.18549,42.6038],[-82.35058,9.20726,0.0],[-82.35582,9.21678,0.0],[-82.35814,9.22944,0.0],[-82.36449,9.24287,0.0],[-82.3732,9.25454,0.0],[-82.38305,9.26122,0.0],[-82.38878,9.26008,0.0],[-82.39367,9.26211,5.3735],[-82.39493,9.26708,0.0],[-82.38996,9.27485,0.0],[-82.3876,9.28608,0.0],[-82.36246,9.28413,10.4114],[-82.34895,9.29475,0.0],[-82.34813,9.30557,6.9589],[-82.35643,9.31342,4.2086],[-82.36779,9.32075,1.1218],[-82.37629,9.33006,0.0],[-82.37947,9.34382,0.0],[-82.37678,9.35517,0.0],[-82.3496,9.40204,0.0],[-82.34508,9.41543,0.0],[-82.34276,9.43252,0.0],[-82.36897,9.41494,5.2926],[-82.40661,9.43525,2.8224],[-82.46565,9.49396,0.0],[-82.56188,9.56908,3.6669],[-82.57359,9.57619,3.4366],[-82.56284,9.5387,6.6823],[-82.57061,9.53823,3.752],[-82.58588,9.54624,3.6231],[-82.6011,9.54867,1.5752],[-82.60821,9.53787,7.3293],[-82.61239,9.4995,3.25],[-82.61885,9.48671,7.5538],[-82.63213,9.48467,8.8976],[-82.65071,9.48785,9.3789],[-82.66821,9.49317,10.296],[-82.67805,9.49777,13.0583],[-82.68867,9.50945,10.9995],[-82.70146,9.53355,15.1466],[-82.71169,9.545,15.0464],[-82.71973,9.54133,17.0243],[-82.72936,9.5449,18.1912]]]]}}