{"type":"Feature","properties":{"GID_3":"PAN.2.13.4_1","GID_0":"PAN","country":"Panama","GID_1":"PAN.2_1","province":"Chiriquí","NL_NAME_1":"NA","GID_2":"PAN.2.13_1","county":"Tolé","NL_NAME_2":"NA","city":"JustoFidelPalacios","VARNAME_3":"NA","NL_NAME_3":"NA","TYPE_3":"Corregimiento","ENGTYPE_3":"Municipality","CC_3":"NA","HASC_3":"NA","name":"Justo_Fidel_Palacios.city"},
"geometry":{"type": "MultiPolygon","coordinates": [[[[-81.5285,8.3138,293.416],[-81.5241,8.3091,292.116],[-81.5166,8.305,217.2756],[-81.5121,8.3041,196.9831],[-81.5089,8.3052,253.1714],[-81.5081,8.3087,238.8386],[-81.5097,8.3167,239.9665],[-81.5076,8.33,289.5863],[-81.5121,8.3396,222.558],[-81.5139,8.3565,318.0793],[-81.5174,8.3626,297.6174],[-81.5266,8.3727,283.0982],[-81.532,8.3813,291.6793],[-81.5366,8.3829,330.1815],[-81.5363,8.3856,335.5722],[-81.5416,8.385,375.8132],[-81.5505,8.3768,303.7846],[-81.5567,8.378,387.7064],[-81.5628,8.3699,338.9792],[-81.5709,8.3652,320.6951],[-81.5697,8.3598,339.0751],[-81.5712,8.3535,381.8038],[-81.5666,8.3474,391.0881],[-81.5627,8.3457,448.0284],[-81.5588,8.3483,460.0325],[-81.5562,8.3571,286.6409],[-81.5531,8.3573,287.2928],[-81.5457,8.346,361.8528],[-81.5344,8.3393,381.7348],[-81.5347,8.3366,346.8383],[-81.5404,8.3304,365.8629],[-81.5407,8.3259,337.291],[-81.5393,8.3235,313.7375],[-81.5343,8.3211,265.3226],[-81.5285,8.3138,293.416]]]]}}