{"type": "Feature","bbox": [-82.217,8.8887,-82.1443,9.0049],"geometry": {"type": "MultiPolygon","coordinates": [[[[-82.1443,8.9862,2.6588],[-82.1493,8.9871,0.0],[-82.1596,8.9949,1.4374],[-82.1637,8.9924,1.553],[-82.1676,8.9921,0.0],[-82.1704,8.9949,0.0],[-82.1776,8.9965,-0.1323],[-82.179,9.0037,0.0],[-82.1807,9.0049,1.4939],[-82.1871,9.0018,16.0604],[-82.1879,8.9974,2.4008],[-82.1851,8.9958,9.7741],[-82.185,8.9934,3.2445],[-82.1794,8.9852,0.7144],[-82.1848,8.9741,2.6333],[-82.1818,8.9672,0.7365],[-82.1866,8.9632,1.2458],[-82.1832,8.958,3.074],[-82.1887,8.9547,4.0446],[-82.1914,8.944,8.8],[-82.1964,8.942,41.6265],[-82.1951,8.9387,113.957],[-82.1992,8.9364,192.5481],[-82.1967,8.9305,129.17],[-82.1981,8.9154,77.435],[-82.201,8.9144,156.8021],[-82.2091,8.9209,175.162],[-82.2137,8.9222,253.1017],[-82.2151,8.9213,304.0838],[-82.2149,8.9074,185.4897],[-82.217,8.9004,87.8361],[-82.216,8.8976,79.6311],[-82.2097,8.8955,81.3444],[-82.1934,8.8952,57.482],[-82.1888,8.8887,51.3681],[-82.1895,8.9263,20.445],[-82.1834,8.9259,22.424],[-82.1718,8.9159,111.612],[-82.161,8.9102,316.5763],[-82.1619,8.9139,169.9954],[-82.1677,8.9197,81.3318],[-82.1715,8.9355,12.974],[-82.1691,8.9451,7.0109],[-82.1636,8.9541,7.2248],[-82.1639,8.9571,6.1967],[-82.1617,8.9582,11.2874],[-82.1594,8.9632,5.4319],[-82.1546,8.9641,15.8196],[-82.1522,8.9668,7.6899],[-82.1509,8.9762,16.4603],[-82.1443,8.9862,2.6588]]]]}
,"properties": {"GID_3": "PAN.1.3.5_1","GID_0": "PAN","country": "Panama","GID_1": "PAN.1_1","province": "BocasdelToro","NL_NAME_1": "NA","GID_2": "PAN.1.3_1","county": "ChiriquíGrande","NL_NAME_2": "NA","city": "Rambala","VARNAME_3": "NA","NL_NAME_3": "NA","TYPE_3": "Corregimiento","ENGTYPE_3": "Municipality","CC_3": "NA","HASC_3": "NA","name": "Rambala.city","area_km2": 33.97143,"hist_schema_id": "Elevation0-9000","hist_area_km2": {"0": 16.10525,"25": 8.90115,"50": 2.55548,"75": 2.09465,"100": 0.73311,"125": 0.58649,"150": 0.56554,"175": 0.56554,"200": 0.46082,"225": 0.29325,"250": 0.29325,"275": 0.33514,"300": 0.12568,"325": 0.18851,"350": 0.10473,"375": 0.06284}}}