{"type": "Feature","bbox": [-78.324,8.7653,-78.0665,8.937],"geometry": {"type": "MultiPolygon","coordinates": [[[[-78.3117,8.7785,459.6862],[-78.3021,8.7775,189.8233],[-78.2793,8.7699,95.6631],[-78.2744,8.7702,84.7886],[-78.2551,8.7777,68.048],[-78.2511,8.7828,70.2718],[-78.2415,8.7896,86.1529],[-78.2382,8.7994,56.7111],[-78.2317,8.8041,52.5148],[-78.2261,8.8016,52.8272],[-78.2231,8.7983,53.1952],[-78.2159,8.7964,54.1057],[-78.2043,8.7995,69.9584],[-78.1976,8.7995,60.8254],[-78.1965,8.7965,61.6597],[-78.1972,8.7744,41.6576],[-78.1922,8.7706,43.4668],[-78.1598,8.7653,61.0662],[-78.1478,8.7654,76.5488],[-78.137,8.7694,91.2155],[-78.1287,8.7697,88.1482],[-78.1228,8.7736,76.4263],[-78.1074,8.8026,77.963],[-78.082,8.8118,63.8725],[-78.0696,8.8081,73.7304],[-78.0676,8.8094,74.527],[-78.0665,8.8123,80.8024],[-78.0716,8.8216,93.2273],[-78.0714,8.8308,79.237799999999993],[-78.075,8.8418,69.3582],[-78.0794,8.849,68.299],[-78.0897,8.8546,79.2011],[-78.1044,8.8549,94.0639],[-78.1088,8.8615,107.6377],[-78.1161,8.8672,104.8891],[-78.1144,8.8796,89.4387],[-78.1056,8.8954,88.2995],[-78.1044,8.9002,85.1568],[-78.1091,8.912,91.7968],[-78.1188,8.9139,106.6872],[-78.1294,8.9117,90.2553],[-78.132,8.9173,89.2861],[-78.1213,8.932,110.1091],[-78.1182,8.9321,117.6024],[-78.1184,8.937,138.1883],[-78.1234,8.9342,110.2229],[-78.1405,8.9305,111.415],[-78.1532,8.9248,90.2395],[-78.1537,8.9197,88.1671],[-78.151,8.9098,89.005],[-78.157,8.9008,101.0945],[-78.16,8.8916,103.0691],[-78.1665,8.8838,117.2815],[-78.1638,8.8695,120.057],[-78.1738,8.8615,108.5308],[-78.1834,8.8607,110.3978],[-78.1933,8.8656,125.4789],[-78.203,8.8747,117.0936],[-78.2089,8.8773,118.983],[-78.2215,8.877,123.3889],[-78.2297,8.8719,111.7246],[-78.2345,8.8763,115.261],[-78.2385,8.8766,111.7481],[-78.2538,8.8648,119.2303],[-78.2632,8.8508,99.4636],[-78.2681,8.8467,97.8497],[-78.275,8.844,119.8028],[-78.2874,8.849,146.1559],[-78.2934,8.8478,195.7562],[-78.3049,8.8317,142.5332],[-78.3053,8.8263,113.2175],[-78.302,8.8198,106.4819],[-78.3026,8.8155,136.7254],[-78.3122,8.8047,600.9022],[-78.324,8.7991,738.2916],[-78.3123,8.7957,487.6642],[-78.3092,8.7914,471.6114],[-78.3117,8.7785,459.6862]]]]}
,"properties": {"GID_3": "PAN.5.1.1_1","GID_0": "PAN","country": "Panama","GID_1": "PAN.5_1","province": "Darién","NL_NAME_1": "NA","GID_2": "PAN.5.1_1","county": "Chepigana","NL_NAME_2": "NA","city": "AguaFría","VARNAME_3": "NA","NL_NAME_3": "NA","TYPE_3": "Corregimiento","ENGTYPE_3": "Municipality","CC_3": "NA","HASC_3": "NA","name": "Agua_Fría.city","area_km2": 258.7222,"hist_schema_id": "Elevation0-9000","hist_area_km2": {"50": 15.547,"75": 100.2946,"100": 104.5414,"125": 27.6535,"150": 2.3466,"175": 1.1733,"200": 0.9638,"225": 0.9009,"250": 0.9219,"275": 0.5657,"300": 0.2933,"325": 0.4191,"350": 0.3562,"375": 0.2095,"400": 0.3981,"425": 0.2724,"450": 0.1886,"475": 0.2514,"500": 0.1676,"525": 0.2724,"550": 0.2514,"575": 0.1048,"600": 0.1048,"625": 0.2095,"650": 0.1048,"675": 0.0419,"700": 0.0629,"725": 0.021,"750": 0.0419,"775": 0.0419}}}