{"type":"Feature","properties":{"GID_1":"PAN.6_1","GID_0":"PAN","country":"Panama","province":"Emberá","VARNAME_1":"Emberá-Wounaan","NL_NAME_1":"NA","TYPE_1":"ComarcaIndígena","ENGTYPE_1":"IndigenousTerritory","CC_1":"NA","HASC_1":"PA.EM","ISO_1":"NA","name":"Emberá.province"},
"geometry":{"type": "MultiPolygon","coordinates": [[[[-77.9523,7.6167,997.4121],[-77.9448,7.6233,1088.7734],[-77.9461,7.6621,951.6414],[-77.9438,7.6762,801.4819],[-77.9497,7.6894,855.8569],[-77.9477,7.7072,671.3497],[-77.9512,7.7251,689.9109],[-77.9568,7.7354,709.9017],[-77.9559,7.7392,582.9673],[-77.9486,7.7455,658.6611],[-77.9479,7.7604,675.33],[-77.9546,7.776,661.0837],[-77.9557,7.7871,654.5334],[-77.9578,7.792,505.5157],[-77.9617,7.7944,514.1353],[-77.9764,7.7951,432.3035],[-77.9801,7.7982,545.0306],[-77.9801,7.8145,500.368],[-77.9843,7.8335,572.9943],[-77.9926,7.8438,526.295],[-77.9985,7.8724,469.8938],[-78.0051,7.8864,317.4305],[-78.0063,7.9035,160.5499],[-78.0171,7.9252,209.5985],[-78.022,7.9446,250.1093],[-78.0259,7.9495,234.403],[-78.0333,7.9518,215.3884],[-78.0772,7.9179,320.7072],[-78.0815,7.9171,219.6421],[-78.0844,7.919,131.2048],[-78.0859,7.9271,145.9891],[-78.0822,7.9439,319.8951],[-78.0866,7.9655,254.2934],[-78.0931,7.9735,162.5439],[-78.1036,7.9755,229.1732],[-78.1075,7.9779,285.3751],[-78.1146,7.9933,265.8431],[-78.1157,8.0069,286.4303],[-78.1199,8.0203,286.1689],[-78.1233,8.0249,273.6789],[-78.1263,8.025,303.9696],[-78.1288,8.0274,304.1376],[-78.1291,8.0308,253.263],[-78.1319,8.031,315.3593],[-78.1345,8.0335,345.0693],[-78.1347,8.0397,280.8953],[-78.1397,8.041,347.638],[-78.1559,8.0566,337.5612],[-78.1582,8.0706,312.165],[-78.162,8.0782,303.1572],[-78.1729,8.0863,291.5682],[-78.1796,8.096,114.4996],[-78.1834,8.097,46.6157],[-78.1873,8.0955,94.2763],[-78.1973,8.0817,37.7195],[-78.2065,8.0808,12.6838],[-78.2137,8.078,12.7572],[-78.2337,8.0657,22.8528],[-78.2332,8.0593,13.1402],[-78.2354,8.0554,20.1507],[-78.2346,8.0532,20.682],[-78.2202,8.0487,5.0418],[-78.2092,8.0396,11.2238],[-78.2116,8.0191,4.6863],[-78.2016,8.0032,14.1363],[-78.2109,7.9852,12.151],[-78.2178,7.9828,11.7004],[-78.2282,7.9835,36.3741],[-78.2398,7.9866,13.545],[-78.2574,7.9961,21.668],[-78.2645,7.9896,22.0702],[-78.2791,7.9845,36.6702],[-78.2838,7.9781,42.9477],[-78.2912,7.973,94.4997],[-78.2968,7.9653,212.2342],[-78.3241,7.9647,219.795],[-78.3293,7.9598,338.9435],[-78.3374,7.9432,418.0186],[-78.3357,7.9396,470.7607],[-78.3272,7.9343,395.9872],[-78.3253,7.9307,363.8475],[-78.3356,7.9139,325.8582],[-78.3362,7.9052,191.0452],[-78.3178,7.8603,364.0096],[-78.313,7.8574,371.5499],[-78.3011,7.8602,706.3718],[-78.2961,7.8584,925.3699],[-78.2949,7.8396,661.343],[-78.2821,7.8212,979.0628],[-78.2759,7.8062,948.6989],[-78.2752,7.7902,743.845],[-78.2703,7.7808,800.533],[-78.2685,7.7696,648.6549],[-78.2586,7.7571,889.6814],[-78.2453,7.7318,694.6346],[-78.2396,7.7255,765.0334],[-78.2335,7.7151,572.9742],[-78.2149,7.6974,1127.8718],[-78.2057,7.6841,704.2689],[-78.1877,7.673,815.7953],[-78.1817,7.6646,747.6776],[-78.1459,7.6793,1336.0745],[-78.1253,7.6736,1335.3799],[-78.1089,7.6578,882.864],[-78.1032,7.6554,1029.1395],[-78.0944,7.6482,607.4049],[-78.0904,7.6486,524.7314],[-78.0854,7.6531,404.5077],[-78.0824,7.6526,473.999],[-78.0774,7.6208,294.2016],[-78.069,7.6007,203.0806],[-78.0638,7.5815,67.9356],[-78.057,7.5822,151.8281],[-78.0493,7.5895,347.1046],[-78.0433,7.5923,316.0888],[-78.0417,7.5966,527.524],[-78.0412,7.6098,392.3374],[-78.036,7.6143,501.6522],[-78.0254,7.6173,615.6299],[-78.0083,7.6195,1027.5333],[-78.0016,7.5969,815.8525],[-77.9963,7.5916,915.7914],[-77.9909,7.5903,875.3799],[-77.9778,7.5952,1165.5134],[-77.9692,7.6015,1296.022],[-77.9628,7.6113,1251.6758],[-77.9523,7.6167,997.4121]]],
[[[-77.4444,8.4987,791.5044],[-77.459,8.5178,923.6931],[-77.4625,8.5254,920.0383],[-77.4728,8.533,627.0654],[-77.4816,8.5425,461.7634],[-77.4879,8.5608,393.8753],[-77.4946,8.5724,533.6172],[-77.4993,8.5888,599.8087],[-77.5026,8.5945,492.2281],[-77.5079,8.5983,463.1469],[-77.5195,8.6014,502.8346],[-77.5396,8.5932,527.1891],[-77.5428,8.5931,486.7269],[-77.5542,8.5999,536.0823],[-77.5599,8.6062,471.6754],[-77.581,8.6401,745.406],[-77.5782,8.6515,605.3451],[-77.5685,8.6671,513.3169],[-77.5735,8.6814,255.914],[-77.5812,8.6833,460.5984],[-77.5955,8.6935,417.3071],[-77.6115,8.6942,576.6138],[-77.6159,8.7017,506.0876],[-77.6182,8.7105,380.3969],[-77.625,8.7193,341.2877],[-77.6245,8.7262,297.7004],[-77.6277,8.733,279.8064],[-77.6399,8.7377,262.9024],[-77.6433,8.7466,267.7761],[-77.6607,8.7542,437.2485],[-77.6678,8.7494,323.8799],[-77.6727,8.7492,350.7144],[-77.676,8.7518,497.2774],[-77.6811,8.7617,604.6016],[-77.7014,8.7634,552.7675],[-77.7198,8.7776,436.6651],[-77.7377,8.7761,307.7279],[-77.7514,8.7704,355.0743],[-77.7581,8.7702,449.6324],[-77.7735,8.7591,199.6508],[-77.7803,8.7456,153.5116],[-77.7845,8.7417,144.6524],[-77.7945,8.7395,155.1012],[-77.8037,8.7351,138.3405],[-77.817,8.7349,205.3938],[-77.8322,8.729,109.3454],[-77.8369,8.706,93.5164],[-77.8403,8.7002,77.531],[-77.8635,8.6794,53.9182],[-77.8667,8.6716,65.3309],[-77.8691,8.6585,59.0615],[-77.8775,8.6528,58.8967],[-77.8821,8.6471,57.2267],[-77.899,8.6437,61.6343],[-77.9084,8.6265,38.992],[-77.9087,8.613,27.5868],[-77.9062,8.6068,46.0526],[-77.9058,8.6009,35.3642],[-77.8968,8.5935,39.6607],[-77.8985,8.5839,35.6432],[-77.8954,8.5706,32.6656],[-77.8878,8.5668,51.5599],[-77.8822,8.5591,51.2084],[-77.8727,8.5566,63.3821],[-77.8706,8.5435,46.3913],[-77.8647,8.5396,38.6771],[-77.8658,8.534,55.5211],[-77.8713,8.5309,56.6534],[-77.8728,8.5259,60.0229],[-77.876,8.5258,58.5906],[-77.8809,8.5214,32.1818],[-77.8809,8.5188,40.8573],[-77.8724,8.5175,58.6694],[-77.8655,8.5132,55.8014],[-77.8631,8.5097,53.3015],[-77.8644,8.5029,50.1325],[-77.8542,8.4976,63.9377],[-77.8453,8.499,45.2915],[-77.8388,8.5023,40.4951],[-77.8351,8.5015,48.4558],[-77.8339,8.4991,43.1543],[-77.8347,8.4931,46.7966],[-77.84,8.4831,52.5075],[-77.84,8.4806,50.9574],[-77.8348,8.4733,33.9272],[-77.8249,8.4703,31.4676],[-77.8217,8.4634,32.3542],[-77.8152,8.4621,40.1167],[-77.8148,8.4535,26.4219],[-77.8111,8.4495,38.7341],[-77.8092,8.4442,21.9134],[-77.8089,8.435,28.8046],[-77.8067,8.4265,19.2516],[-77.8092,8.4198,25.3373],[-77.8168,8.417,26.0881],[-77.8196,8.4129,18.6763],[-77.8194,8.4066,26.2195],[-77.8165,8.4055,12.6408],[-77.8174,8.3964,17.9687],[-77.8125,8.3959,36.2002],[-77.811,8.3988,14.9443],[-77.809,8.3986,23.3759],[-77.8064,8.4016,27.4848],[-77.805,8.3922,18.2172],[-77.8012,8.3863,19.9759],[-77.8018,8.3775,26.6299],[-77.7967,8.3686,36.261],[-77.7978,8.3593,27.79],[-77.7951,8.35,13.3877],[-77.7933,8.3484,26.8746],[-77.788,8.3488,28.5936],[-77.782,8.3435,26.9722],[-77.7805,8.327,32.8661],[-77.7655,8.3228,11.0228],[-77.7656,8.3199,21.6063],[-77.7703,8.3144,29.7924],[-77.7701,8.3115,20.4947],[-77.7617,8.3087,8.5576],[-77.7556,8.293,22.152],[-77.7511,8.2882,33.4014],[-77.7443,8.2865,31.5875],[-77.7345,8.2891,30.3314],[-77.7313,8.2882,29.3166],[-77.7309,8.285,18.6274],[-77.7347,8.2785,20.8526],[-77.735,8.2739,31.978],[-77.7308,8.2649,20.8948],[-77.7324,8.2593,20.1915],[-77.7285,8.2524,8.8516],[-77.7144,8.2509,19.9707],[-77.6941,8.2416,48.1252],[-77.6604,8.2293,22.1049],[-77.6225,8.1997,39.5743],[-77.6164,8.1858,19.5691],[-77.6094,8.157,60.231],[-77.6062,8.1562,49.0189],[-77.6059,8.1517,36.0047],[-77.6101,8.15,42.8018],[-77.6093,8.1416,22.6445],[-77.6133,8.1372,18.0084],[-77.6084,8.1286,25.2442],[-77.6034,8.1286,26.9306],[-77.6083,8.1186,34.3413],[-77.5878,8.1232,50.4322],[-77.58,8.1206,53.3106],[-77.5738,8.1099,43.1522],[-77.5658,8.1045,67.8465],[-77.5508,8.0783,43.9206],[-77.5401,8.0779,66.9221],[-77.5365,8.0816,59.7822],[-77.5254,8.0856,97.9051],[-77.5214,8.0933,86.9942],[-77.5135,8.0907,80.8102],[-77.4993,8.0989,99.183],[-77.4963,8.0978,99.5545],[-77.4938,8.091,93.3023],[-77.4915,8.0897,89.9468],[-77.4884,8.0903,96.0703],[-77.4849,8.0963,118.8041],[-77.4768,8.097,97.8887],[-77.4695,8.095,153.2823],[-77.4593,8.0869,317.3399],[-77.4539,8.096,453.9519],[-77.4463,8.1007,463.5086],[-77.4458,8.107,329.61],[-77.448,8.1147,309.0701],[-77.4467,8.1179,391.634],[-77.4415,8.1221,475.9824],[-77.4327,8.1229,498.6699],[-77.4245,8.1283,537.5211],[-77.4206,8.1343,541.8931],[-77.4082,8.1321,725.2946],[-77.4019,8.1393,457.009],[-77.3921,8.1332,759.3579],[-77.3819,8.1372,1002.8939],[-77.3708,8.1373,1000.1852],[-77.3623,8.1463,1037.6318],[-77.3559,8.1491,870.2161],[-77.2802,8.168,1562.2555],[-77.2491,8.1746,1282.3506],[-77.246,8.174,1245.4819],[-77.2392,8.1781,983.8431],[-77.2395,8.181,946.772],[-77.2446,8.178,1211.7263],[-77.2472,8.1886,1223.2224],[-77.2547,8.2066,1150.4695],[-77.2672,8.2201,1296.3695],[-77.2855,8.226,1358.7755],[-77.294,8.2266,1280.3357],[-77.2982,8.2324,1215.2927],[-77.2975,8.2423,1145.3446],[-77.300299999999993,8.2519,1016.8743],[-77.3072,8.2615,1092.8608],[-77.3208,8.2732,1385.6785],[-77.3227,8.2967,774.0582],[-77.3342,8.3126,906.4138],[-77.334,8.3399,629.2379],[-77.3383,8.3539,818.9597],[-77.333,8.3669,471.8129],[-77.3355,8.3739,580.8551],[-77.3432,8.3833,821.0448],[-77.3426,8.4027,580.8685],[-77.3473,8.4116,359.8636],[-77.3699,8.4396,564.9187],[-77.3872,8.4677,773.1855],[-77.3927,8.4736,773.8618],[-77.4029,8.4782,769.1298],[-77.4294,8.4799,728.8417],[-77.436,8.4782,833.952],[-77.4422,8.4849,929.9684],[-77.4422,8.4915,699.1777],[-77.4444,8.4987,791.5044]]]]}}