{"type": "Feature","id": "3455","bbox": [-78.33449,7.5899,-77.26943,8.77662],"geometry": {"type": "MultiPolygon","coordinates": [[[[-78.11161,7.9867,287.5172],[-78.1182,8.01618,252.1965],[-78.12742,8.02917,283.684],[-78.13716,8.03982,305.7262],[-78.16734,8.08194,296.8301],[-78.18344,8.09356,56.384],[-78.20008,8.08067,48.7322],[-78.22545,8.06933,13.3098],[-78.22773,8.05023,8.1577],[-78.21279,8.04251,6.2394],[-78.21026,8.03398,8.0237],[-78.21186,8.02458,9.9757],[-78.20582,8.01282,9.6748],[-78.20199,8.00122,9.9026],[-78.22574,7.98445,16.905],[-78.25744,7.99608,21.668],[-78.27808,7.98274,27.2426],[-78.29584,7.96579,138.1671],[-78.31338,7.96448,283.9135],[-78.32932,7.95975,338.9435],[-78.33449,7.94515,325.5359],[-78.32961,7.93608,439.2668],[-78.3325,7.91595,459.9305],[-78.33108,7.89285,393.9301],[-78.3272,7.8798,151.3884],[-78.32118,7.86792,209.8407],[-78.3109,7.862,461.7361],[-78.3039,7.85965,624.8245],[-78.2846,7.81945,896.2828],[-78.26951,7.77214,845.4808],[-78.24506,7.73092,694.6346],[-78.197,7.67785,556.8316],[-78.17956,7.66532,807.5342],[-78.13833,7.67734,1080.475],[-78.12122,7.66783,1106.5933],[-78.10603,7.65654,1024.5072],[-78.09001,7.65212,495.6462],[-78.08122,7.64486,341.1],[-78.07244,7.60153,349.0454],[-78.04833,7.5899,289.9732],[-78.03818,7.60744,263.7121],[-78.0189,7.61773,595.9947],[-78.00456,7.60584,864.993],[-77.99089,7.59026,875.3799],[-77.96836,7.6016,1290.7217],[-77.94971,7.61879,934.8578],[-77.9448,7.65163,994.2384],[-77.95591,7.73917,582.9673],[-77.95216,7.74875,599.0746],[-77.94847,7.76201,626.2869],[-77.95304,7.77922,546.2209],[-77.9617,7.79438,514.1353],[-77.971,7.79792,367.8687],[-77.98097,7.80397,479.3988],[-77.98531,7.83565,542.2059],[-78.01621,7.93135,181.8591],[-78.035,7.95088,230.3023],[-78.05921,7.93132,140.9239],[-78.08311,7.91773,204.2934],[-78.09187,7.97264,188.8206],[-78.10179,7.97822,182.1539],[-78.11161,7.9867,287.5172]]],
[[[-77.72274,8.77662,453.1053],[-77.74721,8.77337,335.0178],[-77.76928,8.76231,222.015],[-77.7783,8.74936,201.7907],[-77.79013,8.74014,129.883],[-77.80625,8.73735,163.4151],[-77.82181,8.73285,167.6658],[-77.83579,8.71608,94.6143],[-77.84726,8.69482,76.6142],[-77.87749,8.6527,58.8967],[-77.8971,8.64159,59.2903],[-77.9086,8.62167,24.7813],[-77.90532,8.60113,35.3642],[-77.8985,8.58382,35.6432],[-77.88583,8.56844,54.429],[-77.87219,8.55591,64.3229],[-77.8695,8.53736,40.9504],[-77.87602,8.52578,58.5906],[-77.87576,8.52328,51.8894],[-77.87576,8.52157,52.7624],[-77.87338,8.51775,58.6694],[-77.86088,8.50548,66.3652],[-77.85126,8.50178,55.1001],[-77.8401,8.49858,53.0658],[-77.83705,8.49209,40.6526],[-77.84013,8.48721,39.5881],[-77.84023,8.48176,50.9574],[-77.81517,8.45576,24.8113],[-77.81039,8.44605,34.6692],[-77.80894,8.43499,28.8046],[-77.8124,8.42429,21.416],[-77.81581,8.41734,25.7525],[-77.81703,8.40972,23.5966],[-77.81736,8.40132,13.3384],[-77.80005,8.37486,34.0761],[-77.79726,8.3613,28.1129],[-77.79328,8.34833,26.8746],[-77.78695,8.34011,18.4227],[-77.77747,8.3313,16.9368],[-77.77153,8.32445,18.4067],[-77.76434,8.31365,14.6361],[-77.76269,8.31019,10.6702],[-77.76297,8.30471,14.8541],[-77.75659,8.29575,11.4336],[-77.74652,8.29084,25.8977],[-77.74049,8.29001,35.1357],[-77.73522,8.28756,28.892],[-77.73486,8.28014,16.2296],[-77.73582,8.27216,23.6983],[-77.73168,8.25826,19.6409],[-77.72083,8.25102,15.9458],[-77.69163,8.24394,46.7035],[-77.66355,8.23053,37.467],[-77.62554,8.19968,40.9475],[-77.60735,8.15702,52.057],[-77.61117,8.1408,25.3356],[-77.60136,8.12545,38.6263],[-77.58107,8.11927,54.9338],[-77.5719,8.11056,40.7649],[-77.55257,8.08483,59.9111],[-77.53862,8.08165,71.282],[-77.51999,8.09266,76.4621],[-77.49898,8.09604,86.2816],[-77.49278,8.09403,102.5511],[-77.4864,8.09287,109.3105],[-77.46322,8.09666,310.9662],[-77.45253,8.10108,450.2722],[-77.44524,8.11,307.5986],[-77.43909,8.11904,431.4702],[-77.42532,8.12764,537.5211],[-77.40455,8.13325,772.3925],[-77.38338,8.13671,826.9172],[-77.27003,8.16754,1588.9504],[-77.26943,8.1677,1588.9504],[-77.2952,8.2055,1308.8003],[-77.3169,8.25084,1067.2114],[-77.32435,8.2612,1457.394],[-77.33716,8.26663,1541.1891],[-77.35049,8.2674,1289.2976],[-77.36321,8.27208,1003.4792],[-77.37437,8.28931,1070.4749],[-77.383,8.32495,883.5055],[-77.39127,8.39355,1074.1409],[-77.40579,8.42845,684.2832],[-77.42232,8.45641,545.9575],[-77.43271,8.46507,848.8213],[-77.44961,8.47065,1384.3066],[-77.47968,8.46786,937.3826],[-77.48873,8.47364,810.0403],[-77.48868,8.49654,555.7551],[-77.48036,8.5262,526.1129],[-77.46937,8.53781,550.8104],[-77.46979,8.53832,550.8104],[-77.49588,8.5701,510.357],[-77.50842,8.57374,511.9935],[-77.54627,8.5901,628.2847],[-77.55893,8.60648,399.2969],[-77.5688,8.63991,364.9501],[-77.57916,8.65482,599.6747],[-77.60978,8.68422,325.2626],[-77.62616,8.70663,564.002],[-77.6536,8.73053,260.8149],[-77.67877,8.74877,613.3677],[-77.68613,8.75792,561.8344],[-77.69158,8.76686,724.8539],[-77.69251,8.77241,525.4885],[-77.70171,8.77169,484.7018],[-77.72274,8.77662,453.1053]]]]}
,"properties": {"ISO3166-1-Alpha-3": "PAN","country": "Panama","fill": "#F0F","name": "Emberá","area_km2": 4031.162,"hist_schema_id": "Elevation0-9000","hist_area_km2": {"0": 23.173,"25": 291.777,"50": 700.712,"75": 442.612,"100": 227.825,"125": 161.612,"150": 116.39,"175": 94.498,"200": 88.313,"225": 88.833,"250": 87.781,"275": 91.641,"300": 92.497,"325": 93.754,"350": 90.628,"375": 86.788,"400": 81.399,"425": 79.638,"450": 73.553,"475": 67.617,"500": 65.1,"525": 61.534,"550": 60.57,"575": 53.979,"600": 52.428,"625": 48.88,"650": 47.371,"675": 43.763,"700": 40.698,"725": 37.047,"750": 35.539,"775": 32.58,"800": 29.244,"825": 27.039,"850": 26.096,"875": 26.454,"900": 23.348,"925": 21.374,"950": 19.717,"975": 18.687,"1000": 16.965,"1025": 15.831,"1050": 15.011,"1075": 13.71,"1100": 13.269,"1125": 12.681,"1150": 12.702,"1175": 9.743,"1200": 9.176,"1225": 8.273,"1250": 6.803,"1275": 6.174,"1300": 5.312,"1325": 5.439,"1350": 4.683,"1375": 3.716,"1400": 3.086,"1425": 3.002,"1450": 2.792,"1475": 2.078,"1500": 2.12,"1525": 1.427,"1550": 1.385,"1575": 0.944,"1600": 0.567,"1625": 0.441,"1650": 0.231,"1675": 0.294,"1700": 0.147,"1725": 0.273,"1750": 0.105,"1775": 0.126,"1800": 0.063,"1825": 0.105}}}