{"type": "Feature","bbox": [-80.7095,8.0871,-80.4683,8.3249],"geometry": {"type": "MultiPolygon","coordinates": [[[[-80.4874,8.1757,0.0],[-80.4865,8.179,0.0],[-80.4876,8.1804,8.9323],[-80.4924,8.1799,8.1244],[-80.4887,8.1821,2.8183],[-80.4818,8.1818,0.0],[-80.4765,8.1915,0.0],[-80.4765,8.1951,0.0],[-80.479,8.1946,1.8378],[-80.4807,8.1985,0.0],[-80.4832,8.1999,0.0],[-80.481,8.2107,0.0],[-80.4746,8.224,6.4973],[-80.4701,8.226,4.5061],[-80.4699,8.2235,0.0],[-80.4683,8.2236,0.0],[-80.4706,8.2345,6.1778],[-80.4733,8.2378,9.7686],[-80.4786,8.2399,6.6291],[-80.4897,8.2387,1.0999],[-80.4921,8.2403,4.8444],[-80.4906,8.251,6.5171],[-80.4853,8.2561,3.822],[-80.4913,8.2674,5.3018],[-80.4876,8.2747,7.3125],[-80.4894,8.2774,7.0187],[-80.5012,8.2844,6.6139],[-80.5093,8.2824,3.8256],[-80.5138,8.2756,4.6341],[-80.5225,8.2765,5.9928],[-80.528,8.2752,9.0776],[-80.534,8.2692,8.4351],[-80.5403,8.2667,13.5558],[-80.5514,8.27,14.1276],[-80.5636,8.2672,26.2627],[-80.5713,8.2774,27.3043],[-80.5826,8.2816,33.3126],[-80.5852,8.2923,123.5965],[-80.5919,8.2957,143.4068],[-80.5966,8.3004,116.5337],[-80.5998,8.3008,89.1818],[-80.6136,8.2959,60.9697],[-80.624,8.3089,91.6757],[-80.6291,8.3101,76.5588],[-80.6345,8.314,83.5973],[-80.6751,8.3249,113.0437],[-80.6612,8.3196,119.8643],[-80.6696,8.2897,77.7813],[-80.6891,8.2574,102.2644],[-80.6843,8.24,42.5947],[-80.687,8.2258,56.2664],[-80.6958,8.1991,53.0237],[-80.7095,8.1661,14.9223],[-80.6945,8.153,14.2929],[-80.6872,8.1412,15.6405],[-80.6768,8.1354,11.0241],[-80.6702,8.1226,7.8749],[-80.6713,8.1191,11.215],[-80.6739,8.1178,15.5977],[-80.6679,8.1179,10.1083],[-80.6656,8.1202,8.4475],[-80.6548,8.1222,16.7985],[-80.6524,8.1193,11.1991],[-80.651,8.1132,12.2113],[-80.6468,8.1123,11.3551],[-80.6467,8.1071,9.4262],[-80.6413,8.1117,9.0184],[-80.6382,8.1113,9.9185],[-80.6346,8.115,13.9082],[-80.6291,8.1136,12.2947],[-80.6251,8.1185,10.9245],[-80.6232,8.1184,10.2131],[-80.6147,8.1245,4.7579],[-80.5906,8.126,6.1007],[-80.5855,8.1313,6.2911],[-80.5815,8.1317,6.232],[-80.5799,8.1302,4.3018],[-80.5803,8.1278,4.2435],[-80.5833,8.1241,4.2299],[-80.588,8.1239,6.0319],[-80.589,8.1192,6.7045],[-80.5785,8.116,2.7912],[-80.5723,8.125,3.0968],[-80.5678,8.1188,3.0837],[-80.5638,8.1202,2.7999],[-80.5625,8.1151,3.0525],[-80.5549,8.1074,5.839],[-80.5598,8.0933,8.116],[-80.5559,8.0871,2.7171],[-80.5505,8.0974,6.8297],[-80.5503,8.1032,3.1061],[-80.5467,8.1038,3.029],[-80.5402,8.1015,2.6903],[-80.538,8.1042,6.6531],[-80.5384,8.1104,2.6767],[-80.5356,8.1119,2.7338],[-80.5327,8.1106,2.2928],[-80.534,8.1051,4.863],[-80.5296,8.1059,2.2739],[-80.5265,8.1089,2.4259],[-80.5272,8.1128,2.5099],[-80.526,8.1139,2.5844],[-80.5237,8.1117,2.2925],[-80.5251,8.1024,3.5621],[-80.5189,8.103,3.1749],[-80.5191,8.099,8.1654],[-80.5174,8.0968,11.628],[-80.5138,8.0966,8.2588],[-80.511,8.0983,10.5049],[-80.5103,8.1013,1.6338],[-80.5115,8.1013,1.6338],[-80.509,8.1049,7.3846],[-80.5113,8.1101,2.621],[-80.5062,8.1129,1.5249],[-80.504,8.1107,1.7014],[-80.506,8.109,3.1064],[-80.5054,8.1062,9.8764],[-80.4979,8.1032,9.6344],[-80.4985,8.0971,7.8257],[-80.4965,8.0943,7.3833],[-80.4929,8.0924,12.1235],[-80.4851,8.0921,5.7936],[-80.4793,8.0985,0.0],[-80.4785,8.1035,0.0],[-80.4868,8.1312,2.1651],[-80.489,8.1568,0.0],[-80.4874,8.1757,0.0]]]]}
,"properties": {"GID_2": "PAN.3.1_1","GID_0": "PAN","country": "Panama","GID_1": "PAN.3_1","province": "Coclé","NL_NAME_1": "NA","county": "Aguadulce","VARNAME_2": "NA","NL_NAME_2": "NA","TYPE_2": "Distrito","ENGTYPE_2": "District","CC_2": "NA","HASC_2": "PA.CC.AG","name": "Aguadulce.county","area_km2": 443.8826,"hist_schema_id": "Elevation0-9000","hist_area_km2": {"0": 214.6123,"25": 144.292,"50": 49.3315,"75": 21.5685,"100": 11.4346,"125": 1.9303,"150": 0.4406,"175": 0.2308,"200": 0.042}}}