{"type":"Feature","properties":{"GID_1":"PAN.5_1","GID_0":"PAN","country":"Panama","province":"Darién","VARNAME_1":"NA","NL_NAME_1":"NA","TYPE_1":"Provincia","ENGTYPE_1":"Province","CC_1":"NA","HASC_1":"PA.DR","ISO_1":"NA","name":"Darién.province"},
"geometry":{"type": "MultiPolygon","coordinates": [[[[-77.8,7.4567,408.6282],[-77.7976,7.4622,390.4538],[-77.7935,7.4512,315.1745],[-77.7794,7.4543,185.4746],[-77.7717,7.452,188.4849],[-77.7651,7.4479,175.3342],[-77.7616,7.4486,187.6945],[-77.7547,7.4559,218.7767],[-77.75,7.4652,192.8437],[-77.7297,7.4707,213.1706],[-77.7198,7.4814,269.7098],[-77.718,7.4898,392.754],[-77.6978,7.5043,445.1278],[-77.6974,7.5084,422.4473],[-77.6999,7.5163,493.3773],[-77.7078,7.5322,537.7755],[-77.7208,7.5498,728.6368],[-77.735,7.5762,767.7176],[-77.7344,7.5834,774.2102],[-77.731,7.5881,658.7322],[-77.7334,7.5957,687.2696],[-77.7315,7.5993,603.2365],[-77.7359,7.6026,828.6959],[-77.7386,7.6071,691.1628],[-77.7402,7.6244,803.6997],[-77.7356,7.6487,669.222],[-77.7311,7.6579,864.3418],[-77.7275,7.6614,768.3193],[-77.7193,7.6648,945.59],[-77.7096,7.6663,1214.389],[-77.6834,7.6649,1236.9655],[-77.6728,7.6603,1011.9558],[-77.6596,7.6458,986.8554],[-77.6475,7.6444,1492.272],[-77.6411,7.624,1389.3547],[-77.6407,7.6098,1001.1743],[-77.6329,7.5884,893.5134],[-77.6226,7.5717,845.7474],[-77.6225,7.5597,702.8469],[-77.6187,7.5476,563.7164],[-77.6131,7.5454,650.7488],[-77.6045,7.5385,540.5342],[-77.5967,7.5232,403.3154],[-77.5853,7.5187,593.615],[-77.5823,7.5131,756.3077],[-77.561,7.5083,946.061],[-77.5456,7.5207,966.6036],[-77.5384,7.5331,921.9638],[-77.5274,7.5446,1158.6045],[-77.5233,7.5555,1197.4781],[-77.523,7.5589,1186.3093],[-77.5256,7.5637,1227.387],[-77.5247,7.5687,1252.8422],[-77.5192,7.58,1353.4219],[-77.5071,7.593,1031.6726],[-77.4913,7.5996,626.9052],[-77.488,7.6061,723.1185],[-77.4776,7.6132,748.1156],[-77.4708,7.6201,514.9857],[-77.4466,7.6508,381.7633],[-77.4358,7.6548,374.9919],[-77.436,7.66,415.7438],[-77.4319,7.6655,360.227],[-77.4262,7.6676,319.1716],[-77.4223,7.6671,289.7707],[-77.4188,7.6692,309.5206],[-77.416,7.6786,273.8599],[-77.3927,7.7042,209.8634],[-77.3745,7.7155,53.6502],[-77.3661,7.726,106.7205],[-77.3604,7.737,138.5283],[-77.3532,7.7397,184.0678],[-77.3493,7.745,164.7531],[-77.3417,7.75,118.2791],[-77.3217,7.7463,92.4298],[-77.3176,7.7473,56.1016],[-77.3161,7.7538,46.1474],[-77.3201,7.7701,103.6041],[-77.3274,7.7848,105.1932],[-77.3338,7.7938,131.8351],[-77.3242,7.8255,122.8821],[-77.3226,7.8379,122.1406],[-77.323,7.8506,169.348],[-77.3203,7.862,133.1793],[-77.3179,7.865,186.8739],[-77.3013,7.8774,281.6171],[-77.2914,7.8817,251.6685],[-77.2819,7.891,341.1245],[-77.2746,7.8954,372.4555],[-77.271,7.9044,420.0838],[-77.2655,7.9104,481.0103],[-77.2587,7.9145,559.0364],[-77.2521,7.9164,576.7495],[-77.2266,7.9184,577.9626],[-77.2182,7.9138,605.5199],[-77.2116,7.9139,533.4955],[-77.2079,7.9155,502.5077],[-77.2027,7.9272,401.0225],[-77.1855,7.9241,400.4524],[-77.1747,7.9333,421.3282],[-77.1671,7.9358,469.0448],[-77.1642,7.9496,390.2285],[-77.1592,7.9496,374.1699],[-77.1583,7.9533,466.5522],[-77.1531,7.9598,579.5565],[-77.1342,7.9735,340.6613],[-77.1293,7.9801,116.6383],[-77.1329,7.9826,279.4728],[-77.1445,7.985,124.3225],[-77.151,7.994,94.9427],[-77.1541,7.9964,96.2549],[-77.1563,7.9952,93.4425],[-77.1588,8.0007,155.3392],[-77.1643,8.0036,124.0597],[-77.1641,8.006,175.5834],[-77.167,8.0047,137.8786],[-77.1685,8.0072,155.5802],[-77.1773,8.0089,175.6547],[-77.1786,8.0113,220.7303],[-77.1844,8.0135,211.8965],[-77.1863,8.0115,263.248],[-77.1916,8.0199,306.1362],[-77.1906,8.0221,347.6129],[-77.1922,8.0261,319.4652],[-77.1908,8.0278,471.6454],[-77.1973,8.0411,583.0355],[-77.2014,8.0418,549.819],[-77.2082,8.038,645.8317],[-77.2193,8.0384,1090.6829],[-77.2228,8.0399,1129.7179],[-77.2263,8.0546,1484.6644],[-77.218,8.0883,1400.7781],[-77.219,8.0979,1344.3989],[-77.2289,8.1287,1340.5824],[-77.2273,8.1434,1276.6156],[-77.2437,8.1555,1253.9022],[-77.246,8.161,1390.4426],[-77.2449,8.1744,1245.4819],[-77.2802,8.168,1562.2555],[-77.3559,8.1491,870.2161],[-77.3623,8.1463,1037.6318],[-77.3708,8.1373,1000.1852],[-77.3819,8.1372,1002.8939],[-77.3921,8.1332,759.3579],[-77.4019,8.1393,457.009],[-77.4082,8.1321,725.2946],[-77.4206,8.1343,541.8931],[-77.4245,8.1283,537.5211],[-77.4327,8.1229,498.6699],[-77.4415,8.1221,475.9824],[-77.4467,8.1179,391.634],[-77.448,8.1147,309.0701],[-77.4458,8.107,329.61],[-77.4463,8.1007,463.5086],[-77.4539,8.096,453.9519],[-77.4593,8.0869,317.3399],[-77.4695,8.095,153.2823],[-77.4768,8.097,97.8887],[-77.4849,8.0963,118.8041],[-77.4884,8.0903,96.0703],[-77.4915,8.0897,89.9468],[-77.4938,8.091,93.3023],[-77.4963,8.0978,99.5545],[-77.4993,8.0989,99.183],[-77.5135,8.0907,80.8102],[-77.5214,8.0933,86.9942],[-77.5254,8.0856,97.9051],[-77.5365,8.0816,59.7822],[-77.5401,8.0779,66.9221],[-77.545,8.0773,68.7527],[-77.5508,8.0783,43.9206],[-77.5658,8.1045,67.8465],[-77.5738,8.1099,43.1522],[-77.58,8.1206,53.3106],[-77.5878,8.1232,50.4322],[-77.6083,8.1186,34.3413],[-77.6034,8.1286,26.9306],[-77.6084,8.1286,25.2442],[-77.6133,8.1372,18.0084],[-77.6093,8.1416,22.6445],[-77.6101,8.15,42.8018],[-77.6059,8.1517,36.0047],[-77.6062,8.1562,49.0189],[-77.6094,8.157,60.231],[-77.6164,8.1858,19.5691],[-77.6237,8.2009,47.1656],[-77.6604,8.2293,22.1049],[-77.6941,8.2416,48.1252],[-77.7144,8.2509,19.9707],[-77.7244,8.251,15.3255],[-77.7292,8.253,8.8516],[-77.7324,8.2593,20.1915],[-77.7308,8.2649,20.8948],[-77.735,8.2739,31.978],[-77.7347,8.2785,20.8526],[-77.7309,8.285,18.6274],[-77.7313,8.2882,29.3166],[-77.7334,8.2892,15.9005],[-77.7473,8.2866,12.0422],[-77.755,8.2919,31.0006],[-77.7617,8.3087,8.5576],[-77.7701,8.3115,20.4947],[-77.7703,8.3144,29.7924],[-77.7656,8.3199,21.6063],[-77.7655,8.3228,11.0228],[-77.7805,8.327,32.8661],[-77.782,8.3435,26.9722],[-77.788,8.3488,28.5936],[-77.7933,8.3484,26.8746],[-77.7951,8.35,13.3877],[-77.7978,8.3593,27.79],[-77.7967,8.3686,36.261],[-77.8018,8.3775,26.6299],[-77.8012,8.3863,19.9759],[-77.805,8.3922,18.2172],[-77.8064,8.4016,27.4848],[-77.809,8.3986,23.3759],[-77.811,8.3988,14.9443],[-77.8125,8.3959,36.2002],[-77.8174,8.3964,17.9687],[-77.8165,8.4055,12.6408],[-77.8199,8.4079,23.6185],[-77.8191,8.4144,28.0506],[-77.8168,8.417,26.0881],[-77.8092,8.4198,25.3373],[-77.8068,8.4251,27.0549],[-77.8092,8.4442,21.9134],[-77.8111,8.4495,38.7341],[-77.8148,8.4535,26.4219],[-77.8158,8.463,40.1167],[-77.8217,8.4634,32.3542],[-77.8249,8.4703,31.4676],[-77.8348,8.4733,33.9272],[-77.84,8.4806,50.9574],[-77.84,8.4831,52.5075],[-77.8347,8.4931,46.7966],[-77.8343,8.5004,43.1543],[-77.8388,8.5023,40.4951],[-77.8453,8.499,45.2915],[-77.8542,8.4976,63.9377],[-77.8644,8.5029,50.1325],[-77.8631,8.5097,53.3015],[-77.8655,8.5132,55.8014],[-77.8724,8.5175,58.6694],[-77.8809,8.5188,40.8573],[-77.8809,8.5214,32.1818],[-77.876,8.5258,58.5906],[-77.8728,8.5259,60.0229],[-77.8713,8.5309,56.6534],[-77.8658,8.534,55.5211],[-77.8647,8.5396,38.6771],[-77.8706,8.5435,46.3913],[-77.8727,8.5566,63.3821],[-77.8822,8.5591,51.2084],[-77.8878,8.5668,51.5599],[-77.8954,8.5706,32.6656],[-77.8985,8.5839,35.6432],[-77.8968,8.5935,39.6607],[-77.9058,8.6009,35.3642],[-77.9062,8.6068,46.0526],[-77.9087,8.613,27.5868],[-77.9086,8.6233,31.3961],[-77.9079,8.628,42.6724],[-77.899,8.6437,61.6343],[-77.8821,8.6471,57.2267],[-77.8775,8.6528,58.8967],[-77.8691,8.6585,59.0615],[-77.8667,8.6716,65.3309],[-77.8635,8.6794,53.9182],[-77.854,8.6867,57.5331],[-77.8386,8.7026,78.4373],[-77.8364,8.7072,98.7954],[-77.8331,8.7272,111.3553],[-77.8316,8.7295,109.3454],[-77.817,8.7349,205.3938],[-77.8037,8.7351,138.3405],[-77.7945,8.7395,155.1012],[-77.7845,8.7417,144.6524],[-77.7803,8.7456,153.5116],[-77.7727,8.7598,188.7708],[-77.7595,8.7696,427.329],[-77.7514,8.7704,355.0743],[-77.7403,8.7755,287.846],[-77.7198,8.7776,436.6651],[-77.708,8.7684,505.238],[-77.6966,8.7672,732.2739],[-77.6923,8.7681,646.8826],[-77.6909,8.7743,571.616],[-77.6976,8.7942,291.0389],[-77.699,8.8139,145.79],[-77.711,8.8255,234.023],[-77.7228,8.8269,233.8719],[-77.7337,8.8332,305.18],[-77.7369,8.8392,282.8716],[-77.7394,8.8571,217.236],[-77.7525,8.8687,482.2787],[-77.7715,8.8773,551.5229],[-77.7891,8.882,400.6867],[-77.7943,8.8865,576.7278],[-77.8015,8.8892,478.167],[-77.8107,8.9013,377.6802],[-77.8175,8.9071,327.4246],[-77.8256,8.9085,295.3754],[-77.8348,8.9074,308.0519],[-77.8462,8.9174,257.3512],[-77.8519,8.9252,284.1541],[-77.8597,8.9418,380.6918],[-77.8651,8.9474,395.303],[-77.8694,8.9549,398.1396],[-77.8685,8.9587,371.5484],[-77.8644,8.9625,381.9454],[-77.8654,8.9662,370.8877],[-77.8932,8.9846,414.6872],[-77.9016,8.9988,208.5197],[-77.9053,9.0002,303.7454],[-77.9132,8.9999,456.4066],[-77.9152,9.0013,448.9857],[-77.9155,9.0048,369.5938],[-77.9125,9.0138,395.6871],[-77.9155,9.0206,318.22],[-77.9352,9.0254,448.2106],[-77.9374,9.0363,242.0031],[-77.9419,9.0395,249.9961],[-77.9576,9.0409,333.5453],[-77.9622,9.0491,342.6774],[-77.9741,9.0564,397.5879],[-77.9863,9.0723,503.5316],[-77.9946,9.0773,540.4189],[-78.0051,9.0808,592.5168],[-78.0117,9.0876,603.461],[-78.0289,9.0927,648.2498],[-78.0402,9.0899,418.3203],[-78.0458,9.0909,432.5067],[-78.0528,9.0859,488.8306],[-78.0562,9.0645,368.1019],[-78.0597,9.0578,273.9689],[-78.0597,9.0543,276.7256],[-78.0556,9.0483,396.2229],[-78.0574,9.0426,349.2184],[-78.0611,9.0384,178.4718],[-78.0721,9.0319,298.8693],[-78.0845,9.0301,299.5761],[-78.0903,9.0259,216.8971],[-78.0951,9.0177,200.604],[-78.0951,9.0015,120.1934],[-78.1058,8.9909,138.7363],[-78.111,8.9828,158.5887],[-78.1127,8.9756,196.7386],[-78.1072,8.9632,151.3814],[-78.1096,8.945,134.0007],[-78.1222,8.9347,114.8204],[-78.1405,8.9305,111.415],[-78.1532,8.9248,90.2395],[-78.1537,8.9197,88.1671],[-78.151,8.9098,89.005],[-78.157,8.9008,101.0945],[-78.16,8.8916,103.0691],[-78.1665,8.8838,117.2815],[-78.1636,8.8704,120.057],[-78.1687,8.8645,114.0619],[-78.1752,8.861,120.855],[-78.1825,8.8604,117.1944],[-78.1933,8.8656,125.4789],[-78.203,8.8747,117.0936],[-78.2078,8.877,119.4631],[-78.2215,8.877,123.3889],[-78.2297,8.8719,111.7246],[-78.2345,8.8763,115.261],[-78.2401,8.8761,111.7481],[-78.2538,8.8648,119.2303],[-78.2632,8.8508,99.4636],[-78.2681,8.8467,97.8497],[-78.275,8.844,119.8028],[-78.2874,8.849,146.1559],[-78.2934,8.8478,195.7562],[-78.3049,8.8317,142.5332],[-78.3053,8.8263,113.2175],[-78.302,8.8198,106.4819],[-78.3026,8.8155,136.7254],[-78.3122,8.8047,600.9022],[-78.3334,8.7956,601.1082],[-78.3434,8.7964,618.5797],[-78.347,8.8006,568.7996],[-78.3492,8.8075,657.865],[-78.3483,8.8228,440.9955],[-78.3537,8.8285,401.2626],[-78.3618,8.8321,332.2511],[-78.3818,8.8339,100.4536],[-78.3964,8.8378,139.9071],[-78.404,8.8376,204.5247],[-78.43,8.8269,367.2939],[-78.4401,8.8283,483.5996],[-78.4561,8.8251,647.7259],[-78.4828,8.8049,818.4673],[-78.4771,8.7939,796.0405],[-78.476,8.7882,841.2253],[-78.4799,8.7761,715.6235],[-78.4793,8.7585,404.4185],[-78.4814,8.7504,319.4359],[-78.4883,8.7444,302.3944],[-78.4918,8.7385,251.3113],[-78.5025,8.7395,223.0814],[-78.5043,8.7383,210.4298],[-78.5055,8.7342,245.7879],[-78.5051,8.7195,266.788],[-78.5125,8.6989,222.1392],[-78.5117,8.6915,136.6948],[-78.5074,8.6845,79.0031],[-78.5005,8.6823,127.9103],[-78.497,8.6795,216.2946],[-78.4959,8.6618,146.4887],[-78.4916,8.6579,120.6935],[-78.482,8.6553,110.0488],[-78.4776,8.6469,134.2587],[-78.4728,8.6425,189.1685],[-78.475,8.6351,145.256],[-78.4737,8.6287,69.3668],[-78.4761,8.6106,50.1078],[-78.4801,8.606,47.224],[-78.49,8.6005,29.1409],[-78.487,8.5907,52.7497],[-78.4875,8.5727,62.6791],[-78.4844,8.5617,15.6703],[-78.4762,8.5481,28.2003],[-78.4752,8.5392,119.2534],[-78.4771,8.5343,88.4653],[-78.462,8.5169,50.0067],[-78.4604,8.4977,84.6047],[-78.4483,8.4825,97.5228],[-78.4417,8.4714,130.786],[-78.4361,8.4521,241.3319],[-78.4302,8.4385,299.6421],[-78.4251,8.4077,168.2458],[-78.4223,8.3997,136.9896],[-78.4206,8.369,85.6135],[-78.4184,8.3589,43.2594],[-78.4187,8.3503,30.9589],[-78.4207,8.3468,0.0],[-78.4154,8.3457,0.0],[-78.4163,8.3482,7.9853],[-78.4149,8.3504,0.0],[-78.4129,8.3512,8.469],[-78.4112,8.349,0.0],[-78.409,8.3529,9.3772],[-78.4024,8.3518,6.4009],[-78.4004,8.3507,22.9406],[-78.4012,8.3479,3.3411],[-78.3985,8.3471,30.8426],[-78.3971,8.3418,0.0],[-78.3907,8.3371,18.0004],[-78.3876,8.3365,0.0],[-78.3857,8.3429,6.5122],[-78.3868,8.3468,29.0849],[-78.3854,8.3501,4.1739],[-78.3857,8.3601,6.0996],[-78.3829,8.3643,0.0],[-78.3846,8.369,13.6954],[-78.3843,8.3757,0.0],[-78.3835,8.3774,3.9587],[-78.3787,8.3779,0.5869],[-78.379,8.3832,7.273],[-78.3776,8.386,6.7302],[-78.3712,8.3924,6.1913],[-78.3682,8.3923,3.9781],[-78.3671,8.3943,39.5135],[-78.3685,8.4001,62.4305],[-78.3677,8.4054,20.3973],[-78.3693,8.4102,11.5736],[-78.3861,8.4221,0.0],[-78.3911,8.4319,6.2531],[-78.3913,8.4419,0.0],[-78.3883,8.4573,0.0],[-78.3905,8.4843,0.0],[-78.401,8.5075,0.0],[-78.4054,8.5129,18.5583],[-78.4051,8.5171,0.0],[-78.4169,8.5287,6.0148],[-78.4163,8.5317,0.0],[-78.4109,8.5251,0.0],[-78.4087,8.5251,0.0],[-78.4085,8.5341,0.0],[-78.4105,8.5357,0.0],[-78.4113,8.5429,0.0],[-78.4074,8.5485,7.9653],[-78.4058,8.5625,16.8819],[-78.4032,8.5643,24.997],[-78.4026,8.5677,9.4032],[-78.4007,8.5679,24.4045],[-78.4008,8.5651,13.5329],[-78.4038,8.5615,0.0],[-78.4043,8.5555,0.0],[-78.4018,8.5607,9.9219],[-78.3998,8.5605,0.0],[-78.4013,8.5557,5.7106],[-78.4005,8.5453,11.0028],[-78.4016,8.5435,9.2138],[-78.3996,8.5309,1.7777],[-78.3972,8.5307,2.922],[-78.3971,8.5403,4.5916],[-78.3954,8.5407,3.6535],[-78.3941,8.5359,2.1109],[-78.3904,8.5359,0.0],[-78.3885,8.5407,0.0],[-78.3918,8.5407,0.0],[-78.3922,8.5421,4.4989],[-78.3901,8.5455,3.9322],[-78.3855,8.5475,0.0],[-78.3826,8.5453,0.0],[-78.3826,8.5385,0.0],[-78.3847,8.5393,0.0],[-78.3882,8.5377,0.0],[-78.3885,8.5335,0.0],[-78.3869,8.5317,0.0],[-78.3911,8.5227,0.0],[-78.3872,8.5163,0.0],[-78.3872,8.5085,0.0],[-78.3805,8.4957,0.0],[-78.3794,8.4771,0.0],[-78.3767,8.4717,0.0],[-78.3783,8.4655,7.8579],[-78.3768,8.4291,0.0],[-78.3743,8.4251,0.0],[-78.3693,8.4223,7.5995],[-78.3676,8.4224,5.7082],[-78.3651,8.4268,0.7574],[-78.3615,8.4293,0.0],[-78.3568,8.4393,4.12],[-78.3549,8.4382,0.0],[-78.3532,8.4415,3.4283],[-78.349,8.4429,0.0],[-78.3496,8.4482,7.7298],[-78.3457,8.4493,4.837],[-78.3457,8.4518,8.5716],[-78.3435,8.4529,9.8053],[-78.3399,8.4529,0.0],[-78.3385,8.4554,0.0],[-78.3337,8.4524,5.4777],[-78.3343,8.4604,2.2302],[-78.3304,8.464,16.6818],[-78.3257,8.4632,1.1927],[-78.3235,8.4685,10.7108],[-78.3182,8.4688,7.5576],[-78.3138,8.4649,6.367],[-78.3126,8.461,0.0],[-78.3082,8.4615,2.2391],[-78.3099,8.454,3.2069],[-78.3076,8.4468,0.0],[-78.3051,8.4455,11.0652],[-78.3037,8.4413,1.9207],[-78.2979,8.441,3.8106],[-78.2929,8.4388,8.3103],[-78.2871,8.439,0.0],[-78.2879,8.4479,6.519],[-78.2848,8.4469,0.0],[-78.2822,8.4613,2.9695],[-78.279,8.4621,0.0],[-78.2783,8.4685,0.0],[-78.2808,8.4703,3.169],[-78.2762,8.4717,0.0],[-78.2721,8.4699,0.0],[-78.2583,8.4821,0.0],[-78.2601,8.4897,0.0],[-78.264,8.4949,9.6376],[-78.2688,8.4971,0.0],[-78.2663,8.4987,0.0],[-78.2632,8.4974,0.0],[-78.2582,8.4896,1.5959],[-78.2554,8.4882,0.0],[-78.2549,8.484,5.6265],[-78.2462,8.4849,3.1495],[-78.2451,8.4832,0.0],[-78.2432,8.4835,0.0],[-78.2429,8.4815,5.7316],[-78.2551,8.481,0.0],[-78.2607,8.4738,12.9214],[-78.2688,8.4674,5.2736],[-78.2696,8.4643,5.8891],[-78.2676,8.4549,0.0],[-78.2582,8.4557,6.9527],[-78.2543,8.4526,1.7384],[-78.2496,8.4524,7.5798],[-78.2424,8.4396,14.5902],[-78.234,8.4362,0.0],[-78.2321,8.4371,0.0],[-78.2301,8.4432,0.0],[-78.2301,8.4507,0.0],[-78.2326,8.4601,7.3713],[-78.2326,8.4721,1.3013],[-78.2218,8.4896,0.0],[-78.2187,8.5057,7.7873],[-78.221,8.5101,6.0478],[-78.2335,8.5151,4.5457],[-78.2335,8.5168,0.0],[-78.2407,8.5207,0.0],[-78.2426,8.5257,4.1064],[-78.2412,8.5315,0.462],[-78.2438,8.536,0.8221],[-78.2387,8.5332,0.0],[-78.2382,8.5385,0.8583],[-78.2357,8.5399,0.0],[-78.2354,8.5429,0.0],[-78.2337,8.5426,2.2922],[-78.2346,8.5365,0.0],[-78.2318,8.5363,1.1611],[-78.2335,8.5329,1.9731],[-78.2279,8.5249,0.0],[-78.2268,8.5265,0.0],[-78.2235,8.5268,0.0],[-78.2232,8.5313,0.0],[-78.2185,8.5307,3.8798],[-78.2213,8.5263,0.0],[-78.2218,8.521,6.6441],[-78.2199,8.5187,0.0],[-78.2196,8.5238,6.3832],[-78.2182,8.5243,6.3832],[-78.2138,8.5129,0.0],[-78.2138,8.5101,0.0],[-78.216,8.5107,0.0],[-78.2154,8.5018,0.0],[-78.2126,8.5043,3.7516],[-78.2107,8.5029,0.6],[-78.2074,8.4899,7.0233],[-78.2165,8.4951,14.5868],[-78.2162,8.4879,0.0],[-78.2243,8.4732,0.0],[-78.2249,8.4657,10.8546],[-78.2193,8.4632,0.0],[-78.2146,8.4579,0.6027],[-78.2135,8.454,0.8696],[-78.2107,8.4538,8.5341],[-78.211,8.4457,1.0833],[-78.216,8.441,0.0],[-78.2121,8.4393,0.0],[-78.2093,8.4401,19.26],[-78.2074,8.4346,23.9975],[-78.2107,8.4365,3.9353],[-78.2121,8.4329,0.0],[-78.2107,8.4307,3.668],[-78.2151,8.4315,2.0335],[-78.2162,8.4299,0.0],[-78.2162,8.4365,4.2959],[-78.2193,8.4376,0.0],[-78.219,8.4329,0.0],[-78.2207,8.4329,22.8995],[-78.2232,8.4374,0.0],[-78.2235,8.4343,13.1378],[-78.2271,8.4321,0.0],[-78.2335,8.4299,8.9861],[-78.2396,8.4299,10.8552],[-78.2454,8.4324,9.0756],[-78.2471,8.4354,18.7212],[-78.2532,8.4368,0.0],[-78.2515,8.4229,1.1893],[-78.2671,8.4112,0.4178],[-78.2674,8.4057,0.0],[-78.2624,8.4024,0.4215],[-78.2626,8.3982,0.0],[-78.2607,8.3963,44.6554],[-78.261,8.3921,40.5357],[-78.2593,8.389,0.0],[-78.2554,8.3932,33.4895],[-78.2513,8.391,2.2388],[-78.251,8.3868,0.0],[-78.2485,8.3843,22.6744],[-78.249,8.3785,0.0],[-78.2479,8.3785,0.0],[-78.2468,8.3843,22.6744],[-78.2374,8.3849,0.0],[-78.2351,8.3882,0.0],[-78.2257,8.3862,0.0],[-78.2201,8.3949,8.3209],[-78.2174,8.3935,0.0],[-78.2171,8.3965,0.0],[-78.2151,8.3965,0.0],[-78.216,8.4015,5.114],[-78.2146,8.4035,0.0],[-78.2101,8.4043,0.8189],[-78.2051,8.4024,1.6815],[-78.1976,8.4049,0.0],[-78.1935,8.4085,2.7844],[-78.1896,8.4087,0.0],[-78.1874,8.4118,2.3974],[-78.1885,8.419,1.4494],[-78.1854,8.4263,8.4156],[-78.1879,8.431,10.3218],[-78.1876,8.4421,0.0],[-78.191,8.4426,0.0],[-78.189,8.4449,0.0],[-78.1888,8.4496,2.261],[-78.1849,8.4496,0.0],[-78.1771,8.459,16.8831],[-78.1724,8.4585,0.0],[-78.1629,8.4701,0.0],[-78.1532,8.4704,0.0],[-78.1424,8.4654,0.0],[-78.1282,8.4463,13.0102],[-78.1254,8.4371,0.0],[-78.1229,8.436,5.5224],[-78.1221,8.4312,0.0],[-78.1182,8.4299,5.6715],[-78.1174,8.4268,0.0],[-78.1057,8.4118,0.0],[-78.1001,8.4118,0.0],[-78.0979,8.4215,16.4601],[-78.1007,8.4312,22.9985],[-78.1026,8.4476,0.0],[-78.104,8.4507,0.0],[-78.1107,8.4543,0.0],[-78.1146,8.4601,17.9322],[-78.1188,8.4751,0.0],[-78.1207,8.4768,5.2469],[-78.1218,8.4846,21.859],[-78.1207,8.4932,0.0],[-78.116,8.5004,0.0],[-78.1087,8.5057,0.0],[-78.1065,8.5093,0.0],[-78.1065,8.5129,0.0],[-78.1132,8.5171,0.0],[-78.1193,8.5174,0.0],[-78.1212,8.516,7.7958],[-78.121,8.5187,0.0],[-78.1229,8.519,0.0],[-78.1288,8.5185,9.0892],[-78.1335,8.5154,8.76],[-78.1343,8.5126,0.0],[-78.1365,8.5129,0.9711],[-78.1338,8.5196,10.1731],[-78.1312,8.5193,2.267],[-78.1299,8.5218,3.2791],[-78.1357,8.5285,8.4427],[-78.1346,8.536,0.0],[-78.1312,8.539,0.0],[-78.1326,8.5443,9.7374],[-78.1315,8.5549,12.0202],[-78.1326,8.5579,2.3905],[-78.1371,8.5604,1.2904],[-78.1413,8.5668,1.4302],[-78.1429,8.5743,0.0],[-78.1499,8.5843,0.0],[-78.1524,8.5982,21.1546],[-78.1507,8.5987,0.0],[-78.1476,8.5849,10.7316],[-78.1371,8.5676,5.7447],[-78.1288,8.5599,10.8427],[-78.1268,8.5485,9.3567],[-78.1282,8.5399,0.0],[-78.1263,8.5351,0.0],[-78.1237,8.5326,0.0],[-78.1229,8.5351,0.0],[-78.1218,8.5349,0.0],[-78.1093,8.5251,0.0],[-78.1026,8.5224,7.2697],[-78.0987,8.5168,0.0],[-78.0987,8.5115,1.9799],[-78.1021,8.5071,5.0905],[-78.1029,8.5021,0.0],[-78.1096,8.4957,0.0],[-78.1154,8.4871,0.0],[-78.1154,8.4813,0.0],[-78.1121,8.4735,7.3017],[-78.0943,8.456,0.0],[-78.0799,8.4337,6.4891],[-78.0776,8.4263,8.4196],[-78.0707,8.4249,2.0032],[-78.0682,8.4171,13.6145],[-78.066,8.4168,0.0],[-78.061,8.4229,12.8362],[-78.0574,8.4249,13.5723],[-78.0532,8.424,21.5551],[-78.0468,8.4201,0.0],[-78.0335,8.4182,0.0],[-78.0282,8.4135,10.5428],[-78.026,8.4085,0.0],[-78.021,8.4032,2.3082],[-78.0224,8.4018,11.837],[-78.0293,8.4085,1.6749],[-78.0279,8.4093,0.0],[-78.0304,8.4143,1.7173],[-78.0351,8.4176,0.0],[-78.0468,8.4182,10.9408],[-78.0526,8.4215,13.9968],[-78.0582,8.4224,0.0],[-78.0626,8.4151,10.96],[-78.0671,8.4146,1.8277],[-78.0707,8.4151,17.3004],[-78.076,8.4199,2.9776],[-78.0776,8.4196,2.9776],[-78.0788,8.4046,0.0],[-78.0715,8.3921,17.1189],[-78.0699,8.3846,0.0],[-78.0707,8.3818,0.0],[-78.0571,8.3607,18.2946],[-78.0504,8.3357,29.2992],[-78.0479,8.3335,10.3988],[-78.0468,8.3293,6.997],[-78.0385,8.3215,10.776],[-78.036,8.3118,0.0],[-78.031,8.309,5.6511],[-78.031,8.2943,0.0],[-78.0251,8.2704,0.0],[-78.0093,8.2571,10.3905],[-78.0038,8.2546,0.0],[-77.9901,8.2565,6.1417],[-77.9732,8.2521,4.1636],[-77.951,8.251,8.3067],[-77.9401,8.2465,4.8182],[-77.9274,8.2376,0.0],[-77.9163,8.2363,9.5998],[-77.8907,8.2271,14.2362],[-77.8835,8.2226,4.4983],[-77.8774,8.216,2.9704],[-77.8668,8.1965,0.0],[-77.8574,8.1962,13.2992],[-77.8501,8.1915,0.0],[-77.846,8.1854,0.0],[-77.8437,8.1763,0.0],[-77.839,8.1746,14.1076],[-77.8388,8.1696,9.8288],[-77.8426,8.1621,0.0],[-77.851,8.1627,10.0079],[-77.8524,8.1812,5.2411],[-77.8551,8.184,0.0],[-77.8743,8.1915,14.8159],[-77.879,8.199,7.9761],[-77.8807,8.2076,5.1532],[-77.8896,8.2157,0.0],[-77.9146,8.2251,7.5885],[-77.9313,8.2268,16.0327],[-77.9526,8.239,0.0],[-77.961,8.2396,0.0],[-77.9732,8.2374,0.0],[-77.9751,8.2346,0.0],[-77.966,8.2265,5.4021],[-77.9565,8.2129,6.1763],[-77.9443,8.2051,0.0],[-77.9358,8.2021,27.7509],[-77.9432,8.1967,8.8916],[-77.9546,8.2024,9.5019],[-77.9774,8.2243,2.3674],[-77.9901,8.2265,5.2963],[-78.0001,8.2235,0.0],[-78.0196,8.2299,16.5977],[-78.0301,8.2415,6.6241],[-78.0351,8.2513,24.342],[-78.0362,8.2571,0.0],[-78.0396,8.2615,8.255],[-78.0404,8.2671,0.0],[-78.0385,8.2815,0.0],[-78.0449,8.2918,3.9376],[-78.0493,8.3046,1.8143],[-78.0649,8.3213,3.838],[-78.0679,8.3276,0.0],[-78.0796,8.3407,0.0],[-78.0985,8.3401,12.5471],[-78.0987,8.3418,3.7966],[-78.0949,8.3451,16.77],[-78.1026,8.3493,0.0],[-78.1101,8.3571,0.0],[-78.1182,8.3571,0.0],[-78.121,8.3604,0.0],[-78.1263,8.3574,5.3384],[-78.1335,8.3579,5.6764],[-78.126,8.369,0.0],[-78.1304,8.3746,14.2038],[-78.1351,8.3874,0.0],[-78.1368,8.3963,0.0],[-78.1357,8.4054,15.4232],[-78.1471,8.4182,0.0],[-78.156,8.4185,9.1271],[-78.1571,8.4149,9.0596],[-78.1604,8.4138,0.0],[-78.161,8.4018,2.1232],[-78.1632,8.3985,0.0],[-78.1632,8.394,0.0],[-78.1588,8.386,0.0],[-78.159,8.3824,0.0],[-78.1632,8.3749,8.6639],[-78.1671,8.374,0.0],[-78.1668,8.3699,3.331],[-78.1699,8.3696,6.9827],[-78.1715,8.3643,9.2313],[-78.174,8.3635,12.5359],[-78.1754,8.3537,5.5374],[-78.181,8.3521,2.5102],[-78.1796,8.351,5.0854],[-78.1799,8.3446,1.4042],[-78.1768,8.3421,0.0],[-78.1868,8.339,0.0],[-78.1918,8.3346,0.0],[-78.191,8.3313,10.6505],[-78.1865,8.3276,7.1055],[-78.184,8.3213,0.0],[-78.1862,8.3193,0.0],[-78.1918,8.3196,0.0],[-78.1929,8.3179,0.0],[-78.1865,8.3151,2.99],[-78.184,8.3035,2.1147],[-78.1862,8.301,3.6924],[-78.1926,8.299,0.0],[-78.1993,8.289,15.5541],[-78.1899,8.2824,22.6794],[-78.189,8.2801,15.8855],[-78.1907,8.2799,3.4756],[-78.1937,8.2835,11.06],[-78.2012,8.2879,0.0],[-78.2026,8.2796,0.0],[-78.2096,8.279,1.3269],[-78.214,8.2751,6.2052],[-78.2176,8.2751,5.473],[-78.2204,8.2732,0.0],[-78.2179,8.2676,21.7468],[-78.2196,8.2701,3.2149],[-78.2238,8.2699,0.0],[-78.2262,8.2749,0.0],[-78.2321,8.2704,7.1698],[-78.2415,8.2757,0.0],[-78.2487,8.2896,0.0],[-78.2518,8.2918,1.7724],[-78.2529,8.296,2.7465],[-78.256,8.2971,0.0],[-78.261,8.296,0.0],[-78.2601,8.294,9.4794],[-78.2674,8.2835,9.5745],[-78.2693,8.2851,0.0],[-78.2743,8.2849,24.6271],[-78.2765,8.2874,0.0],[-78.2787,8.2865,28.3235],[-78.279,8.2832,0.0],[-78.2718,8.2799,0.0],[-78.2707,8.2751,0.0],[-78.2663,8.2743,20.7849],[-78.2663,8.2676,10.5297],[-78.2721,8.259,0.0],[-78.2835,8.2499,4.1475],[-78.2835,8.2471,13.6776],[-78.2876,8.2515,0.0],[-78.2885,8.2551,7.1481],[-78.2946,8.2551,7.5772],[-78.2954,8.259,0.0],[-78.2985,8.2551,5.8523],[-78.3051,8.2585,6.6277],[-78.3085,8.2574,0.0],[-78.3093,8.2535,0.0],[-78.3063,8.2526,45.4464],[-78.3079,8.2487,0.0],[-78.3043,8.2424,36.4282],[-78.2996,8.2376,4.1789],[-78.2971,8.2376,7.502],[-78.294,8.2326,44.0614],[-78.2951,8.2285,3.9067],[-78.291,8.2276,2.0068],[-78.2885,8.2232,0.0],[-78.2887,8.2199,0.0],[-78.2862,8.2207,10.6477],[-78.2857,8.2185,0.0],[-78.2776,8.216,12.1316],[-78.2771,8.2079,7.9507],[-78.2726,8.2065,0.0],[-78.2732,8.2029,6.2965],[-78.2696,8.1976,5.9808],[-78.2679,8.1965,0.0],[-78.2635,8.1974,6.4844],[-78.2618,8.1935,0.0],[-78.2582,8.1926,0.0],[-78.2524,8.1874,0.0],[-78.2454,8.1862,2.8806],[-78.2485,8.1618,13.1455],[-78.2499,8.1601,1.792],[-78.2493,8.1546,0.0],[-78.2476,8.1538,2.9149],[-78.2479,8.1476,9.633],[-78.2496,8.1435,9.3757],[-78.2538,8.1426,0.0],[-78.2507,8.1401,17.3771],[-78.2532,8.1374,0.0],[-78.2524,8.1351,21.8525],[-78.2554,8.1296,0.0],[-78.2588,8.1288,0.0],[-78.259,8.1265,6.9055],[-78.2615,8.1254,0.0],[-78.2607,8.1199,5.2695],[-78.2574,8.119,12.9224],[-78.2571,8.1168,2.153],[-78.2618,8.1129,8.3063],[-78.2643,8.1132,4.3379],[-78.2657,8.1112,5.9647],[-78.2726,8.109,0.0],[-78.286,8.0946,2.9617],[-78.296,8.0879,9.331],[-78.2996,8.0821,0.0],[-78.3057,8.0776,8.3852],[-78.3082,8.0729,0.0],[-78.311,8.0757,0.0],[-78.3249,8.0662,4.4694],[-78.3374,8.0607,0.0],[-78.3446,8.061,1.5103],[-78.3568,8.0646,1.8689],[-78.3601,8.0693,1.7393],[-78.3662,8.0696,7.3691],[-78.3676,8.0718,3.0238],[-78.3726,8.0718,1.0894],[-78.3737,8.0688,2.986],[-78.3782,8.0657,0.9461],[-78.3815,8.0671,0.0],[-78.3876,8.066,1.3288],[-78.3946,8.0696,0.0],[-78.4024,8.0682,3.4966],[-78.4062,8.0704,3.8451],[-78.4093,8.0701,0.7045],[-78.4124,8.0724,1.3453],[-78.4135,8.076,1.4322],[-78.4104,8.0751,0.0],[-78.4068,8.0774,2.7864],[-78.4068,8.0865,0.0],[-78.409,8.0907,0.0],[-78.4126,8.0913,7.893],[-78.4062,8.1082,0.0],[-78.4221,8.1057,0.0],[-78.434,8.0926,0.0],[-78.4385,8.0846,13.4117],[-78.4407,8.086,1.8372],[-78.4429,8.0826,2.4849],[-78.4474,8.0707,0.0],[-78.446,8.0699,22.0725],[-78.4451,8.064,15.6235],[-78.4463,8.0607,38.8278],[-78.449,8.0615,0.0],[-78.449,8.0571,0.0],[-78.4451,8.0554,12.7332],[-78.4468,8.044,0.0],[-78.4435,8.044,23.3464],[-78.4418,8.0407,37.0359],[-78.4429,8.036,3.1151],[-78.441,8.0351,0.0],[-78.4407,8.0382,18.4354],[-78.4376,8.0363,41.7723],[-78.4365,8.0324,0.4995],[-78.434,8.031,0.0],[-78.4329,8.0215,0.0],[-78.4301,8.0229,0.0],[-78.4268,8.0174,0.0],[-78.4249,8.0171,41.8464],[-78.4243,8.0129,0.0],[-78.4215,8.0112,0.0],[-78.4215,8.0079,0.0],[-78.4249,8.0057,0.0],[-78.4235,8.0021,8.3024],[-78.4257,8.001,0.0],[-78.4243,7.989,0.0],[-78.4221,7.984,0.0],[-78.424,7.9793,0.0],[-78.4196,7.9754,0.0],[-78.4201,7.9729,0.0],[-78.4162,7.9646,0.0],[-78.4124,7.9626,1.386],[-78.4115,7.9496,0.0],[-78.4076,7.946,0.0],[-78.4062,7.939,0.0],[-78.4029,7.9349,89.3101],[-78.4024,7.9282,4.316],[-78.399,7.9226,0.0],[-78.4004,7.916,5.6679],[-78.3946,7.914,6.1974],[-78.3932,7.9065,0.0],[-78.3887,7.9038,0.0],[-78.3849,7.9051,0.0],[-78.3793,7.8976,0.0],[-78.3593,7.8857,4.206],[-78.3549,7.8763,0.0],[-78.3512,7.8768,2.7454],[-78.3449,7.8724,18.8061],[-78.3446,7.866,0.0],[-78.341,7.8621,119.9364],[-78.3412,7.8565,24.955],[-78.3393,7.8529,86.5952],[-78.3418,7.8476,0.0],[-78.3385,7.8476,21.7177],[-78.3354,7.8415,0.0],[-78.336,7.8396,0.0],[-78.3304,7.8296,52.2308],[-78.331,7.826,13.6164],[-78.3268,7.821,8.1255],[-78.3243,7.8207,37.3391],[-78.3221,7.8146,21.8749],[-78.316,7.8085,0.0],[-78.3162,7.8062,0.0],[-78.3087,7.7963,0.0],[-78.3085,7.7918,0.0],[-78.3054,7.7857,24.2121],[-78.3024,7.784,25.8281],[-78.3021,7.7804,5.025],[-78.2949,7.7701,6.5119],[-78.2943,7.7671,0.0],[-78.2924,7.7676,13.5747],[-78.2907,7.7654,0.0],[-78.2899,7.7565,16.2414],[-78.2868,7.7535,6.7512],[-78.2876,7.749,32.469],[-78.2812,7.7412,3.2631],[-78.2812,7.7276,3.6324],[-78.2793,7.7238,71.6085],[-78.2821,7.7207,0.0],[-78.2812,7.7171,0.0],[-78.2918,7.7112,20.7966],[-78.2979,7.7026,0.0],[-78.2982,7.6988,0.0],[-78.2965,7.6965,0.0],[-78.2993,7.6965,0.0],[-78.2974,7.6946,0.0],[-78.2982,7.6915,0.0],[-78.2943,7.6915,16.0753],[-78.2968,7.6888,0.0],[-78.2976,7.6901,0.0],[-78.3021,7.6907,0.0],[-78.3018,7.6888,0.0],[-78.2988,7.6863,0.0],[-78.2974,7.6868,22.5771],[-78.2979,7.6832,0.0],[-78.296,7.6824,0.0],[-78.2932,7.6843,0.0],[-78.291,7.6832,0.0],[-78.2874,7.6874,0.0],[-78.2812,7.6843,0.0],[-78.2796,7.6815,0.0],[-78.2749,7.6818,0.0],[-78.274,7.6801,0.0],[-78.2726,7.6804,2.7106],[-78.2724,7.6843,0.0],[-78.2712,7.6812,80.4055],[-78.2763,7.6776,0.0],[-78.2737,7.6743,5.9907],[-78.2746,7.671,0.0],[-78.2726,7.6715,6.4377],[-78.2732,7.669,15.723],[-78.2712,7.6651,0.0],[-78.2696,7.6649,0.0],[-78.2665,7.6696,29.9591],[-78.2646,7.6699,0.0],[-78.2635,7.674,53.0518],[-78.2593,7.6738,14.1452],[-78.2557,7.669,0.0],[-78.2524,7.6685,34.5143],[-78.2521,7.6629,0.0],[-78.2457,7.6643,0.0],[-78.2393,7.6582,0.0],[-78.2382,7.654,11.5584],[-78.2412,7.6479,0.0],[-78.2399,7.6426,0.0],[-78.2374,7.6421,27.7544],[-78.2374,7.6357,0.0],[-78.2271,7.636,0.0],[-78.2218,7.6268,0.0],[-78.2168,7.626,34.3741],[-78.211,7.6182,0.0],[-78.206,7.6188,21.3582],[-78.2043,7.6126,0.0],[-78.2004,7.6118,23.9733],[-78.2001,7.604,17.018],[-78.1965,7.6001,17.9085],[-78.196,7.5954,0.0],[-78.1979,7.5924,0.0],[-78.2074,7.5915,13.2146],[-78.206,7.5843,0.0],[-78.2085,7.5826,8.5031],[-78.2076,7.5804,94.5942],[-78.2104,7.5799,0.0],[-78.211,7.5782,0.0],[-78.211,7.5737,0.0],[-78.2093,7.5729,81.3637],[-78.209,7.5688,47.0452],[-78.2063,7.5657,7.0803],[-78.2065,7.556,0.0],[-78.2029,7.5563,0.0],[-78.2032,7.559,40.0505],[-78.2001,7.5654,0.0],[-78.2012,7.5671,0.0],[-78.1985,7.5693,0.0],[-78.1985,7.574,0.0],[-78.2004,7.574,0.0],[-78.1996,7.5779,0.0],[-78.2018,7.5796,69.7134],[-78.2001,7.5838,6.685],[-78.1982,7.5815,0.0],[-78.1963,7.5821,25.9803],[-78.1918,7.5768,0.0],[-78.1932,7.5824,0.0],[-78.1896,7.584,4.4333],[-78.1824,7.5838,3.4694],[-78.1751,7.5804,0.0],[-78.1715,7.5754,0.0],[-78.1712,7.5732,8.1299],[-78.174,7.5724,0.0],[-78.1757,7.5682,4.7885],[-78.1801,7.5654,14.3428],[-78.179,7.5624,0.0],[-78.1743,7.5596,27.6251],[-78.174,7.5563,33.3897],[-78.1762,7.5554,0.0],[-78.1757,7.5462,0.0],[-78.1779,7.5435,0.0],[-78.1768,7.5407,0.0],[-78.179,7.5404,62.251],[-78.1818,7.5443,0.0],[-78.1837,7.5401,81.5708],[-78.186,7.5407,0.0],[-78.1868,7.539,15.1476],[-78.1854,7.5382,2.681],[-78.186,7.5362,0.0],[-78.1826,7.5357,76.9597],[-78.1854,7.5251,0.0],[-78.1832,7.5232,0.0],[-78.1826,7.5157,0.0],[-78.1774,7.5201,0.0],[-78.1738,7.519,58.8217],[-78.1724,7.5162,0.0],[-78.1704,7.5165,0.0],[-78.1696,7.519,0.0],[-78.1721,7.5226,0.125],[-78.1707,7.5276,4.9527],[-78.1699,7.5276,6.7516],[-78.1707,7.524,0.5],[-78.1671,7.5232,1.9184],[-78.1557,7.5285,7.4648],[-78.1682,7.5182,1.6499],[-78.1649,7.514,0.0],[-78.1435,7.5038,6.6346],[-78.1293,7.4924,39.4009],[-78.1285,7.4868,32.0709],[-78.1332,7.4863,5.7809],[-78.1324,7.4832,3.8404],[-78.1338,7.479,0.0],[-78.1315,7.4782,0.0],[-78.1301,7.4751,0.0],[-78.126,7.4749,0.0],[-78.126,7.4676,0.0],[-78.1226,7.4657,0.0],[-78.124,7.4629,0.0],[-78.1118,7.4565,10.3952],[-78.1082,7.449,13.1055],[-78.106,7.4476,0.0],[-78.1021,7.4499,11.5114],[-78.0987,7.4471,6.0113],[-78.0976,7.4435,0.0],[-78.0957,7.4457,61.2101],[-78.0915,7.4462,6.9082],[-78.089,7.4421,0.0],[-78.0871,7.4421,16.7713],[-78.0851,7.4368,0.0],[-78.0818,7.4363,9.982],[-78.0815,7.434,0.0],[-78.0779,7.4313,150.1882],[-78.0779,7.4271,11.6982],[-78.0757,7.4274,119.8128],[-78.076,7.4257,0.0],[-78.0743,7.4249,14.3441],[-78.0751,7.4207,0.0],[-78.0732,7.4201,0.0],[-78.0726,7.4162,0.0],[-78.0707,7.4162,8.6597],[-78.0696,7.414,10.1707],[-78.0646,7.416,0.0],[-78.0601,7.4207,33.9917],[-78.061,7.4249,6.1149],[-78.0596,7.4268,16.7303],[-78.056,7.4265,0.0],[-78.0507,7.4288,28.4431],[-78.0454,7.4265,0.0],[-78.044,7.4232,0.0],[-78.0465,7.4162,14.2252],[-78.0451,7.4137,0.0],[-78.0429,7.4151,51.2339],[-78.0413,7.4137,2.0106],[-78.0404,7.4093,9.4163],[-78.041,7.4068,16.1806],[-78.0437,7.4071,0.0],[-78.044,7.4032,7.7606],[-78.0474,7.4004,0.0],[-78.0451,7.3988,6.5085],[-78.0465,7.3971,0.0],[-78.0446,7.3943,28.7465],[-78.0446,7.3901,0.0],[-78.0404,7.3893,6.3286],[-78.041,7.3862,0.0],[-78.036,7.3879,6.9825],[-78.0385,7.3899,0.0],[-78.0379,7.3921,6.9794],[-78.0349,7.3924,12.0416],[-78.0329,7.3907,5.6991],[-78.0285,7.3929,5.2228],[-78.0257,7.391,3.1089],[-78.0265,7.3879,12.3417],[-78.0254,7.386,0.0],[-78.024,7.3876,18.6231],[-78.0224,7.3871,31.2508],[-78.0221,7.3846,47.438],[-78.0235,7.3837,7.1533],[-78.0224,7.3804,34.177],[-78.0268,7.3799,0.0],[-78.0249,7.3782,0.0],[-78.0251,7.3751,4.0118],[-78.029,7.371,0.0],[-78.0274,7.3699,0.0],[-78.029,7.3665,0.0],[-78.0271,7.3632,0.0],[-78.0287,7.3521,0.0],[-78.024,7.3515,38.9164],[-78.0235,7.3388,21.9425],[-78.0196,7.3379,68.7399],[-78.0199,7.334,18.0422],[-78.016,7.3315,2.3118],[-78.0107,7.3312,0.0],[-78.0076,7.3257,27.2828],[-78.0046,7.3263,2.789],[-77.999,7.3218,0.3308],[-77.9996,7.3171,3.0254],[-77.9968,7.3115,27.7316],[-77.999,7.3093,0.0],[-77.9993,7.3057,0.0],[-77.9962,7.3074,71.4076],[-77.9976,7.3035,0.0],[-77.9954,7.3065,7.9735],[-77.9926,7.3054,0.0],[-77.9874,7.2985,15.3014],[-77.9876,7.2962,0.0],[-77.9846,7.2974,41.5327],[-77.9804,7.2924,0.0],[-77.9774,7.2938,5.401],[-77.9743,7.2899,0.0],[-77.9754,7.2879,0.0],[-77.9721,7.2876,0.0],[-77.9657,7.2835,0.0],[-77.9654,7.2804,0.0],[-77.9568,7.2804,0.0],[-77.9563,7.2765,0.0],[-77.9518,7.2768,0.0],[-77.9526,7.274,0.0],[-77.9507,7.2732,0.0],[-77.9515,7.2704,0.0],[-77.949,7.264,0.0],[-77.9457,7.2646,38.8666],[-77.9426,7.2621,10.2531],[-77.9396,7.2635,2.9986],[-77.939,7.2615,0.0],[-77.9415,7.2582,0.0],[-77.9388,7.2593,0.0],[-77.9321,7.2537,0.0],[-77.9265,7.2529,0.0],[-77.9246,7.2504,0.0],[-77.9249,7.246,0.0],[-77.9193,7.2446,109.844],[-77.9193,7.2418,0.0],[-77.9135,7.2399,0.0],[-77.9112,7.2418,40.4177],[-77.9099,7.2363,0.0],[-77.9076,7.2365,0.0],[-77.906,7.2393,0.0],[-77.9032,7.2368,0.0],[-77.8974,7.2363,0.0],[-77.8968,7.2335,30.1479],[-77.8985,7.231,2.511],[-77.8957,7.229,4.2574],[-77.896,7.2265,0.0],[-77.8935,7.2274,0.0],[-77.8946,7.2235,0.0],[-77.8935,7.2215,0.0],[-77.8874,7.2232,7.8601],[-77.8871,7.2204,0.0],[-77.8834,7.2184,20.8319],[-77.8803,7.2205,250.6552],[-77.87,7.2354,550.5648],[-77.8595,7.2737,403.3377],[-77.8587,7.2856,278.9048],[-77.8482,7.3031,59.4781],[-77.8475,7.3182,360.9548],[-77.8448,7.3244,281.2911],[-77.8466,7.329,396.6761],[-77.8461,7.3328,507.7512],[-77.8305,7.3606,426.2982],[-77.8244,7.3841,439.3339],[-77.8189,7.3963,559.2661],[-77.817,7.4079,525.1508],[-77.8099,7.4281,590.875],[-77.8039,7.4395,495.571],[-77.8,7.4567,408.6282]],
[[-78.1811,7.6648,747.6776],[-78.1877,7.673,815.7953],[-78.2057,7.6841,704.2689],[-78.2149,7.6974,1127.8718],[-78.2327,7.714,572.9742],[-78.2396,7.7255,765.0334],[-78.2453,7.7318,694.6346],[-78.2586,7.7571,889.6814],[-78.2685,7.7696,648.6549],[-78.2703,7.7808,800.533],[-78.2752,7.7902,743.845],[-78.2759,7.8062,948.6989],[-78.2821,7.8212,979.0628],[-78.2949,7.8396,661.343],[-78.2961,7.8584,925.3699],[-78.2998,7.8603,810.8503],[-78.3101,7.8573,504.8275],[-78.3169,7.8591,364.0096],[-78.3298,7.8875,227.8225],[-78.3357,7.9024,231.7585],[-78.3362,7.9111,256.8879],[-78.3253,7.9307,363.8475],[-78.3272,7.9343,395.9872],[-78.3367,7.9406,410.3494],[-78.3374,7.945,360.8462],[-78.3262,7.9638,189.8266],[-78.2968,7.9653,212.2342],[-78.2912,7.973,94.4997],[-78.2838,7.9781,42.9477],[-78.2791,7.9845,36.6702],[-78.2645,7.9896,22.0702],[-78.2574,7.9961,21.668],[-78.2398,7.9866,13.545],[-78.2282,7.9835,36.3741],[-78.2178,7.9828,11.7004],[-78.2109,7.9852,12.151],[-78.2016,8.0032,14.1363],[-78.2116,8.0191,4.6863],[-78.2092,8.0396,11.2238],[-78.2202,8.0487,5.0418],[-78.2346,8.0532,20.682],[-78.2354,8.0554,20.1507],[-78.2332,8.0593,13.1402],[-78.2337,8.0657,22.8528],[-78.2137,8.078,12.7572],[-78.2065,8.0808,12.6838],[-78.1973,8.0817,37.7195],[-78.1885,8.0943,66.5295],[-78.1834,8.097,46.6157],[-78.1787,8.0953,134.5958],[-78.1729,8.0863,291.5682],[-78.1609,8.0766,322.4496],[-78.1582,8.0706,312.165],[-78.1559,8.0566,337.5612],[-78.1397,8.041,347.638],[-78.1347,8.0397,280.8953],[-78.1345,8.0335,345.0693],[-78.1319,8.031,315.3593],[-78.1291,8.0308,253.263],[-78.1291,8.0279,304.1376],[-78.1267,8.0253,303.9696],[-78.1219,8.0234,309.9641],[-78.1186,8.0177,283.1263],[-78.1157,8.0069,286.4303],[-78.1146,7.9933,265.8431],[-78.1075,7.9779,285.3751],[-78.1036,7.9755,229.1732],[-78.0931,7.9735,162.5439],[-78.0866,7.9655,254.2934],[-78.0822,7.9439,319.8951],[-78.0859,7.9271,145.9891],[-78.0844,7.919,131.2048],[-78.0815,7.9171,219.6421],[-78.0772,7.9179,320.7072],[-78.0333,7.9518,215.3884],[-78.0259,7.9495,234.403],[-78.022,7.9446,250.1093],[-78.0171,7.9252,209.5985],[-78.0063,7.9035,160.5499],[-78.0051,7.8864,317.4305],[-77.9985,7.8724,469.8938],[-77.9926,7.8438,526.295],[-77.9843,7.8335,572.9943],[-77.9801,7.8145,500.368],[-77.9801,7.7982,545.0306],[-77.9764,7.7951,432.3035],[-77.9617,7.7944,514.1353],[-77.9578,7.792,505.5157],[-77.9557,7.7871,654.5334],[-77.9546,7.776,661.0837],[-77.9479,7.7604,675.33],[-77.9486,7.7455,658.6611],[-77.9559,7.7392,582.9673],[-77.9568,7.7354,709.9017],[-77.9512,7.7251,689.9109],[-77.9477,7.7072,671.3497],[-77.9497,7.6894,855.8569],[-77.9439,7.6774,877.1653],[-77.9461,7.6621,951.6414],[-77.9448,7.6233,1088.7734],[-77.9523,7.6167,997.4121],[-77.9635,7.6107,1251.6758],[-77.9706,7.6002,1324.969],[-77.9791,7.5944,1165.5134],[-77.9909,7.5903,875.3799],[-77.9963,7.5916,915.7914],[-78.0016,7.5969,815.8525],[-78.0083,7.6195,1027.5333],[-78.0254,7.6173,615.6299],[-78.0372,7.6139,434.7972],[-78.0412,7.6098,392.3374],[-78.0417,7.5966,527.524],[-78.0433,7.5923,316.0888],[-78.0493,7.5895,347.1046],[-78.057,7.5822,151.8281],[-78.0632,7.5812,131.7589],[-78.0722,7.6097,357.3777],[-78.0774,7.6208,294.2016],[-78.0824,7.6526,473.999],[-78.0854,7.6531,404.5077],[-78.0904,7.6486,524.7314],[-78.0944,7.6482,607.4049],[-78.1032,7.6554,1029.1395],[-78.1089,7.6578,882.864],[-78.1253,7.6736,1335.3799],[-78.1459,7.6793,1336.0745],[-78.1811,7.6648,747.6776]]],
[[[-78.0468,7.404,0.0],[-78.0457,7.4063,0.0],[-78.0476,7.4071,0.0],[-78.0485,7.4051,0.0],[-78.0468,7.404,0.0]]],
[[[-78.1243,8.3607,0.0],[-78.124,8.3618,0.0],[-78.1307,8.3588,0.0],[-78.1265,8.359,0.0],[-78.1243,8.3607,0.0]]],
[[[-77.8585,8.1901,0.0],[-77.8557,8.1904,0.0],[-77.856,8.1918,0.0],[-77.8604,8.1907,0.0],[-77.8585,8.1901,0.0]]],
[[[-78.2721,7.6601,0.8365],[-78.2715,7.6624,0.0],[-78.2729,7.6626,0.0],[-78.274,7.6588,0.0],[-78.2721,7.6601,0.8365]]],
[[[-78.2187,7.546,20.9974],[-78.2201,7.5465,0.0],[-78.221,7.5435,0.0],[-78.2187,7.5446,6.1321],[-78.2187,7.546,20.9974]]],
[[[-78.2271,7.5674,20.9531],[-78.2288,7.5688,0.0],[-78.2282,7.5643,0.0],[-78.2276,7.5646,2.803],[-78.2271,7.5674,20.9531]]],
[[[-78.2154,8.3435,7.8752],[-78.2185,8.344,0.0],[-78.2187,8.3385,0.0],[-78.2174,8.336,0.0],[-78.2143,8.3371,0.0],[-78.2138,8.339,0.0],[-78.2132,8.3426,0.0],[-78.2154,8.3435,7.8752]]],
[[[-78.2035,8.3757,0.0],[-78.2057,8.3765,0.0],[-78.2054,8.3743,3.9452],[-78.2038,8.374,3.9452],[-78.2035,8.3757,0.0]]],
[[[-78.2007,8.3757,0.0],[-78.1996,8.3757,0.0],[-78.2001,8.3787,0.0],[-78.2018,8.3782,0.0],[-78.2007,8.3757,0.0]]],
[[[-78.3749,8.3232,0.0],[-78.3774,8.3251,0.0],[-78.3788,8.3224,0.0],[-78.3754,8.3218,0.0],[-78.3749,8.3232,0.0]]],
[[[-78.3518,8.3462,16.0959],[-78.3535,8.3471,0.0],[-78.3551,8.3457,7.6043],[-78.3549,8.3429,2.6882],[-78.3437,8.3407,12.5466],[-78.3399,8.3371,14.928],[-78.3379,8.3376,11.5616],[-78.3318,8.3349,0.0],[-78.3399,8.3426,0.0],[-78.3518,8.3462,16.0959]]],
[[[-78.346,8.3535,3.0938],[-78.3451,8.3549,0.0],[-78.3487,8.3538,0.0],[-78.349,8.3512,0.0],[-78.3468,8.3518,0.0],[-78.346,8.3535,3.0938]]],
[[[-78.3629,8.3785,0.0],[-78.3651,8.379,0.0],[-78.3649,8.3807,0.0],[-78.3674,8.3799,0.0],[-78.3657,8.3765,0.0],[-78.3626,8.3771,0.0],[-78.3629,8.3785,0.0]]],
[[[-78.1454,8.4229,0.0],[-78.1449,8.4249,0.0],[-78.1474,8.4251,6.0075],[-78.1468,8.4224,2.8132],[-78.1454,8.4229,0.0]]],
[[[-78.1482,8.4257,2.4418],[-78.1485,8.4285,0.7118],[-78.1499,8.4285,0.7118],[-78.1501,8.4254,3.7769],[-78.1482,8.4257,2.4418]]],
[[[-78.139,8.4279,0.0],[-78.1382,8.4279,0.0],[-78.1387,8.4304,0.0],[-78.1396,8.4301,0.0],[-78.139,8.4279,0.0]]],
[[[-78.1582,8.4443,0.0],[-78.1635,8.4449,10.0834],[-78.1671,8.4407,0.0],[-78.1671,8.4335,0.0],[-78.1637,8.424,66.7482],[-78.1649,8.4224,0.0],[-78.1601,8.4182,0.0],[-78.1582,8.4207,10.4673],[-78.1507,8.4201,0.0],[-78.1504,8.4213,7.9223],[-78.151,8.4301,5.1234],[-78.1551,8.4337,3.9022],[-78.1551,8.4351,0.0],[-78.1574,8.4357,3.862],[-78.1582,8.4443,0.0]]],
[[[-78.139,8.4382,0.0],[-78.1407,8.4399,0.0],[-78.1401,8.434,0.0],[-78.1387,8.4354,0.0],[-78.139,8.4382,0.0]]],
[[[-78.1482,8.4446,8.5875],[-78.149,8.4457,0.0],[-78.1565,8.4451,0.0],[-78.156,8.4371,15.7755],[-78.1543,8.4337,3.9022],[-78.1524,8.4332,0.0],[-78.146,8.436,0.0],[-78.1482,8.4446,8.5875]]],
[[[-78.1526,8.4596,0.0],[-78.1515,8.4596,0.0],[-78.1521,8.4624,0.0],[-78.1543,8.4621,0.0],[-78.154,8.461,7.1645],[-78.1526,8.4596,0.0]]],
[[[-78.1263,8.531,3.5974],[-78.1274,8.5321,0.0],[-78.1274,8.529,0.0],[-78.1254,8.5296,0.9884],[-78.1263,8.531,3.5974]]],
[[[-78.0118,8.2354,26.142],[-78.0154,8.2351,7.9585],[-78.0101,8.2299,0.0],[-78.0015,8.2282,0.0],[-77.9938,8.2293,2.4047],[-78.0026,8.2343,4.9676],[-78.0118,8.2354,26.142]]],
[[[-78.1207,8.5313,0.0],[-78.1218,8.5324,0.0],[-78.1235,8.5321,0.0],[-78.1215,8.5301,0.0],[-78.1207,8.5313,0.0]]],
[[[-78.129,8.534,0.0],[-78.1301,8.5349,0.0],[-78.1299,8.5324,0.0],[-78.1282,8.5329,0.0],[-78.129,8.534,0.0]]],
[[[-78.2057,8.3851,9.2516],[-78.2085,8.3854,29.4913],[-78.2093,8.3837,0.0],[-78.2085,8.3801,0.0],[-78.2054,8.3785,0.0],[-78.2035,8.384,10.0098],[-78.2057,8.3851,9.2516]]],
[[[-78.1915,8.3821,0.0],[-78.1913,8.3835,0.0],[-78.1929,8.3843,0.0],[-78.1929,8.3818,0.0],[-78.1915,8.3821,0.0]]],
[[[-78.1857,8.3879,8.9133],[-78.1868,8.389,0.0],[-78.1901,8.3882,13.8052],[-78.1915,8.3849,0.0],[-78.1888,8.3849,0.0],[-78.1857,8.3879,8.9133]]],
[[[-78.1837,8.3965,9.8896],[-78.1868,8.3971,0.0],[-78.1879,8.3932,0.0],[-78.1835,8.3938,7.663],[-78.1837,8.3965,9.8896]]],
[[[-78.3279,8.4587,0.0],[-78.329,8.4599,0.0],[-78.3301,8.4599,1.6963],[-78.3293,8.4571,4.3192],[-78.3279,8.4587,0.0]]],
[[[-78.274,8.4676,1.6068],[-78.2771,8.4685,8.3113],[-78.2774,8.4651,0.0],[-78.2765,8.4649,0.0],[-78.274,8.4676,1.6068]]],
[[[-78.4054,8.5335,9.0484],[-78.4074,8.5343,0.0],[-78.4071,8.531,1.5986],[-78.4049,8.5285,0.0],[-78.4035,8.5304,2.2628],[-78.4054,8.5335,9.0484]]],
[[[-78.3946,8.5329,0.0],[-78.396,8.5346,0.0],[-78.396,8.5299,0.0],[-78.3949,8.531,0.0],[-78.3946,8.5329,0.0]]],
[[[-78.4024,8.551,0.0],[-78.4049,8.5518,4.6372],[-78.406,8.5499,0.0],[-78.4065,8.5374,12.5646],[-78.4054,8.5357,0.0],[-78.4029,8.5376,2.439],[-78.4037,8.5443,7.0947],[-78.4024,8.551,0.0]]],
[[[-78.1832,8.419,18.099],[-78.1854,8.4201,1.7024],[-78.1865,8.4171,4.3069],[-78.1851,8.4165,0.0],[-78.1832,8.419,18.099]]],
[[[-78.2187,8.5149,0.0],[-78.2174,8.5151,0.0],[-78.2179,8.5182,0.0],[-78.2187,8.5182,0.0],[-78.2187,8.5149,0.0]]]]}}