{"type":"Feature","properties":{"featurecla":"Island","name":"Darien Gap","namealt":null,"region":"North America","subregion":"Central America","min_label":6.0,"max_label":11.0,"scalerank":6},
"geometry":{"type": "Polygon","coordinates": [[[-77.366479983152686,7.7460864447225646,125.5296],[-77.231922980853739,7.82385895390037,234.591],[-77.192480304856787,7.9365160392050456,417.0108],[-77.181839102129544,7.9669096890547593,456.8273],[-77.1750382152288,7.9863345398378414,606.2737],[-77.418751594134989,8.5874087585878129,266.7972],[-77.429503089665758,8.5977125556509435,53.5171],[-77.613697883197517,8.7742373718690629,243.5961],[-77.9954727855413,8.4168154968690772,37.212],[-78.239125129291267,8.359930731244134,0.0],[-77.873646613666239,7.718207098431634,112.6361],[-77.769286795223849,7.6783170220053449,611.8749],[-77.658531745793312,7.6359824582592069,837.8091],[-77.597401496478767,7.61261627811912,375.8299],[-77.366479983152686,7.7460864447225646,125.5296]]]}}