{"type":"Feature","properties":{"ISO3166-1-Alpha-3":"PAN","country":"Panama","fill":"#FF0","id":"1418","name":"Darién"},
"geometry":{"type": "Polygon","coordinates": [[[-77.69484,8.78608,429.046],[-77.70114,8.80029,247.4501],[-77.71241,8.81386,268.963],[-77.75204,8.85011,327.17],[-77.76419,8.8591,296.6734],[-77.77923,8.86654,405.4531],[-77.80672,8.88571,310.9023],[-77.82367,8.89339,308.9406],[-77.83369,8.90036,286.1419],[-77.84036,8.91132,283.5735],[-77.84648,8.92426,229.4981],[-77.85666,8.94126,230.292],[-77.91191,8.99697,464.0266],[-77.94208,9.02072,441.7065],[-78.01534,9.07324,478.493],[-78.04254,9.07324,238.5774],[-78.0482,9.06128,383.5392],[-78.06854,9.03459,263.4254],[-78.07533,9.01979,265.6622],[-78.07988,9.00108,109.107],[-78.08213,8.97671,153.3078],[-78.08166,8.9587,179.374],[-78.07918,8.94374,147.9492],[-78.08407,8.93436,139.0447],[-78.09484,8.92783,140.4479],[-78.11972,8.92209,100.3927],[-78.13721,8.91426,80.4614],[-78.15404,8.89966,91.6966],[-78.16708,8.87773,126.4632],[-78.17499,8.87197,130.9361],[-78.18592,8.86933,129.7018],[-78.20501,8.87088,122.5242],[-78.22186,8.87034,103.7048],[-78.24266,8.866,99.0754],[-78.27129,8.85266,122.5251],[-78.281,8.84256,121.8767],[-78.2847,8.83295,125.433],[-78.28581,8.82458,85.2903],[-78.29033,8.81603,85.2453],[-78.29963,8.80913,169.4398],[-78.30901,8.80672,551.3735],[-78.3217,8.81207,475.8268],[-78.33172,8.82737,186.5115],[-78.33816,8.83303,166.2736],[-78.36232,8.84171,201.4084],[-78.37903,8.84481,111.4179],[-78.39304,8.84543,251.2177],[-78.43888,8.83,410.2019],[-78.44603,8.82535,523.049],[-78.45117,8.81969,666.1487],[-78.44841,8.80595,1170.8474],[-78.43691,8.7483,169.361],[-78.4334,8.73838,139.5992],[-78.42877,8.71448,172.8701],[-78.42823,8.7026,102.2454],[-78.43172,8.68717,76.0282],[-78.43562,8.67645,104.8517],[-78.44154,8.66505,127.1898],[-78.44508,8.65358,130.0492],[-78.44813,8.63875,67.8052],[-78.45211,8.59811,21.8269],[-78.45784,8.56862,25.3491],[-78.45846,8.56038,37.0336],[-78.45492,8.55658,48.5505],[-78.45133,8.55372,25.2848],[-78.44795,8.54627,12.853],[-78.44911,8.53354,18.7081],[-78.44523,8.50832,43.5071],[-78.43239,8.47767,173.3328],[-78.4296,8.45563,154.5138],[-78.41324,8.39755,59.6569],[-78.40969,8.35301,18.9081],[-78.40783,8.352,0.0],[-78.39948,8.34882,25.8295],[-78.39232,8.34439,42.5608],[-78.38834,8.33576,0.0],[-78.36099,8.39411,0.0],[-78.36535,8.41063,0.0],[-78.3841,8.42597,0.0],[-78.39379,8.47386,12.1488],[-78.41202,8.5235,18.5978],[-78.40819,8.54804,7.9653],[-78.40197,8.54804,0.0],[-78.40197,8.52757,0.0],[-78.39452,8.52757,0.0],[-78.39452,8.53437,0.0],[-78.38834,8.53437,6.4638],[-78.39074,8.52749,0.0],[-78.39452,8.5207,0.0],[-78.38687,8.50047,0.0],[-78.37645,8.44131,0.0],[-78.36726,8.42451,8.0686],[-78.35302,8.4289,0.0],[-78.33483,8.44619,0.0],[-78.32103,8.46625,0.0],[-78.32006,8.47915,0.0],[-78.31261,8.48656,22.2176],[-78.30333,8.45429,4.8672],[-78.29455,8.44326,24.5217],[-78.27847,8.44562,0.0],[-78.2648,8.47297,0.0],[-78.26008,8.47842,0.0],[-78.25475,8.48188,4.081],[-78.25259,8.48774,8.3206],[-78.25739,8.50023,0.0],[-78.24157,8.49478,10.26],[-78.24039,8.4853,5.3489],[-78.25113,8.46613,17.9312],[-78.25495,8.46137,19.8188],[-78.25894,8.46166,20.7739],[-78.26065,8.46064,19.6192],[-78.25739,8.45185,0.0],[-78.25357,8.44782,0.0],[-78.24787,8.44453,0.0],[-78.24185,8.44001,14.5902],[-78.23746,8.43195,0.0],[-78.22985,8.43439,0.0],[-78.22639,8.43598,0.0],[-78.22326,8.43818,0.0],[-78.22326,8.44562,0.0],[-78.23046,8.45645,0.0],[-78.22558,8.46825,11.4728],[-78.21784,8.48249,10.9087],[-78.21642,8.50023,0.0],[-78.2233,8.51057,0.0],[-78.23282,8.51838,0.0],[-78.2377,8.52753,0.0],[-78.2307,8.54182,3.2907],[-78.22326,8.54182,14.6344],[-78.2067,8.48774,12.6932],[-78.20153,8.45734,62.405],[-78.20275,8.42451,29.2302],[-78.20983,8.42699,20.7888],[-78.21251,8.42866,6.7081],[-78.21642,8.43195,0.0],[-78.24535,8.41767,26.3403],[-78.25113,8.41087,38.2189],[-78.25304,8.40379,19.6828],[-78.25284,8.39472,18.5187],[-78.24913,8.38691,13.4859],[-78.24059,8.38353,0.0],[-78.22256,8.3863,0.0],[-78.20377,8.39395,0.0],[-78.18887,8.40575,0.0],[-78.18293,8.42109,0.0],[-78.17943,8.44208,0.0],[-78.17016,8.45767,0.0],[-78.15685,8.46621,0.0],[-78.14127,8.46613,16.0067],[-78.13142,8.45808,76.6295],[-78.11925,8.44253,102.7974],[-78.10033,8.41087,0.0],[-78.09415,8.41087,0.0],[-78.08959,8.4204,0.0],[-78.09093,8.43085,0.0],[-78.10481,8.46336,0.0],[-78.10652,8.47211,31.4515],[-78.10582,8.50503,0.0],[-78.10619,8.50804,0.0],[-78.1112,8.50902,27.9283],[-78.1245,8.51765,9.4223],[-78.12955,8.52729,0.0],[-78.13036,8.55248,0.0],[-78.13443,8.56171,0.0],[-78.12312,8.55606,18.7962],[-78.11994,8.54829,14.4108],[-78.11889,8.53876,31.5997],[-78.114,8.52757,0.0],[-78.10289,8.51805,0.0],[-78.09386,8.51594,4.878],[-78.08812,8.51276,2.4424],[-78.08666,8.50023,7.6062],[-78.09,8.49189,21.9253],[-78.09557,8.48517,27.4556],[-78.09854,8.47578,27.3513],[-78.09415,8.4593,31.8712],[-78.08593,8.44636,29.7923],[-78.07478,8.43452,31.5377],[-78.06273,8.42471,30.1287],[-78.05191,8.41767,31.047],[-78.06705,8.40274,30.1151],[-78.0607,8.37592,26.3095],[-78.03893,8.33234,28.1596],[-78.03474,8.30964,0.0],[-78.02318,8.29047,10.0381],[-78.00593,8.27603,16.7035],[-77.98428,8.26752,6.9034],[-77.89542,8.25153,3.7151],[-77.88069,8.24331,9.6747],[-77.87059,8.23579,12.7483],[-77.8192,8.17129,7.1479],[-77.80187,8.17438,5.7396],[-77.76513,8.13007,22.1901],[-77.73721,8.13032,15.6227],[-77.74641,8.11636,19.4134],[-77.7626,8.11188,5.9808],[-77.77815,8.11579,5.3033],[-77.78502,8.1269,8.9208],[-77.78856,8.14399,4.9712],[-77.79727,8.1577,4.6947],[-77.80842,8.16376,5.4197],[-77.8192,8.15766,18.1456],[-77.82925,8.16279,24.607],[-77.83556,8.17011,18.0332],[-77.83873,8.18065,23.2631],[-77.83967,8.1955,6.6271],[-77.84508,8.20258,12.4297],[-77.86901,8.21548,5.6933],[-77.88598,8.23469,22.2541],[-77.91259,8.24433,7.0641],[-77.96255,8.25385,15.6473],[-77.95588,8.24164,0.0],[-77.94473,8.23054,18.8689],[-77.93073,8.2224,19.8976],[-77.91539,8.21906,27.9955],[-77.91539,8.21288,9.3247],[-77.92907,8.21288,13.9266],[-77.93773,8.21442,28.7757],[-77.9466,8.21841,17.8623],[-77.95352,8.22378,16.401],[-77.96129,8.23802,21.4599],[-77.97204,8.23847,0.0],[-77.98266,8.23534,0.0],[-77.98742,8.23334,0.0],[-78.00255,8.23701,0.0],[-78.01513,8.24653,0.0],[-78.02489,8.25971,0.0],[-78.04247,8.30736,0.0],[-78.05101,8.3225,0.0],[-78.06249,8.32892,0.0],[-78.07665,8.33185,29.0425],[-78.09455,8.33906,11.0189],[-78.11095,8.34797,31.6777],[-78.12084,8.35627,27.1059],[-78.12328,8.36449,0.0],[-78.12829,8.40095,0.0],[-78.13248,8.40534,0.0],[-78.14192,8.40404,8.0464],[-78.15136,8.39948,27.5797],[-78.15559,8.39411,33.4885],[-78.15575,8.37434,16.814],[-78.15754,8.36555,107.542],[-78.16177,8.35627,33.1421],[-78.18004,8.33759,20.6488],[-78.18293,8.33576,47.7913],[-78.1844,8.32534,4.0614],[-78.18293,8.29792,19.327],[-78.18586,8.29511,22.2216],[-78.19811,8.27831,15.6331],[-78.1997,8.27436,16.5368],[-78.21422,8.27216,21.9536],[-78.22191,8.27192,0.0],[-78.2307,8.27436,0.0],[-78.23746,8.27851,0.0],[-78.24893,8.28921,3.3256],[-78.25739,8.29483,17.1727],[-78.2613,8.28474,6.2471],[-78.26366,8.28433,9.4035],[-78.27164,8.28115,23.7838],[-78.26818,8.27668,26.3899],[-78.2661,8.27326,12.2385],[-78.26317,8.27033,26.8083],[-78.25739,8.26752,38.5565],[-78.25739,8.26,40.7669],[-78.27009,8.25239,10.7562],[-78.27864,8.25096,11.6314],[-78.30578,8.25385,53.1721],[-78.30578,8.24641,51.3102],[-78.29406,8.2392,60.3629],[-78.2648,8.20539,15.5437],[-78.25329,8.19579,19.9655],[-78.24474,8.18692,2.8806],[-78.23937,8.17438,8.9911],[-78.23746,8.15396,21.5016],[-78.25219,8.1175,30.0524],[-78.28645,8.08072,36.3612],[-78.32518,8.06094,5.6198],[-78.35359,8.07567,0.0],[-78.36522,8.06599,6.8566],[-78.38134,8.06363,12.8944],[-78.39574,8.06989,0.0],[-78.4073,8.1022,0.0],[-78.41906,8.0954,163.7646],[-78.43082,8.07713,205.6673],[-78.43615,8.05829,181.493],[-78.43358,8.0458,126.9496],[-78.41564,8.01362,91.9836],[-78.41364,8.00365,171.1993],[-78.41601,7.99217,107.8313],[-78.41564,7.98013,56.0584],[-78.40758,7.94823,28.5754],[-78.39452,7.91743,126.0038],[-78.37597,7.89419,0.0],[-78.35114,7.87018,0.0],[-78.32942,7.84325,354.7341],[-78.32006,7.81127,2.6968],[-78.31534,7.79987,0.0],[-78.28527,7.75414,62.5475],[-78.27815,7.73737,59.7055],[-78.2775,7.72435,135.9324],[-78.28258,7.71064,89.4277],[-78.29214,7.69147,25.9693],[-78.28213,7.68846,0.0],[-78.27359,7.68281,0.0],[-78.26928,7.67455,180.8908],[-78.27164,7.66356,0.0],[-78.25235,7.66096,0.0],[-78.2377,7.64989,96.167],[-78.21642,7.62254,0.0],[-78.20446,7.61213,0.0],[-78.20031,7.60643,0.0],[-78.19652,7.59589,0.0],[-78.19664,7.58491,79.2953],[-78.20031,7.57616,15.5384],[-78.20202,7.56684,53.5025],[-78.19652,7.5537,0.0],[-78.19445,7.57144,0.0],[-78.1848,7.57941,0.0],[-78.17422,7.57543,0.0],[-78.16926,7.55744,125.387],[-78.16832,7.52241,1.9184],[-78.16609,7.51264,0.0],[-78.16177,7.52766,14.9136],[-78.15559,7.52766,7.4648],[-78.14908,7.50788,2.9553],[-78.14415,7.49787,0.0],[-78.13785,7.49348,0.0],[-78.12792,7.48916,20.7755],[-78.12316,7.47948,170.4142],[-78.12068,7.46992,163.1422],[-78.11742,7.46556,211.62],[-78.10562,7.45942,275.4044],[-78.08971,7.44522,48.4225],[-78.06554,7.41779,42.7191],[-78.0594,7.41779,0.0],[-78.04996,7.42593,0.0],[-78.04345,7.42231,0.0],[-78.03148,7.40412,202.5152],[-78.03612,7.40461,120.1736],[-78.03816,7.3994,170.1132],[-78.03588,7.39301,12.0416],[-78.02798,7.38984,0.0],[-78.02489,7.39204,3.1089],[-78.02286,7.39598,87.0408],[-78.02009,7.39785,135.522],[-78.01439,7.39354,162.0922],[-78.00976,7.38349,188.2315],[-78.01155,7.3732,310.1571],[-78.01553,7.36274,418.7333],[-78.01781,7.35228,276.4346],[-78.01439,7.34101,314.2395],[-78.00646,7.33246,288.8712],[-77.99047,7.32095,209.0206],[-77.94762,7.26765,79.1429],[-77.91881,7.24164,0.0],[-77.89656,7.2353,5.7793],[-77.89584,7.2351,5.7793],[-77.85501,7.36539,205.1463],[-77.82018,7.47655,733.0704],[-77.79631,7.47128,421.6201],[-77.77424,7.47474,181.2296],[-77.75512,7.48611,187.0499],[-77.74024,7.50461,220.0459],[-77.73125,7.53034,238.2554],[-77.73424,7.55179,281.1047],[-77.75683,7.59556,425.7219],[-77.76582,7.62646,344.6596],[-77.77052,7.66899,607.4546],[-77.76422,7.70573,982.5685],[-77.74024,7.71886,1413.8711],[-77.7299,7.71333,1494.6646],[-77.67993,7.67095,1252.4911],[-77.67022,7.65995,1037.4629],[-77.67063,7.65731,961.8711],[-77.67476,7.64842,940.4719],[-77.67481,7.64465,903.1379],[-77.67187,7.64196,766.1201],[-77.66339,7.63995,759.4686],[-77.66076,7.63804,844.4056],[-77.63306,7.60067,1294.3611],[-77.62546,7.58744,1138.293],[-77.61332,7.53747,564.3662],[-77.60267,7.52605,419.0543],[-77.57999,7.52838,483.7518],[-77.55493,7.54848,683.0477],[-77.50935,7.59411,1121.8114],[-77.3691,7.68077,90.3085],[-77.33974,7.70723,65.086],[-77.346,7.72573,131.8593],[-77.36651,7.74511,123.4928],[-77.3799,7.77441,233.1675],[-77.37664,7.78661,219.1461],[-77.34719,7.82381,125.9375],[-77.32161,7.88102,257.4181],[-77.30042,7.9021,356.1589],[-77.26972,7.91812,528.4501],[-77.23613,7.92923,473.5163],[-77.20606,7.93549,379.831],[-77.16901,7.93507,439.439],[-77.16327,7.93926,472.5346],[-77.17107,7.95492,412.9048],[-77.18084,7.96515,468.0364],[-77.19154,7.97285,510.0411],[-77.2012,7.98199,581.1816],[-77.20776,7.99657,867.0081],[-77.20962,8.0207,842.3722],[-77.23107,8.09873,1300.2948],[-77.26011,8.15403,1533.5481],[-77.26943,8.1677,1588.9504],[-77.27003,8.16754,1588.9504],[-77.38338,8.13671,826.9172],[-77.40455,8.13325,772.3925],[-77.42532,8.12764,537.5211],[-77.43909,8.11904,431.4702],[-77.44524,8.11,307.5986],[-77.45253,8.10108,450.2722],[-77.46322,8.09666,310.9662],[-77.4864,8.09287,109.3105],[-77.49278,8.09403,102.5511],[-77.49898,8.09604,86.2816],[-77.51999,8.09266,76.4621],[-77.53862,8.08165,71.282],[-77.55257,8.08483,59.9111],[-77.5719,8.11056,40.7649],[-77.58107,8.11927,54.9338],[-77.60136,8.12545,38.6263],[-77.61117,8.1408,25.3356],[-77.60735,8.15702,52.057],[-77.62554,8.19968,40.9475],[-77.66355,8.23053,37.467],[-77.69163,8.24394,46.7035],[-77.72083,8.25102,15.9458],[-77.73168,8.25826,19.6409],[-77.73582,8.27216,23.6983],[-77.73486,8.28014,16.2296],[-77.73522,8.28756,28.892],[-77.74049,8.29001,35.1357],[-77.74652,8.29084,25.8977],[-77.75659,8.29575,11.4336],[-77.76297,8.30471,14.8541],[-77.76269,8.31019,10.6702],[-77.76434,8.31365,14.6361],[-77.77153,8.32445,18.4067],[-77.77747,8.3313,16.9368],[-77.78695,8.34011,18.4227],[-77.79328,8.34833,26.8746],[-77.79726,8.3613,28.1129],[-77.80005,8.37486,34.0761],[-77.81736,8.40132,13.3384],[-77.81703,8.40972,23.5966],[-77.81581,8.41734,25.7525],[-77.8124,8.42429,21.416],[-77.80894,8.43499,28.8046],[-77.81039,8.44605,34.6692],[-77.81517,8.45576,24.8113],[-77.84023,8.48176,50.9574],[-77.84013,8.48721,39.5881],[-77.83705,8.49209,40.6526],[-77.8401,8.49858,53.0658],[-77.85126,8.50178,55.1001],[-77.86088,8.50548,66.3652],[-77.87338,8.51775,58.6694],[-77.87576,8.52157,52.7624],[-77.87576,8.52328,51.8894],[-77.87602,8.52578,58.5906],[-77.8695,8.53736,40.9504],[-77.87219,8.55591,64.3229],[-77.88583,8.56844,54.429],[-77.8985,8.58382,35.6432],[-77.90532,8.60113,35.3642],[-77.9086,8.62167,24.7813],[-77.8971,8.64159,59.2903],[-77.87749,8.6527,58.8967],[-77.84726,8.69482,76.6142],[-77.83579,8.71608,94.6143],[-77.82181,8.73285,167.6658],[-77.80625,8.73735,163.4151],[-77.79013,8.74014,129.883],[-77.7783,8.74936,201.7907],[-77.76928,8.76231,222.015],[-77.74721,8.77337,335.0178],[-77.72274,8.77662,453.1053],[-77.70171,8.77169,484.7018],[-77.69251,8.77241,525.4885],[-77.69484,8.78608,429.046]],
[[-78.22574,7.98445,16.905],[-78.20199,8.00122,9.9026],[-78.20582,8.01282,9.6748],[-78.21186,8.02458,9.9757],[-78.21026,8.03398,8.0237],[-78.21279,8.04251,6.2394],[-78.22773,8.05023,8.1577],[-78.22545,8.06933,13.3098],[-78.20008,8.08067,48.7322],[-78.18344,8.09356,56.384],[-78.16734,8.08194,296.8301],[-78.13716,8.03982,305.7262],[-78.12742,8.02917,283.684],[-78.1182,8.01618,252.1965],[-78.11161,7.9867,287.5172],[-78.10179,7.97822,182.1539],[-78.09187,7.97264,188.8206],[-78.08311,7.91773,204.2934],[-78.05921,7.93132,140.9239],[-78.035,7.95088,230.3023],[-78.01621,7.93135,181.8591],[-77.98531,7.83565,542.2059],[-77.98097,7.80397,479.3988],[-77.971,7.79792,367.8687],[-77.9617,7.79438,514.1353],[-77.95304,7.77922,546.2209],[-77.94847,7.76201,626.2869],[-77.95216,7.74875,599.0746],[-77.95591,7.73917,582.9673],[-77.9448,7.65163,994.2384],[-77.94971,7.61879,934.8578],[-77.96836,7.6016,1290.7217],[-77.99089,7.59026,875.3799],[-78.00456,7.60584,864.993],[-78.0189,7.61773,595.9947],[-78.03818,7.60744,263.7121],[-78.04833,7.5899,289.9732],[-78.07244,7.60153,349.0454],[-78.08122,7.64486,341.1],[-78.09001,7.65212,495.6462],[-78.10603,7.65654,1024.5072],[-78.12122,7.66783,1106.5933],[-78.13833,7.67734,1080.475],[-78.17956,7.66532,807.5342],[-78.197,7.67785,556.8316],[-78.24506,7.73092,694.6346],[-78.26951,7.77214,845.4808],[-78.2846,7.81945,896.2828],[-78.3039,7.85965,624.8245],[-78.3109,7.862,461.7361],[-78.32118,7.86792,209.8407],[-78.3272,7.8798,151.3884],[-78.33108,7.89285,393.9301],[-78.3325,7.91595,459.9305],[-78.32961,7.93608,439.2668],[-78.33449,7.94515,325.5359],[-78.32932,7.95975,338.9435],[-78.31338,7.96448,283.9135],[-78.29584,7.96579,138.1671],[-78.27808,7.98274,27.2426],[-78.25744,7.99608,21.668],[-78.22574,7.98445,16.905]]]}}