{"type":"Feature","properties":{"GID_3":"PAN.2.7.3_1","GID_0":"PAN","country":"Panama","GID_1":"PAN.2_1","province":"Chiriquí","NL_NAME_1":"NA","GID_2":"PAN.2.7_1","county":"Dolega","NL_NAME_2":"NA","city":"LosAnastacios","VARNAME_3":"NA","NL_NAME_3":"NA","TYPE_3":"Corregimiento","ENGTYPE_3":"Municipality","CC_3":"NA","HASC_3":"NA","name":"Los_Anastacios.city"},
"geometry":{"type": "MultiPolygon","coordinates": [[[[-82.3902,8.4978,177.6267],[-82.4024,8.5254,129.1082],[-82.4057,8.5417,162.8018],[-82.4135,8.5569,193.2609],[-82.4157,8.5581,193.3791],[-82.4199,8.5564,230.2642],[-82.4251,8.5609,247.4295],[-82.4329,8.5568,249.6316],[-82.4334,8.5535,240.0245],[-82.4283,8.5389,210.6695],[-82.4109,8.5096,138.5224],[-82.4106,8.5023,128.38],[-82.4028,8.4918,110.9773],[-82.3978,8.4885,93.6466],[-82.3978,8.4909,98.0597],[-82.3936,8.4924,135.4972],[-82.3902,8.4978,177.6267]]]]}}