{"type": "Feature","bbox": [-82.6657,8.3226,-82.528,8.451],"geometry": {"type": "MultiPolygon","coordinates": [[[[-82.6404,8.3226,1.8378],[-82.6373,8.326,7.4427],[-82.6304,8.3409,6.5758],[-82.6238,8.3468,8.8729],[-82.6191,8.3597,13.6653],[-82.6127,8.3675,18.7991],[-82.6046,8.39,34.286],[-82.5913,8.3916,34.038],[-82.575,8.3801,25.0849],[-82.5636,8.387,23.2126],[-82.5594,8.3808,20.8909],[-82.5461,8.3714,18.4051],[-82.5432,8.367,16.7948],[-82.5403,8.3667,15.8926],[-82.5384,8.374,16.536],[-82.5345,8.3767,13.5804],[-82.5385,8.3834,17.1906],[-82.539,8.3874,18.2971],[-82.5311,8.393,15.1245],[-82.5281,8.4026,21.8009],[-82.528,8.4098,24.3424],[-82.5346,8.4062,21.196],[-82.5456,8.4039,41.3932],[-82.5735,8.4065,30.7769],[-82.5804,8.4132,47.4528],[-82.5843,8.4236,56.7965],[-82.5889,8.4294,65.971],[-82.6013,8.4326,70.3761],[-82.6175,8.4399,76.7458],[-82.6248,8.4493,82.0372],[-82.6287,8.451,84.6438],[-82.6274,8.4124,45.5034],[-82.6248,8.4045,36.0501],[-82.6263,8.3892,25.7721],[-82.6238,8.3708,17.7889],[-82.6269,8.3664,17.2932],[-82.6367,8.3596,12.1598],[-82.651,8.3462,8.6695],[-82.6657,8.3287,0.0],[-82.6593,8.331,4.5482],[-82.6574,8.3279,1.0523],[-82.6532,8.329,4.3304],[-82.6496,8.3257,3.2972],[-82.6404,8.3226,1.8378]]]]}
,"properties": {"GID_3": "PAN.2.1.1_1","GID_0": "PAN","country": "Panama","GID_1": "PAN.2_1","province": "Chiriquí","NL_NAME_1": "NA","GID_2": "PAN.2.1_1","county": "Alanje","NL_NAME_2": "NA","city": "Alanje","VARNAME_3": "NA","NL_NAME_3": "NA","TYPE_3": "Corregimiento","ENGTYPE_3": "Municipality","CC_3": "NA","HASC_3": "NA","name": "Alanje.city","area_km2": 57.63996,"hist_schema_id": "Elevation0-9000","hist_area_km2": {"0": 9.75469,"25": 25.67395,"50": 18.07966,"75": 4.13166}}}