{"type": "Feature","bbox": [-80.6281,7.8811,-80.603,7.9158],"geometry": {"type": "MultiPolygon","coordinates": [[[[-80.6094,7.9001,64.4446],[-80.6066,7.9089,89.0871],[-80.6105,7.9158,85.431],[-80.6271,7.9039,131.2623],[-80.6281,7.8862,116.6816],[-80.6223,7.888,100.9419],[-80.6107,7.8816,82.9163],[-80.603,7.8811,67.5436],[-80.6059,7.8843,77.0486],[-80.6094,7.9001,64.4446]]]]}
,"properties": {"GID_3": "PAN.7.6.6_1","GID_0": "PAN","country": "Panama","GID_1": "PAN.7_1","province": "Herrera","NL_NAME_1": "NA","GID_2": "PAN.7.6_1","county": "Pesé","NL_NAME_2": "NA","city": "Pesé","VARNAME_3": "NA","NL_NAME_3": "NA","TYPE_3": "Corregimiento","ENGTYPE_3": "Municipality","CC_3": "NA","HASC_3": "NA","name": "Pesé.city","area_km2": 6.237334,"hist_schema_id": "Elevation0-9000","hist_area_km2": {"50": 0.042002,"75": 4.221239,"100": 1.491071,"125": 0.357017,"150": 0.105004,"175": 0.021001}}}