{"type":"Feature","properties":{"GID_3":"PAN.7.3.8_1","GID_0":"PAN","country":"Panama","GID_1":"PAN.7_1","province":"Herrera","NL_NAME_1":"NA","GID_2":"PAN.7.3_1","county":"LosPozos","NL_NAME_2":"NA","city":"LosPozos","VARNAME_3":"NA","NL_NAME_3":"NA","TYPE_3":"Corregimiento","ENGTYPE_3":"Municipality","CC_3":"NA","HASC_3":"NA","name":"Los_Pozos.city"},
"geometry":{"type": "MultiPolygon","coordinates": [[[[-80.7041,7.7375,336.8078],[-80.6948,7.7395,310.3552],[-80.6878,7.7365,292.5767],[-80.6831,7.7305,276.032],[-80.6688,7.7334,301.1335],[-80.6647,7.7295,258.386],[-80.6592,7.7283,249.3869],[-80.6525,7.7237,299.9643],[-80.6494,7.7196,281.0647],[-80.6509,7.7156,264.4187],[-80.6465,7.7107,219.2568],[-80.6399,7.7276,223.1469],[-80.6368,7.7315,169.583],[-80.6339,7.733,153.8692],[-80.6262,7.7323,203.8191],[-80.6283,7.7372,191.1588],[-80.6336,7.7384,179.6273],[-80.6355,7.7406,251.5546],[-80.6335,7.7475,294.2798],[-80.6263,7.7545,249.2238],[-80.6293,7.7578,281.2572],[-80.6293,7.7613,303.3453],[-80.634,7.7648,279.3696],[-80.6313,7.7788,268.1305],[-80.6349,7.7827,305.9649],[-80.636,7.791,299.0443],[-80.6479,7.7952,242.9011],[-80.6496,7.7993,251.5055],[-80.6616,7.8009,246.942],[-80.6622,7.8061,201.3511],[-80.6643,7.8091,159.2136],[-80.6635,7.8132,162.3829],[-80.6648,7.8198,215.7204],[-80.6715,7.8174,181.726],[-80.674,7.8144,253.8629],[-80.6801,7.8145,216.5866],[-80.7004,7.8052,209.3673],[-80.6993,7.8005,216.0397],[-80.7003,7.7945,365.3884],[-80.6965,7.7903,302.3439],[-80.6966,7.7837,266.2021],[-80.6987,7.7747,306.4558],[-80.7033,7.7709,350.9912],[-80.7006,7.7658,272.0862],[-80.7041,7.7375,336.8078]]]]}}