{"type": "Feature","bbox": [-81.8187,7.9985,-81.6136,8.1549],"geometry": {"type": "MultiPolygon","coordinates": [[[[-81.709,8.1316,5.6141],[-81.7146,8.1282,0.0],[-81.7038,8.111,0.0],[-81.7035,8.1018,0.0],[-81.7007,8.0996,0.0],[-81.7012,8.0951,0.0],[-81.6976,8.0899,0.0],[-81.6935,8.0899,0.0],[-81.6946,8.0879,0.0],[-81.6904,8.0821,5.3348],[-81.6904,8.079,1.3429],[-81.674,8.0735,16.9561],[-81.6815,8.0749,0.0],[-81.6826,8.0715,0.0],[-81.6815,8.0704,6.0506],[-81.6879,8.0693,3.5484],[-81.6846,8.0718,0.0],[-81.684,8.0743,0.8649],[-81.6943,8.0779,1.1487],[-81.7004,8.0835,1.5569],[-81.7032,8.0829,0.0],[-81.704,8.0799,0.0],[-81.7087,8.0754,3.4773],[-81.7138,8.0732,0.0],[-81.714,8.0704,2.4435],[-81.7201,8.0713,2.7941],[-81.7218,8.0751,1.0239],[-81.7268,8.0746,3.6811],[-81.7318,8.0787,28.085],[-81.7371,8.0787,18.6226],[-81.7387,8.0813,0.0],[-81.7407,8.0804,1.6727],[-81.7412,8.0768,0.0],[-81.7349,8.0688,0.0],[-81.7288,8.0665,0.0],[-81.7279,8.0624,0.0],[-81.7251,8.0654,0.0],[-81.7215,8.0654,2.3514],[-81.7115,8.054,10.7549],[-81.7099,8.0471,0.0],[-81.7124,8.0465,0.0],[-81.7207,8.0382,0.0],[-81.7179,8.0307,4.6625],[-81.7107,8.029,0.0],[-81.7093,8.0271,10.2379],[-81.7018,8.0265,0.0],[-81.7032,8.0351,0.0],[-81.7021,8.0399,0.0],[-81.6999,8.0407,0.0],[-81.6999,8.0488,2.9462],[-81.7024,8.0551,2.7822],[-81.6996,8.0549,5.445],[-81.6976,8.0443,0.0],[-81.6985,8.0385,0.0],[-81.6949,8.0407,0.0],[-81.6937,8.0438,5.9369],[-81.689,8.0451,0.0],[-81.6835,8.0426,0.0],[-81.6793,8.0438,10.1399],[-81.6738,8.0404,17.2654],[-81.6754,8.0401,22.7872],[-81.6801,8.0424,0.0],[-81.684,8.0415,8.1526],[-81.6868,8.0432,0.0],[-81.694,8.0415,0.0],[-81.694,8.0393,0.0],[-81.6926,8.039,0.9362],[-81.689,8.0415,4.1933],[-81.6951,8.036,0.0],[-81.6951,8.0337,0.0],[-81.6893,8.0301,11.9493],[-81.6862,8.024,1.6534],[-81.6846,8.0226,0.0],[-81.681,8.0229,9.1562],[-81.6724,8.0157,14.6058],[-81.6701,8.016,4.3206],[-81.6679,8.019,2.7018],[-81.6676,8.0165,0.8903],[-81.6704,8.014,-0.1132],[-81.6651,8.0113,11.4266],[-81.6707,8.0124,0.0],[-81.6785,8.0171,0.0],[-81.6826,8.0174,0.0],[-81.6824,8.0151,0.0],[-81.674,8.0074,0.8795],[-81.6542,7.9985,29.4129],[-81.6435,8.0158,5.4676],[-81.6379,8.0215,0.8402],[-81.6385,8.0246,10.1305],[-81.6437,8.0308,3.2463],[-81.636,8.0321,3.0048],[-81.6315,8.0357,22.4918],[-81.6317,8.0392,6.3814],[-81.6344,8.0436,4.0644],[-81.6418,8.0497,7.285],[-81.6437,8.054,6.0659],[-81.6401,8.0576,8.5302],[-81.6329,8.0571,89.97],[-81.6282,8.0649,74.5857],[-81.627,8.072,94.1543],[-81.6285,8.0794,150.8985],[-81.6255,8.0954,167.2715],[-81.623,8.0983,59.0668],[-81.6163,8.1006,132.4003],[-81.6136,8.1065,58.548],[-81.6189,8.1143,171.7477],[-81.6168,8.1289,164.5231],[-81.6197,8.1341,30.7985],[-81.6343,8.1336,296.2933],[-81.6387,8.1316,400.6174],[-81.6403,8.1333,458.2867],[-81.6424,8.1309,534.494],[-81.6555,8.1297,508.5638],[-81.6628,8.126,430.0504],[-81.6708,8.1361,408.6189],[-81.6716,8.1425,421.4379],[-81.6735,8.1446,418.0326],[-81.6835,8.1328,166.1414],[-81.685,8.133,166.1414],[-81.6857,8.1374,117.2423],[-81.6925,8.1345,65.2288],[-81.6927,8.1359,48.4815],[-81.6955,8.1359,30.8939],[-81.6977,8.1377,27.3232],[-81.6999,8.1363,11.6463],[-81.7041,8.1367,8.9116],[-81.709,8.1316,5.6141]]],
[[[-81.7079,8.1013,0.0],[-81.7087,8.1018,0.0],[-81.7085,8.1001,2.8555],[-81.7118,8.096,9.3428],[-81.7074,8.099,0.0],[-81.7068,8.101,0.0],[-81.7079,8.1013,0.0]]],
[[[-81.7371,8.1504,4.1875],[-81.7387,8.1515,1.3376999999999999],[-81.7424,8.1457,5.3351],[-81.7468,8.146,0.0],[-81.7529,8.1404,5.3183],[-81.7535,8.1326,0.4796],[-81.7479,8.1285,0.0],[-81.739,8.1262,0.5333],[-81.7296,8.1185,0.0],[-81.7262,8.1143,5.9615],[-81.7246,8.1076,0.0],[-81.7218,8.1057,4.3136],[-81.7196,8.0926,0.0],[-81.7179,8.0915,0.0],[-81.7112,8.1038,2.9052],[-81.7129,8.1126,0.0],[-81.7179,8.1274,0.0],[-81.7315,8.1396,3.9059],[-81.7371,8.1504,4.1875]]],
[[[-81.814,8.089,0.0],[-81.8174,8.0874,0.0],[-81.8187,8.0815,0.0],[-81.8115,8.0818,0.0],[-81.8087,8.084,0.0],[-81.8085,8.0876,0.0],[-81.814,8.089,0.0]]],
[[[-81.7593,8.094,8.6828],[-81.7618,8.0949,0.0],[-81.7632,8.0915,11.4295],[-81.7657,8.0935,0.0],[-81.7637,8.0862,0.0],[-81.7607,8.0862,0.0],[-81.7624,8.0913,11.4295],[-81.7604,8.0915,0.0],[-81.7593,8.094,8.6828]]],
[[[-81.7424,8.154,0.0],[-81.7429,8.1549,0.0],[-81.7446,8.1504,0.0],[-81.7443,8.1476,0.0],[-81.7412,8.1485,0.0],[-81.7424,8.154,0.0]]]]}
,"properties": {"GID_3": "PAN.2.13.7_1","GID_0": "PAN","country": "Panama","GID_1": "PAN.2_1","province": "Chiriquí","NL_NAME_1": "NA","GID_2": "PAN.2.13_1","county": "Tolé","NL_NAME_2": "NA","city": "QuebradadePiedra","VARNAME_3": "NA","NL_NAME_3": "NA","TYPE_3": "Corregimiento","ENGTYPE_3": "Municipality","CC_3": "NA","HASC_3": "NA","name": "Quebradade_Piedra.city","area_km2": 129.41358,"hist_schema_id": "Elevation0-9000","hist_area_km2": {"0": 42.15271,"25": 29.15848,"50": 8.52263,"75": 8.5436,"100": 5.37373,"125": 3.9043,"150": 3.27454,"175": 2.91771,"200": 2.4769,"225": 3.61039,"250": 3.19055,"275": 3.04358,"300": 2.05701,"325": 1.84711,"350": 1.80512,"375": 1.25938,"400": 1.84707,"425": 1.28035,"450": 0.73464,"475": 0.44078,"500": 0.6087,"525": 1.13343,"550": 0.1889,"575": 0.04198}}}