{"type": "Feature","bbox": [-81.6231,8.4435,-81.4894,8.6472],"geometry": {"type": "MultiPolygon","coordinates": [[[[-81.6231,8.5903,1603.0874],[-81.6155,8.5859,1883.3251],[-81.6047,8.5753,1721.9221],[-81.5881,8.5724,1415.3854],[-81.58,8.5589,1118.1807],[-81.5814,8.5486,1069.7018],[-81.5871,8.5371,942.426],[-81.5918,8.5201,822.403],[-81.5867,8.5056,700.5275],[-81.5884,8.4943,635.6663],[-81.5919,8.4848,567.9334],[-81.5935,8.4699,521.2665],[-81.5785,8.4767,829.3135],[-81.5738,8.4767,1064.2053],[-81.5612,8.4607,1103.5443],[-81.5569,8.4593,867.4837],[-81.5475,8.4606,733.5131],[-81.5415,8.4585,635.3196],[-81.5368,8.4533,550.1183],[-81.532,8.4435,455.825],[-81.5299,8.4588,444.0873],[-81.5355,8.4779,862.7768],[-81.5327,8.5076,857.4932],[-81.5281,8.5235,901.6976],[-81.519,8.5342,1079.1636],[-81.5137,8.5468,1111.0298],[-81.5041,8.5618,1047.9143],[-81.5038,8.5647,1190.4583],[-81.5063,8.5698,1425.7461],[-81.502,8.5862,1287.1328],[-81.4979,8.594,1647.4534],[-81.4898,8.6034,1457.5861],[-81.4919,8.6116,1378.3544],[-81.492,8.6262,1141.6254],[-81.4894,8.6472,1089.5337],[-81.5031,8.6443,1210.446],[-81.515,8.6444,927.7646],[-81.54,8.6332,1284.4469],[-81.5655,8.626,1580.0186],[-81.5707,8.6272,1700.4558],[-81.5887,8.6247,1461.0208],[-81.5913,8.6116,1301.9509],[-81.5946,8.6091,1337.6331],[-81.6063,8.6087,1328.236],[-81.6149,8.6066,1466.7689],[-81.6217,8.5976,1582.3635],[-81.6231,8.5903,1603.0874]]]]}
,"properties": {"GID_3": "PAN.10.5.6_1","GID_0": "PAN","country": "Panama","GID_1": "PAN.10_1","province": "NgöbeBuglé","NL_NAME_1": "NA","GID_2": "PAN.10.5_1","county": "Müna","NL_NAME_2": "NA","city": "Krüa","VARNAME_3": "NA","NL_NAME_3": "NA","TYPE_3": "Corregimiento","ENGTYPE_3": "Municipality","CC_3": "NA","HASC_3": "NA","name": "Krüa.city","area_km2": 167.1401,"hist_schema_id": "Elevation0-9000","hist_area_km2": {"400": 0.0419,"425": 0.1468,"450": 0.1887,"475": 0.2517,"500": 0.2517,"525": 0.4194,"550": 0.4614,"575": 0.3565,"600": 0.5033,"625": 0.5033,"650": 0.6291,"675": 0.5872,"700": 0.5872,"725": 0.6711,"750": 0.9227,"775": 0.8598,"800": 1.0066,"825": 1.0485,"850": 1.5098,"875": 1.3211,"900": 1.7614,"925": 1.6356,"950": 1.7614,"975": 1.7194,"1000": 1.8242,"1025": 1.95,"1050": 2.1597,"1075": 2.558,"1100": 3.5644,"1125": 3.6272,"1150": 3.5014,"1175": 4.1723,"1200": 4.1094,"1225": 4.4029,"1250": 4.9479,"1275": 5.0947,"1300": 5.3043,"1325": 5.0947,"1350": 5.1995,"1375": 5.5768,"1400": 5.0107,"1425": 6.2477,"1450": 5.7445,"1475": 5.5977,"1500": 6.1428,"1525": 6.1007999999999996,"1550": 6.3523,"1575": 5.5765,"1600": 6.2474,"1625": 5.3878,"1650": 4.8638,"1675": 4.5283,"1700": 4.1929,"1725": 3.4591,"1750": 2.8931,"1775": 2.4529,"1800": 1.8658,"1825": 0.8595,"1850": 0.6289,"1875": 0.5241,"1900": 0.1677,"1925": 0.0419,"1950": 0.021}}}