{"type": "Feature","bbox": [-79.7147,8.8813,-79.6732,8.9379],"geometry": {"type": "MultiPolygon","coordinates": [[[[-79.6885,8.9379,67.2055],[-79.6937,8.9356,34.8885],[-79.6997,8.9354,25.2553],[-79.707,8.9281,32.4535],[-79.7085,8.9226,15.4523],[-79.7076,8.9134,15.8762],[-79.7147,8.9041,7.9349],[-79.7057,8.8933,13.0201],[-79.7026,8.8813,16.1079],[-79.6946,8.8917,22.0899],[-79.6902,8.9008,9.9408],[-79.6732,8.9158,30.51],[-79.6736,8.9188,34.9084],[-79.6885,8.9379,67.2055]]]]}
,"properties": {"GID_3": "PAN.11.1.6_1","GID_0": "PAN","country": "Panama","GID_1": "PAN.11_1","province": "PanamáOeste","NL_NAME_1": "NA","GID_2": "PAN.11.1_1","county": "Arraiján","NL_NAME_2": "NA","city": "VistaAlegre","VARNAME_3": "NA","NL_NAME_3": "NA","TYPE_3": "Corregimiento","ENGTYPE_3": "Municipality","CC_3": "NA","HASC_3": "NA","name": "Vista_Alegre.city","area_km2": 14.4319,"hist_schema_id": "Elevation0-9000","hist_area_km2": {"0": 3.938,"25": 6.91221,"50": 2.32495,"75": 0.79593,"100": 0.35608,"125": 0.10473}}}