{"type": "Feature","bbox": [-80.217,8.9557,-80.0922,9.1922],"geometry": {"type": "MultiPolygon","coordinates": [[[[-80.1362,8.9658,207.9924],[-80.1157,8.9732,157.257],[-80.0922,9.0032,136.6991],[-80.1084,9.0152,145.2051],[-80.1067,9.0197,170.4901],[-80.1104,9.0251,106.0097],[-80.1108,9.0283,82.1583],[-80.109,9.0348,66.6751],[-80.1045,9.0412,50.8966],[-80.1084,9.0504,43.1357],[-80.1132,9.0562,63.5957],[-80.1125,9.0608,45.7265],[-80.1276,9.0592,63.8143],[-80.135,9.0655,30.0654],[-80.1453,9.0692,25.4911],[-80.1579,9.0787,14.6643],[-80.1611,9.0889,10.5272],[-80.1666,9.0966,73.7598],[-80.1782,9.1012,112.1571],[-80.1881,9.1089,43.8044],[-80.1892,9.1128,67.4233],[-80.1876,9.1182,26.6422],[-80.1893,9.1243,105.49],[-80.1845,9.1334,79.3679],[-80.1871,9.1456,37.0741],[-80.1842,9.1537,65.1838],[-80.1905,9.1644,30.6415],[-80.1965,9.1866,7.9163],[-80.2004,9.1922,0.0],[-80.201,9.1907,0.0],[-80.2049,9.1899,2.8688],[-80.2057,9.1879,8.8397],[-80.2091,9.1639,17.3679],[-80.2042,9.1594,36.3644],[-80.2083,9.1526,25.2247],[-80.2037,9.1432,60.687],[-80.2101,9.1367,65.1512],[-80.2086,9.1287,104.6878],[-80.217,9.1172,76.6495],[-80.2159,9.1137,50.1554],[-80.2095,9.109,95.2817],[-80.2064,9.1005,113.1709],[-80.2064,9.0923,86.9587],[-80.2021,9.0902,71.9172],[-80.2037,9.0848,112.3055],[-80.199,9.0771,23.4403],[-80.2008,9.0713,80.8802],[-80.2101,9.064,55.5331],[-80.2003,9.0518,19.2495],[-80.1977,9.0447,48.4601],[-80.1906,9.0413,19.6229],[-80.1886,9.0333,69.1177],[-80.1827,9.0269,20.7301],[-80.1857,9.0246,69.2037],[-80.1865,9.018,41.1381],[-80.1831,9.0144,56.5524],[-80.1845,9.0081,15.648],[-80.1828,9.0025,17.9471],[-80.1784,8.9969,18.2107],[-80.1804,8.9941,20.1871],[-80.1777,8.9918,15.7886],[-80.1796,8.9858,20.6583],[-80.1715,8.9821,17.0611],[-80.1741,8.9736,17.1175],[-80.1735,8.9697,16.7961],[-80.1664,8.9728,46.5933],[-80.1616,8.9669,22.2372],[-80.1546,8.9666,27.4951],[-80.1496,8.9616,40.3023],[-80.1468,8.9557,27.5598],[-80.1438,8.9567,37.1458],[-80.1362,8.9658,207.9924]]]]}
,"properties": {"GID_3": "PAN.4.1.3_1","GID_0": "PAN","country": "Panama","GID_1": "PAN.4_1","province": "Colón","NL_NAME_1": "NA","GID_2": "PAN.4.1_1","county": "Chagres","NL_NAME_2": "NA","city": "LaEncantada","VARNAME_3": "NA","NL_NAME_3": "NA","TYPE_3": "Corregimiento","ENGTYPE_3": "Municipality","CC_3": "NA","HASC_3": "NA","name": "La_Encantada.city","area_km2": 135.9114,"hist_schema_id": "Elevation0-9000","hist_area_km2": {"0": 12.7909,"25": 33.0604,"50": 30.7585,"75": 28.7709,"100": 18.0919,"125": 7.8317,"150": 2.6386,"175": 1.2774,"200": 0.4188,"225": 0.0838,"250": 0.1047,"275": 0.0838}}}