{"type":"Feature","properties":{"GID_3":"PAN.7.1.5_1","GID_0":"PAN","country":"Panama","GID_1":"PAN.7_1","province":"Herrera","NL_NAME_1":"NA","GID_2":"PAN.7.1_1","county":"Chitré","NL_NAME_2":"NA","city":"SanJuanBautista","VARNAME_3":"NA","NL_NAME_3":"NA","TYPE_3":"Corregimiento","ENGTYPE_3":"Municipality","CC_3":"NA","HASC_3":"NA","name":"San_Juan_Bautista.city"},
"geometry":{"type": "MultiPolygon","coordinates": [[[[-80.4025,7.9507,8.4351],[-80.3974,7.953,6.7952],[-80.3972,7.9584,7.7471],[-80.3841,7.9712,5.5838],[-80.3854,7.9769,2.9547],[-80.3929,7.9798,4.7986],[-80.3963,7.9788,5.2172],[-80.3982,7.9761,4.1738],[-80.4023,7.9765,6.0797],[-80.405,7.9715,7.8636],[-80.4133,7.9706,11.3974],[-80.4175,7.9662,25.6103],[-80.4217,7.9668,25.2624],[-80.425,7.9722,21.0679],[-80.4293,7.9694,24.1703],[-80.4352,7.9705,34.4046],[-80.4423,7.9653,37.8517],[-80.4092,7.9593,7.4498],[-80.4025,7.9507,8.4351]]]]}}