{"type": "Feature","bbox": [-80.3621,7.6316,-80.2797,7.7033],"geometry": {"type": "MultiPolygon","coordinates": [[[[-80.3143,7.6986,132.3374],[-80.3144,7.69,149.8601],[-80.3184,7.6789,184.6084],[-80.3247,7.6786,186.5824],[-80.3337,7.686,211.3148],[-80.3387,7.6798,201.3424],[-80.3389,7.6681,274.954],[-80.3423,7.6614,299.081],[-80.3621,7.6472,413.8575],[-80.339,7.6316,383.1752],[-80.3103,7.6457,331.6723],[-80.3054,7.6512,267.1104],[-80.3005,7.6613,228.0977],[-80.2797,7.6817,98.8757],[-80.2849,7.6869,58.2543],[-80.2821,7.6961,51.3585],[-80.283,7.7024,41.2485],[-80.2911,7.7033,50.985],[-80.3053,7.697,174.4112],[-80.3143,7.6986,132.3374]]]]}
,"properties": {"GID_3": "PAN.9.2.6_1","GID_0": "PAN","country": "Panama","GID_1": "PAN.9_1","province": "LosSantos","NL_NAME_1": "NA","GID_2": "PAN.9.2_1","county": "LasTablas","NL_NAME_2": "NA","city": "ElMuñoz","VARNAME_3": "NA","NL_NAME_3": "NA","TYPE_3": "Corregimiento","ENGTYPE_3": "Municipality","CC_3": "NA","HASC_3": "NA","name": "El_Muñoz.city","area_km2": 33.20001,"hist_schema_id": "Elevation0-9000","hist_area_km2": {"25": 0.10506,"50": 1.95405,"75": 0.81946,"100": 1.4288,"125": 1.91208,"150": 3.13078,"175": 3.38296,"200": 3.383,"225": 2.18531,"250": 1.80712,"275": 1.95423,"300": 1.42891,"325": 1.89121,"350": 1.55499,"375": 1.68109,"400": 1.36589,"425": 1.26082,"450": 1.02967,"475": 0.50433,"500": 0.3152,"525": 0.10507}}}