{"type":"Feature","properties":{"GID_3":"PAN.10.4.4_1","GID_0":"PAN","country":"Panama","GID_1":"PAN.10_1","province":"NgöbeBuglé","NL_NAME_1":"NA","GID_2":"PAN.10.4_1","county":"Mironó","NL_NAME_2":"NA","city":"HatoJobo","VARNAME_3":"NA","NL_NAME_3":"NA","TYPE_3":"Corregimiento","ENGTYPE_3":"Municipality","CC_3":"NA","HASC_3":"NA","name":"Hato_Jobo.city"},
"geometry":{"type": "MultiPolygon","coordinates": [[[[-81.9244,8.3899,206.8667],[-81.9338,8.3816,270.9061],[-81.937,8.3808,159.3683],[-81.9367,8.3781,324.965],[-81.9335,8.3752,454.008],[-81.9161,8.3716,453.135],[-81.9103,8.3795,499.8458],[-81.9063,8.3811,569.85],[-81.8924,8.376,575.7337],[-81.8844,8.3755,539.9978],[-81.8773,8.3771,566.2233],[-81.8653,8.3838,611.2665],[-81.865,8.3981,578.923],[-81.8588,8.407,706.8967],[-81.839,8.4175,701.8788],[-81.8596,8.4215,920.6712],[-81.8827,8.4158,447.6796],[-81.8969,8.424,246.0442],[-81.9072,8.4123,294.8752],[-81.9093,8.4054,237.0299],[-81.9151,8.3978,168.8717],[-81.9244,8.3899,206.8667]]]]}}