{"type":"Feature","properties":{"GID_3":"PAN.2.5.5_1","GID_0":"PAN","country":"Panama","GID_1":"PAN.2_1","province":"Chiriquí","NL_NAME_1":"NA","GID_2":"PAN.2.5_1","county":"Bugaba","NL_NAME_2":"NA","city":"Gómez","VARNAME_3":"NA","NL_NAME_3":"NA","TYPE_3":"Corregimiento","ENGTYPE_3":"Municipality","CC_3":"NA","HASC_3":"NA","name":"Gómez.city"},
"geometry":{"type": "MultiPolygon","coordinates": [[[[-82.8061,8.5568,238.5155],[-82.7954,8.5555,243.4974],[-82.7699,8.5394,223.1508],[-82.7374,8.5355,242.7942],[-82.7345,8.5313,239.459],[-82.7362,8.5237,205.3657],[-82.7341,8.5207,219.2494],[-82.716,8.5303,283.8302],[-82.7116,8.5531,332.1568],[-82.7135,8.5652,353.6025],[-82.7114,8.5739,394.8419],[-82.7145,8.5756,344.832],[-82.7184,8.5694,395.3116],[-82.7313,8.566,371.0661],[-82.7379,8.576,401.7231],[-82.755,8.5838,457.2188],[-82.7578,8.5889,602.9816],[-82.7644,8.592,483.1646],[-82.7682,8.5882,444.2461],[-82.7779,8.5844,350.1372],[-82.7849,8.5756,296.4624],[-82.7922,8.5714,290.5709],[-82.799,8.561,262.5309],[-82.8061,8.5568,238.5155]]]]}}