{"type":"Feature","properties":{"GID_3":"PAN.5.2.2_1","GID_0":"PAN","country":"Panama","GID_1":"PAN.5_1","province":"Darién","NL_NAME_1":"NA","GID_2":"PAN.5.2_1","county":"Pinogana","NL_NAME_2":"NA","city":"ElRealdeSantaMaría","VARNAME_3":"NA","NL_NAME_3":"NA","TYPE_3":"Corregimiento","ENGTYPE_3":"Municipality","CC_3":"NA","HASC_3":"NA","name":"El_Realde_Santa_María.city"},
"geometry":{"type": "MultiPolygon","coordinates": [[[[-77.6701,7.9616,385.8501],[-77.6684,7.9616,369.011],[-77.6692,7.9672,330.6915],[-77.6727,7.969,345.3202],[-77.6745,7.9795,365.48],[-77.6806,7.994,348.5519],[-77.6799,8.0063,311.5266],[-77.6769,8.0132,214.8532],[-77.6794,8.0229,251.1939],[-77.6762,8.0394,166.9066],[-77.6763,8.0525,148.1081],[-77.6711,8.0632,100.1103],[-77.6787,8.098,52.7263],[-77.6768,8.107,27.9179],[-77.6775,8.1105,19.5066],[-77.683,8.1149,15.1559],[-77.6992,8.1217,19.364],[-77.7011,8.1245,10.0352],[-77.7012,8.1325,15.833],[-77.7048,8.1396,20.7487],[-77.7088,8.1432,37.0487],[-77.7173,8.1423,43.4455],[-77.7203,8.1379,50.5553],[-77.7229,8.1369,36.1569],[-77.7364,8.1416,14.3591],[-77.7429,8.1378,13.5366],[-77.7529,8.1352,16.2625],[-77.7543,8.1299,25.8206],[-77.7592,8.1251,19.7217],[-77.7565,8.115,4.8285],[-77.7571,8.1116,7.1711],[-77.7678,8.1071,12.4506],[-77.7714,8.099,21.587],[-77.7771,8.0987,0.5],[-77.7777,8.1042,15.0542],[-77.7716,8.1061,18.3677],[-77.7729,8.118,5.5185],[-77.7769,8.1186,6.951],[-77.7837,8.1127,4.2352],[-77.7965,8.1098,0.5],[-77.7998,8.1138,27.2498],[-77.79,8.1283,6.12],[-77.7883,8.1331,5.0019],[-77.7893,8.1372,5.5763],[-77.7936,8.1403,4.5954],[-77.8112,8.1409,6.0085],[-77.8115,8.1461,5.6981],[-77.8142,8.1461,6.1237],[-77.8145,8.1513,6.5174],[-77.8172,8.1514,15.0013],[-77.8175,8.1565,11.0693],[-77.8202,8.1565,19.5499],[-77.8206,8.1619,10.717],[-77.8286,8.1611,21.0876],[-77.814,8.1377,21.12],[-77.8027,8.1118,22.5166],[-77.6826,7.9746,525.8249],[-77.676,7.9689,435.6952],[-77.6756,7.966,500.0046],[-77.6701,7.9616,385.8501]]]]}}