{"type":"Feature","properties":{"featurecla":"Reservoir","scalerank":5,"name":"Lago Gatun","name_abb":"L. Gatun","name_alt":"Gatun lake","note":null,"delta":null,"dam_name":"Gatun Dam","year":1913,"admin":null,"min_zoom":4.7,"min_label":6.0},
"geometry":{"type": "Polygon","coordinates": [[[-79.67950819456847,9.1421804744003055,68.2284],[-79.696875678069233,9.1103891486700945,25.0],[-79.7155678001421,9.1153933388313249,25.0],[-79.768847707152929,9.1118609693057522,25.0],[-79.779886361920362,9.1203975289925552,25.0],[-79.782977185255248,9.1380593766204754,54.8025],[-79.791072198751365,9.1624915991723981,65.3943],[-79.801816489391669,9.1786816261646322,46.7745],[-79.813443872413373,9.1719112512406014,25.0],[-79.820950157655233,9.1719112512406014,25.0],[-79.81741778812966,9.177798533783232,25.0],[-79.8103530490785,9.1936941966483516,80.4415],[-79.806673497489342,9.1998758433181251,30.7651],[-79.817123424002517,9.1925167401398369,25.0],[-79.854360486084673,9.17927035441889,25.0],[-79.854360486084673,9.1854520010886631,38.9628],[-79.834932453694,9.1972265661739243,89.6657],[-79.826101529880034,9.2045856693522126,61.7908],[-79.820950157655233,9.2134165931661869,88.1424],[-79.832724722740508,9.2193038757088175,25.0],[-79.841997192745154,9.219598239835932,33.2232],[-79.847590111160656,9.2134165931661869,25.0],[-79.847590111160656,9.1998758433181251,89.91],[-79.856568217038173,9.2039969410979552,25.0],[-79.863632956089333,9.2107673160219861,72.7688],[-79.867901235932734,9.22018696809019,65.8759],[-79.8680484179963,9.2334333538111366,52.0589],[-79.861866771326532,9.2334333538111366,65.9753],[-79.853918939893987,9.2293122560312781,27.7993],[-79.842144374808711,9.22784043539562,25.0],[-79.830075445596322,9.2290178919041637,38.3599],[-79.811530505587015,9.23784881571811,73.8791],[-79.772527258742073,9.2469741036591984,47.3518],[-79.772527258742073,9.2537444785832,28.8171],[-79.782535639064548,9.2584543046173167,30.6298],[-79.801816489391669,9.2516839296932858,37.9538],[-79.813443872413373,9.2537444785832,25.0],[-79.8099115028878,9.263458494778547,53.6191],[-79.811824869714158,9.2790597935165238,36.4462],[-79.811088959396329,9.2973103693987014,53.2899],[-79.7991672122475,9.3158553094079934,61.1491],[-79.805790405107956,9.3187989506793087,39.1228],[-79.820950157655233,9.3299847875103126,27.6629],[-79.826984622261435,9.3299847875103126,27.9006],[-79.826543076070735,9.3249805973490822,31.2184],[-79.828309260833521,9.3238031408405391,35.4541],[-79.831400084168408,9.3238031408405391,40.0461],[-79.834638089566852,9.3226256843320243,25.0],[-79.86378013815289,9.30378638019559,30.5196],[-79.8680484179963,9.2984878259072161,25.0],[-79.869078692441263,9.2805316141521814,25.0],[-79.87128642339475,9.273761239228179,25.0],[-79.874818792920337,9.2672852284312626,25.0],[-79.8861518118149,9.25786557636306,25.0],[-79.898809469281559,9.2555106633460014,25.0],[-79.911614308811792,9.259043032871574,25.0],[-79.923388873897053,9.2672852284312626,25.641],[-79.925890968977669,9.25786557636306,25.0],[-79.930159248821084,9.2502121090576281,25.0],[-79.936193713427286,9.2443248265149975,25.0],[-79.943699998669146,9.2396150004808817,27.4453],[-79.943699998669146,9.2334333538111366,25.0],[-79.941786631842788,9.2184207833274172,25.0],[-79.955916109945107,9.1663183328251137,25.0],[-79.950028827402477,9.14512411567162,25.0],[-79.961361846297038,9.1236355343910134,25.0],[-79.9684265853482,9.11509897470421,25.0],[-79.971664590746656,9.1203975289925552,25.0],[-79.976521598844329,9.1218693496282128,25.0],[-79.987265889484632,9.11421588232281,28.1079],[-80.005222101239653,9.0962596705677754,25.0],[-80.012875568545084,9.102146953110406,25.0],[-80.0209705820412,9.0989089477119478,25.0],[-80.0399570682412,9.0830132848468565,27.5091],[-80.036719062842749,9.0806583718297986,25.0],[-80.035835970461349,9.0803640077026557,25.0],[-80.033186693317163,9.07565418166854,26.836],[-80.048493627928011,9.0700612632530522,25.0],[-80.070276573335761,9.0388586657770986,25.0],[-80.0877912389001,9.0285559213274951,67.8738],[-80.08308141286598,9.0179588127507486,25.288],[-80.079401861276835,9.0126602584623754,34.0391],[-80.074103306988476,9.0073617041740022,40.3822],[-80.0688047527001,9.0173700844964912,41.6902],[-80.054675274597784,9.02561228005618,42.1688],[-80.046138714910967,9.0353262962515259,27.2821],[-80.040987342686151,9.0161926279879481,25.0],[-80.031567690617948,9.01059970957246,43.2977],[-80.026121954266,9.0170757203693483,34.5686],[-80.033186693317163,9.0353262962515259,35.0033],[-80.020381853786944,9.0220799105305787,27.0652],[-80.01420020711717,9.0173700844964912,34.9751],[-80.005222101239653,9.014132079098033,40.2216],[-80.005222101239653,9.0209024540220639,48.8897],[-80.025238861884617,9.0420966711755284,27.0409],[-80.031126144427247,9.0547543286422183,45.568],[-80.025680408075317,9.0694725349987948,25.0],[-80.021117764104773,9.0641739807104216,38.2137],[-80.019204397278415,9.0627021600747639,38.1074],[-80.017143848388486,9.0641739807104216,30.9811],[-80.012728386481513,9.0694725349987948,32.6336],[-80.005222101239653,9.0694725349987948,25.0],[-80.001395367586952,9.0500445026081024,25.0],[-79.9852053405947,9.0235517311662363,25.861],[-79.977993419479986,9.0073617041740022,35.8803],[-79.978434965670672,9.0108940736995748,38.9746],[-79.977551873289286,9.0132489867166328,32.9692],[-79.9753441423358,9.0144264432251759,44.4359],[-79.971664590746656,9.014132079098033,34.7366],[-79.976963145035015,9.0253179159290369,35.2082],[-79.973725139636571,9.0338544756158683,25.0],[-79.967543492966811,9.0367981168871836,26.0946],[-79.964305487568353,9.0317939267259248,35.6638],[-79.962686484869138,9.0226686387848645,28.8086],[-79.950028827402477,9.0005913292499713,76.3318],[-79.9442887269234,9.0241404594205221,62.1427],[-79.947673914385419,9.0435684918112145,39.7433],[-79.95400274311875,9.0618190676933636,28.2887],[-79.957387930580765,9.0830132848468565,30.8615],[-79.950028827402477,9.0830132848468565,26.5476],[-79.94693800406759,9.07653727404994,34.3334],[-79.936340895490844,9.0618190676933636,42.0172],[-79.930012066757513,9.0618190676933636,34.6157],[-79.939726082952859,9.0800696435755412,26.8427],[-79.931631069456742,9.0830132848468565,56.7416],[-79.902783384997832,9.07565418166854,63.1331],[-79.907787575159077,9.0818358283383134,33.8404],[-79.911319944684664,9.087723110880944,31.5739],[-79.914116403892407,9.0944934858049749,38.9947],[-79.916471316909465,9.1036187737460637,42.2792],[-79.909112213731163,9.1103891486700945,35.1822],[-79.916176952782322,9.1218693496282128,44.9051],[-79.924271966278454,9.1304059093150443,25.0],[-79.928245881994727,9.13747064836619,25.0],[-79.923388873897053,9.14512411567162,55.229],[-79.923388873897053,9.1513057623413943,71.3577],[-79.930012066757513,9.1513057623413943,25.0],[-79.923388873897053,9.1613141426638549,51.4626],[-79.913822039765279,9.1639634198080557,58.2408],[-79.90557984420559,9.1586648655196825,28.4734],[-79.902783384997832,9.14512411567162,25.0],[-79.892922186738929,9.1518944905956516,55.7138],[-79.890714455785442,9.15601558837551,69.2935],[-79.889095453086213,9.16514087631657,27.178],[-79.882913806416454,9.1607254144095975,53.5812],[-79.877320888000952,9.15601558837551,25.0],[-79.872463879903279,9.1507170340871369,25.0],[-79.8680484179963,9.14512411567162,25.0],[-79.873494154348236,9.1348213712220172,25.0],[-79.87216951577615,9.12422426264527,25.0],[-79.865399140852119,9.11509897470421,25.0],[-79.854360486084673,9.1103891486700945,74.1426],[-79.854360486084673,9.1239298985181563,38.7546],[-79.847590111160656,9.1239298985181563,25.0],[-79.842585920999412,9.1180426159755257,64.9327],[-79.83743454877461,9.1162764312127251,67.3973],[-79.832283176549808,9.11833698010264,25.803],[-79.826984622261435,9.1239298985181563,60.3874],[-79.820950157655233,9.1239298985181563,25.0],[-79.805496040980827,9.1103891486700945,29.4382],[-79.798431301929668,9.1006751324747484,25.0],[-79.802846763836641,9.0962596705677754,63.7315],[-79.810794595269186,9.09154984453366,49.5624],[-79.8249240733715,9.0694725349987948,25.0],[-79.834638089566852,9.0618190676933636,25.0],[-79.840378190045925,9.0609359753119634,25.8082],[-79.845088016080027,9.0609359753119634,25.0],[-79.849503477987,9.0597585188034486,25.0],[-79.854360486084673,9.0550486927693328,25.7357],[-79.8564210349746,9.0600528829305631,25.0],[-79.860100586563746,9.0641739807104216,26.6325],[-79.861866771326532,9.0694725349987948,42.4583],[-79.869814602759092,9.0594641546763057,28.1435],[-79.872758244030408,9.0547543286422183,26.5653],[-79.874818792920337,9.04886704609956,58.1816],[-79.871875151649007,9.0509275949895027,29.0719],[-79.870697695140493,9.0521050514980175,28.6941],[-79.869814602759092,9.0532825080065322,29.6772],[-79.8680484179963,9.0550486927693328,25.6489],[-79.861866771326532,9.0550486927693328,30.014],[-79.854360486084673,9.041507942921271,28.1775],[-79.853183029576158,9.04562904070113,27.234],[-79.853183029576158,9.0473952254639016,28.8498],[-79.852152755131186,9.0479839537181874,28.8498],[-79.847590111160656,9.04886704609956,25.0],[-79.841408464490883,9.0353262962515259,39.0103],[-79.840819736236625,9.039447394031356,35.2242],[-79.839936643855225,9.0429797635569287,43.2087],[-79.838023277028867,9.045923404828244,27.9423],[-79.834638089566852,9.04886704609956,41.6695],[-79.831400084168408,9.0432741276840716,25.0],[-79.828456442897092,9.04062485053987,25.0],[-79.825071255435077,9.0385643016499557,26.0201],[-79.820950157655233,9.0353262962515259,76.6742],[-79.821391703845933,9.0420966711755284,78.7038],[-79.819036790828875,9.0453346765739866,67.0981],[-79.815945967494,9.0468064972096442,62.2872],[-79.813443872413373,9.04886704609956,54.7624],[-79.820950157655233,9.04886704609956,82.4025],[-79.817859334320346,9.053871236260818,77.3546],[-79.814915693049031,9.0576979699135336,88.1014],[-79.812855144159116,9.062407795947621,48.7096],[-79.813443872413373,9.0694725349987948,49.0438],[-79.806673497489342,9.0694725349987948,25.0],[-79.806673497489342,9.0618190676933636,26.4284],[-79.7991672122475,9.0618190676933636,88.2662],[-79.802552399709512,9.0703556273801951,62.0886],[-79.80358267415447,9.0721218121429672,62.906],[-79.806673497489342,9.07565418166854,25.0],[-79.806673497489342,9.0830132848468565,43.5738],[-79.799608758438183,9.0850738337367716,66.6689],[-79.795929206849038,9.0891949315166016,32.3289],[-79.794163022086252,9.0953765781863751,25.0],[-79.792985565577723,9.1036187737460637,25.0],[-79.783271549382377,9.0989089477119478,33.5299],[-79.773557533187031,9.09655403469489,79.1968],[-79.764726609373085,9.095670942313518,73.8798],[-79.745151394918835,9.0971427629491757,162.2977],[-79.714095979506439,9.0962596705677754,87.181],[-79.692313034098689,9.1039131378732066,42.4411],[-79.673032183771568,9.1224580778824986,85.617],[-79.65949143392352,9.14512411567162,66.5934],[-79.655811882334362,9.16514087631657,56.453],[-79.668322357737466,9.1554268601212243,26.2796],[-79.67950819456847,9.1421804744003055,68.2284]]]}}