{"type": "Feature","id": "1340","bbox": [-80.16451,8.20898,-78.04254,9.47901],"geometry": {"type": "MultiPolygon","coordinates": [[[[-78.84139,8.27013,0.0],[-78.84029,8.27765,7.7354],[-78.84355,8.28356,3.6999],[-78.85224,8.27767,15.9819],[-78.85117,8.26746,0.0],[-78.84139,8.27013,0.0]]],
[[[-79.06574,8.26076,0.0],[-79.07099,8.26449,0.0],[-79.07586,8.26599,0.0],[-79.083,8.27419,0.0],[-79.08751,8.29578,0.0],[-79.09406,8.3085,0.0],[-79.09488,8.31175,0.0],[-79.10037,8.3174,0.0],[-79.10489,8.31852,0.0],[-79.11243,8.31741,0.0],[-79.1245,8.30326,7.4528],[-79.12941,8.28724,27.1157],[-79.12565,8.27755,0.0],[-79.1298,8.26414,0.0],[-79.13056,8.25669,2.7558],[-79.13697,8.25744,11.3923],[-79.14,8.2444,44.6676],[-79.12271,8.20898,0.0],[-79.10952,8.21047,1.2514],[-79.10868,8.22393,0.0],[-79.10489,8.22878,0.0],[-79.09851,8.22988,0.3895],[-79.09845,8.23847,0.0],[-79.10453,8.2444,0.0],[-79.10379,8.25296,11.2608],[-79.09128,8.25968,0.0],[-79.08039,8.25483,3.4499],[-79.06986,8.25705,0.0],[-79.06574,8.26076,0.0]]],
[[[-78.8092,8.37376,8.5287],[-78.81244,8.38344,0.0],[-78.82003,8.39097,0.0],[-78.82763,8.39528,5.1812],[-78.83471,8.384,0.0],[-78.83309,8.37702,26.5892],[-78.8255,8.37056,0.0],[-78.81355,8.3684,0.0],[-78.8092,8.37376,8.5287]]],
[[[-79.10502,8.41874,0.0],[-79.11824,8.42911,0.0],[-79.1301,8.40487,12.12],[-79.11218,8.3915,34.2776],[-79.09284,8.37718,0.0],[-79.08439,8.38249,18.0355],[-79.08025,8.39093,0.0],[-79.07887,8.39855,0.0],[-79.08628,8.40345,52.4848],[-79.08244,8.416,0.0],[-79.08794,8.41954,21.7998],[-79.09015,8.41028,5.288],[-79.09484,8.40648,40.4931],[-79.10502,8.41874,0.0]]],
[[[-78.86278,8.45368,0.0],[-78.86913,8.46166,0.0],[-78.88018,8.46846,0.0],[-78.88993,8.47414,11.0859],[-78.89371,8.46927,11.9473],[-78.89224,8.45805,32.0835],[-78.89542,8.45185,10.8871],[-78.89696,8.45669,11.9285],[-78.89977,8.46162,0.0],[-78.90878,8.47004,3.9213],[-78.9491,8.45279,12.5049],[-78.95813,8.45881,6.8988],[-78.97092,8.45845,10.6076],[-78.97471,8.44437,5.9696],[-78.96434,8.41767,10.6051],[-78.96572,8.40822,3.7005],[-78.96122,8.39032,0.0],[-78.9616,8.38362,2.0524],[-78.96575,8.37732,0.0],[-78.96991,8.36989,18.7889],[-78.96728,8.36243,0.0],[-78.95849,8.35285,1.428],[-78.95478,8.34651,0.0],[-78.95824,8.32911,0.0],[-78.96541,8.32077,0.0],[-78.9699,8.3051,2.5542],[-78.96434,8.29483,11.1345],[-78.958,8.29043,0.0],[-78.94004,8.28259,9.3597],[-78.93366,8.27327,0.0],[-78.92694,8.24982,0.0],[-78.92845,8.23567,0.0],[-78.91792,8.22708,0.0],[-78.90399,8.21922,0.0],[-78.89758,8.22443,6.0803],[-78.89757,8.2289,15.8516],[-78.90511,8.22929,0.0],[-78.91114,8.23415,0.0],[-78.91299,8.25388,15.2817],[-78.92278,8.26545,6.4874],[-78.92012,8.274,15.5503],[-78.92048,8.28257,0.0],[-78.9122,8.29373,0.0],[-78.90469,8.30265,0.0],[-78.90133,8.30897,15.1227],[-78.89905,8.30264,0.0],[-78.8964,8.29743,29.8913],[-78.88923,8.29914,0.0],[-78.8825,8.30039,12.014099999999999],[-78.87534,8.30149,11.1018],[-78.87041,8.29665,0.0],[-78.85802,8.29584,2.991],[-78.85228,8.30333,11.264],[-78.8523,8.31227,12.9443],[-78.84321,8.32046,0.0],[-78.83448,8.34281,49.9349],[-78.84796,8.36861,7.264],[-78.84567,8.38127,0.0],[-78.83734,8.38687,0.0],[-78.83551,8.398,3.1354],[-78.84223,8.41106,12.3534],[-78.85468,8.41329,20.6923],[-78.85448,8.42109,0.0],[-78.85538,8.43134,4.5588],[-78.85823,8.44294,0.0],[-78.86278,8.45368,0.0]]],
[[[-78.98562,8.46271,0.0],[-78.98987,8.46775,8.348],[-78.99298,8.46971,1.6658],[-78.99043,8.47418,9.8944],[-78.98392,8.47697,0.0],[-78.97853,8.48229,0.0],[-78.97455,8.48817,6.4136],[-78.98221,8.4879,0.0],[-78.98675,8.48314,0.0],[-78.9944,8.47754,1.9318],[-79.00063,8.47615,3.1869],[-79.00631,8.47363,0.0],[-79.01056,8.47195,15.7874],[-79.0168,8.46887,13.0878],[-79.01425,8.46579,3.4933],[-79.01029,8.46214,0.0],[-79.00604,8.45962,10.3798],[-79.00235,8.4627,10.0512],[-78.99697,8.46185,0.0],[-78.98988,8.46045,7.7502],[-78.98904,8.45708,14.6335],[-78.98565,8.45035,1.163],[-78.98197,8.44895,0.0],[-78.97942,8.44531,9.803],[-78.97772,8.44868,33.1273],[-78.97912,8.45514,1.9037],[-78.97544,8.45767,0.0],[-78.97543,8.46158,20.763],[-78.98053,8.46075,2.0565],[-78.98562,8.46271,0.0]]],
[[[-79.06109,8.48406,12.5348],[-79.05447,8.48755,11.3738],[-79.05402,8.49626,16.3187],[-79.0549,8.50106,0.0],[-79.06107,8.50281,0.0],[-79.06857,8.4954,0.0],[-79.06682,8.48145,0.0],[-79.06109,8.48406,12.5348]]],
[[[-79.0266,8.59735,0.0],[-79.02925,8.59386,13.0573],[-79.03365,8.59517,0.0],[-79.03542,8.58777,0.0],[-79.03146,8.5834,2.8784],[-79.02352,8.58427,8.735],[-79.01735,8.58949,8.6986],[-79.02219,8.59255,0.0],[-79.0266,8.59735,0.0]]],
[[[-79.60562,8.61316,0.0],[-79.6061,8.60761,2.7686],[-79.60783,8.60262,0.2995],[-79.61154,8.60265,1.7972],[-79.6113,8.59298,0.0],[-79.60923,8.5923,-0.3065],[-79.60535,8.59675,0.0],[-79.60205,8.59726,2.3022],[-79.59617,8.59368,0.0],[-79.59288,8.59111,0.0],[-79.59184,8.59232,0.0],[-79.59355,8.59556,0.0],[-79.59233,8.60055,0.0],[-79.59544,8.60328,19.0097],[-79.59673,8.60834,7.7583],[-79.60109,8.61144,1.0372],[-79.60367,8.61124,0.0],[-79.60562,8.61316,0.0]]],
[[[-79.06054,8.60785,0.0],[-79.05656,8.617,0.0],[-79.05303,8.62397,22.3516],[-79.05877,8.62529,17.9391],[-79.06008,8.63314,18.1959],[-79.06538,8.63577,9.2379],[-79.07068,8.61964,10.8278],[-79.06627,8.61309,0.0],[-79.06451,8.60742,0.7738],[-79.06054,8.60785,0.0]]],
[[[-79.56334,8.80464,0.0],[-79.57039,8.79858,0.0],[-79.57161,8.78918,0.0],[-79.56915,8.78312,0.0],[-79.56271,8.7813,0.0],[-79.55535,8.78282,19.7084],[-79.55136,8.77918,0.0],[-79.54798,8.77403,0.3831],[-79.54338,8.77554,3.4633],[-79.54124,8.7813,0.0],[-79.54185,8.78676,0.0],[-79.54799,8.78888,0.0],[-79.55259,8.79191,44.6386],[-79.55536,8.79797,0.0],[-79.55321,8.8004,0.0],[-79.55383,8.80343,0.0],[-79.55689,8.80252,0.0],[-79.56334,8.80464,0.0]]],
[[[-79.51054,8.80545,78.3267],[-79.51001,8.81101,0.0],[-79.51124,8.81617,0.0],[-79.51971,8.8088,0.5785],[-79.52273,8.80586,6.3069],[-79.52322,8.80363,1.294],[-79.52345,8.80089,0.0],[-79.51999,8.80135,0.0],[-79.51469,8.80112,0.0],[-79.51054,8.80545,78.3267]]],
[[[-79.12704,8.94331,0.0],[-79.12703,8.94879,1.1558],[-79.12309,8.95152,0.0],[-79.12878,8.95484,2.8751],[-79.12951,8.95845,6.3107],[-79.13053,8.95946,1.7277],[-79.13258,8.95687,0.0],[-79.13272,8.95528,0.5865],[-79.13243,8.95182,0.0],[-79.13068,8.95052,6.2487],[-79.12996,8.94836,0.0],[-79.13259,8.94461,0.0],[-79.13142,8.94302,0.0],[-79.12704,8.94331,0.0]]],
[[[-79.39613,9.39591,494.8816],[-79.39879,9.40297,537.5601],[-79.39727,9.40901,522.5072],[-79.39375,9.41415,377.5868],[-79.38835,9.41757,291.9658],[-79.37603,9.42291,282.1161],[-79.3714,9.42539,291.6375],[-79.3697,9.42826,178.4561],[-79.37125,9.43253,288.1415],[-79.3812,9.44526,238.2364],[-79.38461,9.45092,382.1506],[-79.39122,9.45953,319.6624],[-79.39972,9.46614,258.9178],[-79.41613,9.4725,237.83],[-79.44078,9.47901,439.9393],[-79.48519,9.4694,428.0508],[-79.5225,9.45426,224.4789],[-79.5485,9.36589,175.0493],[-79.55059,9.35558,94.6058],[-79.54989,9.34834,88.7399],[-79.54718,9.34447,96.6853],[-79.54754,9.33393,196.5193],[-79.55191,9.31832,172.3658],[-79.56506,9.28458,107.7382],[-79.57,9.26362,113.2459],[-79.57193,9.24882,72.5],[-79.56752,9.23096,72.5],[-79.56878,9.22391,72.5],[-79.57372,9.21825,72.5],[-79.58775,9.21213,72.5],[-79.60475,9.20714,88.9924],[-79.62229,9.199,62.2944],[-79.62935,9.19357,74.8581],[-79.63516,9.18985,66.485],[-79.64157,9.16262,92.2474],[-79.66976,9.12815,112.923],[-79.68792,9.11598,25.0],[-79.70474,9.11001,25.0],[-79.75624,9.10924,57.2882],[-79.77823,9.11435,25.0],[-79.78954,9.12624,28.9837],[-79.80856,9.15812,25.0],[-79.81905,9.16789,25.0],[-79.83001,9.17324,25.0],[-79.85799,9.17928,25.0],[-79.88925,9.19396,25.0],[-79.90594,9.19063,25.0],[-79.92067,9.17518,72.3535],[-79.96268,9.08348,29.48],[-79.95734,9.06617,26.2611],[-79.94899,9.05074,31.3159],[-79.9455,9.03909,26.6052],[-79.94519,9.02374,55.7856],[-79.95062,9.00798,51.8587],[-79.95594,8.99697,45.0378],[-79.9854,8.9778,53.7804],[-80.02224,8.96617,110.1758],[-80.05017,8.96834,51.3793],[-80.09265,8.98369,46.8092],[-80.13745,8.94925,55.2219],[-80.13311,8.92225,46.4497],[-80.1557,8.88889,170.4443],[-80.16177,8.87228,170.236],[-80.16451,8.85445,203.3024],[-80.16368,8.8307,181.2579],[-80.13761,8.75536,421.4845],[-80.11255,8.64301,720.6636],[-80.10678,8.62642,755.2799],[-80.10309,8.59188,746.6415],[-80.10441,8.58304,669.7485],[-80.10467,8.55131,445.7847],[-80.09562,8.52664,325.5519],[-80.09203,8.47085,157.3199],[-80.08648,8.45527,116.5073],[-80.08172,8.44556,95.1775],[-80.0408,8.39798,0.0],[-79.9702,8.44408,0.0],[-79.94896,8.46231,0.0],[-79.94689,8.46613,0.0],[-79.9418,8.4704,0.0],[-79.93212,8.48916,0.0],[-79.92675,8.49339,0.0],[-79.91763,8.49543,0.0],[-79.91055,8.50047,0.0],[-79.89538,8.51455,0.0],[-79.89122,8.5163,0.0],[-79.87999,8.51862,0.0],[-79.87487,8.5207,0.0],[-79.87173,8.52416,0.0],[-79.86978,8.53181,0.0],[-79.87153,8.54282,0.0],[-79.86412,8.55236,0.0],[-79.8263,8.56155,0.0],[-79.79367,8.57221,1.2269],[-79.7744,8.57955,0.0],[-79.73437,8.6155,0.0],[-79.70061,8.64155,0.0],[-79.6969,8.64889,0.0],[-79.69727,8.65732,0.0],[-79.70209,8.65732,0.0],[-79.7058,8.65255,0.0],[-79.7173,8.64631,0.0],[-79.74735,8.63126,0.0],[-79.77961,8.61841,0.0],[-79.81369,8.62606,0.0],[-79.82631,8.63852,0.0],[-79.81002,8.6466,0.0],[-79.79296,8.65107,0.0],[-79.79052,8.65502,0.0],[-79.79174,8.65949,0.0],[-79.79101,8.66323,0.0],[-79.77839,8.66584,0.0],[-79.76594,8.67182,0.0],[-79.76195,8.67471,0.0],[-79.75601,8.68159,0.0],[-79.7508,8.6896,1.9775],[-79.74682,8.69794,0.0],[-79.74454,8.70572,0.0],[-79.74136,8.71113,5.3965],[-79.73933,8.7165,0.0],[-79.73835,8.72281,0.0],[-79.74047,8.72598,0.0],[-79.74519,8.72801,6.086],[-79.74987,8.73102,3.1606],[-79.75202,8.73676,0.0],[-79.75626,8.79629,0.0],[-79.75202,8.81558,0.0],[-79.74356,8.83006,0.0],[-79.73021,8.84431,0.0],[-79.71394,8.85261,0.0],[-79.69677,8.84968,0.0],[-79.69921,8.8548,0.0],[-79.7008,8.85993,0.0],[-79.7036,8.86335,0.0],[-79.7036,8.87018,0.0],[-79.69701,8.86921,6.8605],[-79.69465,8.86831,0.0],[-79.69347,8.86664,0.0],[-79.69054,8.86335,0.0],[-79.68065,8.86762,0.8704],[-79.67398,8.86555,44.2684],[-79.66686,8.86083,0.0],[-79.65575,8.85712,0.0],[-79.65575,8.86335,0.0],[-79.6612,8.87523,0.0],[-79.64684,8.88264,10.9717],[-79.60119,8.89069,0.0],[-79.57848,8.88227,0.0],[-79.56387,8.89277,0.0],[-79.55919,8.91429,0.0],[-79.5664,8.93911,8.3956],[-79.56017,8.93911,0.0],[-79.56017,8.9453,9.5622],[-79.56322,8.95002,20.1394],[-79.56501,8.95376,6.152],[-79.5664,8.95954,5.8553],[-79.56017,8.95954,6.517],[-79.55468,8.94208,12.9384],[-79.54113,8.92329,0.0],[-79.52497,8.90729,0.0],[-79.51183,8.89814,0.0],[-79.51553,8.90998,0.0],[-79.53287,8.93911,0.0],[-79.52221,8.94229,0.0],[-79.52025,8.94888,0.0],[-79.52123,8.95742,0.0],[-79.5192,8.96638,0.0],[-79.49108,8.98347,0.0],[-79.4879,8.98688,0.0],[-79.48469,8.989,0.0],[-79.48404,8.99372,0.0],[-79.482,8.99836,0.0],[-79.47452,9.00056,0.0],[-79.46691,9.00165,0.0],[-79.45446,9.00629,0.0],[-79.43712,9.00959,0.0],[-79.42748,9.01337,0.0],[-79.4182,9.01415,0.0],[-79.40933,9.00739,0.0],[-79.38683,9.01887,9.9722],[-79.33031,9.01341,0.0],[-79.30573,9.02098,0.0],[-79.30573,9.01415,0.0],[-79.29947,9.01415,0.0],[-79.27335,9.01927,0.0],[-79.19298,9.00519,0.0],[-79.17601,9.01073,0.0],[-79.17349,9.02253,11.1007],[-79.16828,9.01984,25.8531],[-79.1634,9.01179,0.0],[-79.16234,9.00739,0.0],[-79.13809,9.0008,0.0],[-79.13158,8.99746,0.0],[-79.11608,8.99413,0.0],[-79.10212,9.00601,0.0],[-79.09179,9.02302,2.4448],[-79.08723,9.03531,0.0],[-79.09,9.05638,0.0],[-79.10167,9.06501,16.9166],[-79.11457,9.06879,30.1416],[-79.12072,9.07563,10.4068],[-79.11905,9.0832,19.074],[-79.11417,9.08755,4.9251],[-79.10676,9.08942,2.1046],[-79.09748,9.08991,11.6601],[-79.0878,9.09203,5.5005],[-79.08218,9.09675,1.5295],[-79.07901,9.10147,3.2215],[-79.07665,9.10358,27.8052],[-79.07087,9.10749,26.5978],[-79.05866,9.12564,1.7484],[-79.05248,9.13085,5.9584],[-79.04263,9.13109,4.3508],[-79.03954,9.12592,5.0303],[-79.03694,9.11961,6.188],[-79.02892,9.1166,7.844],[-79.02473,9.11937,7.0179],[-79.01195,9.13312,21.3357],[-79.00528,9.13833,40.139],[-78.99718,9.14094,13.5099],[-78.98375,9.14199,8.9795],[-78.97737,9.14517,14.2362],[-78.98217,9.13642,13.152],[-78.9912,9.13117,33.9505],[-79.01155,9.12401,18.1064],[-79.0277,9.11103,17.2484],[-79.03742,9.1105,13.9007],[-79.04625,9.12401,7.8248],[-79.05248,9.12401,6.181],[-79.05858,9.10716,11.6188],[-79.06989,9.09333,4.7833],[-79.08629,9.08462,9.786],[-79.10774,9.08308,4.2869],[-79.10774,9.07563,26.0897],[-79.08886,9.0738,26.0099],[-79.08088,9.06281,30.1793],[-79.07934,9.0454,23.6613],[-79.07982,9.02473,33.9672],[-79.08178,9.01533,18.5015],[-79.08568,9.00975,65.9256],[-79.08849,9.0041,21.584],[-79.08723,8.99433,8.6003],[-79.083,8.98884,0.0],[-79.05761,8.97101,0.0],[-79.00528,8.95954,0.0],[-78.87389,8.89118,10.6293],[-78.86856,8.8749,6.8134],[-78.86457,8.85562,3.7196],[-78.85757,8.83979,13.7024],[-78.838,8.81696,19.4876],[-78.82787,8.81314,0.0],[-78.81286,8.81558,0.0],[-78.79646,8.82347,13.7185],[-78.79015,8.83356,15.3716],[-78.7919,8.84667,0.0],[-78.79988,8.86335,0.0],[-78.78962,8.85391,17.5663],[-78.78181,8.84284,2.7173],[-78.77245,8.83356,17.7304],[-78.75764,8.82925,10.6347],[-78.75764,8.82241,21.2724],[-78.76513,8.82241,13.5884],[-78.76513,8.81558,11.6364],[-78.74938,8.80183,16.4257],[-78.7294,8.75934,2.7902],[-78.70987,8.7473,0.0],[-78.6822,8.74775,0.0],[-78.65152,8.70795,0.0],[-78.63476,8.72622,0.0],[-78.61974,8.72354,23.103],[-78.61913,8.73786,27.2064],[-78.62312,8.75849,2.4066],[-78.62169,8.7746,29.1057],[-78.61425,8.7746,16.061],[-78.60949,8.75593,18.4022],[-78.60839,8.73534,50.2182],[-78.61368,8.71723,83.2102],[-78.62792,8.70572,250.0787],[-78.61889,8.68146,25.3013],[-78.61254,8.66975,0.0],[-78.60375,8.66474,0.0],[-78.59655,8.66649,0.0],[-78.58922,8.66958,0.0],[-78.58153,8.67011,0.0],[-78.57331,8.66474,20.3818],[-78.569,8.67023,23.3188],[-78.56558,8.67178,6.2005],[-78.55899,8.67097,19.4834],[-78.56127,8.66645,19.6343],[-78.56648,8.65107,0.0],[-78.50438,8.63402,29.7061],[-78.50585,8.59907,27.4779],[-78.50031,8.58869,49.9579],[-78.48396,8.576,18.5888],[-78.49592,8.57075,5.1195],[-78.50577,8.57197,0.8983],[-78.51671,8.57526,16.5093],[-78.53173,8.576,83.0524],[-78.52001,8.56346,19.2286],[-78.49079,8.52448,52.4372],[-78.48396,8.50707,53.5316],[-78.49136,8.47337,31.1848],[-78.49079,8.4593,124.2735],[-78.4864,8.44782,31.3916],[-78.47549,8.43403,12.9208],[-78.47086,8.42451,0.0],[-78.46996,8.43301,0.0],[-78.46809,8.44013,0.0],[-78.46402,8.44623,0.0],[-78.45665,8.45185,6.2588],[-78.44994,8.43915,14.4272],[-78.44518,8.42109,157.1334],[-78.44441,8.40323,45.51],[-78.44978,8.39102,45.9604],[-78.43871,8.38443,0.0],[-78.41564,8.35627,30.4141],[-78.4097,8.35301,18.9081],[-78.40969,8.35301,18.9081],[-78.41324,8.39755,59.6569],[-78.4296,8.45563,154.5138],[-78.43239,8.47767,173.3328],[-78.44523,8.50832,43.5071],[-78.44911,8.53354,18.7081],[-78.44795,8.54627,12.853],[-78.45133,8.55372,25.2848],[-78.45492,8.55658,48.5505],[-78.45846,8.56038,37.0336],[-78.45784,8.56862,25.3491],[-78.45211,8.59811,21.8269],[-78.44813,8.63875,67.8052],[-78.44508,8.65358,130.0492],[-78.44154,8.66505,127.1898],[-78.43562,8.67645,104.8517],[-78.43172,8.68717,76.0282],[-78.42823,8.7026,102.2454],[-78.42877,8.71448,172.8701],[-78.4334,8.73838,139.5992],[-78.43691,8.7483,169.361],[-78.44841,8.80595,1170.8474],[-78.45117,8.81969,666.1487],[-78.44603,8.82535,523.049],[-78.43888,8.83,410.2019],[-78.39304,8.84543,251.2177],[-78.37903,8.84481,111.4179],[-78.36232,8.84171,201.4084],[-78.33816,8.83303,166.2736],[-78.33172,8.82737,186.5115],[-78.3217,8.81207,475.8268],[-78.30901,8.80672,551.3735],[-78.29963,8.80913,169.4398],[-78.29033,8.81603,85.2453],[-78.28581,8.82458,85.2903],[-78.2847,8.83295,125.433],[-78.281,8.84256,121.8767],[-78.27129,8.85266,122.5251],[-78.24266,8.866,99.0754],[-78.22186,8.87034,103.7048],[-78.20501,8.87088,122.5242],[-78.18592,8.86933,129.7018],[-78.17499,8.87197,130.9361],[-78.16708,8.87773,126.4632],[-78.15404,8.89966,91.6966],[-78.13721,8.91426,80.4614],[-78.11972,8.92209,100.3927],[-78.09484,8.92783,140.4479],[-78.08407,8.93436,139.0447],[-78.07918,8.94374,147.9492],[-78.08166,8.9587,179.374],[-78.08213,8.97671,153.3078],[-78.07988,9.00108,109.107],[-78.07533,9.01979,265.6622],[-78.06854,9.03459,263.4254],[-78.0482,9.06128,383.5392],[-78.04254,9.07324,238.5774],[-78.06505,9.10784,576.5852],[-78.07239,9.1128,549.7579],[-78.08329,9.11869,634.8225],[-78.15233,9.135,271.8199],[-78.15884,9.13996,448.2267],[-78.16081,9.14539,561.9265],[-78.15047,9.16122,365.1538],[-78.14582,9.17277,401.7721],[-78.15083,9.19427,527.1345],[-78.15869,9.20303,319.8507],[-78.16561,9.20567,296.2908],[-78.16956,9.20226,378.191],[-78.17135,9.19768,365.9303],[-78.17403,9.19272,278.9626],[-78.1784,9.19009,263.1508],[-78.18669,9.18939,271.2253],[-78.20912,9.19272,337.1347],[-78.23465,9.19311,277.424],[-78.257,9.19086,289.3566],[-78.26473,9.19605,326.3967],[-78.27077,9.20489,428.2365],[-78.28044,9.23158,160.7418],[-78.28485,9.24858,244.337],[-78.28909,9.25571,459.8246],[-78.2956,9.25734,348.4932],[-78.33121,9.23998,252.7262],[-78.33901,9.2375,305.6171],[-78.34692,9.23802,393.7059],[-78.36606,9.24176,360.239],[-78.39487,9.2406,375.4212],[-78.40875,9.24362,394.0733],[-78.4143,9.24789,374.7182],[-78.41684,9.25478,469.9118],[-78.41578,9.26192,401.175],[-78.41653,9.26954,392.7889],[-78.4197,9.27892,449.1007],[-78.42474,9.28744,168.3332],[-78.43032,9.29194,146.6306],[-78.43774,9.2946,103.2087],[-78.44172,9.2984,93.8277],[-78.44526,9.30445,118.2404],[-78.44895,9.3122,186.6247],[-78.45769,9.32041,214.3699],[-78.46508,9.32103,277.0187],[-78.472,9.31724,318.3433],[-78.47949,9.31134,542.2347],[-78.48642,9.30871,623.7172],[-78.49076,9.31165,569.4685],[-78.4951,9.32889,284.7097],[-78.50019,9.33796,300.5437],[-78.51288,9.34969,346.7064],[-78.52182,9.35124,272.5406],[-78.52835,9.34796,275.3436],[-78.53716,9.33501,293.5649],[-78.54205,9.33137,295.5055],[-78.59453,9.31917,321.7685],[-78.61008,9.31778,317.3349],[-78.6277,9.32142,569.9308],[-78.64178,9.33021,483.3935],[-78.67705,9.35705,465.1729],[-78.69886,9.37077,317.8067],[-78.70971,9.37418,228.1026],[-78.71488,9.37124,306.1044],[-78.717,9.3538,326.4648],[-78.721,9.34703,504.2523],[-78.72819,9.34455,560.0368],[-78.74175,9.35077,453.8289],[-78.75878,9.3686,472.5427],[-78.76542,9.37155,413.3159],[-78.77059,9.37147,454.3435],[-78.7778,9.37062,412.4492],[-78.78165,9.36821,446.066],[-78.78749,9.36341,410.1361],[-78.79591,9.35868,477.4937],[-78.80898,9.35674,524.1573],[-78.83999,9.36108,347.9538],[-78.85704,9.36093,403.3925],[-78.87136,9.35938,399.1911],[-78.87831,9.35573,464.2972],[-78.89079,9.34447,328.6375],[-78.90011,9.34121,322.794],[-78.91536,9.34106,399.3746],[-78.92634,9.34524,246.2002],[-78.93277,9.34633,190.5049],[-78.93717,9.34455,305.9313],[-78.93794,9.34028,278.065],[-78.93766,9.33338,364.3119],[-78.93941,9.3278,381.1806],[-78.94567,9.32468,374.66],[-78.95613,9.32804,338.0662],[-78.96466,9.32889,341.5054],[-78.97275,9.32773,352.7666],[-78.99708,9.31716,367.2389],[-79.00282,9.31266,346.8184],[-79.00564,9.30638,393.7126],[-79.00416,9.29995,447.553],[-79.00065,9.29414,424.5208],[-78.99817,9.28837,442.4086],[-78.99817,9.28419,419.3753],[-79.0022,9.28047,436.8971],[-79.01114,9.2776,429.8868],[-79.0568,9.27636,309.7238],[-79.07181,9.27737,288.8611],[-79.07824,9.28225,274.1511],[-79.08504,9.28977,338.5132],[-79.09364,9.29755,511.7108],[-79.11537,9.30631,210.75],[-79.12865,9.3091,183.262],[-79.1433,9.3101,193.1003],[-79.15671,9.30987,218.0714],[-79.17054,9.30778,234.8036],[-79.23916,9.28644,276.0343],[-79.27206,9.27954,521.211],[-79.28006,9.28651,617.1665],[-79.28105,9.29302,763.2517],[-79.27903,9.30336,805.5945],[-79.27249,9.31429,750.1652],[-79.26611,9.32158,659.4994],[-79.24699,9.33075,466.1051],[-79.23981,9.33974,454.6973],[-79.23867,9.34408,588.5829],[-79.2381,9.34974,624.2305],[-79.23934,9.35674,450.5411],[-79.24273,9.36356,504.079],[-79.24808,9.36891,587.4061],[-79.25707,9.37224,513.3755],[-79.26162,9.37566,484.8755],[-79.26151,9.38095,501.4702],[-79.25376,9.39134,593.9343],[-79.25208,9.39661,412.5856],[-79.25671,9.40242,266.7252],[-79.26694,9.40731,393.6093],[-79.29017,9.41508,602.7262],[-79.30779,9.41485,390.8462],[-79.31818,9.41222,363.1126],[-79.32861,9.4039,407.4241],[-79.33489,9.40235,309.2606],[-79.35879,9.4025,514.1296],[-79.36815,9.40056,370.1214],[-79.38448,9.3949,459.0138],[-79.39143,9.39397,542.7328],[-79.39613,9.39591,494.8816]]]]}
,"properties": {"ISO3166-1-Alpha-3": "PAN","country": "Panama","fill": "#F0F","name": "Panama","area_km2": 11760.646,"hist_schema_id": "Elevation0-9000","hist_area_km2": {"0": 827.351,"25": 1225.364,"50": 1111.386,"75": 1029.607,"100": 1227.41,"125": 915.959,"150": 666.618,"175": 541.078,"200": 467.132,"225": 430.854,"250": 378.589,"275": 335.079,"300": 299.033,"325": 269.644,"350": 244.572,"375": 221.539,"400": 200.994,"425": 170.064,"450": 152.44,"475": 136.598,"500": 118.661,"525": 103.297,"550": 87.011,"575": 77.614,"600": 67.022,"625": 58.085,"650": 51.471,"675": 44.794,"700": 39.624,"725": 38.682,"750": 35.039,"775": 33.344,"800": 28.486,"825": 25.513,"850": 20.381,"875": 15.25,"900": 13.68,"925": 11.481,"950": 9.89,"975": 7.145,"1000": 6.286,"1025": 5.008,"1050": 3.374,"1075": 2.557,"1100": 1.404,"1125": 0.964,"1150": 0.691,"1175": 0.566,"1200": 0.293,"1225": 0.377,"1250": 0.293,"1275": 0.272,"1300": 0.272,"1325": 0.168,"1350": 0.126}}}