{"type":"Feature","properties":{"featurecla":"Lake Centerline","scalerank":6,"rivernum":227,"dissolve":"227Lake Centerline","name":"Panama","name_alt":null,"note":null,"min_zoom":5.0,"strokeweig":0.2,"name_en":"Panama Canal","min_label":6.0},
"geometry":{"type": "LineString","coordinates": [[-79.690527343749991,9.10358307499412,28.438],[-79.704760742187489,9.1101260437441169,25.0],[-79.756201171874991,9.10932037968162,57.2882],[-79.768115234374989,9.1120791687441169,25.0],[-79.769335937499989,9.11237213749412,25.0],[-79.778247070312489,9.11444733280662,25.0],[-79.78955078125,9.12628815311912,28.9837],[-79.80859375,9.15814850468162,25.0],[-79.819018554687489,9.1679873718691169,25.0],[-79.830004882812489,9.17328522343162,25.0],[-79.857958984374989,9.17938873905662,25.0],[-79.889208984374989,9.19403717655662,25.0],[-79.905371093749991,9.2109561218691169,33.5941],[-79.920703124999989,9.26044342655662,25.0],[-79.92333984375,9.26740143436912,25.641]]}}