{"type":"Feature","properties":{"featurecla":"River","scalerank":6,"rivernum":227,"dissolve":"227River","name":"Panama1","name_alt":null,"note":null,"min_zoom":5.0,"strokeweig":0.2,"name_en":"Panama Canal","min_label":6.0},
"geometry":{"type": "LineString","coordinates": [[-79.690527343749991,9.10358307499412,28.438],[-79.690527343749991,9.10358307499412,28.438],[-79.690527343749991,9.10358307499412,28.438],[-79.690527343749991,9.10358307499412,28.438],[-79.690527343749991,9.10358307499412,28.438],[-79.6748046875,9.0889834656191084,75.5144],[-79.621630859374989,9.0210147156191169,28.4595],[-79.5875,8.99433014530662,5.6018],[-79.567431640624989,8.9665713562441169,8.8078],[-79.56015625,8.95954010624412,6.517]]}}