{"type": "Feature","bbox": [-79.0724,8.564,-79.0171,8.6729],"geometry": {"type": "MultiPolygon","coordinates": [[[[-79.0235,8.5776,0.0],[-79.0246,8.579,0.0],[-79.0257,8.5776,4.1728],[-79.0304,8.5774,1.3839],[-79.0326,8.5735,11.17],[-79.0313,8.5724,11.17],[-79.0279,8.5751,0.0],[-79.0251,8.5738,1.813],[-79.0246,8.5715,0.0],[-79.0282,8.5688,0.0],[-79.0276,8.5643,0.8064],[-79.0224,8.564,0.0],[-79.0176,8.5676,0.0],[-79.0176,8.5696,2.7997],[-79.021,8.5707,7.8343],[-79.0179,8.5724,2.6039],[-79.0171,8.5754,10.8187],[-79.0199,8.5738,6.7714],[-79.024,8.574,5.0234],[-79.0251,8.5765,12.5812],[-79.0235,8.5776,0.0]]],
[[[-79.0246,8.5965,19.3984],[-79.0282,8.5965,11.5008],[-79.0304,8.5935,45.2046],[-79.031,8.5951,7.8025],[-79.0329,8.5951,0.0],[-79.0362,8.5932,6.1402],[-79.0338,8.5868,0.0],[-79.0346,8.5838,6.5394],[-79.0312,8.5843,10.2843],[-79.0301,8.5815,0.0],[-79.0299,8.5835,1.7272],[-79.0224,8.584,0.0],[-79.0188,8.5874,20.0112],[-79.0174,8.5907,1.5629],[-79.0246,8.5926,27.729],[-79.0246,8.5965,19.3984]]],
[[[-79.0318,8.6346,1.486],[-79.0332,8.6351,0.0],[-79.0343,8.6326,5.2563],[-79.0365,8.6332,2.3473],[-79.0362,8.6313,9.9572],[-79.0387,8.629,17.6925],[-79.0413,8.6299,2.6272],[-79.0446,8.626,2.8267],[-79.046,8.6187,0.0],[-79.0421,8.619,0.395],[-79.0413,8.6221,23.6679],[-79.0376,8.6243,19.3394],[-79.0329,8.6243,0.0],[-79.031,8.6274,17.6065],[-79.0274,8.6274,10.7886],[-79.0279,8.6293,3.7046],[-79.031,8.629,3.303],[-79.0326,8.6307,0.0],[-79.0318,8.6346,1.486]]],
[[[-79.034,8.6504,0.0],[-79.0354,8.6515,0.0],[-79.0376,8.6482,0.0],[-79.0349,8.6488,2.3625],[-79.034,8.6504,0.0]]],
[[[-79.0601,8.6018,20.5429],[-79.0604,8.6029,11.5782],[-79.0638,8.6024,0.0],[-79.0643,8.5982,0.6923],[-79.061,8.5982,0.0],[-79.0601,8.6018,20.5429]]],
[[[-79.0626,8.636,3.9358],[-79.0671,8.6357,3.0239],[-79.0682,8.626,0.0],[-79.071,8.626,0.0],[-79.0723,8.624,0.0],[-79.0724,8.6196,0.0],[-79.0674,8.6174,27.9916],[-79.0649,8.6143,8.3329],[-79.064,8.6076,0.7738],[-79.0618,8.6079,13.1456],[-79.0607,8.614,20.1243],[-79.0582,8.6151,0.0],[-79.0515,8.624,22.3516],[-79.0524,8.6254,22.3516],[-79.0549,8.624,5.9797],[-79.0582,8.6254,17.9391],[-79.0599,8.6282,29.5881],[-79.0579,8.6307,4.9307],[-79.0585,8.6346,0.0],[-79.0615,8.6343,3.0219],[-79.0626,8.636,3.9358]]],
[[[-79.051,8.6685,0.0],[-79.0512,8.6701,0.0],[-79.0576,8.6701,14.6521],[-79.0593,8.6693,14.6521],[-79.0596,8.6665,0.0],[-79.0568,8.6629,0.0],[-79.0499,8.6618,0.0],[-79.0479,8.664,4.1971],[-79.0515,8.6668,27.0352],[-79.051,8.6685,0.0]]],
[[[-79.0618,8.6724,4.836],[-79.0638,8.6729,0.0],[-79.0651,8.6715,2.5788],[-79.0612,8.6712,3.1811],[-79.0618,8.6724,4.836]]]]}
,"properties": {"GID_3": "PAN.12.1.5_1","GID_0": "PAN","country": "Panama","GID_1": "PAN.12_1","province": "Panamá","NL_NAME_1": "NA","GID_2": "PAN.12.1_1","county": "Balboa","NL_NAME_2": "NA","city": "Saboga","VARNAME_3": "NA","NL_NAME_3": "NA","TYPE_3": "Corregimiento","ENGTYPE_3": "Municipality","CC_3": "NA","HASC_3": "NA","name": "Saboga.city","area_km2": 9.181836,"hist_schema_id": "Elevation0-9000","hist_area_km2": {"0": 2.389813,"25": 4.863441,"50": 1.907619,"75": 0.020964}}}