{"type": "Feature","bbox": [-80.716,8.5714,-80.5723,8.6684],"geometry": {"type": "MultiPolygon","coordinates": [[[[-80.6856,8.6633,903.155],[-80.6974,8.6644,1123.9854],[-80.7076,8.6615,857.3167],[-80.7149,8.6422,951.4545],[-80.716,8.6327,740.1184],[-80.6976,8.6154,812.5319],[-80.6918,8.6073,914.0767],[-80.678,8.5992,535.2875],[-80.6699,8.5991,598.2764],[-80.6601,8.6019,497.3286],[-80.6528,8.6016,619.1134],[-80.6463,8.5988,599.1102],[-80.6384,8.5923,472.6908],[-80.6266,8.6002,396.804],[-80.6182,8.601,606.2546],[-80.6129,8.5965,458.0948],[-80.6085,8.5886,241.3097],[-80.6033,8.5864,208.3795],[-80.5935,8.5879,372.0722],[-80.5787,8.5744,234.0827],[-80.5731,8.5714,201.1213],[-80.5798,8.5945,485.2907],[-80.5847,8.6029,455.6814],[-80.5822,8.6064,434.0718],[-80.5723,8.6086,319.8156],[-80.5731,8.6129,392.7351],[-80.5849,8.6192,422.8185],[-80.591,8.6254,489.4177],[-80.5976,8.6269,607.5577],[-80.6049,8.6365,704.5704],[-80.6138,8.6402,738.7164],[-80.6305,8.658,1003.3801],[-80.6449,8.6577,834.9171],[-80.6532,8.6664,941.031],[-80.6584,8.6684,1017.0677],[-80.6671,8.6679,1045.5659],[-80.6765,8.6579,1123.3843],[-80.6813,8.6584,1031.879],[-80.6856,8.6633,903.155]]]]}
,"properties": {"GID_3": "PAN.3.3.4_1","GID_0": "PAN","country": "Panama","GID_1": "PAN.3_1","province": "Coclé","NL_NAME_1": "NA","GID_2": "PAN.3.3_1","county": "LaPintada","NL_NAME_2": "NA","city": "LasLomas","VARNAME_3": "NA","NL_NAME_3": "NA","TYPE_3": "Corregimiento","ENGTYPE_3": "Municipality","CC_3": "NA","HASC_3": "NA","name": "Las_Lomas.city","area_km2": 86.74225,"hist_schema_id": "Elevation0-9000","hist_area_km2": {"200": 0.02096,"225": 0.20965,"250": 0.31447,"275": 0.37736,"300": 0.52411,"325": 0.58699,"350": 0.88049,"375": 0.85952,"400": 1.09013,"425": 0.9853,"450": 1.27879,"475": 1.73998,"500": 2.03347,"525": 2.05442,"550": 2.05443,"575": 2.32695,"600": 2.09633,"625": 2.18017,"650": 2.07534,"675": 1.90763,"700": 2.2011,"725": 1.97049,"750": 2.62033,"775": 2.30588,"800": 2.38973,"825": 2.36875,"850": 2.66221,"875": 2.57834,"900": 2.93469,"925": 2.89274,"950": 3.10233,"975": 3.03945,"1000": 3.14425,"1025": 3.0604,"1050": 2.57827,"1075": 2.62018,"1100": 2.41056,"1125": 2.26383,"1150": 2.28478,"1175": 1.76076,"1200": 1.38345,"1225": 1.59306,"1250": 1.38345,"1275": 1.25769,"1300": 1.50924,"1325": 1.00616,"1350": 0.67077,"1375": 0.50308,"1400": 0.48211,"1425": 0.12577,"1450": 0.04192}}}