{"type":"Feature","properties":{"GID_3":"PAN.4.6.4_1","GID_0":"PAN","country":"Panama","GID_1":"PAN.4_1","province":"Colón","NL_NAME_1":"NA","GID_2":"PAN.4.6_1","county":"SantaIsabel","NL_NAME_2":"NA","city":"Palenque","VARNAME_3":"NA","NL_NAME_3":"NA","TYPE_3":"Corregimiento","ENGTYPE_3":"Municipality","CC_3":"NA","HASC_3":"NA","name":"Palenque.city"},
"geometry":{"type": "MultiPolygon","coordinates": [[[[-79.3342,9.5344,60.0341],[-79.3368,9.5391,104.0192],[-79.3371,9.5547,34.0116],[-79.3385,9.5587,29.8079],[-79.3495,9.5628,51.8935],[-79.3526,9.5606,13.2515],[-79.3549,9.5611,13.8842],[-79.355,9.5658,20.3055],[-79.3459,9.5788,0.4523],[-79.3482,9.5796,8.1203],[-79.3493,9.5763,4.524],[-79.3546,9.5754,1.5144],[-79.3551,9.5737,7.6499],[-79.3562,9.5757,0.0],[-79.361,9.5735,3.7886],[-79.3679,9.5763,2.5588],[-79.3658,9.5636,29.3501],[-79.3722,9.557,65.1144],[-79.3743,9.5356,101.5041],[-79.3712,9.5181,192.8878],[-79.3717,9.5138,174.1082],[-79.3748,9.5079,140.4398],[-79.3867,9.501,190.5215],[-79.3954,9.4891,374.5911],[-79.3941,9.4865,347.0168],[-79.3828,9.4803,191.2285],[-79.3774,9.4726,111.1278],[-79.3808,9.455,297.468],[-79.3797,9.4505,389.8751],[-79.3809,9.444,238.2364],[-79.3795,9.4424,235.0976],[-79.359,9.4515,185.2678],[-79.3558,9.4578,92.0288],[-79.3469,9.4625,139.3328],[-79.3448,9.4704,84.6115],[-79.3358,9.4795,44.8939],[-79.3313,9.4977,210.7286],[-79.3377,9.5109,116.3214],[-79.3434,9.5285,119.9523],[-79.3425,9.5298,129.9074],[-79.3351,9.5279,82.7491],[-79.3342,9.5344,60.0341]]]]}}