{"type":"Feature","properties":{"GID_2":"PAN.7.6_1","GID_0":"PAN","country":"Panama","GID_1":"PAN.7_1","province":"Herrera","NL_NAME_1":"NA","county":"Pesé","VARNAME_2":"NA","NL_NAME_2":"NA","TYPE_2":"Distrito","ENGTYPE_2":"District","CC_2":"NA","HASC_2":"PA.HE.PS","name":"Pesé.county"},
"geometry":{"type": "MultiPolygon","coordinates": [[[[-80.5892,7.7866,67.3981],[-80.5836,7.7876,80.9252],[-80.5872,7.7961,60.946],[-80.5889,7.7968,74.3736],[-80.596,7.7934,129.1591],[-80.6002,7.8021,77.4102],[-80.592,7.8083,65.1721],[-80.5902,7.8143,58.1199],[-80.5872,7.8179,60.2169],[-80.583,7.8196,58.7917],[-80.5744,7.8174,63.7312],[-80.5721,7.8238,58.9518],[-80.5654,7.8242,59.5169],[-80.5625,7.8259,59.8228],[-80.5587,7.8345,64.2016],[-80.5549,7.8335,61.1846],[-80.5506,7.8295,53.7246],[-80.5372,7.8315,53.6733],[-80.541,7.8397,54.1156],[-80.5376,7.8465,38.907],[-80.538,7.8526,35.6111],[-80.5338,7.8584,47.337],[-80.5307,7.877,30.5725],[-80.5288,7.8798,32.5734],[-80.5236,7.8805,46.0629],[-80.522,7.8823,46.3456],[-80.5243,7.8892,31.5029],[-80.5227,7.8946,22.4106],[-80.5027,7.9092,38.8152],[-80.5019,7.9148,32.8619],[-80.4989,7.9186,30.959],[-80.4994,7.9203,33.7959],[-80.5042,7.9207,19.9528],[-80.5068,7.9234,19.7627],[-80.5033,7.9422,39.2836],[-80.5527,7.9474,44.4204],[-80.5738,7.9624,37.9295],[-80.5799,7.9646,32.4137],[-80.5949,7.9555,34.1103],[-80.5958,7.9501,28.0486],[-80.5996,7.9488,27.0995],[-80.6074,7.9412,54.1382],[-80.602,7.9399,49.2436],[-80.602,7.9379,55.9804],[-80.61,7.9341,47.0715],[-80.6176,7.9389,66.0587],[-80.6248,7.9369,72.8191],[-80.6316,7.9373,47.9049],[-80.6352,7.9338,51.407],[-80.6401,7.9326,98.4587],[-80.6447,7.9292,57.837],[-80.6517,7.9295,51.5496],[-80.6593,7.9246,72.4408],[-80.6655,7.9248,74.5032],[-80.6697,7.9218,76.184],[-80.6745,7.9238,81.697],[-80.6749,7.9194,73.6945],[-80.6781,7.9137,71.7639],[-80.6919,7.9226,111.8534],[-80.6956,7.9234,85.0489],[-80.6979,7.9229,86.0603],[-80.6992,7.9199,83.7704],[-80.7047,7.9166,94.5154],[-80.7076,7.9169,91.2904],[-80.7112,7.9148,93.282],[-80.713,7.9054,81.4775],[-80.719,7.9017,89.3289],[-80.7206,7.8984,120.4193],[-80.7229,7.8831,92.4425],[-80.7258,7.8774,96.3513],[-80.7261,7.8705,158.2885],[-80.7318,7.8619,114.0172],[-80.7366,7.86,127.5525],[-80.7387,7.8555,126.437],[-80.737,7.8519,128.7684],[-80.7371,7.8458,135.5203],[-80.731,7.8387,152.5062],[-80.7269,7.8288,194.854],[-80.7237,7.8263,225.032],[-80.7196,7.8155,265.4359],[-80.7054,7.8068,244.8651],[-80.7004,7.8052,209.3673],[-80.6801,7.8145,216.5866],[-80.674,7.8144,253.8629],[-80.6715,7.8174,181.726],[-80.6624,7.8196,173.5477],[-80.6608,7.8249,144.2076],[-80.6443,7.8069,193.2068],[-80.627,7.8012,156.4988],[-80.6181,7.8001,142.9515],[-80.6122,7.7936,120.2538],[-80.5968,7.7858,146.0123],[-80.5892,7.7866,67.3981]]]]}}