{"type":"Feature","properties":{"GID_2":"PAN.11.3_1","GID_0":"PAN","country":"Panama","GID_1":"PAN.11_1","province":"PanamáOeste","NL_NAME_1":"NA","county":"Chame","VARNAME_2":"NA","NL_NAME_2":"NA","TYPE_2":"Distrito","ENGTYPE_2":"District","CC_2":"NA","HASC_2":"PA.PN.CM","name":"Chame.county"},
"geometry":{"type": "MultiPolygon","coordinates": [[[[-79.8307,8.6368,0.0],[-79.836,8.636,0.0],[-79.8421,8.6468,4.3802],[-79.8529,8.6532,2.2441],[-79.8571,8.6518,5.2587],[-79.8538,8.6468,4.4554],[-79.8538,8.6404,5.3254],[-79.8554,8.6396,1.5538],[-79.8546,8.6468,2.4919],[-79.859,8.6504,2.9855],[-79.8529,8.6587,0.0],[-79.8474,8.6613,3.6373],[-79.8485,8.6663,2.0189],[-79.8447,8.6823,7.0046],[-79.8472,8.6885,8.6573],[-79.8538,8.6937,20.3114],[-79.8587,8.6947,25.2411],[-79.8667,8.6914,42.0061],[-79.8738,8.6932,47.8241],[-79.8803,8.6911,57.3073],[-79.8952,8.6784,198.349],[-79.9124,8.6685,508.2496],[-79.9202,8.6777,731.4978],[-79.937,8.6907,872.0695],[-79.9559,8.6981,744.5776],[-79.9586,8.6979,739.0657],[-79.971,8.6907,585.9155],[-79.9804,8.6912,585.1514],[-79.9877,8.6947,680.9084],[-79.9978,8.6965,644.5581],[-80.0153,8.6955,546.3553],[-80.0246,8.6924,678.4813],[-80.0436,8.6805,837.6922],[-80.055,8.665,1037.1703],[-80.0591,8.6563,845.9814],[-80.0806,8.6362,1032.2505],[-80.0657,8.6394,755.7482],[-80.0558,8.633,792.2093],[-80.0415,8.6345,578.8568],[-80.0293,8.6324,440.1554],[-80.022,8.625,268.9893],[-80.0156,8.6094,228.8381],[-80.0007,8.599,222.0942],[-79.9953,8.5818,294.1911],[-79.9895,8.5683,166.2563],[-79.9862,8.5682,148.7525],[-79.9867,8.5652,176.6294],[-79.9732,8.563,144.5183],[-79.9669,8.5603,126.7123],[-79.9601,8.5602,142.9259],[-79.9463,8.5533,83.6178],[-79.9325,8.5536,79.5127],[-79.9154,8.5464,54.412],[-79.9073,8.542,38.1781],[-79.9017,8.5361,33.5594],[-79.8976,8.5307,25.1561],[-79.8946,8.5226,5.2924],[-79.8751,8.5304,0.0],[-79.8776,8.5349,4.1408],[-79.8779,8.5421,8.1058],[-79.8746,8.5443,1.5938],[-79.8749,8.546,3.7167],[-79.8676,8.5485,0.9125],[-79.8665,8.5535,4.2728],[-79.8424,8.5585,1.2799],[-79.8399,8.5621,11.5904],[-79.8335,8.5613,3.6167],[-79.8271,8.5649,6.4183],[-79.8238,8.5646,3.388],[-79.8238,8.566,6.5792],[-79.8179,8.5657,2.8707],[-79.7924,8.5729,1.2269],[-79.7726,8.584,2.6702],[-79.7582,8.5946,0.0],[-79.7271,8.6237,2.2056],[-79.6985,8.6479,0.0],[-79.6982,8.6554,2.4188],[-79.701,8.6565,0.7322],[-79.7151,8.6421,0.0],[-79.7265,8.6374,0.0],[-79.7332,8.6279,2.1789],[-79.7457,8.6232,0.0],[-79.7474,8.6193,0.0],[-79.7449,8.6193,1.8912],[-79.7451,8.6151,0.3928],[-79.7496,8.6101,4.1947],[-79.754,8.611,0.0],[-79.7562,8.6099,1.8141],[-79.7521,8.614,0.0],[-79.7588,8.6174,0.0],[-79.7676,8.6168,4.259],[-79.7799,8.6126,1.0745],[-79.7824,8.6143,0.0],[-79.7865,8.6137,4.3785],[-79.8012,8.6218,0.0],[-79.8104,8.624,0.0],[-79.8201,8.6318,0.0],[-79.8307,8.6368,0.0]]],
[[[-79.8401,8.6474,0.0],[-79.84,8.6474,0.0],[-79.8401,8.6482,0.0],[-79.8401,8.6474,0.0]]]]}}