{"type":"Feature","properties":{"GID_3":"PAN.5.2.3_1","GID_0":"PAN","country":"Panama","GID_1":"PAN.5_1","province":"Darién","NL_NAME_1":"NA","GID_2":"PAN.5.2_1","county":"Pinogana","NL_NAME_2":"NA","city":"KunadeWargandí","VARNAME_3":"NA","NL_NAME_3":"NA","TYPE_3":"ComarcaIndígena","ENGTYPE_3":"IndigenousTerritory","CC_3":"NA","HASC_3":"NA","name":"Kunade_Wargandí.city"},
"geometry":{"type": "MultiPolygon","coordinates": [[[[-78.0696,8.8081,73.7304],[-78.0613,8.7891,69.0074],[-78.0481,8.7811,54.9349],[-78.0385,8.7782,56.9718],[-78.0288,8.7782,61.6906],[-78.0184,8.7722,52.6443],[-78.014,8.7669,45.1702],[-78.0127,8.7546,40.3998],[-78.0057,8.7453,54.8018],[-77.9958,8.737,46.7021],[-77.9789,8.7325,36.8167],[-77.9693,8.7446,36.3938],[-77.9523,8.7535,50.5557],[-77.9498,8.754,54.6416],[-77.9364,8.7504,50.7804],[-77.9144,8.7616,55.2518],[-77.907,8.7671,74.6225],[-77.904,8.7736,86.9531],[-77.9069,8.7831,46.9261],[-77.9035,8.7879,63.7043],[-77.9001,8.7996,116.5329],[-77.8948,8.8087,124.4435],[-77.8877,8.812,62.3812],[-77.8732,8.8092,64.0393],[-77.8516,8.7945,81.1079],[-77.8459,8.7877,69.5138],[-77.8374,8.7818,83.2246],[-77.8315,8.7736,88.2838],[-77.8244,8.7671,103.4902],[-77.8204,8.7656,106.0228],[-77.8118,8.7664,166.2211],[-77.8069,8.7695,169.3513],[-77.802,8.7783,291.3285],[-77.7871,8.7846,302.8265],[-77.777,8.7959,335.2827],[-77.7715,8.8045,236.7422],[-77.7704,8.8087,209.9185],[-77.7742,8.8244,241.3693],[-77.7724,8.8275,260.4168],[-77.7658,8.831,289.9981],[-77.7607,8.8361,317.1786],[-77.7583,8.8409,331.2567],[-77.7573,8.8484,336.8],[-77.7715,8.8773,551.5229],[-77.7876,8.8814,441.6793],[-77.7943,8.8865,576.7278],[-77.8015,8.8892,478.167],[-77.8107,8.9013,377.6802],[-77.8175,8.9071,327.4246],[-77.8256,8.9085,295.3754],[-77.8348,8.9074,308.0519],[-77.8462,8.9174,257.3512],[-77.8519,8.9252,284.1541],[-77.8597,8.9418,380.6918],[-77.8651,8.9474,395.303],[-77.8694,8.9549,398.1396],[-77.8685,8.9587,371.5484],[-77.8644,8.9625,381.9454],[-77.8654,8.9662,370.8877],[-77.8932,8.9846,414.6872],[-77.9016,8.9988,208.5197],[-77.9053,9.0002,303.7454],[-77.9132,8.9999,456.4066],[-77.9152,9.0013,448.9857],[-77.9155,9.0048,369.5938],[-77.9125,9.0138,395.6871],[-77.9155,9.0206,318.22],[-77.9352,9.0254,448.2106],[-77.9374,9.0363,242.0031],[-77.9419,9.0395,249.9961],[-77.9576,9.0409,333.5453],[-77.9622,9.0491,342.6774],[-77.9741,9.0564,397.5879],[-77.9863,9.0723,503.5316],[-77.9946,9.0773,540.4189],[-78.0051,9.0808,592.5168],[-78.0117,9.0876,603.461],[-78.0289,9.0927,648.2498],[-78.0402,9.0899,418.3203],[-78.0458,9.0909,432.5067],[-78.0518,9.0873,503.7781],[-78.0532,9.0847,462.0938],[-78.0562,9.0645,368.1019],[-78.06,9.0566,240.6378],[-78.0556,9.0483,396.2229],[-78.0584,9.041,304.1499],[-78.0721,9.0319,298.8693],[-78.0858,9.0296,299.5761],[-78.0939,9.0211,210.8558],[-78.0951,9.0015,120.1934],[-78.1074,8.9888,138.2388],[-78.112799999999993,8.9778,192.6017],[-78.1072,8.9632,151.3814],[-78.109,8.9464,129.9025],[-78.1184,8.937,138.1883],[-78.1182,8.9321,117.6024],[-78.1213,8.932,110.1091],[-78.132,8.9173,89.2861],[-78.1294,8.9117,90.2553],[-78.1188,8.9139,106.6872],[-78.112,8.9132,89.7129],[-78.1084,8.9112,98.4905],[-78.1043,8.8989,85.1568],[-78.1144,8.8796,89.4387],[-78.1161,8.8672,104.8891],[-78.1088,8.8615,107.6377],[-78.1044,8.8549,94.0639],[-78.0897,8.8546,79.2011],[-78.0794,8.849,68.299],[-78.075,8.8418,69.3582],[-78.0714,8.8308,79.237799999999993],[-78.0712,8.8194,85.8067],[-78.0665,8.8123,80.8024],[-78.0696,8.8081,73.7304]]]]}}