{"type": "Feature","bbox": [-81.709,8.273,-81.6475,8.3633],"geometry": {"type": "MultiPolygon","coordinates": [[[[-81.6648,8.273,448.7905],[-81.6555,8.2786,405.7281],[-81.6538,8.2843,310.8515],[-81.6477,8.292,233.692],[-81.6475,8.3017,293.6779],[-81.6495,8.3088,364.7221],[-81.6509,8.3128,299.5273],[-81.6544,8.312,181.311],[-81.6717,8.3166,288.1949],[-81.6775,8.3473,262.6281],[-81.6828,8.3549,286.3728],[-81.6943,8.3633,269.1586],[-81.6923,8.3534,345.582],[-81.694,8.3394,412.8439],[-81.698,8.3344,387.9472],[-81.7057,8.3326,434.3997],[-81.7087,8.3264,381.6024],[-81.709,8.3223,455.2277],[-81.7012,8.3131,416.131],[-81.6947,8.3107,505.3839],[-81.6927,8.3083,575.8038],[-81.6956,8.2962,458.4977],[-81.6927,8.2948,456.4682],[-81.6935,8.297,461.3307],[-81.6907,8.2981,399.6548],[-81.6883,8.2957,367.6187],[-81.6899,8.2876,328.6066],[-81.6913,8.2876,328.6066],[-81.6927,8.2848,356.32],[-81.6886,8.2848,296.1539],[-81.687,8.2876,310.2861],[-81.6787,8.2892,409.0223],[-81.675,8.2873,382.8618],[-81.6658,8.2947,378.2704],[-81.6603,8.2942,372.8764],[-81.6651,8.287,414.7485],[-81.6648,8.273,448.7905]]]]}
,"properties": {"GID_3": "PAN.10.5.1_1","GID_0": "PAN","country": "Panama","GID_1": "PAN.10_1","province": "NgöbeBuglé","NL_NAME_1": "NA","GID_2": "PAN.10.5_1","county": "Müna","NL_NAME_2": "NA","city": "AltoCaballero","VARNAME_3": "NA","NL_NAME_3": "NA","TYPE_3": "Corregimiento","ENGTYPE_3": "Municipality","CC_3": "NA","HASC_3": "NA","name": "Alto_Caballero.city","area_km2": 28.02843,"hist_schema_id": "Elevation0-9000","hist_area_km2": {"150": 0.27275,"175": 0.56647,"200": 1.06997,"225": 1.06995,"250": 1.27973,"275": 1.90911,"300": 2.64335,"325": 2.2867,"350": 2.22378,"375": 2.74829,"400": 2.6434,"425": 3.16795,"450": 2.16089,"475": 1.48955,"500": 1.17484,"525": 0.58743,"550": 0.35666,"575": 0.29372,"600": 0.08392}}}