{"type":"Feature","properties":{"GID_3":"PAN.1.3.2_1","GID_0":"PAN","country":"Panama","GID_1":"PAN.1_1","province":"BocasdelToro","NL_NAME_1":"NA","GID_2":"PAN.1.3_1","county":"ChiriquíGrande","NL_NAME_2":"NA","city":"Miramar","VARNAME_3":"NA","NL_NAME_3":"NA","TYPE_3":"Corregimiento","ENGTYPE_3":"Municipality","CC_3":"NA","HASC_3":"NA","name":"Miramar.city"},
"geometry":{"type": "MultiPolygon","coordinates": [[[[-82.2598,9.0124,0.0],[-82.2635,8.993,220.0553],[-82.2676,8.9893,335.6375],[-82.2674,8.9867,353.9528],[-82.2691,8.9866,409.4323],[-82.2689,8.9852,407.2943],[-82.2706,8.9851,352.891],[-82.2725,8.9822,402.8183],[-82.2727,8.9786,495.0403],[-82.2666,8.9792,489.1751],[-82.254,8.9773,451.9956],[-82.2447,8.9738,172.2608],[-82.2367,8.9748,272.2442],[-82.2274,8.9673,419.6245],[-82.2127,8.9625,192.5313],[-82.209,8.956,189.7426],[-82.1952,8.9502,14.5304],[-82.1933,8.9471,8.6022],[-82.1933,8.9429,16.3395],[-82.1917,8.9436,16.3395],[-82.1887,8.9547,4.0446],[-82.1832,8.958,3.074],[-82.1866,8.9632,1.2458],[-82.1818,8.9672,0.7365],[-82.1848,8.9741,2.6333],[-82.1794,8.9846,0.7144],[-82.1851,8.9958,9.7741],[-82.1868,8.9962,3.4158],[-82.1854,8.9924,0.0],[-82.1879,8.991,0.0],[-82.2121,8.9896,4.1242],[-82.214,8.9904,4.1242],[-82.2143,8.9929,0.7924],[-82.2182,8.9943,13.1872],[-82.2213,8.999,0.0],[-82.2304,8.9979,3.2353],[-82.2376,9.0015,0.5244],[-82.2435,8.9976,0.6485],[-82.249,9.0099,0.0],[-82.2562,9.0132,1.8574],[-82.2598,9.0124,0.0]]]]}}