{"type":"Feature","properties":{"GID_3":"PAN.13.2.2_1","GID_0":"PAN","country":"Panama","GID_1":"PAN.13_1","province":"Veraguas","NL_NAME_1":"NA","GID_2":"PAN.13.2_1","county":"Calobre","NL_NAME_2":"NA","city":"Calobre","VARNAME_3":"NA","NL_NAME_3":"NA","TYPE_3":"Corregimiento","ENGTYPE_3":"Municipality","CC_3":"NA","HASC_3":"NA","name":"Calobre.city"},
"geometry":{"type": "MultiPolygon","coordinates": [[[[-80.8456,8.2956,121.2905],[-80.8383,8.2833,115.0507],[-80.8372,8.2681,99.0984],[-80.8329,8.2499,69.3122],[-80.8306,8.2314,68.2292],[-80.8205,8.2203,48.8809],[-80.8076,8.2355,50.291],[-80.8057,8.2363,40.2374],[-80.7984,8.2341,48.4494],[-80.7906,8.242,57.3095],[-80.7799,8.247,42.8195],[-80.7743,8.2471,37.1748],[-80.7424,8.2411,70.8873],[-80.7527,8.2569,75.7462],[-80.7568,8.2826,118.5144],[-80.7612,8.2844,131.3531],[-80.7785,8.298,75.6982],[-80.778,8.3049,71.7667],[-80.768,8.3184,89.7046],[-80.7969,8.3293,113.2032],[-80.7987,8.3373,109.357],[-80.8052,8.3327,120.9629],[-80.8087,8.3264,131.2475],[-80.8162,8.3282,114.8974],[-80.8328,8.3455,184.7737],[-80.86,8.3465,235.0785],[-80.8757,8.3453,286.063],[-80.8693,8.3314,152.5876],[-80.8312,8.3183,105.724],[-80.8298,8.3165,103.966],[-80.8284,8.313,101.8723],[-80.8294,8.3096,107.3624],[-80.8331,8.3047,112.6657],[-80.8456,8.2956,121.2905]]]]}}