{"type":"Feature","properties":{"GID_2":"PAN.10.4_1","GID_0":"PAN","country":"Panama","GID_1":"PAN.10_1","province":"NgöbeBuglé","NL_NAME_1":"NA","county":"Mironó","VARNAME_2":"NA","NL_NAME_2":"NA","TYPE_2":"Distrito","ENGTYPE_2":"District","CC_2":"NA","HASC_2":"PA.NB.MR","name":"Mironó.county"},
"geometry":{"type": "MultiPolygon","coordinates": [[[[-81.9277,8.3247,72.4556],[-81.9265,8.3235,52.336],[-81.9258,8.3248,44.9153],[-81.9257,8.33,70.0515],[-81.9153,8.3276,54.982],[-81.9115,8.3351,112.2547],[-81.8922,8.331,94.5852],[-81.8903,8.3263,66.5996],[-81.8915,8.3218,66.7034],[-81.8859,8.319,52.2135],[-81.8801,8.3229,98.4024],[-81.8782,8.3284,189.1925],[-81.8726,8.3324,232.933],[-81.8615,8.3283,80.4189],[-81.8482,8.3315,127.4287],[-81.8279,8.3308,134.968],[-81.8256,8.3327,129.3317],[-81.8252,8.3367,195.041],[-81.8093,8.342,307.8105],[-81.8075,8.3494,255.8649],[-81.8009,8.3555,451.1942],[-81.7958,8.3659,602.6414],[-81.7906,8.3721,615.0416],[-81.7953,8.383,458.5083],[-81.7963,8.3893,378.3893],[-81.7929,8.4111,486.7884],[-81.7943,8.4262,392.8969],[-81.805,8.4433,545.8182],[-81.8161,8.4512,303.6033],[-81.8275,8.4666,452.3947],[-81.8163,8.5033,741.8646],[-81.8199,8.5177,1159.7823],[-81.8241,8.5248,958.0664],[-81.8282,8.5556,1792.8298],[-81.815,8.5803,2013.3784],[-81.832,8.5911,1884.7443],[-81.8439,8.6033,1967.9288],[-81.8657,8.6138,1557.8372],[-81.8678,8.6189,1720.8506],[-81.8655,8.6299,1490.9355],[-81.8664,8.6412,1922.6429],[-81.8646,8.655,1504.5916],[-81.8663,8.6599,1678.7714],[-81.8763,8.6696,1480.8459],[-81.8876,8.665,1964.8339],[-81.9043,8.6547,2023.5712],[-81.9049,8.6483,1882.9048],[-81.9073,8.4835,1062.6521],[-81.9067,8.4768,868.5033],[-81.8953,8.4683,704.3195],[-81.8933,8.4476,498.1663],[-81.9007,8.4346,360.7255],[-81.8969,8.424,246.0442],[-81.9072,8.4123,294.8752],[-81.9093,8.4054,237.0299],[-81.9151,8.3978,168.8717],[-81.9338,8.3816,270.9061],[-81.937,8.3808,159.3683],[-81.9367,8.3781,324.965],[-81.9454,8.3655,290.5932],[-81.9595,8.3555,126.4237],[-81.9647,8.3451,186.139],[-81.9813,8.3353,85.6661],[-81.9748,8.3191,76.1586],[-81.969,8.3287,125.1429],[-81.9664,8.3286,83.0001],[-81.9625,8.3247,101.7007],[-81.947,8.3253,109.0843],[-81.9467,8.3267,119.1266],[-81.9419,8.3288,44.1107],[-81.9414,8.3319,55.5763],[-81.939,8.3326,61.6584],[-81.9329,8.3256,165.606],[-81.9277,8.3247,72.4556]]]]}}