{"type":"Feature","properties":{"GID_3":"PAN.13.11.1_1","GID_0":"PAN","country":"Panama","GID_1":"PAN.13_1","province":"Veraguas","NL_NAME_1":"NA","GID_2":"PAN.13.11_1","county":"Soná","NL_NAME_2":"NA","city":"BahíaHonda","VARNAME_3":"NA","NL_NAME_3":"NA","TYPE_3":"Corregimiento","ENGTYPE_3":"Municipality","CC_3":"NA","HASC_3":"NA","name":"Bahía_Honda.city"},
"geometry":{"type": "MultiPolygon","coordinates": [[[[-81.616,7.6979,16.1368],[-81.6154,7.6993,0.0],[-81.6185,7.6971,11.1769],[-81.6218,7.6988,0.0],[-81.6329,7.6943,3.949],[-81.6376,7.6951,32.1838],[-81.6396,7.6921,0.0],[-81.634,7.6915,0.0],[-81.6293,7.686,16.1462],[-81.6293,7.6837,0.0],[-81.6254,7.6882,0.0],[-81.6174,7.6854,0.0],[-81.6126,7.6879,14.271],[-81.6129,7.6932,0.0],[-81.6165,7.6951,7.936],[-81.6143,7.696,0.0],[-81.616,7.6979,16.1368]]],
[[[-81.6332,7.7057,0.0],[-81.6349,7.7063,0.0],[-81.6399,7.7021,0.0],[-81.6401,7.699,0.0],[-81.6363,7.6977,0.0],[-81.6343,7.7012,6.4974],[-81.6357,7.7035,6.1167],[-81.6332,7.7057,0.0]]],
[[[-81.6221,7.7032,0.0],[-81.6251,7.7038,0.0],[-81.6254,7.7029,0.0],[-81.6221,7.7021,0.0],[-81.6221,7.7032,0.0]]],
[[[-81.5815,7.7338,12.5954],[-81.5804,7.7346,12.5954],[-81.5849,7.7335,0.5062],[-81.5818,7.7332,0.0],[-81.5815,7.7338,12.5954]]],
[[[-81.481,7.6837,0.0],[-81.4851,7.6843,0.0],[-81.4804,7.6815,0.0],[-81.4763,7.6821,0.0],[-81.4768,7.684,0.0],[-81.481,7.6837,0.0]]],
[[[-81.5415,7.7243,0.0],[-81.5421,7.7254,0.0],[-81.544,7.7224,0.0],[-81.5407,7.7226,0.0],[-81.5415,7.7243,0.0]]],
[[[-81.5165,7.7535,16.8714],[-81.5182,7.7546,0.0],[-81.5235,7.7513,0.0],[-81.5218,7.7474,11.879],[-81.5185,7.7451,8.2164],[-81.5185,7.7412,0.0],[-81.514,7.7446,0.0],[-81.5162,7.7476,0.0],[-81.5143,7.7518,0.0],[-81.5165,7.7535,16.8714]]],
[[[-81.5762,7.7579,0.0],[-81.5835,7.7551,9.6031],[-81.5771,7.7538,33.0671],[-81.5765,7.7515,0.0],[-81.5779,7.7501,22.9751],[-81.5815,7.7513,13.004],[-81.5832,7.7485,44.3834],[-81.5879,7.7501,16.5353],[-81.591,7.7482,0.0],[-81.589,7.7429,0.0],[-81.5829,7.744,21.5164],[-81.581,7.7407,3.0755],[-81.5762,7.7426,10.3527],[-81.5774,7.7451,6.6519],[-81.5724,7.7454,0.0],[-81.5732,7.7471,47.8964],[-81.571,7.7482,0.0],[-81.5699,7.7554,0.0],[-81.5762,7.7579,0.0]]],
[[[-81.5683,7.8292,10.6493],[-81.5851,7.8222,33.043],[-81.5888,7.8165,0.0],[-81.5879,7.8121,0.0],[-81.5921,7.811,15.6769],[-81.591,7.8087,12.1278],[-81.5929,7.8026,21.9178],[-81.5901,7.7968,0.0],[-81.5851,7.7974,42.1195],[-81.5837,7.7946,0.0],[-81.579,7.7957,22.9751],[-81.5776,7.7926,3.3098],[-81.5788,7.7871,0.0],[-81.5829,7.786,0.0],[-81.5829,7.7826,0.0],[-81.5768,7.7849,0.0],[-81.5754,7.7879,10.4389],[-81.5713,7.7857,20.9466],[-81.5718,7.7826,12.1317],[-81.574,7.7821,0.0],[-81.5746,7.7799,0.0],[-81.5715,7.7774,25.7695],[-81.5715,7.7729,20.9314],[-81.5751,7.7713,20.0724],[-81.584,7.7707,0.0],[-81.5843,7.7679,16.751],[-81.581,7.7668,0.0],[-81.5818,7.764,0.0],[-81.5782,7.7635,0.0],[-81.5735,7.7657,7.5869],[-81.5732,7.7626,5.0017],[-81.566,7.7599,0.0],[-81.5676,7.7585,45.0331],[-81.5671,7.756,19.843],[-81.5626,7.7515,0.0],[-81.5607,7.7521,13.7455],[-81.5596,7.7501,0.0],[-81.5599,7.7524,13.7455],[-81.5565,7.7538,22.4097],[-81.5554,7.7515,0.0],[-81.5507,7.7504,40.4923],[-81.5537,7.7465,0.0],[-81.5507,7.7468,16.8057],[-81.5485,7.7415,0.0],[-81.5432,7.739,9.2901],[-81.5404,7.7407,0.0],[-81.5404,7.7421,0.0],[-81.544,7.744,5.25],[-81.5432,7.749,11.5616],[-81.5415,7.7499,11.5616],[-81.544,7.7515,0.0],[-81.5482,7.7515,7.5934],[-81.5501,7.7546,0.0],[-81.5499,7.7565,3.8569],[-81.5468,7.7568,0.0],[-81.5454,7.7604,13.1143],[-81.549,7.7615,2.1718],[-81.5496,7.764,3.1396],[-81.5457,7.764,16.1712],[-81.5435,7.7671,60.5432],[-81.5338,7.764,20.9021],[-81.5312,7.7663,9.8822],[-81.5287,7.766,20.8524],[-81.5265,7.7618,0.0],[-81.519,7.7607,15.2474],[-81.5179,7.7624,5.8911],[-81.5188,7.7665,4.5865],[-81.5149,7.7637,0.0],[-81.5132,7.7663,2.1531],[-81.5104,7.7657,3.0366],[-81.5082,7.7676,4.103],[-81.5082,7.7657,1.1235],[-81.5037,7.764,3.2301],[-81.5018,7.7582,0.0],[-81.4954,7.7587,0.0],[-81.4943,7.7604,0.0],[-81.4912,7.7587,0.0],[-81.4921,7.7543,5.2668],[-81.4932,7.7554,5.2668],[-81.4954,7.7538,0.0],[-81.4968,7.7493,12.0492],[-81.5007,7.7499,0.0],[-81.499,7.7476,0.0],[-81.5035,7.7457,0.0],[-81.5004,7.744,4.1647],[-81.5004,7.7424,0.0],[-81.4965,7.7412,6.3371],[-81.4965,7.7354,7.6681],[-81.5015,7.7329,3.3775],[-81.5093,7.7346,0.0],[-81.5185,7.7332,13.5656],[-81.5193,7.7318,22.6254],[-81.526,7.7304,0.0],[-81.5268,7.7274,0.0],[-81.5304,7.729,0.0],[-81.5307,7.7257,12.9228],[-81.5346,7.7246,4.7122],[-81.5354,7.721,0.0],[-81.539,7.7199,0.6523],[-81.5385,7.7185,0.0],[-81.534,7.7179,0.0],[-81.5329,7.7157,54.2812],[-81.5263,7.7126,0.0],[-81.5188,7.7126,24.0633],[-81.5151,7.7076,0.0],[-81.5132,7.7096,0.0],[-81.5071,7.7099,0.0],[-81.5062,7.7087,0.0],[-81.5079,7.7049,0.0],[-81.5021,7.7043,7.2484],[-81.4974,7.7079,20.8281],[-81.4965,7.7049,0.0],[-81.4935,7.7057,0.0],[-81.4915,7.7087,0.0],[-81.4918,7.7118,24.6355],[-81.4887,7.709,0.0],[-81.4843,7.7099,0.0],[-81.4837,7.7082,0.0],[-81.4868,7.7063,9.1516],[-81.4874,7.7038,14.4054],[-81.4812,7.7043,8.9293],[-81.4824,7.7018,0.0],[-81.4801,7.7007,0.0],[-81.479,7.701,0.0],[-81.4793,7.7076,1.7497],[-81.4746,7.7054,0.0],[-81.4693,7.706,20.4545],[-81.4707,7.7035,8.0136],[-81.4674,7.7024,12.0017],[-81.4674,7.7054,21.466],[-81.4635,7.7043,10.0075],[-81.4651,7.706,29.6441],[-81.4646,7.7087,0.0],[-81.4554,7.7046,0.0],[-81.4546,7.7085,0.0],[-81.4512,7.7082,1.6212],[-81.449,7.7049,0.0],[-81.4499,7.7029,8.3052],[-81.4471,7.6996,0.0],[-81.4412,7.7029,0.0],[-81.4404,7.6979,0.0],[-81.4343,7.6963,1.9445],[-81.4332,7.6932,0.0],[-81.4335,7.6896,22.8673],[-81.4379,7.6896,3.6988],[-81.4362,7.6879,53.3825],[-81.4379,7.6863,0.0],[-81.4374,7.684,0.0],[-81.4421,7.6793,0.0],[-81.4415,7.6782,0.0],[-81.4396,7.6796,2.8254],[-81.4282,7.6799,0.0],[-81.4285,7.6787,0.0],[-81.4243,7.6782,0.0],[-81.421,7.679,10.3071],[-81.4168,7.6832,0.0],[-81.4149,7.6818,17.9069],[-81.4154,7.6768,0.0],[-81.4099,7.6785,0.0],[-81.4085,7.6746,0.0],[-81.4053,7.6735,0.0],[-81.4064,7.6821,141.8017],[-81.418,7.6947,185.3756],[-81.4255,7.7113,268.2679],[-81.4251,7.7154,295.1896],[-81.4184,7.7249,343.509],[-81.4192,7.7366,425.4185],[-81.4322,7.7612,423.3726],[-81.436,7.7643,441.3126],[-81.4448,7.7666,455.9127],[-81.4473,7.7691,435.1606],[-81.4541,7.7853,377.6824],[-81.4552,7.7993,400.1585],[-81.463,7.8102,421.5182],[-81.4925,7.8132,327.9979],[-81.5148,7.8253,316.7471],[-81.5227,7.8362,437.7617],[-81.5474,7.8358,232.7438],[-81.5683,7.8292,10.6493]]],
[[[-81.5846,7.7857,6.0996],[-81.5843,7.7868,0.0],[-81.5865,7.7865,0.0],[-81.5882,7.7843,9.2884],[-81.5837,7.7838,14.7905],[-81.5846,7.7857,6.0996]]]]}}