{"type": "Feature","bbox": [-80.5375,8.305,-80.1109,9.064],"geometry": {"type": "MultiPolygon","coordinates": [[[[-80.4055,8.3483,1.7612],[-80.3973,8.3496,10.6008],[-80.3965,8.3435,9.9982],[-80.4012,8.3347,5.134],[-80.4011,8.3329,22.7885],[-80.3936,8.33,12.5332],[-80.396,8.3242,4.3294],[-80.3931,8.3237,21.2765],[-80.3909,8.3252,25.4298],[-80.3878,8.3303,13.7346],[-80.3894,8.3323,4.5484],[-80.3791,8.3305,25.9763],[-80.3817,8.3248,4.7825],[-80.3924,8.3199,20.1205],[-80.394,8.3129,0.0],[-80.3918,8.3074,15.8729],[-80.3762,8.3072,7.873],[-80.3696,8.3094,25.0128],[-80.3601,8.305,27.1439],[-80.3499,8.3066,25.1785],[-80.3451,8.3168,5.2656],[-80.3486,8.3253,2.7854],[-80.3437,8.3319,2.4763],[-80.3193,8.3386,7.1895],[-80.318,8.3462,6.1999],[-80.3184,8.373,10.2762],[-80.3209,8.3838,15.2768],[-80.3138,8.3932,17.1826],[-80.3147,8.4056,25.6527],[-80.3106,8.4234,30.8024],[-80.307,8.4303,30.9869],[-80.3072,8.4445,41.0267],[-80.3104,8.4523,41.1428],[-80.2984,8.4756,73.6105],[-80.3009,8.4869,51.6731],[-80.2969,8.5058,80.0416],[-80.2848,8.5155,158.9026],[-80.2827,8.5197,176.6886],[-80.2765,8.5238,146.9368],[-80.2753,8.5376,130.6603],[-80.271,8.5395,140.5042],[-80.2635,8.5389,163.6153],[-80.2544,8.535,173.9707],[-80.2472,8.5388,197.4814],[-80.2443,8.5379,198.0259],[-80.2429,8.5394,189.8568],[-80.2436,8.5415,187.1464],[-80.2343,8.5461,228.9528],[-80.227,8.5565,241.0243],[-80.2181,8.5583,283.8309],[-80.2012,8.5667,332.7047],[-80.1957,8.567,370.2245],[-80.1879,8.57,421.3127],[-80.1831,8.5748,401.157],[-80.1764,8.5991,539.7861],[-80.1644,8.5979,684.8107],[-80.1518,8.5988,677.2626],[-80.1495,8.6076,701.4639],[-80.1394,8.6255,715.4259],[-80.1285,8.6287,974.5591],[-80.117,8.6375,838.1429],[-80.1184,8.6429,823.9301],[-80.1183,8.6555,650.4899],[-80.112799999999993,8.664,887.0435],[-80.1109,8.6757,693.3364],[-80.1148,8.6878,533.0528],[-80.1138,8.697,499.2256],[-80.1165,8.7029,459.1071],[-80.1149,8.7123,395.8785],[-80.1198,8.7161,397.8233],[-80.1242,8.727,508.4845],[-80.1264,8.7461,302.7159],[-80.1304,8.7504,359.4503],[-80.1383,8.7535,478.4915],[-80.1435,8.759,401.0547],[-80.1491,8.7685,333.3265],[-80.151,8.7774,270.9922],[-80.1559,8.7812,310.308],[-80.162,8.8196,200.0581],[-80.1704,8.8317,182.9452],[-80.1641,8.8466,238.3129],[-80.1662,8.8672,176.1305],[-80.1653,8.8723,170.6356],[-80.169,8.8903,102.1146],[-80.16,8.8975,152.835],[-80.155,8.9036,75.4314],[-80.1541,8.9109,61.6764],[-80.1494,8.9105,55.8326],[-80.1475,8.9195,45.5462],[-80.139,8.9263,53.0788],[-80.1368,8.9347,35.0228],[-80.1423,8.9399,29.3294],[-80.145,8.9452,37.5777],[-80.1415,8.9567,36.9164],[-80.1362,8.9658,207.9924],[-80.1438,8.9567,37.1458],[-80.1468,8.9557,27.5598],[-80.1496,8.9616,40.3023],[-80.1546,8.9666,27.4951],[-80.1616,8.9669,22.2372],[-80.1664,8.9728,46.5933],[-80.1735,8.9697,16.7961],[-80.1741,8.9736,17.1175],[-80.1715,8.9821,17.0611],[-80.1796,8.9858,20.6583],[-80.1777,8.9918,15.7886],[-80.1804,8.9941,20.1871],[-80.1784,8.9969,18.2107],[-80.1828,9.0025,17.9471],[-80.1845,9.0081,15.648],[-80.1831,9.0144,56.5524],[-80.1865,9.018,41.1381],[-80.1857,9.0246,69.2037],[-80.1827,9.0269,20.7301],[-80.1886,9.0333,69.1177],[-80.1906,9.0413,19.6229],[-80.1977,9.0447,48.4601],[-80.2003,9.0518,19.2495],[-80.2101,9.064,55.5331],[-80.2147,9.0535,111.1986],[-80.213,9.0433,56.9456],[-80.2094,9.0362,74.1751],[-80.2106,9.0233,68.9446],[-80.2088,9.017,46.0025],[-80.2135,8.9723,97.3879],[-80.2193,8.9708,70.8753],[-80.2275,8.9719,116.3579],[-80.2291,8.9734,123.1633],[-80.2387,8.9694,130.3466],[-80.3567,8.9086,164.0048],[-80.3662,8.8848,110.1612],[-80.3695,8.8807,69.5799],[-80.3763,8.8872,125.1387],[-80.383,8.8888,126.6184],[-80.3902,8.8937,107.8967],[-80.3973,8.8959,111.4469],[-80.4227,8.8943,97.0167],[-80.4339,8.8977,46.6746],[-80.4261,8.8714,107.0815],[-80.4214,8.8425,117.8169],[-80.4221,8.7823,111.7447],[-80.4229,8.7706,177.1771],[-80.4406,8.735,277.8257],[-80.4413,8.7309,433.5842],[-80.4281,8.7114,477.2966],[-80.3923,8.6991,390.0458],[-80.3863,8.6918,294.1872],[-80.382,8.6717,219.8817],[-80.3818,8.6667,219.4473],[-80.3837,8.662,209.2908],[-80.3922,8.6588,204.7912],[-80.3975,8.6524,187.007],[-80.4048,8.6408,157.6038],[-80.408,8.6297,140.2013],[-80.408,8.6069,142.3699],[-80.4028,8.5731,463.4237],[-80.3989,8.5627,254.3374],[-80.4068,8.5578,200.3202],[-80.4112,8.5579,190.393],[-80.4199,8.5613,164.9073],[-80.4356,8.5556,56.8749],[-80.4372,8.5462,53.5127],[-80.4434,8.5429,42.489],[-80.4453,8.5396,50.212],[-80.4364,8.5251,46.8381],[-80.4345,8.5172,40.4248],[-80.4357,8.5148,38.4191],[-80.4733,8.5112,479.3756],[-80.5375,8.5018,80.8206],[-80.5306,8.4841,89.1806],[-80.5195,8.4703,77.1974],[-80.5157,8.4627,43.3287],[-80.5132,8.4492,30.4042],[-80.5135,8.4406,25.6097],[-80.5047,8.4217,22.1736],[-80.507,8.4138,17.9171],[-80.506,8.406,15.6762],[-80.4999,8.3964,11.5757],[-80.5,8.3889,10.5369],[-80.4952,8.3887,10.4336],[-80.4908,8.381,10.1422],[-80.4916,8.37,8.8742],[-80.4849,8.3622,10.0411],[-80.4868,8.3546,7.7176],[-80.4865,8.343,7.1176],[-80.4808,8.3332,10.5895],[-80.4714,8.3298,12.9972],[-80.4679,8.3262,8.1758],[-80.4615,8.3264,6.9686],[-80.4563,8.3296,17.1739],[-80.4653,8.3339,12.3601],[-80.4575,8.3393,40.7292],[-80.4526,8.3401,9.9881],[-80.4423,8.3378,4.4579],[-80.432,8.3411,6.1238],[-80.4242,8.3365,3.0211],[-80.4177,8.3449,4.4103],[-80.4116,8.3447,1.9405],[-80.4055,8.3483,1.7612]]]]}
,"properties": {"GID_2": "PAN.3.6_1","GID_0": "PAN","country": "Panama","GID_1": "PAN.3_1","province": "Coclé","NL_NAME_1": "NA","county": "Penonomé","VARNAME_2": "NA","NL_NAME_2": "NA","TYPE_2": "Distrito","ENGTYPE_2": "District","CC_2": "NA","HASC_2": "PA.CC.PN","name": "Penonomé.county","area_km2": 1813.361,"hist_schema_id": "Elevation0-9000","hist_area_km2": {"0": 92.654,"25": 203.449,"50": 129.36,"75": 90.509,"100": 105.773,"125": 135.163,"150": 150.111,"175": 160.077,"200": 150.548,"225": 115.284,"250": 87.396,"275": 72.958,"300": 60.447,"325": 47.118,"350": 36.114,"375": 26.682,"400": 20.226,"425": 15.783,"450": 13.121,"475": 11.968,"500": 9.641,"525": 8.489,"550": 7.126,"575": 7.42,"600": 6.204,"625": 5.009,"650": 4.611,"675": 4.066,"700": 3.668,"725": 3.962,"750": 3.815,"775": 4.653,"800": 3.983,"825": 4.108,"850": 3.878,"875": 2.62,"900": 1.949,"925": 1.446,"950": 0.964,"975": 0.419,"1000": 0.398,"1025": 0.168,"1050": 0.021}}}