{"type": "Feature","bbox": [-82.5349,8.6534,-82.4485,8.7702],"geometry": {"type": "MultiPolygon","coordinates": [[[[-82.4545,8.6912,753.9108],[-82.4672,8.7139,859.35],[-82.4714,8.7268,920.1375],[-82.4828,8.7324,1030.2891],[-82.4907,8.7432,1305.3416],[-82.5008,8.7468,1414.7263],[-82.5037,8.7592,1671.4398],[-82.5106,8.7682,2038.5557],[-82.5158,8.7702,2192.585],[-82.5261,8.7654,2186.2964],[-82.5322,8.7525,1887.2622],[-82.5315,8.7458,1686.4771],[-82.5349,8.742,1645.7034],[-82.5331,8.7302,1510.8314],[-82.5161,8.7096,1160.3672],[-82.5088,8.6822,934.7349],[-82.5093,8.6736,867.4837],[-82.4966,8.6737,830.808],[-82.489,8.6708,807.123],[-82.4812,8.672,792.3469],[-82.4619,8.6605,669.2291],[-82.4586,8.657,632.9001],[-82.4485,8.6534,596.6091],[-82.4588,8.6815,700.8405],[-82.4545,8.6912,753.9108]]]]}
,"properties": {"GID_3": "PAN.2.7.4_1","GID_0": "PAN","country": "Panama","GID_1": "PAN.2_1","province": "Chiriquí","NL_NAME_1": "NA","GID_2": "PAN.2.7_1","county": "Dolega","NL_NAME_2": "NA","city": "Potrerillos","VARNAME_3": "NA","NL_NAME_3": "NA","TYPE_3": "Corregimiento","ENGTYPE_3": "Municipality","CC_3": "NA","HASC_3": "NA","name": "Potrerillos.city","area_km2": 57.0675,"hist_schema_id": "Elevation0-9000","hist_area_km2": {"525": 0.02096,"550": 0.08384,"575": 0.25152,"600": 0.23056,"625": 0.39824,"650": 0.54496,"675": 0.73359,"700": 0.77551,"725": 1.25757,"750": 1.32044,"775": 1.61386,"800": 1.78153,"825": 2.13782,"850": 2.15877,"875": 2.32643,"900": 2.28449,"925": 2.11679,"950": 2.38924,"975": 1.92815,"1000": 1.63472,"1025": 2.05387,"1050": 1.80236,"1075": 1.57182,"1100": 1.69754,"1125": 1.42509,"1150": 1.63466,"1175": 1.34124,"1200": 1.25741,"1225": 1.32028,"1250": 1.23644,"1275": 1.08974,"1300": 1.19451,"1325": 0.98495,"1350": 0.98494,"1375": 0.94303,"1400": 0.79633,"1425": 0.77537,"1450": 0.64963,"1475": 0.60772,"1500": 0.48198,"1525": 0.48198,"1550": 0.39816,"1575": 0.58676,"1600": 0.3772,"1625": 0.3772,"1650": 0.54484,"1675": 0.31433,"1700": 0.35624,"1725": 0.25146,"1750": 0.23051,"1775": 0.33528,"1800": 0.20955,"1825": 0.23051,"1850": 0.2305,"1875": 0.25146,"1900": 0.18859,"1925": 0.2305,"1950": 0.18859,"1975": 0.31432,"2000": 0.14668,"2025": 0.10477,"2050": 0.29337,"2075": 0.10477,"2100": 0.06286,"2125": 0.10477,"2150": 0.12573,"2175": 0.10477,"2200": 0.06286,"2225": 0.02095}}}