{"type": "Feature","bbox": [-82.5726,8.4421,-82.5225,8.5654],"geometry": {"type": "MultiPolygon","coordinates": [[[[-82.5452,8.4672,103.6353],[-82.5391,8.4566,83.9733],[-82.538,8.4421,61.6672],[-82.5299,8.4484,76.7286],[-82.5226,8.4512,68.2757],[-82.5225,8.4776,113.4548],[-82.5262,8.484,133.4715],[-82.5342,8.4923,153.0177],[-82.5307,8.5105,196.3601],[-82.5298,8.5322,270.1427],[-82.5315,8.5357,282.6953],[-82.5304,8.5444,314.5225],[-82.5335,8.5627,391.1141],[-82.5498,8.5654,395.2794],[-82.5525,8.5646,395.1092],[-82.5555,8.5586,368.6479],[-82.568,8.5602,368.4768],[-82.5677,8.5515,335.7219],[-82.5714,8.5436,305.267],[-82.5726,8.5298,264.6054],[-82.5595,8.4913,155.4048],[-82.5517,8.4822,134.28809999999999],[-82.5452,8.4672,103.6353]]]]}
,"properties": {"GID_3": "PAN.2.3.1_1","GID_0": "PAN","country": "Panama","GID_1": "PAN.2_1","province": "Chiriquí","NL_NAME_1": "NA","GID_2": "PAN.2.3_1","county": "Boquerón","NL_NAME_2": "NA","city": "Bágala","VARNAME_3": "NA","NL_NAME_3": "NA","TYPE_3": "Corregimiento","ENGTYPE_3": "Municipality","CC_3": "NA","HASC_3": "NA","name": "Bágala.city","area_km2": 43.59376,"hist_schema_id": "Elevation0-9000","hist_area_km2": {"50": 0.10486,"75": 2.43273,"100": 4.15228,"125": 4.06825,"150": 3.29225,"175": 3.75348,"200": 4.23566,"225": 3.06136,"250": 1.82421,"275": 2.99836,"300": 4.38215,"325": 3.77404,"350": 3.08207,"375": 1.92888,"400": 0.50318}}}