{"type":"Feature","properties":{"GID_3":"PAN.9.2.13_1","GID_0":"PAN","country":"Panama","GID_1":"PAN.9_1","province":"LosSantos","NL_NAME_1":"NA","GID_2":"PAN.9.2_1","county":"LasTablas","NL_NAME_2":"NA","city":"LasTablas","VARNAME_3":"NA","NL_NAME_3":"NA","TYPE_3":"Corregimiento","ENGTYPE_3":"Municipality","CC_3":"NA","HASC_3":"NA","name":"Las_Tablas.city"},
"geometry":{"type": "MultiPolygon","coordinates": [[[[-80.2848,7.7863,37.2857],[-80.2888,7.7811,28.7682],[-80.3042,7.7813,20.9069],[-80.2914,7.774,30.6155],[-80.2822,7.7708,31.7471],[-80.277,7.7638,40.2651],[-80.2757,7.7561,45.2696],[-80.2694,7.7517,49.156],[-80.2681,7.7482,49.1155],[-80.2586,7.747,55.4711],[-80.2575,7.7502,57.2143],[-80.2588,7.7569,58.5104],[-80.2525,7.7624,36.619],[-80.2636,7.7673,37.8184],[-80.2672,7.7753,39.9397],[-80.2676,7.7812,45.4703],[-80.2673,7.7843,43.7427],[-80.2645,7.7882,44.7436],[-80.272,7.7888,37.6957],[-80.2848,7.7863,37.2857]]]]}}