{"type":"Feature","properties":{"GID_3":"PAN.2.5.3_1","GID_0":"PAN","country":"Panama","GID_1":"PAN.2_1","province":"Chiriquí","NL_NAME_1":"NA","GID_2":"PAN.2.5_1","county":"Bugaba","NL_NAME_2":"NA","city":"CerroPunta","VARNAME_3":"NA","NL_NAME_3":"NA","TYPE_3":"Corregimiento","ENGTYPE_3":"Municipality","CC_3":"NA","HASC_3":"NA","name":"Cerro_Punta.city"},
"geometry":{"type": "MultiPolygon","coordinates": [[[[-82.6519,8.8862,2602.6387],[-82.6483,8.8784,2481.5752],[-82.648,8.8734,2320.1235],[-82.6494,8.8619,2452.9404],[-82.6531,8.8548,2274.9014],[-82.6508,8.8468,2094.7397],[-82.6529,8.8404,1879.0222],[-82.6376,8.8184,1558.189],[-82.6376,8.812,1512.4929],[-82.641,8.8061,1580.8724],[-82.6393,8.8021,1503.6592],[-82.6398,8.7971,1454.9449],[-82.6355,8.7964,1461.6783],[-82.624,8.8008,1520.8442],[-82.6006,8.7979,1844.0255],[-82.5915,8.7991,2048.751],[-82.5862,8.8036,1989.4878],[-82.5798,8.8061,1976.6925],[-82.5689,8.803,2156.356],[-82.5611,8.7989,2431.498],[-82.5555,8.7985,2788.7163],[-82.5505,8.7946,2693.1675],[-82.5457,8.8689,2386.321],[-82.5471,8.8729,2254.8547],[-82.5548,8.881,2269.2666],[-82.5564,8.8854,2327.0962],[-82.5648,8.8924,2258.5063],[-82.5698,8.9035,2461.1091],[-82.5842,8.9088,2640.3965],[-82.591,8.9065,2360.1729],[-82.5984,8.9112,2324.1321],[-82.6156,8.9022,2355.3394],[-82.6281,8.9003,2411.2068],[-82.6368,8.9076,2592.2544],[-82.6397,8.9079,2456.8228],[-82.6422,8.9068,2701.7344],[-82.6496,8.8938,2471.936],[-82.6519,8.8862,2602.6387]]]]}}