{"type":"Feature","properties":{"GID_3":"PAN.3.2.6_1","GID_0":"PAN","country":"Panama","GID_1":"PAN.3_1","province":"Coclé","NL_NAME_1":"NA","GID_2":"PAN.3.2_1","county":"Antón","NL_NAME_2":"NA","city":"ElValle","VARNAME_3":"NA","NL_NAME_3":"NA","TYPE_3":"Corregimiento","ENGTYPE_3":"Municipality","CC_3":"NA","HASC_3":"NA","name":"El_Valle.city"},
"geometry":{"type": "MultiPolygon","coordinates": [[[[-80.1537,8.5618,500.2466],[-80.1491,8.5693,580.3777],[-80.1457,8.5709,608.0964],[-80.1254,8.566,581.5798],[-80.1135,8.5665,572.1406],[-80.1038,8.5632,587.2928],[-80.1038,8.5736,598.8211],[-80.1003,8.5886,793.9468],[-80.1057,8.6109,675.7585],[-80.1107,8.6115,670.2891],[-80.112799999999993,8.614,653.3525],[-80.1115,8.627,828.5816],[-80.117,8.6375,838.1429],[-80.1285,8.6287,974.5591],[-80.1394,8.6255,715.4259],[-80.1495,8.6076,701.4639],[-80.153,8.5939,708.5716],[-80.1612,8.5883,607.0068],[-80.1623,8.5826,612.7167],[-80.1664,8.5774,558.4843],[-80.1584,8.5769,528.8074],[-80.1596,8.5704,477.0391],[-80.1537,8.5618,500.2466]]]]}}