{"type": "Feature","bbox": [-80.2917,7.6206,-80.2587,7.6699],"geometry": {"type": "MultiPolygon","coordinates": [[[[-80.2623,7.6282,157.5982],[-80.2589,7.6354,140.3251],[-80.2587,7.6436,143.121],[-80.2724,7.6699,80.5421],[-80.2756,7.6612,115.8367],[-80.2813,7.6576,150.18],[-80.288,7.6492,171.4802],[-80.2917,7.6206,312.559],[-80.2793,7.6322,233.799],[-80.2623,7.6282,157.5982]]]]}
,"properties": {"GID_3": "PAN.9.2.20_1","GID_0": "PAN","country": "Panama","GID_1": "PAN.9_1","province": "LosSantos","NL_NAME_1": "NA","GID_2": "PAN.9.2_1","county": "LasTablas","NL_NAME_2": "NA","city": "SanMiguel","VARNAME_3": "NA","NL_NAME_3": "NA","TYPE_3": "Corregimiento","ENGTYPE_3": "Municipality","CC_3": "NA","HASC_3": "NA","name": "San_Miguel.city","area_km2": 10.485895,"hist_schema_id": "Elevation0-9000","hist_area_km2": {"75": 0.147089,"100": 0.651413,"125": 1.176758,"150": 1.57602,"175": 1.071699,"200": 1.134748,"225": 1.260839,"250": 0.94563,"275": 1.050704,"300": 0.840565,"325": 0.378256,"350": 0.168115,"375": 0.021015,"400": 0.063044}}}