{"type": "Feature","bbox": [-79.1446,7.9999,-78.9999,8.4471],"geometry": {"type": "MultiPolygon","coordinates": [[[[-78.9999,8.0001,0.0],[-79.0001,8.0001,0.0],[-79.0001,7.9999,0.0],[-78.9999,7.9999,0.0],[-78.9999,8.0001,0.0]]],
[[[-79.0968,8.2063,0.0],[-79.0982,8.2071,0.0],[-79.0985,8.2054,0.0],[-79.096,8.2046,0.0],[-79.0968,8.2063,0.0]]],
[[[-79.0957,8.2112,0.9849],[-79.0974,8.2126,0.0],[-79.0979,8.2093,0.0],[-79.096,8.2093,0.0],[-79.0957,8.2112,0.9849]]],
[[[-79.1026,8.3165,0.0],[-79.1174,8.3163,0.0],[-79.1168,8.3132,19.7455],[-79.1207,8.3107,9.3356],[-79.1229,8.304,0.0],[-79.1265,8.3004,15.1231],[-79.1296,8.2996,0.0],[-79.1274,8.2968,35.5208],[-79.1299,8.2954,0.0],[-79.1285,8.291,13.9234],[-79.1296,8.2854,0.0],[-79.1265,8.2849,0.0],[-79.1293,8.281,27.6776],[-79.1254,8.279,0.0],[-79.1279,8.274,0.0],[-79.1276,8.2701,0.0],[-79.1307,8.2676,0.0],[-79.131,8.2621,0.0],[-79.1285,8.2618,0.0],[-79.1293,8.2604,0.0],[-79.1257,8.2585,3.7965],[-79.1288,8.2574,0.0],[-79.1288,8.256,0.0],[-79.1343,8.2551,7.7974],[-79.1368,8.2596,0.0],[-79.1393,8.2538,26.6677],[-79.1407,8.2535,0.0],[-79.1404,8.2513,0.0],[-79.1429,8.251,0.0],[-79.1426,8.2437,16.9199],[-79.1446,8.2413,0.0],[-79.1446,8.2382,0.0],[-79.1424,8.2376,0.0],[-79.1401,8.2432,20.8327],[-79.1379,8.2424,3.1466],[-79.1374,8.2363,2.4071],[-79.1335,8.2285,0.0],[-79.1349,8.2232,0.4201],[-79.1279,8.2263,0.0],[-79.131,8.2224,0.0],[-79.1299,8.214,0.0],[-79.1288,8.2126,5.2246],[-79.1235,8.2124,12.2848],[-79.1204,8.2082,0.0],[-79.1171,8.2085,0.0],[-79.1132,8.2121,19.3093],[-79.1113,8.2096,0.7846],[-79.109,8.2126,17.1397],[-79.1085,8.2185,0.0],[-79.1104,8.2199,2.6984],[-79.1104,8.226,0.0],[-79.1079,8.2263,0.0],[-79.106,8.2304,0.0],[-79.0996,8.2279,0.0],[-79.0971,8.2299,0.3895],[-79.099,8.2301,0.0],[-79.0987,8.2396,0.0],[-79.1029,8.2407,27.2658],[-79.1015,8.2435,0.0],[-79.1057,8.244,7.1185],[-79.1065,8.246,3.7131],[-79.1062,8.2496,4.7289],[-79.1012,8.2557,3.9477],[-79.0976,8.256,0.0],[-79.0907,8.2604,0.0],[-79.0837,8.2588,34.7992],[-79.0843,8.256,0.0],[-79.0826,8.254,0.0],[-79.0776,8.2551,0.0],[-79.0782,8.2582,24.0869],[-79.0735,8.2568,0.0],[-79.0693,8.2582,0.0],[-79.066,8.2574,6.4525],[-79.066,8.2601,9.6744],[-79.0679,8.2601,40.2374],[-79.0696,8.2643,4.472],[-79.076,8.2629,17.1059],[-79.0757,8.2671,0.0],[-79.0779,8.2674,2.9293],[-79.076,8.2679,2.9293],[-79.0762,8.2693,0.0],[-79.0829,8.2721,0.0],[-79.0846,8.2824,13.5193],[-79.0829,8.2871,0.0],[-79.0871,8.2915,51.1916],[-79.089,8.2985,10.3007],[-79.0912,8.2993,5.9761],[-79.0957,8.3057,0.0],[-79.0985,8.3063,4.7443],[-79.099,8.3104,7.308],[-79.1018,8.3104,13.4329],[-79.1026,8.3165,0.0]]],
[[[-79.1068,8.2104,0.0],[-79.1096,8.211,1.2514],[-79.1093,8.2049,0.0],[-79.1062,8.2076,0.0],[-79.1068,8.2104,0.0]]],
[[[-79.1232,8.2101,0.0],[-79.126,8.2101,0.0],[-79.1257,8.2088,0.0],[-79.1237,8.2082,0.0],[-79.1232,8.2101,0.0]]],
[[[-79.114,8.4288,0.0],[-79.1193,8.4282,16.0369],[-79.1257,8.424,0.0],[-79.1296,8.4168,0.0],[-79.1274,8.4115,52.8306],[-79.1318,8.404,0.0],[-79.1279,8.4001,0.0],[-79.1215,8.4032,6.4188],[-79.1165,8.3974,12.6188],[-79.1168,8.3913,0.0],[-79.114,8.3921,22.811],[-79.114,8.3899,0.0],[-79.1101,8.389,0.0],[-79.1085,8.3904,0.0],[-79.1043,8.3888,15.11],[-79.0996,8.3829,3.9724],[-79.0957,8.3824,2.094],[-79.096,8.3776,2.4448],[-79.0921,8.3793,19.9035],[-79.0904,8.3768,0.0],[-79.086,8.3774,0.0],[-79.084,8.3821,0.0],[-79.0851,8.3863,0.0],[-79.0829,8.3874,5.5355],[-79.0826,8.3929,19.5123],[-79.0804,8.3957,11.6087],[-79.0807,8.3982,8.4383],[-79.0865,8.401,44.7951],[-79.0824,8.414,6.2204],[-79.0871,8.4196,21.7998],[-79.0901,8.419,5.9398],[-79.0915,8.4149,4.3503],[-79.0912,8.4126,3.1994],[-79.089,8.4115,0.0],[-79.0912,8.4085,0.0],[-79.0904,8.4043,0.0],[-79.0943,8.4021,0.0],[-79.0965,8.4099,0.0],[-79.0996,8.4071,0.0],[-79.1021,8.4076,0.0],[-79.1001,8.4126,0.0],[-79.1012,8.4157,0.0],[-79.1043,8.4157,3.0692],[-79.1146,8.4213,3.2948],[-79.114,8.4288,0.0]]],
[[[-79.106,8.4232,0.0],[-79.1068,8.424,3.1838],[-79.1099,8.4238,5.8262],[-79.1085,8.4204,0.0],[-79.106,8.4232,0.0]]],
[[[-79.1065,8.4471,0.0],[-79.1107,8.4454,34.7792],[-79.1107,8.4415,7.6919],[-79.1087,8.4401,0.0],[-79.1062,8.4421,10.3285],[-79.1065,8.4471,0.0]]]]}
,"properties": {"GID_3": "PAN.12.1.4_1","GID_0": "PAN","country": "Panama","GID_1": "PAN.12_1","province": "Panamá","NL_NAME_1": "NA","GID_2": "PAN.12.1_1","county": "Balboa","NL_NAME_2": "NA","city": "PedroGonzález","VARNAME_3": "NA","NL_NAME_3": "NA","TYPE_3": "Corregimiento","ENGTYPE_3": "Municipality","CC_3": "NA","HASC_3": "NA","name": "Pedro_González.city","area_km2": 63.80046,"hist_schema_id": "Elevation0-9000","hist_area_km2": {"0": 6.5037,"25": 17.01485,"50": 20.98048,"75": 11.95829,"100": 5.70666,"125": 1.53158,"150": 0.1049}}}