{"type":"Feature","properties":{"GID_2":"PAN.13.8_1","GID_0":"PAN","country":"Panama","GID_1":"PAN.13_1","province":"Veraguas","NL_NAME_1":"NA","county":"SanFrancisco","VARNAME_2":"NA","NL_NAME_2":"NA","TYPE_2":"Distrito","ENGTYPE_2":"District","CC_2":"NA","HASC_2":"PA.VR.SF","name":"San_Francisco.county"},
"geometry":{"type": "MultiPolygon","coordinates": [[[[-80.8233,8.1938,17.2733],[-80.8272,8.1991,36.952],[-80.8445,8.2008,38.2429],[-80.8512,8.2071,46.5112],[-80.8598,8.2122,38.1502],[-80.881,8.2124,58.707],[-80.8856,8.2147,56.9156],[-80.8893,8.2193,49.3553],[-80.8922,8.2384,69.1522],[-80.8993,8.2563,84.2326],[-80.8949,8.2596,81.7513],[-80.8957,8.2651,123.1176],[-80.8828,8.2996,157.9001],[-80.8815,8.3143,104.5922],[-80.8871,8.3223,136.4597],[-80.9043,8.3296,144.5051],[-80.9075,8.3337,159.2938],[-80.9091,8.3501,241.1099],[-80.9096,8.3948,532.3177],[-80.9128,8.4136,433.9765],[-80.9124,8.4347,315.7524],[-80.9211,8.4295,240.6069],[-80.9328,8.4193,212.8042],[-80.945,8.4168,410.2608],[-81.0028,8.4151,401.4458],[-81.0366,8.4228,236.915],[-81.0455,8.4223,212.9316],[-81.073,8.4268,356.1392],[-81.0797,8.4253,592.2562],[-81.0907,8.4187,287.0018],[-81.1031,8.4084,235.4671],[-81.098,8.3601,240.7135],[-81.0933,8.3442,148.2313],[-81.0931,8.335,143.334],[-81.09,8.3299,217.7278],[-81.0892,8.3213,258.7463],[-81.0822,8.313,258.1987],[-81.0696,8.3099,222.4415],[-81.0636,8.3013,192.3898],[-81.0585,8.2981,190.6924],[-81.0611,8.2819,134.8487],[-81.0608,8.2671,101.6142],[-81.0582,8.2583,186.8429],[-81.055,8.2544,99.7832],[-80.9701,8.2174,61.7237],[-80.9617,8.2274,92.9994],[-80.9554,8.2294,78.018],[-80.9428,8.2273,62.4188],[-80.9302,8.2224,54.6367],[-80.9221,8.2187,53.6995],[-80.9156,8.2116,43.4391],[-80.9042,8.2153,59.659],[-80.893,8.191,42.3432],[-80.8802,8.1936,60.812],[-80.8652,8.1866,37.0915],[-80.8522,8.1909,30.4998],[-80.8436,8.1786,27.3428],[-80.8314,8.1734,24.3337],[-80.8247,8.1682,39.7574],[-80.8192,8.1686,49.3475],[-80.7896,8.1806,23.2968],[-80.803,8.1868,20.2396],[-80.815,8.1894,18.2384],[-80.8233,8.1938,17.2733]]]]}}