{"type":"Feature","properties":{"GID_3":"PAN.13.2.3_1","GID_0":"PAN","country":"Panama","GID_1":"PAN.13_1","province":"Veraguas","NL_NAME_1":"NA","GID_2":"PAN.13.2_1","county":"Calobre","NL_NAME_2":"NA","city":"Chitra","VARNAME_3":"NA","NL_NAME_3":"NA","TYPE_3":"Corregimiento","ENGTYPE_3":"Municipality","CC_3":"NA","HASC_3":"NA","name":"Chitra.city"},
"geometry":{"type": "MultiPolygon","coordinates": [[[[-80.8461,8.5465,1259.5371],[-80.8588,8.5576,1362.9713],[-80.8622,8.5636,1311.0386],[-80.8602,8.5766,1183.333],[-80.8643,8.5905,1161.239],[-80.8707,8.5967,1349.0166],[-80.8792,8.6006,1592.1589],[-80.9099,8.5657,827.3438],[-80.9218,8.5543,710.326],[-80.9319,8.5403,832.91],[-80.9323,8.5334,739.6476],[-80.9295,8.5258,819.5704],[-80.9076,8.5002,617.0331],[-80.8999,8.4652,493.0106],[-80.8873,8.4566,373.9052],[-80.868,8.4662,610.2649],[-80.863,8.4701,668.2664],[-80.8531,8.49,1012.5518],[-80.8368,8.5044,1131.3608],[-80.8356,8.517,1433.821],[-80.84,8.5323,1227.2939],[-80.8461,8.5465,1259.5371]]]]}}