{"type": "Feature","bbox": [-80.1132,8.9709,-79.9874,9.107],"geometry": {"type": "MultiPolygon","coordinates": [[[[-80.1125,9.0608,45.7265],[-80.1132,9.0562,63.5957],[-80.1084,9.0504,43.1357],[-80.1045,9.0412,50.8966],[-80.109,9.0348,66.6751],[-80.1108,9.0283,82.1583],[-80.1104,9.0251,106.0097],[-80.1067,9.0197,170.4901],[-80.1084,9.0152,145.2051],[-80.0639,8.9805,100.3297],[-80.0555,8.9751,64.9579],[-80.0513,8.9764,27.5598],[-79.9937,8.9709,80.3197],[-79.9905,8.9724,81.3756],[-79.9874,8.9779,45.4244],[-79.9974,8.9849,61.2088],[-80.004,8.9849,73.898],[-80.0138,8.9907,63.5205],[-80.0142,8.9994,39.5851],[-80.0206,9.0107,31.2131],[-80.0293,9.0176,26.3972],[-80.0338,9.0185,25.0],[-80.0362,9.0168,32.3307],[-80.0354,9.0196,26.8094],[-80.0368,9.0229,25.0],[-80.039,9.0221,25.9867],[-80.0382,9.016,30.148],[-80.0424,9.0168,25.0],[-80.0415,9.0063,25.0],[-80.044,9.0063,39.5137],[-80.0424,9.0118,27.3617],[-80.0443,9.0151,26.2378],[-80.046,9.0149,31.5026],[-80.0443,9.0163,26.3576],[-80.0446,9.0201,29.6356],[-80.0415,9.0207,28.9075],[-80.0426,9.0254,27.8325],[-80.0404,9.0251,25.0],[-80.0385,9.0276,25.0],[-80.0396,9.0293,25.0],[-80.041,9.0285,25.6362],[-80.0401,9.0304,25.0],[-80.0426,9.0304,25.0],[-80.0435,9.0271,25.0],[-80.0482,9.0254,25.0],[-80.0479,9.0282,25.0],[-80.0465,9.0285,25.0],[-80.0471,9.0324,26.9845],[-80.046,9.0324,26.9845],[-80.046,9.0287,25.0],[-80.0443,9.0313,25.0],[-80.0468,9.0357,25.0],[-80.0485,9.0335,26.8069],[-80.0476,9.0304,33.8803],[-80.0499,9.0307,25.0],[-80.0515,9.0282,53.0857],[-80.0521,9.0304,47.4303],[-80.0493,9.034,25.0],[-80.0521,9.0351,26.3716],[-80.0526,9.0335,37.4432],[-80.054,9.0351,35.3983],[-80.0515,9.0379,34.9725],[-80.0496,9.0379,25.0],[-80.0501,9.0454,25.0],[-80.0515,9.0454,25.0],[-80.0518,9.0426,25.0],[-80.0549,9.0426,27.0291],[-80.054,9.0401,29.7837],[-80.056,9.0413,31.2778],[-80.0563,9.0443,25.0],[-80.0565,9.0432,26.6097],[-80.059,9.0438,25.0],[-80.0582,9.0424,25.6348],[-80.0601,9.0401,31.391],[-80.0615,9.0435,26.6628],[-80.0626,9.039,25.0],[-80.0585,9.0354,30.994],[-80.0621,9.0368,25.0],[-80.0618,9.0351,25.0],[-80.0638,9.0351,25.0],[-80.0607,9.0329,25.0],[-80.061,9.0299,25.0],[-80.0576,9.0282,29.995],[-80.0638,9.0262,31.3394],[-80.0643,9.0296,27.7238],[-80.0699,9.0349,25.0],[-80.0718,9.0338,25.0],[-80.0721,9.0301,34.8513],[-80.0757,9.0307,25.0],[-80.0796,9.024,25.0],[-80.0762,9.0174,26.2151],[-80.0738,9.0157,37.184],[-80.0751,9.0129,29.9232],[-80.0762,9.0135,27.1774],[-80.0751,9.016,25.8209],[-80.0776,9.0168,32.6426],[-80.0771,9.0188,26.1831],[-80.079,9.0207,27.016],[-80.0815,9.0207,25.0],[-80.0829,9.0185,25.288],[-80.0871,9.0199,28.0141],[-80.0824,9.0204,25.0],[-80.0868,9.0246,41.7061],[-80.0849,9.0235,36.9351],[-80.0801,9.0251,25.0],[-80.0804,9.031,27.4907],[-80.0824,9.0329,26.3869],[-80.0768,9.0321,28.3592],[-80.0746,9.0349,25.0],[-80.0749,9.0374,25.0],[-80.0818,9.041,25.5932],[-80.0757,9.0418,25.0],[-80.0754,9.0479,28.3479],[-80.0726,9.0438,29.0487],[-80.069,9.0429,25.0],[-80.0724,9.0496,30.1336],[-80.0701,9.049,28.3898],[-80.0701,9.0507,32.7001],[-80.0674,9.0485,25.0],[-80.0663,9.0501,29.5945],[-80.0663,9.0479,25.0],[-80.0643,9.0474,26.0762],[-80.0651,9.0493,30.9611],[-80.0638,9.0496,30.9611],[-80.0646,9.0518,28.4639],[-80.0632,9.0515,25.0],[-80.0632,9.0529,25.0],[-80.0654,9.0543,26.6172],[-80.0621,9.0529,25.0],[-80.059,9.0546,28.2824],[-80.0549,9.054,25.0],[-80.0554,9.0557,25.0],[-80.0593,9.056,25.0],[-80.0607,9.0576,25.9134],[-80.0568,9.0582,32.2968],[-80.0529,9.0562,26.2324],[-80.0526,9.0588,25.0],[-80.0557,9.0618,26.1965],[-80.0529,9.0607,28.4565],[-80.0496,9.0554,25.0],[-80.044,9.0549,25.0],[-80.0454,9.059,25.0],[-80.046,9.0574,25.0],[-80.0485,9.0582,29.3184],[-80.0468,9.0601,25.0],[-80.049,9.0624,25.0],[-80.0488,9.0651,25.0],[-80.0504,9.0635,27.9261],[-80.0524,9.0643,27.784],[-80.0485,9.0665,25.0],[-80.0493,9.0685,29.0882],[-80.054,9.0704,35.8794],[-80.0554,9.0726,25.0],[-80.0543,9.0743,28.206],[-80.0512,9.0704,25.0],[-80.0451,9.0704,25.0],[-80.0507,9.0724,30.6024],[-80.0493,9.0726,30.6024],[-80.0476,9.0721,30.6038],[-80.0482,9.0746,28.7277],[-80.0454,9.074,26.4371],[-80.0499,9.0804,26.5056],[-80.0471,9.0787,25.0],[-80.0446,9.0804,27.6429],[-80.0449,9.0768,25.0],[-80.0426,9.0765,25.9492],[-80.0445,9.0898,37.4542],[-80.0487,9.0931,43.1554],[-80.049,9.1041,24.5316],[-80.0519,9.107,26.3254],[-80.0577,9.101,64.0887],[-80.0572,9.095,26.0807],[-80.0609,9.0925,61.4391],[-80.0629,9.0836,50.5719],[-80.0685,9.0827,51.818],[-80.0767,9.074,86.8067],[-80.0849,9.07,82.4926],[-80.1125,9.0608,45.7265]],
[[-80.0915,9.0376,26.6136],[-80.0849,9.0346,27.0202],[-80.0832,9.0354,26.0792],[-80.0826,9.0338,26.0792],[-80.0888,9.0338,25.0],[-80.091,9.0293,30.7578],[-80.0915,9.0343,25.5392],[-80.0888,9.0351,25.0],[-80.0924,9.0365,31.7774],[-80.0915,9.0376,26.6136]]]]}
,"properties": {"GID_3": "PAN.4.2.5_1","GID_0": "PAN","country": "Panama","GID_1": "PAN.4_1","province": "Colón","NL_NAME_1": "NA","GID_2": "PAN.4.2_1","county": "Colón","NL_NAME_2": "NA","city": "Ciricito","VARNAME_3": "NA","NL_NAME_3": "NA","TYPE_3": "Corregimiento","ENGTYPE_3": "Municipality","CC_3": "NA","HASC_3": "NA","name": "Ciricito.city","area_km2": 78.46139,"hist_schema_id": "Elevation0-9000","hist_area_km2": {"25": 18.69866,"50": 30.44568,"75": 15.76804,"100": 9.04668,"125": 3.49721,"150": 0.73291,"175": 0.27222}}}