{"type":"Feature","properties":{"GID_2":"PAN.2.11_1","GID_0":"PAN","country":"Panama","GID_1":"PAN.2_1","province":"Chiriquí","NL_NAME_1":"NA","county":"SanFélix","VARNAME_2":"NA","NL_NAME_2":"NA","TYPE_2":"Distrito","ENGTYPE_2":"District","CC_2":"NA","HASC_2":"PA.CH.SX","name":"San_Félix.county"},
"geometry":{"type": "MultiPolygon","coordinates": [[[[-81.8436,8.2456,41.0425],[-81.8455,8.2458,32.67],[-81.8507,8.2531,33.331],[-81.8541,8.2631,71.0495],[-81.8526,8.2709,60.6706],[-81.849,8.2755,79.9149],[-81.8496,8.2972,116.3271],[-81.8483,8.305,84.7555],[-81.8462,8.3081,109.7202],[-81.8385,8.3101,218.1857],[-81.8391,8.3033,158.4044],[-81.8365,8.3053,170.5184],[-81.8314,8.3057,227.2004],[-81.8276,8.3196,268.8714],[-81.8233,8.3257,138.9374],[-81.8279,8.3308,134.968],[-81.8482,8.3315,127.4287],[-81.8615,8.3283,80.4189],[-81.8726,8.3324,232.933],[-81.8782,8.3284,189.1925],[-81.8801,8.3229,98.4024],[-81.8859,8.319,52.2135],[-81.8915,8.3218,66.7034],[-81.8903,8.3263,66.5996],[-81.8922,8.331,94.5852],[-81.9108,8.3351,112.2547],[-81.9128,8.3342,97.8897],[-81.9153,8.3276,54.982],[-81.9257,8.33,70.0515],[-81.9265,8.3235,52.336],[-81.9329,8.3256,165.606],[-81.9386,8.3327,61.6584],[-81.9414,8.3319,55.5763],[-81.9419,8.3288,44.1107],[-81.9467,8.3267,119.1266],[-81.947,8.3253,109.0843],[-81.9625,8.3247,101.7007],[-81.968,8.329,145.6464],[-81.9709,8.3269,144.3416],[-81.9748,8.3191,76.1586],[-81.9786,8.3274,97.7558],[-81.9841,8.3294,118.1193],[-81.9913,8.3286,50.0221],[-81.9918,8.3228,73.1973],[-81.9889,8.3149,42.6667],[-81.9893,8.3083,22.0944],[-81.9877,8.31,27.9959],[-81.9807,8.3111,35.8913],[-81.98,8.3075,26.1054],[-81.9782,8.307,31.1404],[-81.9819,8.3035,38.6013],[-81.9838,8.2979,30.185],[-81.9789,8.2943,32.7423],[-81.9797,8.2837,9.7304],[-81.9772,8.2827,12.2093],[-81.9737,8.2842,9.7422],[-81.9694,8.2786,25.7339],[-81.9537,8.2682,12.6048],[-81.9442,8.266,0.0],[-81.9415,8.2584,11.7929],[-81.943,8.2485,10.7944],[-81.938,8.2385,6.4839],[-81.9396,8.234,14.3556],[-81.9454,8.2302,1.9214],[-81.9456,8.2271,4.6641],[-81.9539,8.2209,0.0],[-81.9555,8.2202,0.0],[-81.9578,8.2218,0.0],[-81.9713,8.2132,2.3353],[-81.9738,8.2069,1.8944],[-81.9778,8.2045,8.3754],[-81.9792,8.2016,1.3231],[-81.9529,8.1896,3.5258],[-81.9362,8.1899,3.1442],[-81.9201,8.1865,0.0],[-81.9179,8.1896,2.6991],[-81.911,8.1899,4.0801],[-81.9146,8.1865,0.0],[-81.9182,8.1868,0.0],[-81.9179,8.1854,0.0],[-81.9135,8.1851,0.8372],[-81.851,8.1629,1.5635],[-81.8457,8.1629,0.3158],[-81.8401,8.1599,0.0],[-81.8293,8.1574,2.692],[-81.8264,8.1604,13.6792],[-81.8284,8.1677,3.2824],[-81.8277,8.1719,3.6505],[-81.8227,8.1786,3.5724],[-81.8137,8.18,6.4251],[-81.809,8.1867,12.9019],[-81.8086,8.1906,14.2804],[-81.8155,8.1977,14.6189],[-81.8157,8.2016,16.7724],[-81.8209,8.2142,27.1526],[-81.8305,8.2253,41.2328],[-81.8306,8.2269,42.46],[-81.8247,8.2337,35.3983],[-81.827,8.2398,23.4692],[-81.8311,8.2382,45.483],[-81.8414,8.2415,34.7181],[-81.8436,8.2456,41.0425]]]]}}