{"type": "Feature","bbox": [-82.6476,8.4562,-82.6036,8.5128],"geometry": {"type": "MultiPolygon","coordinates": [[[[-82.6214,8.4578,96.77],[-82.6191,8.467,113.5247],[-82.6138,8.4701,120.5166],[-82.6114,8.4743,130.5108],[-82.6108,8.4792,141.7185],[-82.6074,8.483,147.9908],[-82.6036,8.5004,188.8541],[-82.6044,8.507,201.5089],[-82.6159,8.5128,216.1617],[-82.6174,8.5113,210.5805],[-82.6178,8.4996,184.0531],[-82.6208,8.4949,173.7286],[-82.6366,8.5,163.9088],[-82.6476,8.4991,167.3913],[-82.6437,8.4924,151.7466],[-82.6365,8.487,143.927],[-82.6343,8.4785,126.5326],[-82.6284,8.473,123.9019],[-82.6301,8.4658,104.1528],[-82.6276,8.461,95.5585],[-82.6272,8.4562,88.1877],[-82.6214,8.4578,96.77]]]]}
,"properties": {"GID_3": "PAN.2.5.2_1","GID_0": "PAN","country": "Panama","GID_1": "PAN.2_1","province": "Chiriquí","NL_NAME_1": "NA","GID_2": "PAN.2.5_1","county": "Bugaba","NL_NAME_2": "NA","city": "Bugaba","VARNAME_3": "NA","NL_NAME_3": "NA","TYPE_3": "Corregimiento","ENGTYPE_3": "Municipality","CC_3": "NA","HASC_3": "NA","name": "Bugaba.city","area_km2": 13.33695,"hist_schema_id": "Elevation0-9000","hist_area_km2": {"100": 1.17439,"125": 2.64231,"150": 4.99086,"175": 2.97768,"200": 1.44686,"225": 0.10484}}}