{"type":"Feature","properties":{"GID_3":"PAN.12.7.8_1","GID_0":"PAN","country":"Panama","GID_1":"PAN.12_1","province":"Panamá","NL_NAME_1":"NA","GID_2":"PAN.12.7_1","county":"SanMiguelito","NL_NAME_2":"NA","city":"RufinaAlfaro","VARNAME_3":"NA","NL_NAME_3":"NA","TYPE_3":"Corregimiento","ENGTYPE_3":"Municipality","CC_3":"NA","HASC_3":"NA","name":"Rufina_Alfaro.city"},
"geometry":{"type": "MultiPolygon","coordinates": [[[[-79.4293,9.0595,23.507],[-79.4332,9.0722,30.7438],[-79.4376,9.0753,33.7999],[-79.4406,9.0826,40.2415],[-79.4442,9.0852,37.2083],[-79.4667,9.0927,65.5436],[-79.481,9.0897,50.6925],[-79.4747,9.0824,54.8959],[-79.4698,9.0734,89.986],[-79.4632,9.0709,77.4203],[-79.4597,9.0646,55.681399999999996],[-79.4553,9.062,35.008],[-79.4551,9.0526,17.8384],[-79.4404,9.0537,16.4938],[-79.4293,9.0595,23.507]]]]}}