{"type":"Feature","properties":{"GID_3":"PAN.12.7.7_1","GID_0":"PAN","country":"Panama","GID_1":"PAN.12_1","province":"Panamá","NL_NAME_1":"NA","GID_2":"PAN.12.7_1","county":"SanMiguelito","NL_NAME_2":"NA","city":"OmarTorrijos","VARNAME_3":"NA","NL_NAME_3":"NA","TYPE_3":"Corregimiento","ENGTYPE_3":"Municipality","CC_3":"NA","HASC_3":"NA","name":"Omar_Torrijos.city"},
"geometry":{"type": "MultiPolygon","coordinates": [[[[-79.5292,9.0459,62.0522],[-79.5073,9.0459,58.9972],[-79.5033,9.0589,103.461],[-79.4954,9.0679,72.1689],[-79.5031,9.0811,87.8153],[-79.512,9.0798,76.0757],[-79.52,9.0712,93.9873],[-79.5238,9.0642,92.203],[-79.5425,9.0583,155.804],[-79.5292,9.0459,62.0522]]]]}}