{"type":"Feature","properties":{"GID_3":"PAN.9.4.7_1","GID_0":"PAN","country":"Panama","GID_1":"PAN.9_1","province":"LosSantos","NL_NAME_1":"NA","GID_2":"PAN.9.4_1","county":"Macaracas","NL_NAME_2":"NA","city":"LaMesa","VARNAME_3":"NA","NL_NAME_3":"NA","TYPE_3":"Corregimiento","ENGTYPE_3":"Municipality","CC_3":"NA","HASC_3":"NA","name":"La_Mesa.city"},
"geometry":{"type": "MultiPolygon","coordinates": [[[[-80.6141,7.6552,163.8321],[-80.6285,7.6513,191.8551],[-80.6336,7.6454,190.4732],[-80.6391,7.6429,217.7324],[-80.6399,7.6339,231.1667],[-80.6744,7.5782,241.2085],[-80.671,7.5719,315.8031],[-80.6634,7.5644,254.1963],[-80.6537,7.5623,169.6726],[-80.6302,7.5787,192.8576],[-80.6217,7.581,242.286],[-80.614,7.5966,268.8648],[-80.6021,7.6113,236.3171],[-80.5991,7.6227,185.0237],[-80.586,7.6436,152.8314],[-80.586,7.6492,127.1145],[-80.5895,7.6552,125.0318],[-80.5858,7.6612,120.5952],[-80.5937,7.6634,129.7225],[-80.5978,7.6625,145.1998],[-80.6003,7.6604,147.6469],[-80.6015,7.6529,128.696],[-80.6045,7.6512,136.2613],[-80.6088,7.6516,150.4939],[-80.6141,7.6552,163.8321]]]]}}