{"type": "Feature","bbox": [-82.8089,8.3279,-82.6371,8.4616],"geometry": {"type": "MultiPolygon","coordinates": [[[[-82.6858,8.3304,0.0],[-82.689,8.351,7.3566],[-82.6893,8.369,7.111],[-82.6822,8.37,9.0127],[-82.6754,8.3774,10.0952],[-82.6658,8.3745,12.838],[-82.6625,8.3757,14.4578],[-82.6488,8.392,23.2647],[-82.6373,8.4113,35.6988],[-82.6371,8.4309,58.1794],[-82.6414,8.4531,88.7676],[-82.6481,8.4529,97.9344],[-82.6541,8.456,108.7926],[-82.6618,8.4554,114.1821],[-82.6684,8.4616,129.7408],[-82.6725,8.4608,133.8019],[-82.6796,8.4525,117.2455],[-82.6829,8.4426,91.4721],[-82.6815,8.4389,81.8231],[-82.6823,8.4312,70.6605],[-82.6848,8.4302,67.5041],[-82.6904,8.43,65.3088],[-82.7027,8.4335,56.1577],[-82.7034,8.4376,65.3567],[-82.7222,8.4401,45.1622],[-82.7278,8.4368,31.8684],[-82.7299,8.4328,27.5529],[-82.7856,8.4323,17.318],[-82.7985,8.4311,18.7818],[-82.8069,8.4267,20.0587],[-82.8062,8.4253,27.6938],[-82.8089,8.4231,19.9528],[-82.8001,8.4258,21.0729],[-82.7996,8.4204,20.3063],[-82.7894,8.416,14.8961],[-82.7886,8.4116,14.9836],[-82.7804,8.4051,13.724],[-82.7812,8.4015,12.8815],[-82.7788,8.3983,12.0125],[-82.7801,8.3951,13.2142],[-82.7739,8.3894,8.5739],[-82.7753,8.3847,9.8645],[-82.7726,8.3802,13.0146],[-82.7609,8.3732,9.6586],[-82.7522,8.3652,6.4799],[-82.7469,8.3626,7.1083],[-82.7373,8.3609,7.8005],[-82.7346,8.3558,7.8546],[-82.7214,8.3469,3.2428],[-82.7155,8.345,3.2051],[-82.7122,8.3384,21.7927],[-82.7087,8.3376,1.8811],[-82.7079,8.3438,4.9021],[-82.7076,8.3379,16.7482],[-82.7032,8.3351,4.7826],[-82.7004,8.3279,0.0],[-82.696,8.3293,12.5919],[-82.689,8.3287,0.0],[-82.6858,8.3304,0.0]]]]}
,"properties": {"GID_3": "PAN.2.1.2_1","GID_0": "PAN","country": "Panama","GID_1": "PAN.2_1","province": "Chiriquí","NL_NAME_1": "NA","GID_2": "PAN.2.1_1","county": "Alanje","NL_NAME_2": "NA","city": "Divalá","VARNAME_3": "NA","NL_NAME_3": "NA","TYPE_3": "Corregimiento","ENGTYPE_3": "Municipality","CC_3": "NA","HASC_3": "NA","name": "Divalá.city","area_km2": 135.4964,"hist_schema_id": "Elevation0-9000","hist_area_km2": {"0": 53.4255,"25": 49.4998,"50": 16.8628,"75": 9.0393,"100": 4.7187,"125": 1.9504}}}