{"type":"Feature","properties":{"GID_3":"PAN.12.7.9_1","GID_0":"PAN","country":"Panama","GID_1":"PAN.12_1","province":"Panamá","NL_NAME_1":"NA","GID_2":"PAN.12.7_1","county":"SanMiguelito","NL_NAME_2":"NA","city":"VictorianoLorenzo","VARNAME_3":"NA","NL_NAME_3":"NA","TYPE_3":"Corregimiento","ENGTYPE_3":"Municipality","CC_3":"NA","HASC_3":"NA","name":"Victoriano_Lorenzo.city"},
"geometry":{"type": "MultiPolygon","coordinates": [[[[-79.5058,9.0264,20.398],[-79.5023,9.0286,35.8335],[-79.5017,9.024,19.222],[-79.4952,9.0228,16.309],[-79.4913,9.0166,7.2119],[-79.4819,9.0249,8.5809],[-79.4932,9.025,19.2074],[-79.4971,9.0272,32.0669],[-79.4971,9.0312,56.7755],[-79.4945,9.0312,59.5872],[-79.4946,9.0381,49.4728],[-79.4968,9.0374,61.5992],[-79.4974,9.0392,59.786],[-79.5013,9.0381,71.7576],[-79.5005,9.0356,42.4843],[-79.5105,9.0381,44.9957],[-79.5104,9.0329,52.5801],[-79.5121,9.0302,34.2167],[-79.5058,9.0264,20.398]]]]}}