{"type":"Feature","properties":{"GID_3":"PAN.6.1.1_1","GID_0":"PAN","country":"Panama","GID_1":"PAN.6_1","province":"Emberá","NL_NAME_1":"NA","GID_2":"PAN.6.1_1","county":"Cémaco","NL_NAME_2":"NA","city":"CiriloGuainora","VARNAME_3":"NA","NL_NAME_3":"NA","TYPE_3":"Corregimiento","ENGTYPE_3":"Municipality","CC_3":"NA","HASC_3":"NA","name":"Cirilo_Guainora.city"},
"geometry":{"type": "MultiPolygon","coordinates": [[[[-77.2982,8.2448,1035.2089],[-77.3049,8.2455,1046.3419],[-77.3094,8.2441,1081.5483],[-77.3185,8.2337,1224.4612],[-77.3284,8.2327,945.5951],[-77.3376,8.2247,1000.4562],[-77.3452,8.2213,912.215],[-77.3521,8.2155,752.2524],[-77.3703,8.2193,823.6174],[-77.3788,8.2169,541.7737],[-77.3835,8.2128,466.662],[-77.3879,8.2115,444.2216],[-77.3917,8.2069,520.1158],[-77.4121,8.2039,484.5585],[-77.4217,8.2058,615.2037],[-77.4282,8.2044,592.0436],[-77.4348,8.2102,679.0811],[-77.4426,8.2125,597.0984],[-77.4458,8.2112,568.1946],[-77.4505,8.2042,322.7385],[-77.4581,8.2042,250.1271],[-77.4662,8.2135,390.5441],[-77.4813,8.2232,273.4511],[-77.4937,8.2365,182.7196],[-77.5045,8.2415,132.4055],[-77.5097,8.2411,104.4337],[-77.52,8.2333,94.6718],[-77.531,8.2306,85.2789],[-77.5362,8.2313,61.6926],[-77.5432,8.2366,47.2175],[-77.5472,8.2362,43.0696],[-77.6004,8.1639,58.195],[-77.606,8.1549,41.7655],[-77.6059,8.1517,36.0047],[-77.6101,8.15,42.8018],[-77.6093,8.1416,22.6445],[-77.6133,8.1372,18.0084],[-77.613,8.1356,18.6786],[-77.6084,8.1286,25.2442],[-77.6033,8.1282,26.9306],[-77.6083,8.1186,34.3413],[-77.5878,8.1232,50.4322],[-77.58,8.1206,53.3106],[-77.5738,8.1099,43.1522],[-77.5658,8.1045,67.8465],[-77.5508,8.0783,43.9206],[-77.5401,8.0779,66.9221],[-77.5365,8.0816,59.7822],[-77.5254,8.0856,97.9051],[-77.5214,8.0933,86.9942],[-77.5135,8.0907,80.8102],[-77.4993,8.0989,99.183],[-77.4963,8.0978,99.5545],[-77.4938,8.091,93.3023],[-77.4915,8.0897,89.9468],[-77.4884,8.0903,96.0703],[-77.4849,8.0963,118.8041],[-77.4768,8.097,97.8887],[-77.4695,8.095,153.2823],[-77.4593,8.0869,317.3399],[-77.4539,8.096,453.9519],[-77.4463,8.1007,463.5086],[-77.4458,8.107,329.61],[-77.448,8.1147,309.0701],[-77.4467,8.1179,391.634],[-77.4415,8.1221,475.9824],[-77.4327,8.1229,498.6699],[-77.4245,8.1283,537.5211],[-77.4206,8.1343,541.8931],[-77.4082,8.1321,725.2946],[-77.4019,8.1393,457.009],[-77.3921,8.1332,759.3579],[-77.3819,8.1372,1002.8939],[-77.3708,8.1373,1000.1852],[-77.3623,8.1463,1037.6318],[-77.3559,8.1491,870.2161],[-77.2802,8.168,1562.2555],[-77.2491,8.1746,1282.3506],[-77.246,8.174,1245.4819],[-77.2402,8.1765,949.074],[-77.2395,8.181,946.772],[-77.2446,8.178,1211.7263],[-77.2472,8.1886,1223.2224],[-77.2547,8.2066,1150.4695],[-77.2629,8.2161,1046.3008],[-77.2701,8.2217,1316.8838],[-77.2855,8.226,1358.7755],[-77.294,8.2266,1280.3357],[-77.2982,8.2324,1215.2927],[-77.2982,8.2448,1035.2089]]]]}}