{"type": "Feature","bbox": [-79.5395,8.9573,-79.5346,8.9641],"geometry": {"type": "MultiPolygon","coordinates": [[[[-79.5394,8.9573,12.5746],[-79.5365,8.9576,2.4495],[-79.5371,8.9596,6.5225],[-79.5346,8.9641,4.1257],[-79.5395,8.9624,8.939],[-79.5394,8.9573,12.5746]]]]}
,"properties": {"GID_3": "PAN.12.6.18_1","GID_0": "PAN","country": "Panama","GID_1": "PAN.12_1","province": "Panamá","NL_NAME_1": "NA","GID_2": "PAN.12.6_1","county": "Panamá","NL_NAME_2": "NA","city": "SantaAna","VARNAME_3": "NA","NL_NAME_3": "NA","TYPE_3": "Corregimiento","ENGTYPE_3": "Municipality","CC_3": "NA","HASC_3": "NA","name": "Santa_Ana.city","area_km2": 0.188491,"hist_schema_id": "Elevation0-9000","hist_area_km2": {"0": 0.188491}}}