{"type": "Feature","bbox": [-78.3057,8.0234,-78.1204,8.2555],"geometry": {"type": "MultiPolygon","coordinates": [[[[-78.2337,8.0657,22.8528],[-78.2137,8.078,12.7572],[-78.2065,8.0808,12.6838],[-78.1973,8.0817,37.7195],[-78.1873,8.0955,94.2763],[-78.1807,8.0965,114.4996],[-78.1729,8.0863,291.5682],[-78.1609,8.0766,322.4496],[-78.1582,8.0706,312.165],[-78.1559,8.0566,337.5612],[-78.1397,8.041,347.638],[-78.1347,8.0397,280.8953],[-78.1345,8.0335,345.0693],[-78.1319,8.031,315.3593],[-78.1291,8.0308,253.263],[-78.1291,8.0279,304.1376],[-78.1267,8.0253,303.9696],[-78.1219,8.0234,309.9641],[-78.1204,8.0264,241.9986],[-78.1204,8.0292,238.2386],[-78.1231,8.0308,192.3456],[-78.1232,8.0336,191.4452],[-78.126,8.0338,255.53],[-78.126,8.0381,236.3388],[-78.1317,8.0427,274.4389],[-78.1353,8.0508,271.4944],[-78.1423,8.0594,219.6059],[-78.1478,8.0712,289.6292],[-78.1514,8.0932,132.1428],[-78.1516,8.1136,145.6588],[-78.1637,8.1332,169.0569],[-78.1828,8.1487,91.4029],[-78.1817,8.1549,139.7951],[-78.1776,8.1594,113.7182],[-78.1747,8.1675,118.2613],[-78.1704,8.1703,164.2835],[-78.1702,8.1732,217.661],[-78.1673,8.1767,189.3874],[-78.1968,8.2079,64.3927],[-78.2077,8.2379,27.5035],[-78.2073,8.2452,27.0594],[-78.2134,8.2555,25.9055],[-78.2225,8.2459,24.168],[-78.2305,8.2316,55.8204],[-78.2603,8.2213,79.8365],[-78.2686,8.2147,15.3191],[-78.2735,8.2072,15.7898],[-78.2732,8.2029,6.2965],[-78.269,8.1971,28.2065],[-78.2635,8.1974,6.4844],[-78.2618,8.1935,0.0],[-78.2582,8.1926,0.0],[-78.2524,8.1874,0.0],[-78.2454,8.1862,2.8806],[-78.2485,8.1618,13.1455],[-78.2499,8.1601,1.792],[-78.2493,8.1546,0.0],[-78.2476,8.1538,2.9149],[-78.2479,8.1476,9.633],[-78.2496,8.1435,9.3757],[-78.2538,8.1426,0.0],[-78.2507,8.1401,17.3771],[-78.2532,8.1374,0.0],[-78.2524,8.1351,21.8525],[-78.2554,8.1296,0.0],[-78.2588,8.1288,0.0],[-78.259,8.1265,6.9055],[-78.2615,8.1254,0.0],[-78.2607,8.1199,5.2695],[-78.2574,8.119,12.9224],[-78.2571,8.1168,2.153],[-78.2618,8.1129,8.3063],[-78.2643,8.1132,4.3379],[-78.2657,8.1112,5.9647],[-78.2726,8.109,0.0],[-78.286,8.0946,2.9617],[-78.296,8.0879,9.331],[-78.2996,8.0821,0.0],[-78.3057,8.0776,8.3852],[-78.3038,8.0776,25.6328],[-78.2898,8.0829,0.0],[-78.287,8.0828,18.8663],[-78.284,8.0799,15.4055],[-78.2824,8.0726,23.2573],[-78.2754,8.0708,22.2323],[-78.2739,8.0679,34.9056],[-78.2683,8.065,4.2569],[-78.2653,8.0693,36.3416],[-78.2653,8.0723,14.792],[-78.2618,8.0728,15.7445],[-78.2575,8.0815,8.4241],[-78.2536,8.0825,13.5329],[-78.2503,8.0806,8.6834],[-78.2471,8.0746,15.1272],[-78.2337,8.0657,22.8528]]]]}
,"properties": {"GID_3": "PAN.5.1.15_1","GID_0": "PAN","country": "Panama","GID_1": "PAN.5_1","province": "Darién","NL_NAME_1": "NA","GID_2": "PAN.5.1_1","county": "Chepigana","NL_NAME_2": "NA","city": "Taimatí","VARNAME_3": "NA","NL_NAME_3": "NA","TYPE_3": "Corregimiento","ENGTYPE_3": "Municipality","CC_3": "NA","HASC_3": "NA","name": "Taimatí.city","area_km2": 178.7594,"hist_schema_id": "Elevation0-9000","hist_area_km2": {"0": 25.6708,"25": 46.1756,"50": 19.3915,"75": 25.9393,"100": 18.679,"125": 12.6981,"150": 7.4931,"175": 5.3523,"200": 4.282,"225": 3.0646,"250": 2.8968,"275": 2.666,"300": 1.8893,"325": 1.3435,"350": 0.7977,"375": 0.3779,"400": 0.042}}}