{"type": "Feature","bbox": [-80.9457,8.0034,-80.8487,8.103],"geometry": {"type": "MultiPolygon","coordinates": [[[[-80.9074,8.0034,111.8961],[-80.8964,8.0172,135.3921],[-80.8854,8.0265,161.5849],[-80.8798,8.0282,162.5064],[-80.87,8.0285,64.3507],[-80.8487,8.0151,64.8037],[-80.8539,8.0265,52.5165],[-80.8657,8.0415,45.1185],[-80.8656,8.0505,44.8223],[-80.8618,8.0629,39.648],[-80.8819,8.0636,59.5148],[-80.8885,8.0652,68.3217],[-80.9042,8.0639,66.777],[-80.9066,8.0817,85.9564],[-80.9109,8.0969,49.6054],[-80.9126,8.1017,62.3539],[-80.9155,8.103,64.8541],[-80.9198,8.0936,71.5856],[-80.9244,8.0878,77.0531],[-80.9261,8.074,82.8854],[-80.9395,8.046,77.9991],[-80.9386,8.0359,79.386],[-80.9426,8.0262,137.2525],[-80.9457,8.0081,94.9911],[-80.9234,8.0134,124.0843],[-80.9074,8.0034,111.8961]]]]}
,"properties": {"GID_3": "PAN.13.1.1_1","GID_0": "PAN","country": "Panama","GID_1": "PAN.13_1","province": "Veraguas","NL_NAME_1": "NA","GID_2": "PAN.13.1_1","county": "Atalaya","NL_NAME_2": "NA","city": "Atalaya","VARNAME_3": "NA","NL_NAME_3": "NA","TYPE_3": "Corregimiento","ENGTYPE_3": "Municipality","CC_3": "NA","HASC_3": "NA","name": "Atalaya.city","area_km2": 52.75689,"hist_schema_id": "Elevation0-9000","hist_area_km2": {"50": 9.76176,"75": 19.06173,"100": 14.59084,"125": 6.44533,"150": 1.97348,"175": 0.75579,"200": 0.16795}}}