{"type":"Feature","properties":{"GID_3":"PAN.9.2.8_1","GID_0":"PAN","country":"Panama","GID_1":"PAN.9_1","province":"LosSantos","NL_NAME_1":"NA","GID_2":"PAN.9.2_1","county":"LasTablas","NL_NAME_2":"NA","city":"LaLaja","VARNAME_3":"NA","NL_NAME_3":"NA","TYPE_3":"Corregimiento","ENGTYPE_3":"Municipality","CC_3":"NA","HASC_3":"NA","name":"La_Laja.city"},
"geometry":{"type": "MultiPolygon","coordinates": [[[[-80.2712,7.7218,82.1691],[-80.2627,7.7207,69.3588],[-80.2569,7.7179,61.4355],[-80.2511,7.719,58.9492],[-80.2431,7.724,41.4677],[-80.2386,7.7338,29.8154],[-80.2517,7.7318,54.4385],[-80.2652,7.7399,64.0737],[-80.2618,7.7288,90.2132],[-80.2712,7.7218,82.1691]]]]}}