{"type":"Feature","properties":{"GID_3":"PAN.4.1.5_1","GID_0":"PAN","country":"Panama","GID_1":"PAN.4_1","province":"Colón","NL_NAME_1":"NA","GID_2":"PAN.4.1_1","county":"Chagres","NL_NAME_2":"NA","city":"PalmasBellas","VARNAME_3":"NA","NL_NAME_3":"NA","TYPE_3":"Corregimiento","ENGTYPE_3":"Municipality","CC_3":"NA","HASC_3":"NA","name":"Palmas_Bellas.city"},
"geometry":{"type": "MultiPolygon","coordinates": [[[[-80.077,9.2275,25.5329],[-80.0815,9.2207,5.253],[-80.0878,9.222,13.3382],[-80.0929,9.2293,2.4032],[-80.1079,9.2224,0.0],[-80.111,9.2193,4.7095],[-80.1212,9.2182,6.2662],[-80.114,9.2023,34.8292],[-80.1118,9.1904,35.4286],[-80.1132,9.18,59.344],[-80.1214,9.1691,32.9011],[-80.1202,9.1665,39.3616],[-80.1146,9.1638,74.1572],[-80.1131,9.1603,65.917],[-80.1158,9.1545,85.2866],[-80.1153,9.1302,117.5422],[-80.1174,9.1248,59.8894],[-80.1166,9.1218,98.609],[-80.109,9.1208,20.9939],[-80.1039,9.1246,14.1941],[-80.102,9.1294,24.7906],[-80.103,9.1399,105.7523],[-80.1005,9.1479,68.9797],[-80.0982,9.1489,60.8328],[-80.0879,9.1374,71.7474],[-80.0864,9.1293,134.3902],[-80.0818,9.1238,35.6018],[-80.0798,9.1144,34.8313],[-80.0754,9.1098,30.5937],[-80.0722,9.1183,138.1327],[-80.0772,9.1304,72.6236],[-80.0775,9.1429,130.8922],[-80.0713,9.1486,61.2975],[-80.0675,9.1486,103.8558],[-80.0618,9.1637,83.9192],[-80.0664,9.1742,39.9496],[-80.0716,9.1794,82.9438],[-80.0711,9.1851,52.8266],[-80.0742,9.1867,104.0873],[-80.077,9.207,23.0375],[-80.0723,9.2127,18.0738],[-80.0649,9.211,26.2646],[-80.0612,9.2155,67.039],[-80.0623,9.2177,21.3772],[-80.077,9.2275,25.5329]]]]}}