{"type": "Feature","bbox": [-82.4111,8.434,-82.3155,8.6482],"geometry": {"type": "MultiPolygon","coordinates": [[[[-82.4111,8.6028,329.1359],[-82.4061,8.592,289.6129],[-82.4046,8.5815,265.6283],[-82.401,8.5748,244.8307],[-82.4,8.5675,234.5052],[-82.3985,8.5654,225.0741],[-82.3935,8.5636,218.0351],[-82.3902,8.5589,211.4473],[-82.3847,8.5565,200.4421],[-82.3752,8.5407,176.7426],[-82.3611,8.5235,144.912],[-82.3617,8.5124,136.6149],[-82.3595,8.5056,127.3655],[-82.3621,8.4948,111.3118],[-82.3584,8.4882,97.3546],[-82.3609,8.4826,91.3814],[-82.3577,8.4817,104.4121],[-82.3559,8.4783,97.6195],[-82.3544,8.47,71.6795],[-82.3595,8.4596,76.8763],[-82.3602,8.4539,64.0812],[-82.3587,8.4482,55.5948],[-82.3518,8.4427,107.6823],[-82.3453,8.4343,30.5672],[-82.3291,8.434,49.1252],[-82.3481,8.4594,75.7697],[-82.3461,8.4665,82.5215],[-82.3412,8.4733,100.7421],[-82.3411,8.4857,106.6873],[-82.3383,8.4933,107.6803],[-82.3396,8.5011,117.0961],[-82.3375,8.5107,121.1191],[-82.3425,8.5299,142.2955],[-82.3489,8.5413,158.8236],[-82.3513,8.5495,170.775],[-82.3632,8.5617,193.3142],[-82.3669,8.5672,206.36],[-82.3676,8.5711,212.3312],[-82.3649,8.5742,213.3518],[-82.3531,8.5755,206.5753],[-82.3399,8.5798,200.1964],[-82.3155,8.5714,232.013],[-82.3187,8.5806,176.9121],[-82.3222,8.5836,195.8734],[-82.327,8.5948,263.5891],[-82.3316,8.6002,257.5739],[-82.3491,8.6033,236.0194],[-82.3585,8.6104,265.3185],[-82.3672,8.6216,291.5505],[-82.379,8.6425,361.1933],[-82.3874,8.6482,391.978],[-82.3899,8.6383,368.8996],[-82.3869,8.6285,350.6695],[-82.3905,8.6229,341.277],[-82.3909,8.6147,319.2636],[-82.393,8.6094,306.2227],[-82.3966,8.6068,312.6717],[-82.4111,8.6028,329.1359]]]]}
,"properties": {"GID_3": "PAN.2.6.3_1","GID_0": "PAN","country": "Panama","GID_1": "PAN.2_1","province": "Chiriquí","NL_NAME_1": "NA","GID_2": "PAN.2.6_1","county": "David","NL_NAME_2": "NA","city": "Cochea","VARNAME_3": "NA","NL_NAME_3": "NA","TYPE_3": "Corregimiento","ENGTYPE_3": "Municipality","CC_3": "NA","HASC_3": "NA","name": "Cochea.city","area_km2": 76.40055,"hist_schema_id": "Elevation0-9000","hist_area_km2": {"25": 0.29362,"50": 1.99236,"75": 3.85875,"100": 5.01187,"125": 7.04557,"150": 5.30487,"175": 7.7366,"200": 8.11361,"225": 10.75497,"250": 8.78405,"275": 6.93901,"300": 5.2618,"325": 3.20729,"350": 1.42542,"375": 0.60788,"400": 0.06288}}}