{"type": "Feature","bbox": [-81.4464,8.0519,-81.368,8.1299],"geometry": {"type": "MultiPolygon","coordinates": [[[[-81.4071,8.0564,152.571],[-81.3911,8.068,42.2545],[-81.3856,8.0779,34.7373],[-81.377,8.0875,63.3682],[-81.3773,8.0991,36.3002],[-81.373,8.1094,38.3771],[-81.3731,8.1176,95.9302],[-81.368,8.122,44.3825],[-81.3723,8.1285,48.1837],[-81.3754,8.1299,74.679],[-81.3821,8.1218,52.187],[-81.3866,8.1202,38.9509],[-81.397,8.1124,80.3339],[-81.4134,8.1116,149.9169],[-81.4224,8.1175,219.7643],[-81.4371,8.1078,280.8428],[-81.445,8.0977,383.0503],[-81.4464,8.0908,461.9836],[-81.4405,8.0748,208.4675],[-81.426,8.0545,234.6914],[-81.4196,8.0519,193.7959],[-81.4071,8.0564,152.571]]]]}
,"properties": {"GID_3": "PAN.13.5.2_1","GID_0": "PAN","country": "Panama","GID_1": "PAN.13_1","province": "Veraguas","NL_NAME_1": "NA","GID_2": "PAN.13.5_1","county": "LasPalmas","NL_NAME_2": "NA","city": "Corozal","VARNAME_3": "NA","NL_NAME_3": "NA","TYPE_3": "Corregimiento","ENGTYPE_3": "Municipality","CC_3": "NA","HASC_3": "NA","name": "Corozal.city","area_km2": 42.17137,"hist_schema_id": "Elevation0-9000","hist_area_km2": {"25": 1.6163,"50": 6.48613,"75": 4.40809,"100": 3.40056,"125": 3.1067,"150": 3.71548,"175": 5.26886,"200": 6.31848,"225": 3.48459,"250": 2.26705,"275": 0.77667,"300": 0.41983,"325": 0.20991,"350": 0.18892,"375": 0.16793,"400": 0.08396,"425": 0.12595,"450": 0.04198,"475": 0.06297,"500": 0.02099}}}