{"type": "Feature","bbox": [-80.4025,8.4663,-80.3232,8.5861],"geometry": {"type": "MultiPolygon","coordinates": [[[[-80.4025,8.4729,44.9368],[-80.3968,8.47,47.1537],[-80.3886,8.4684,42.4434],[-80.3795,8.4781,52.73],[-80.3675,8.4783,53.1075],[-80.3479,8.4815,59.1627],[-80.3421,8.4686,50.7674],[-80.337,8.4663,52.5642],[-80.3355,8.4728,56.5864],[-80.3386,8.4782,60.8569],[-80.3406,8.4894,64.0369],[-80.3378,8.4951,71.3076],[-80.3385,8.5026,77.152],[-80.3341,8.5115,82.4446],[-80.327,8.515,106.1599],[-80.3248,8.5272,261.215],[-80.3232,8.529,274.24],[-80.3245,8.5323,300.5819],[-80.3326,8.5384,213.1818],[-80.3389,8.5497,90.6212],[-80.3371,8.5556,190.0267],[-80.331,8.5634,130.5402],[-80.3234,8.5848,369.9313],[-80.3309,8.5861,330.291],[-80.3378,8.581,297.3866],[-80.3482,8.5798,142.1109],[-80.3544,8.5734,110.5649],[-80.3648,8.5679,84.0499],[-80.3643,8.5587,75.7533],[-80.3691,8.5431,88.4044],[-80.3774,8.5376,119.5954],[-80.3661,8.5263,69.6618],[-80.3632,8.5169,75.2075],[-80.3666,8.5113,79.0996],[-80.3714,8.5084,73.4158],[-80.3762,8.5127,65.5845],[-80.3837,8.5114,69.0616],[-80.3881,8.5072,56.1149],[-80.3943,8.4952,44.1464],[-80.3953,8.4824,51.2534],[-80.4025,8.4729,44.9368]]]]}
,"properties": {"GID_3": "PAN.3.6.6_1","GID_0": "PAN","country": "Panama","GID_1": "PAN.3_1","province": "Coclé","NL_NAME_1": "NA","GID_2": "PAN.3.6_1","county": "Penonomé","NL_NAME_2": "NA","city": "Penonomé","VARNAME_3": "NA","NL_NAME_3": "NA","TYPE_3": "Corregimiento","ENGTYPE_3": "Municipality","CC_3": "NA","HASC_3": "NA","name": "Penonomé.city","area_km2": 54.53821,"hist_schema_id": "Elevation0-9000","hist_area_km2": {"25": 0.12582,"50": 11.24002,"75": 21.19934,"100": 10.8819,"125": 1.86605,"150": 1.55153,"175": 1.19508,"200": 1.50957,"225": 1.50956,"250": 1.36279,"275": 0.88056,"300": 0.56607,"325": 0.35641,"350": 0.12579,"375": 0.12579,"400": 0.04193}}}