{"type": "Feature","bbox": [-80.2362,8.4392,-80.1428,8.5334],"geometry": {"type": "MultiPolygon","coordinates": [[[[-80.2362,8.4538,75.9081],[-80.2294,8.45,74.7746],[-80.2185,8.4392,62.0846],[-80.2113,8.4556,83.1943],[-80.2062,8.4612,91.4746],[-80.186,8.4555,106.8572],[-80.1836,8.456,105.9133],[-80.1814,8.4614,82.5536],[-80.1777,8.4909,167.3186],[-80.1748,8.4939,162.9447],[-80.1636,8.4952,196.4071],[-80.1563,8.4937,207.9975],[-80.1533,8.4803,162.2499],[-80.1494,8.4746,136.1581],[-80.1428,8.4875,192.0326],[-80.143,8.5096,266.0494],[-80.1455,8.5109,272.6993],[-80.1505,8.5071,265.684],[-80.1726,8.5052,207.8468],[-80.1748,8.5149,200.0839],[-80.1726,8.5243,242.2452],[-80.1784,8.5334,324.6081],[-80.1865,8.5216,253.2605],[-80.1948,8.5183,251.2496],[-80.1998,8.5140999999999991,232.2873],[-80.2226,8.4804,114.2313],[-80.2291,8.4667,68.6075],[-80.2274,8.4576,84.4665],[-80.2362,8.4538,75.9081]]]]}
,"properties": {"GID_3": "PAN.3.2.10_1","GID_0": "PAN","country": "Panama","GID_1": "PAN.3_1","province": "Coclé","NL_NAME_1": "NA","GID_2": "PAN.3.2_1","county": "Antón","NL_NAME_2": "NA","city": "SantaRita","VARNAME_3": "NA","NL_NAME_3": "NA","TYPE_3": "Corregimiento","ENGTYPE_3": "Municipality","CC_3": "NA","HASC_3": "NA","name": "Santa_Rita.city","area_km2": 40.24158,"hist_schema_id": "Elevation0-9000","hist_area_km2": {"50": 0.39847,"75": 4.23628,"100": 7.02531,"125": 6.41697,"150": 4.94891,"175": 4.65525,"200": 5.22134,"225": 3.73247,"250": 2.43237,"275": 0.85969,"300": 0.27258,"325": 0.04194}}}