{"type":"Feature","properties":{"GID_3":"PAN.13.6.7_1","GID_0":"PAN","country":"Panama","GID_1":"PAN.13_1","province":"Veraguas","NL_NAME_1":"NA","GID_2":"PAN.13.6_1","county":"Montijo","NL_NAME_2":"NA","city":"Pilón","VARNAME_3":"NA","NL_NAME_3":"NA","TYPE_3":"Corregimiento","ENGTYPE_3":"Municipality","CC_3":"NA","HASC_3":"NA","name":"Pilón.city"},
"geometry":{"type": "MultiPolygon","coordinates": [[[[-81.0621,7.9593,24.6943],[-81.0592,7.9595,17.2319],[-81.0479,7.9686,22.6429],[-81.0388,7.9881,19.3677],[-81.0529,7.9877,51.9743],[-81.0629,7.9821,41.2468],[-81.0656,7.974,18.5604],[-81.0621,7.9593,24.6943]]]]}}