{"type":"Feature","properties":{"GID_3":"PAN.4.3.6_1","GID_0":"PAN","country":"Panama","GID_1":"PAN.4_1","province":"Colón","NL_NAME_1":"NA","GID_2":"PAN.4.3_1","county":"Donoso","NL_NAME_2":"NA","city":"SanJosédelGeneral","VARNAME_3":"NA","NL_NAME_3":"NA","TYPE_3":"Corregimiento","ENGTYPE_3":"Municipality","CC_3":"NA","HASC_3":"NA","name":"San_Josédel_General.city"},
"geometry":{"type": "MultiPolygon","coordinates": [[[[-80.5737,8.7957,50.81],[-80.5575,8.7979,49.0606],[-80.5618,8.807,48.2988],[-80.5638,8.8083,53.1984],[-80.5526,8.8222,51.6927],[-80.5538,8.8335,75.9245],[-80.5521,8.8418,65.7616],[-80.5545,8.8476,57.3864],[-80.5505,8.8541,55.1407],[-80.552,8.8682,61.6116],[-80.5503,8.8714,27.3553],[-80.5546,8.876,42.8227],[-80.5544,8.8789,43.3141],[-80.5521,8.8812,54.364],[-80.5526,8.884,42.6322],[-80.5552,8.8828,39.1207],[-80.5557,8.8809,46.7717],[-80.5578,8.8815,33.5436],[-80.5597,8.884,19.4771],[-80.5598,8.8901,77.3469],[-80.5629,8.8934,51.4748],[-80.5613,8.8962,83.2022],[-80.5558,8.8982,51.1931],[-80.5551,8.9022,19.7227],[-80.5518,8.9038,18.805],[-80.5523,8.9152,58.4397],[-80.5472,8.9192,24.8144],[-80.5448,8.9282,43.6574],[-80.5473,8.9418,73.1451],[-80.5815,8.9574,172.2173],[-80.5888,8.9515,216.3279],[-80.5909,8.946,141.487],[-80.5972,8.9452,129.8439],[-80.6074,8.9606,126.6886],[-80.6156,8.9667,94.3675],[-80.6296,8.9725,64.6494],[-80.655,8.9641,53.9577],[-80.6558,8.962,47.7606],[-80.6529,8.9561,56.9387],[-80.6442,8.9523,66.7991],[-80.6395,8.9436,77.4415],[-80.6394,8.9384,54.5024],[-80.6369,8.9359,86.1083],[-80.6328,8.925,48.0418],[-80.6334,8.9102,64.8342],[-80.6394,8.9003,100.3368],[-80.6386,8.8949,110.3146],[-80.6424,8.8806,89.2555],[-80.6411,8.8711,96.7794],[-80.6715,8.8391,170.9776],[-80.673,8.8314,237.2728],[-80.679,8.8235,191.2135],[-80.6776,8.8143,305.5875],[-80.6719,8.8064,188.9198],[-80.6598,8.8067,205.9716],[-80.659,8.802,185.6594],[-80.654,8.8075,183.0089],[-80.6458,8.805,180.2558],[-80.6407,8.8086,246.3923],[-80.6336,8.8073,209.7412],[-80.6272,8.8078,198.0308],[-80.6269,8.8093,224.1716],[-80.6245,8.8084,198.4812],[-80.6241,8.7988,129.6808],[-80.6221,8.7968,83.1328],[-80.5737,8.7957,50.81]]]]}}