{"type": "Feature","bbox": [-80.7795,7.7873,-80.7196,7.8461],"geometry": {"type": "MultiPolygon","coordinates": [[[[-80.7196,7.8155,265.4359],[-80.7237,7.8263,225.032],[-80.7269,7.8288,194.854],[-80.731,7.8387,152.5062],[-80.7359,7.8448,136.1381],[-80.7507,7.8461,149.7438],[-80.7553,7.8397,232.3429],[-80.7712,7.8408,210.3195],[-80.7795,7.8122,254.6992],[-80.7608,7.8053,347.2115],[-80.7555,7.7985,340.6044],[-80.7525,7.7887,351.3714],[-80.7503,7.7873,359.0387],[-80.7406,7.7901,314.2483],[-80.7372,7.7885,323.2359],[-80.7346,7.7924,324.4734],[-80.7339,7.7987,411.3013],[-80.7266,7.8034,334.3894],[-80.7196,7.8155,265.4359]]]]}
,"properties": {"GID_3": "PAN.7.2.2_1","GID_0": "PAN","country": "Panama","GID_1": "PAN.7_1","province": "Herrera","NL_NAME_1": "NA","GID_2": "PAN.7.2_1","county": "LasMinas","NL_NAME_2": "NA","city": "Chumical","VARNAME_3": "NA","NL_NAME_3": "NA","TYPE_3": "Corregimiento","ENGTYPE_3": "Municipality","CC_3": "NA","HASC_3": "NA","name": "Chumical.city","area_km2": 27.18058,"hist_schema_id": "Elevation0-9000","hist_area_km2": {"125": 0.29406,"150": 2.07942,"175": 2.77258,"200": 3.12968,"225": 3.17172,"250": 2.73064,"275": 2.26857,"300": 1.86947,"325": 2.98282,"350": 3.63401,"375": 1.19732,"400": 0.58815,"425": 0.27307,"450": 0.12603,"475": 0.04201,"500": 0.02101}}}