{"type": "Feature","bbox": [-82.92,8.6538,-82.8134,8.7915],"geometry": {"type": "MultiPolygon","coordinates": [[[[-82.859,8.6748,712.3909],[-82.8476,8.6664,613.0912],[-82.8387,8.6658,591.346],[-82.8241,8.6571,554.1807],[-82.8134,8.6538,345.1882],[-82.8169,8.6677,430.6066],[-82.8185,8.6689,404.2415],[-82.817,8.6723,540.5314],[-82.8178,8.6791,542.5338],[-82.8249,8.6883,484.3666],[-82.8291,8.6982,542.3894],[-82.8308,8.7047,538.8129],[-82.8296,8.7172,548.1223],[-82.8333,8.73,618.2324],[-82.8389,8.7387,662.4853],[-82.8382,8.7472,654.6663],[-82.8339,8.7526,621.9944],[-82.8319,8.7591,624.1022],[-82.8356,8.759,742.7912],[-82.847,8.7544,889.4106],[-82.868,8.7543,876.6339],[-82.8748,8.7654,1032.0144],[-82.8723,8.7737,1032.0675],[-82.8775,8.7778,1039.9852],[-82.889,8.7915,968.5253],[-82.8904,8.7859,999.8944],[-82.8949,8.7832,1022.078],[-82.8902,8.7788,1029.3884],[-82.8918,8.7726,1070.5764],[-82.8941,8.7713,1075.2103],[-82.8982,8.7745,1091.949],[-82.9004,8.773,1087.3723],[-82.906,8.7748,1118.1754],[-82.9096,8.7738,1102.8909],[-82.914,8.77,1151.884],[-82.9135,8.7672,1118.2406],[-82.9189,8.765,1153.9065],[-82.9156,8.7638,1112.7454],[-82.9148,8.7596,1152.6013],[-82.909,8.7589,1118.983],[-82.9088,8.7574,1118.2634],[-82.9157,8.7518,1132.1422],[-82.92,8.7517,1165.9044],[-82.9161,8.7417,1163.9792],[-82.9131,8.7409,1156.8671],[-82.909,8.7359,1124.8015],[-82.9064,8.7372,1116.5831],[-82.9044,8.7361,1124.3048],[-82.901,8.7308,1092.3254],[-82.9006,8.7228,1065.3276],[-82.897,8.7156,964.0042],[-82.887,8.7067,912.2679],[-82.8869,8.7048,910.4711],[-82.8811,8.6999,883.9617],[-82.8806,8.6973,890.2349],[-82.8704,8.6989,891.3657],[-82.8682,8.6977,865.2558],[-82.8656,8.6902,876.5529],[-82.8626,8.688,865.6415],[-82.8644,8.679,848.1141],[-82.8587,8.6762,772.2891],[-82.859,8.6748,712.3909]]]]}
,"properties": {"GID_3": "PAN.2.10.2_1","GID_0": "PAN","country": "Panama","GID_1": "PAN.2_1","province": "Chiriquí","NL_NAME_1": "NA","GID_2": "PAN.2.10_1","county": "Renacimiento","NL_NAME_2": "NA","city": "CañasGordas","VARNAME_3": "NA","NL_NAME_3": "NA","TYPE_3": "Corregimiento","ENGTYPE_3": "Municipality","CC_3": "NA","HASC_3": "NA","name": "Cañas_Gordas.city","area_km2": 76.82814,"hist_schema_id": "Elevation0-9000","hist_area_km2": {"350": 0.1048,"375": 0.69168,"400": 0.41919,"425": 0.90126,"450": 1.13181,"475": 1.21564,"500": 1.73956,"525": 1.73954,"550": 1.86529,"575": 3.10181,"600": 3.68867,"625": 2.53588,"650": 2.49395,"675": 2.64064,"700": 2.24244,"725": 1.78136,"750": 1.92806,"775": 2.1167,"800": 2.87116,"825": 2.57777,"850": 2.87117,"875": 3.12264,"900": 3.03884,"925": 1.5508,"950": 1.65556,"975": 2.0537,"1000": 3.10141,"1025": 5.30172,"1050": 5.38552,"1075": 4.37964,"1100": 3.0385,"1125": 2.3889,"1150": 1.08969,"1175": 0.06287}}}