{"type":"Feature","properties":{"GID_3":"PAN.3.5.4_1","GID_0":"PAN","country":"Panama","GID_1":"PAN.3_1","province":"Coclé","NL_NAME_1":"NA","GID_2":"PAN.3.5_1","county":"Olá","NL_NAME_2":"NA","city":"LaPava","VARNAME_3":"NA","NL_NAME_3":"NA","TYPE_3":"Corregimiento","ENGTYPE_3":"Municipality","CC_3":"NA","HASC_3":"NA","name":"La_Pava.city"},
"geometry":{"type": "MultiPolygon","coordinates": [[[[-80.5873,8.5002,267.0742],[-80.5852,8.5133,148.6597],[-80.5857,8.5222,131.2005],[-80.6119,8.5472,421.7356],[-80.6205,8.5454,382.7018],[-80.6231,8.5291,431.8095],[-80.6292,8.5286,442.9574],[-80.6364,8.5205,571.9667],[-80.6337,8.506,531.7878],[-80.6344,8.4878,525.9703],[-80.6321,8.4757,423.9362],[-80.6243,8.456,79.885],[-80.6149,8.4503,59.9392],[-80.61,8.452,107.3667],[-80.6087,8.4509,90.3289],[-80.6083,8.4396,79.9814],[-80.6051,8.4262,115.4765],[-80.6059,8.414,94.4155],[-80.5994,8.4078,62.0529],[-80.5914,8.4037,89.8524],[-80.5788,8.4054,43.5758],[-80.5782,8.41,34.5139],[-80.5603,8.4409,50.93],[-80.562,8.4473,96.5903],[-80.5705,8.4548,46.5071],[-80.5758,8.4651,82.5767],[-80.5745,8.4758,373.2638],[-80.5766,8.486,326.1317],[-80.5784,8.4877,256.5536],[-80.5851,8.4868,293.5592],[-80.5873,8.5002,267.0742]]]]}}