{"type": "Feature","bbox": [-79.4759,9.0087,-79.3937,9.0708],"geometry": {"type": "MultiPolygon","coordinates": [[[[-79.4656,9.0087,1.2051],[-79.4451,9.0126,13.0611],[-79.4371,9.0182,5.732],[-79.4332,9.0126,3.3212],[-79.4313,9.0149,11.3218],[-79.4076,9.0163,2.0145],[-79.406,9.0179,2.2164],[-79.4007,9.016,0.0],[-79.4015,9.0199,15.7082],[-79.3993,9.024,14.4214],[-79.3941,9.0218,4.8803],[-79.3937,9.0279,13.2133],[-79.397,9.039,9.4037],[-79.3962,9.0494,11.1625],[-79.4134,9.0708,26.1786],[-79.4205,9.0629,36.5407],[-79.4384,9.0545,12.0756],[-79.4551,9.0526,17.8384],[-79.4604,9.0476,13.341],[-79.4667,9.0445,34.045],[-79.4732,9.0371,15.5826],[-79.4759,9.0275,10.1971],[-79.4693,9.027,7.8337],[-79.4623,9.022,9.7207],[-79.4614,9.0197,8.9592],[-79.4656,9.0087,1.2051]]]]}
,"properties": {"GID_3": "PAN.12.6.7_1","GID_0": "PAN","country": "Panama","GID_1": "PAN.12_1","province": "Panamá","NL_NAME_1": "NA","GID_2": "PAN.12.6_1","county": "Panamá","NL_NAME_2": "NA","city": "JuanDíaz","VARNAME_3": "NA","NL_NAME_3": "NA","TYPE_3": "Corregimiento","ENGTYPE_3": "Municipality","CC_3": "NA","HASC_3": "NA","name": "Juan_Díaz.city","area_km2": 37.16684,"hist_schema_id": "Elevation0-9000","hist_area_km2": {"0": 24.45701,"25": 12.70983}}}