{"type":"Feature","properties":{"GID_3":"PAN.13.11.8_1","GID_0":"PAN","country":"Panama","GID_1":"PAN.13_1","province":"Veraguas","NL_NAME_1":"NA","GID_2":"PAN.13.11_1","county":"Soná","NL_NAME_2":"NA","city":"RíoGrande","VARNAME_3":"NA","NL_NAME_3":"NA","TYPE_3":"Corregimiento","ENGTYPE_3":"Municipality","CC_3":"NA","HASC_3":"NA","name":"Río_Grande.city"},
"geometry":{"type": "MultiPolygon","coordinates": [[[[-81.3432,7.6507,0.0],[-81.3493,7.651,0.0],[-81.3526,7.649,0.0],[-81.356,7.6493,0.0],[-81.356,7.6479,0.0],[-81.3518,7.6465,0.0],[-81.3443,7.6476,14.1912],[-81.3432,7.6507,0.0]]],
[[[-81.3704,7.6568,8.1579],[-81.3701,7.6582,0.0],[-81.3746,7.6576,0.0],[-81.3737,7.656,15.5538],[-81.3704,7.6568,8.1579]]],
[[[-81.3801,7.6709,0.0],[-81.3854,7.6713,0.0],[-81.3849,7.6693,0.0],[-81.3812,7.6704,0.0],[-81.3815,7.6682,0.0],[-81.3801,7.6685,0.0],[-81.3801,7.6709,0.0]]],
[[[-81.2763,7.6254,29.2504],[-81.2793,7.6257,0.0],[-81.279,7.6232,0.0],[-81.2743,7.6187,0.0],[-81.2715,7.6182,0.0],[-81.2712,7.6218,5.318],[-81.2763,7.6254,29.2504]]],
[[[-81.4054,7.6757,55.7982],[-81.4053,7.6735,0.0],[-81.4013,7.6729,14.0088],[-81.3962,7.6762,0.0],[-81.3979,7.6774,5.9584],[-81.3974,7.6807,0.0],[-81.399,7.6804,21.826],[-81.3985,7.6829,1.8262],[-81.3949,7.6832,7.2072],[-81.3935,7.6815,0.0],[-81.3901,7.6824,13.7309],[-81.3901,7.6793,8.6951],[-81.3863,7.6757,22.2953],[-81.3771,7.671,0.0],[-81.3768,7.6668,0.0],[-81.3737,7.6704,0.0],[-81.3704,7.6688,6.5125],[-81.3671,7.6701,0.0],[-81.3649,7.6671,9.5958],[-81.3599,7.669,40.4779],[-81.3565,7.6651,0.0],[-81.3496,7.6643,20.1606],[-81.3374,7.6576,0.0],[-81.334,7.6601,0.0],[-81.3304,7.6579,2.8264],[-81.3199,7.6562,13.1028],[-81.319,7.6537,0.0],[-81.3135,7.6499,0.0],[-81.311,7.6499,0.0],[-81.309,7.6518,6.4885],[-81.3129,7.6543,47.65],[-81.3129,7.656,17.7596],[-81.3107,7.6588,13.1724],[-81.3087,7.6588,9.7992],[-81.3099,7.6618,1.5703],[-81.3079,7.666,2.2935],[-81.3063,7.6643,2.2147],[-81.3065,7.6621,2.1926],[-81.2976,7.6599,2.2139],[-81.2943,7.6574,14.0408],[-81.2937,7.6551,19.0944],[-81.296,7.6543,7.4016],[-81.2951,7.6524,3.8974],[-81.2924,7.6535,0.0],[-81.289,7.6521,7.7918],[-81.2899,7.6479,0.0],[-81.2862,7.6437,0.0],[-81.284,7.644,8.8805],[-81.281,7.6413,3.6048],[-81.2804,7.6396,4.0422],[-81.2832,7.6374,8.4925],[-81.2782,7.6326,0.0],[-81.2718,7.6318,0.0],[-81.2615,7.6346,6.0642],[-81.2571,7.6274,9.6052],[-81.2535,7.6274,12.871],[-81.2501,7.6251,0.0],[-81.2462,7.6282,5.5197],[-81.2387,7.6215,0.0],[-81.2376,7.6179,6.2961],[-81.239,7.6157,0.0],[-81.2273,7.6076,2.3528],[-81.216,7.616,0.0],[-81.216,7.6193,3.0414],[-81.2085,7.6229,6.3249],[-81.2085,7.6249,15.5979],[-81.2032,7.631,0.0],[-81.2032,7.6385,1.6513],[-81.1974,7.6524,0.0],[-81.2007,7.6537,12.938],[-81.2032,7.6632,0.0],[-81.206,7.6643,4.6388],[-81.2093,7.669,7.3734],[-81.194,7.6977,2.4847],[-81.1946,7.711,0.0],[-81.199,7.7149,0.0],[-81.2038,7.7149,0.0],[-81.2099,7.7096,0.0],[-81.2154,7.7093,0.0],[-81.2171,7.7065,13.3452],[-81.2157,7.7107,0.0],[-81.2199,7.7124,0.0],[-81.2254,7.7087,3.7624],[-81.2235,7.7057,6.1763],[-81.226,7.7046,4.0127],[-81.2279,7.6988,0.6463],[-81.2296,7.7015,0.0],[-81.2268,7.7057,0.0],[-81.231,7.7032,0.9233],[-81.231,7.6996,3.5329],[-81.2332,7.7015,0.0],[-81.2343,7.6993,0.6725],[-81.2343,7.7032,0.0],[-81.236,7.7051,4.3171],[-81.2674,7.7374,1.2882],[-81.2739,7.7408,4.9314],[-81.2835,7.758,10.5936],[-81.2921,7.7663,15.7025],[-81.3227,7.7561,20.5864],[-81.335,7.7487,64.9397],[-81.3478,7.7442,266.6273],[-81.3575,7.7454,421.847],[-81.3663,7.7527,458.7563],[-81.3786,7.7545,517.4422],[-81.3888,7.7582,511.3498],[-81.3972,7.7579,556.5413],[-81.4142,7.749,456.8684],[-81.4245,7.7484,343.5486],[-81.4192,7.7366,425.4185],[-81.4178,7.7295,302.325],[-81.4192,7.723,338.3778],[-81.4251,7.7154,295.1896],[-81.4255,7.7113,268.2679],[-81.418,7.6947,185.3756],[-81.4064,7.6821,141.8017],[-81.4054,7.6757,55.7982]]],
[[[-81.2046,7.7199,1.5208],[-81.2082,7.7199,0.0],[-81.2149,7.7132,1.5918],[-81.2107,7.711,3.7263],[-81.2029,7.7171,0.0],[-81.2029,7.719,0.0],[-81.2046,7.7199,1.5208]]]]}}