{"type":"Feature","properties":{"GID_3":"PAN.9.4.10_1","GID_0":"PAN","country":"Panama","GID_1":"PAN.9_1","province":"LosSantos","NL_NAME_1":"NA","GID_2":"PAN.9.4_1","county":"Macaracas","NL_NAME_2":"NA","city":"Macaracas","VARNAME_3":"NA","NL_NAME_3":"NA","TYPE_3":"Corregimiento","ENGTYPE_3":"Municipality","CC_3":"NA","HASC_3":"NA","name":"Macaracas.city"},
"geometry":{"type": "MultiPolygon","coordinates": [[[[-80.5858,7.6612,120.5952],[-80.57,7.6767,152.6499],[-80.5667,7.6817,134.7715],[-80.5583,7.6813,123.1282],[-80.5466,7.6884,114.3541],[-80.5444,7.6869,108.5934],[-80.5368,7.6692,190.8452],[-80.5347,7.66,234.4646],[-80.5269,7.6724,273.9299],[-80.5255,7.679,160.639],[-80.5322,7.688,119.9607],[-80.5378,7.699,111.8192],[-80.5381,7.705,95.0506],[-80.5357,7.7125,99.8928],[-80.5321,7.7145,94.2403],[-80.5255,7.7084,98.8014],[-80.5201,7.7062,117.2072],[-80.5121,7.7101,100.1594],[-80.5046,7.708,113.1799],[-80.4969,7.711,184.5172],[-80.4843,7.7195,188.256],[-80.4847,7.7268,178.8311],[-80.4931,7.7344,214.3531],[-80.5065,7.7395,183.8221],[-80.5236,7.735,85.1488],[-80.5349,7.7286,76.1618],[-80.5394,7.7324,97.0566],[-80.5454,7.7342,92.3464],[-80.5583,7.7285,77.1427],[-80.5729,7.7279,156.094],[-80.5662,7.7192,192.3043],[-80.5636,7.7123,85.9077],[-80.5639,7.7056,122.2391],[-80.5676,7.6977,184.4651],[-80.5687,7.6893,147.6137],[-80.5763,7.6863,114.9746],[-80.5784,7.6763,115.3434],[-80.5858,7.6612,120.5952]]]]}}