{"type":"Feature","properties":{"GID_3":"PAN.3.6.5_1","GID_0":"PAN","country":"Panama","GID_1":"PAN.3_1","province":"Coclé","NL_NAME_1":"NA","GID_2":"PAN.3.6_1","county":"Penonomé","NL_NAME_2":"NA","city":"Pajonal","VARNAME_3":"NA","NL_NAME_3":"NA","TYPE_3":"Corregimiento","ENGTYPE_3":"Municipality","CC_3":"NA","HASC_3":"NA","name":"Pajonal.city"},
"geometry":{"type": "MultiPolygon","coordinates": [[[[-80.1518,8.5988,677.2626],[-80.1596,8.607,730.3339],[-80.1687,8.61,665.9661],[-80.17,8.6182,738.4965],[-80.1719,8.6203,813.739],[-80.1926,8.6124,372.3847],[-80.206,8.6141,327.7434],[-80.2142,8.6194,305.8831],[-80.2261,8.6187,274.6515],[-80.2292,8.6264,253.7345],[-80.2285,8.6288,292.4457],[-80.2106,8.6337,325.4054],[-80.2062,8.6371,285.6523],[-80.2045,8.6407,345.645],[-80.2063,8.6433,341.9019],[-80.2109,8.6451,377.3468],[-80.224,8.667,286.3549],[-80.2335,8.6727,291.8848],[-80.2347,8.6601,286.4795],[-80.2531,8.6383,249.8224],[-80.2636,8.6298,270.4873],[-80.2653,8.621,250.7702],[-80.26,8.6141,213.4815],[-80.2608,8.6115,194.2002],[-80.2717,8.603,200.5648],[-80.2748,8.5972,195.9539],[-80.279,8.5951,215.4086],[-80.2904,8.5927,253.1332],[-80.2991,8.5965,249.5259],[-80.3156,8.5982,301.8124],[-80.3234,8.5848,369.9313],[-80.3314,8.5625,182.5412],[-80.3371,8.5556,190.0267],[-80.3388,8.5487,79.6445],[-80.3319,8.5376,213.1818],[-80.3235,8.5309,297.1119],[-80.3246,8.5236,216.9556],[-80.3217,8.5245,227.1961],[-80.3216,8.526,251.3116],[-80.3173,8.529,161.4561],[-80.3146,8.5288,222.0153],[-80.2969,8.5058,80.0416],[-80.2848,8.5155,158.9026],[-80.2827,8.5197,176.6886],[-80.2765,8.5238,146.9368],[-80.2765,8.5325,124.6427],[-80.2747,8.5382,130.6603],[-80.271,8.5395,140.5042],[-80.2635,8.5389,163.6153],[-80.2544,8.535,173.9707],[-80.2472,8.5388,197.4814],[-80.2443,8.5379,198.0259],[-80.2429,8.5394,189.8568],[-80.2436,8.5415,187.1464],[-80.2343,8.5461,228.9528],[-80.227,8.5565,241.0243],[-80.2181,8.5583,283.8309],[-80.2021,8.5664,354.0916],[-80.1957,8.567,370.2245],[-80.1858,8.5714,412.0775],[-80.1831,8.5748,401.157],[-80.1783,8.5958,560.2705],[-80.1757,8.5995,539.7861],[-80.1644,8.5979,684.8107],[-80.1518,8.5988,677.2626]]]]}}