{"type": "Feature","bbox": [-80.3978,7.568,-80.3215,7.6472],"geometry": {"type": "MultiPolygon","coordinates": [[[[-80.3811,7.568,510.8474],[-80.371,7.5706,380.6609],[-80.3385,7.5856,176.1041],[-80.3288,7.5845,201.7849],[-80.3215,7.587,208.4773],[-80.3224,7.5998,186.6835],[-80.3259,7.6045,162.6333],[-80.3263,7.6081,193.7421],[-80.3315,7.6121,199.7495],[-80.3393,7.6144,187.7024],[-80.3418,7.6239,205.0103],[-80.339,7.6316,383.1752],[-80.3621,7.6472,413.8575],[-80.3732,7.6416,276.2108],[-80.3776,7.6358,248.9901],[-80.3769,7.6228,220.3929],[-80.3746,7.6182,338.8117],[-80.3734,7.6044,238.9259],[-80.3817,7.6015,334.2433],[-80.3867,7.6027,320.5071],[-80.3908,7.6013,333.7801],[-80.3919,7.5835,266.9109],[-80.3978,7.5757,496.2281],[-80.3959,7.5732,471.9866],[-80.3811,7.568,510.8474]]]]}
,"properties": {"GID_3": "PAN.9.2.23_1","GID_0": "PAN","country": "Panama","GID_1": "PAN.9_1","province": "LosSantos","NL_NAME_1": "NA","GID_2": "PAN.9.2_1","county": "LasTablas","NL_NAME_2": "NA","city": "ValleRico","VARNAME_3": "NA","NL_NAME_3": "NA","TYPE_3": "Corregimiento","ENGTYPE_3": "Municipality","CC_3": "NA","HASC_3": "NA","name": "Valle_Rico.city","area_km2": 40.20319,"hist_schema_id": "Elevation0-9000","hist_area_km2": {"125": 0.04203,"150": 0.88269,"175": 2.87919,"200": 7.01922,"225": 7.96495,"250": 6.36767,"275": 4.62341,"300": 3.5937,"325": 2.22771,"350": 1.9755,"375": 0.65152,"400": 0.54643,"425": 0.31525,"450": 0.23119,"475": 0.54645,"500": 0.23119,"525": 0.10509}}}