{"type": "Feature","bbox": [-80.7383,7.2274,-80.2058,7.5384],"geometry": {"type": "MultiPolygon","coordinates": [[[[-80.441,7.2415,30.5137],[-80.439,7.2426,73.2273],[-80.4368,7.2415,31.7621],[-80.4365,7.2432,104.6796],[-80.4343,7.2437,5.535],[-80.4343,7.2457,157.2455],[-80.4307,7.2437,0.0],[-80.431,7.2474,98.4038],[-80.4285,7.2496,74.5826],[-80.4265,7.249,22.2152],[-80.426,7.2529,21.38],[-80.4282,7.254,42.2887],[-80.4265,7.2543,0.0],[-80.4274,7.2562,0.0],[-80.4235,7.2574,4.0525],[-80.4199,7.2613,20.2],[-80.4207,7.2635,3.9322],[-80.4243,7.2649,4.1575],[-80.424,7.2693,5.4602],[-80.4207,7.2729,2.946],[-80.4093,7.274,0.0],[-80.3976,7.279,0.0],[-80.4001,7.2826,0.0],[-80.4004,7.2863,0.0],[-80.3921,7.3051,0.0],[-80.3749,7.3137,5.7008],[-80.351,7.3171,12.6856],[-80.3418,7.3199,15.5106],[-80.3493,7.3304,0.0],[-80.3549,7.334,3.9494],[-80.3515,7.3435,0.0],[-80.3526,7.349,0.0],[-80.3607,7.3515,4.8427],[-80.3624,7.354,1.8119],[-80.3676,7.3565,8.2192],[-80.3615,7.3574,0.0],[-80.3626,7.3612,0.0],[-80.3662,7.3629,0.0],[-80.3676,7.3621,0.0],[-80.3679,7.3668,1.5884],[-80.3604,7.3829,10.859],[-80.3607,7.3915,6.6118],[-80.366,7.3913,5.7837],[-80.3635,7.3929,11.7858],[-80.3599,7.3921,4.8185],[-80.3543,7.394,12.7922],[-80.3521,7.3957,20.4798],[-80.3524,7.3987,17.1685],[-80.3507,7.3976,6.022],[-80.351,7.3957,3.0],[-80.3551,7.3915,14.0489],[-80.3601,7.3904,3.0],[-80.3585,7.3807,2.0],[-80.3646,7.3654,0.0],[-80.3635,7.3643,0.0],[-80.3543,7.3763,0.6073],[-80.3538,7.379,2.6668],[-80.3474,7.3857,2.7215],[-80.339,7.3926,2.5823],[-80.3326,7.3957,3.4181],[-80.3226,7.4051,0.0],[-80.2968,7.4168,2.9951],[-80.2649,7.4224,1.6068],[-80.2601,7.426,1.3185],[-80.2626,7.4279,2.0061],[-80.2746,7.4274,0.5],[-80.286,7.4235,1.9101],[-80.2943,7.4185,1.6823],[-80.3024,7.4201,3.1374],[-80.3154,7.4162,5.4284],[-80.3171,7.4171,14.1814],[-80.3076,7.421,6.1631],[-80.2982,7.4221,6.1153],[-80.2901,7.4265,5.5717],[-80.2907,7.4282,7.3269],[-80.2887,7.4279,0.5],[-80.2874,7.4299,1.2183],[-80.2815,7.4301,0.5],[-80.2807,7.4332,1.8605],[-80.2726,7.4349,0.5],[-80.269,7.434,5.9066],[-80.2657,7.4307,1.7331],[-80.2643,7.434,6.2033],[-80.261,7.436,8.9415],[-80.2404,7.424,5.3767],[-80.2301,7.4249,0.0],[-80.2308,7.4264,6.937],[-80.2064,7.4505,118.0981],[-80.2058,7.4521,129.7301],[-80.2073,7.4535,129.7301],[-80.2498,7.4747,123.6107],[-80.2574,7.4803,80.7013],[-80.2563,7.4834,132.7155],[-80.2593,7.4899,163.4086],[-80.2557,7.4942,225.336],[-80.255,7.4991,238.8747],[-80.2605,7.5071,323.5701],[-80.2731,7.5138,399.5663],[-80.3197,7.511,379.7516],[-80.3246,7.506,420.9287],[-80.3403,7.4831,164.5139],[-80.3458,7.4721,115.82],[-80.3537,7.477,111.7167],[-80.3654,7.4942,243.1075],[-80.3665,7.5026,178.4625],[-80.3698,7.5079,230.1524],[-80.3686,7.5126,220.2114],[-80.37,7.5229,240.9085],[-80.3745,7.5349,460.49],[-80.3833,7.5361,393.6179],[-80.4294,7.5381,177.2583],[-80.5109,7.5361,363.1598],[-80.5198,7.5384,316.9037],[-80.6396,7.5159,237.5453],[-80.7346,7.5101,816.6859],[-80.7383,7.5003,666.1585],[-80.7382,7.4969,476.3464],[-80.735,7.4886,514.5442],[-80.7235,7.4707,812.3446],[-80.7245,7.4667,743.4656],[-80.7343,7.453,319.326],[-80.735,7.4473,218.1669],[-80.7325,7.4429,291.4618],[-80.7195,7.4327,370.0031],[-80.7084,7.4128,856.2882],[-80.7084,7.4099,848.9796],[-80.7145,7.4006,640.244],[-80.7176,7.3916,363.8619],[-80.7026,7.3826,378.8167],[-80.6861,7.3758,629.7599],[-80.6735,7.3598,1303.3882],[-80.6714,7.3548,1361.3669],[-80.6739,7.345,1208.7375],[-80.6712,7.334,1084.3572],[-80.672,7.3197,1257.1327],[-80.6617,7.305,690.5865],[-80.6492,7.2929,664.5126],[-80.6343,7.2863,795.3787],[-80.623,7.2845,424.4092],[-80.6189,7.2816,278.9106],[-80.6158,7.2718,97.6525],[-80.6147,7.2301,0.0],[-80.6135,7.2324,30.7734],[-80.6024,7.2301,0.0],[-80.6018,7.2329,8.6926],[-80.5974,7.2329,0.0],[-80.594,7.2357,34.4233],[-80.584,7.2326,32.6816],[-80.584,7.2296,2.6979],[-80.5804,7.2274,0.0],[-80.5635,7.2424,0.0],[-80.5457,7.2432,2.2177],[-80.5349,7.2415,2.8618],[-80.5279,7.2376,5.008],[-80.5212,7.2376,10.2753],[-80.5165,7.2451,34.4918],[-80.5126,7.2457,0.0],[-80.5118,7.2485,0.0],[-80.5076,7.251,9.8888],[-80.5015,7.2485,0.0],[-80.4946,7.2504,0.0],[-80.4846,7.2493,6.1175],[-80.4815,7.2474,0.0],[-80.4721,7.2482,3.5911],[-80.4671,7.2468,0.0],[-80.4668,7.2454,0.0],[-80.4563,7.2465,0.0],[-80.441,7.2415,30.5137]]]]}
,"properties": {"GID_2": "PAN.9.7_1","GID_0": "PAN","country": "Panama","GID_1": "PAN.9_1","province": "LosSantos","NL_NAME_1": "NA","county": "Tonosí","VARNAME_2": "NA","NL_NAME_2": "NA","TYPE_2": "Distrito","ENGTYPE_2": "District","CC_2": "NA","HASC_2": "PA.LS.TN","name": "Tonosí.county","area_km2": 1248.6753,"hist_schema_id": "Elevation0-9000","hist_area_km2": {"0": 125.3134,"25": 170.6038,"50": 77.0804,"75": 55.5918,"100": 55.674,"125": 51.6371,"150": 56.5978,"175": 56.7027,"200": 47.5359,"225": 44.1514,"250": 40.5353,"275": 36.3096,"300": 34.2285,"325": 34.544,"350": 30.5284,"375": 28.1313,"400": 26.2396,"425": 22.4554,"450": 20.4792,"475": 18.0823,"500": 16.0218,"525": 15.8326,"550": 15.2859,"575": 14.4448,"600": 14.0662,"625": 12.279,"650": 12.4051,"675": 11.1436,"700": 10.66,"725": 9.5878,"750": 9.3988,"775": 9.2095,"800": 7.8008,"825": 7.822,"850": 6.8967,"875": 6.1397,"900": 5.0884,"925": 4.5417,"950": 4.4786,"975": 3.6585,"1000": 3.3852,"1025": 2.9646,"1050": 1.9554,"1075": 1.7872,"1100": 1.6401,"1125": 1.6821,"1150": 1.2195,"1175": 0.9252,"1200": 0.6519,"1225": 0.6939,"1250": 0.736,"1275": 0.6308,"1300": 0.2944,"1325": 0.2734,"1350": 0.1472,"1375": 0.3154,"1400": 0.1262,"1425": 0.0631}}}