{"type":"Feature","properties":{"GID_3":"PAN.3.6.9_1","GID_0":"PAN","country":"Panama","GID_1":"PAN.3_1","province":"Coclé","NL_NAME_1":"NA","GID_2":"PAN.3.6_1","county":"Penonomé","NL_NAME_2":"NA","city":"Toabré","VARNAME_3":"NA","NL_NAME_3":"NA","TYPE_3":"Corregimiento","ENGTYPE_3":"Municipality","CC_3":"NA","HASC_3":"NA","name":"Toabré.city"},
"geometry":{"type": "MultiPolygon","coordinates": [[[[-80.1931,8.7835,223.4854],[-80.2073,8.788,229.6019],[-80.2152,8.7884,209.2165],[-80.219,8.7911,236.4185],[-80.221,8.7956,214.6674],[-80.2206,8.8067,181.9036],[-80.2243,8.8181,175.0626],[-80.233,8.831,197.8139],[-80.2417,8.8392,179.8772],[-80.2514,8.8454,158.7559],[-80.2604,8.8563,162.8223],[-80.2749,8.8588,194.2614],[-80.2798,8.8542,146.8564],[-80.2874,8.8525,149.5488],[-80.2923,8.846,141.0301],[-80.2949,8.8456,124.9502],[-80.3036,8.8536,142.2181],[-80.3115,8.8574,76.6541],[-80.3166,8.864,133.1434],[-80.3241,8.8669,83.3213],[-80.3302,8.8731,161.8939],[-80.3441,8.8744,65.0345],[-80.3528,8.8891,125.1908],[-80.3567,8.8897,137.8318],[-80.3652,8.8809,64.3921],[-80.3705,8.8598,131.586],[-80.3695,8.8472,60.3977],[-80.3733,8.8369,164.9576],[-80.367,8.8327,91.8182],[-80.3665,8.8294,91.5709],[-80.3676,8.8282,104.5944],[-80.3714,8.829,67.8904],[-80.3715,8.8237,116.7241],[-80.3815,8.8216,128.5889],[-80.3846,8.8168,98.1749],[-80.3854,8.8099,149.531],[-80.3793,8.8004,138.6522],[-80.3803,8.7907,237.2135],[-80.3744,8.7827,162.4032],[-80.3714,8.7818,191.1574],[-80.3603,8.7837,216.7847],[-80.3577,8.7749,162.8581],[-80.3511,8.7718,114.233],[-80.3487,8.7673,149.6052],[-80.3495,8.7541,293.0544],[-80.3522,8.7531,291.3092],[-80.3582,8.7547,119.5955],[-80.3602,8.7525,118.4594],[-80.3588,8.7478,123.9134],[-80.3526,8.7399,144.2225],[-80.3518,8.7268,204.4665],[-80.3556,8.7238,226.6004],[-80.3664,8.7224,226.075],[-80.3721,8.718,210.0188],[-80.3756,8.7121,223.1408],[-80.3732,8.705,284.799],[-80.3661,8.6977,560.8738],[-80.358,8.6735,437.1324],[-80.3544,8.6475,304.3642],[-80.3587,8.6389,512.2234],[-80.3587,8.626,554.2394],[-80.3542,8.6182,389.9901],[-80.3515,8.6012,203.2894],[-80.3523,8.5921,124.8798],[-80.3482,8.5798,142.1109],[-80.3378,8.581,297.3866],[-80.3309,8.5861,330.291],[-80.3234,8.5848,369.9313],[-80.318,8.5955,311.9012],[-80.3143,8.5987,305.4108],[-80.2991,8.5965,249.5259],[-80.2904,8.5927,253.1332],[-80.2775,8.5956,190.9621],[-80.2748,8.5972,195.9539],[-80.2717,8.603,200.5648],[-80.2603,8.6122,215.4871],[-80.2604,8.6149,213.4815],[-80.2649,8.6197,216.492],[-80.2651,8.6261,274.6386],[-80.263,8.6306,278.7346],[-80.2531,8.6383,249.8224],[-80.2341,8.6611,257.3056],[-80.2335,8.6727,291.8848],[-80.2413,8.6912,230.6481],[-80.2339,8.6941,191.6561],[-80.2269,8.7041,307.4847],[-80.2311,8.7111,241.9872],[-80.232,8.7166,182.9648],[-80.2418,8.7201,159.6845],[-80.2443,8.7233,161.4278],[-80.2442,8.7257,156.2017],[-80.2413,8.7283,171.7896],[-80.2346,8.7305,216.4226],[-80.2311,8.7351,209.2486],[-80.2343,8.7492,213.2705],[-80.23,8.7528,254.6914],[-80.2275,8.7668,249.7365],[-80.2198,8.7656,330.9843],[-80.2137,8.7681,334.3019],[-80.1931,8.7835,223.4854]]]]}}