{"type": "Feature","bbox": [-82.6287,8.4039,-82.528,8.4578],"geometry": {"type": "MultiPolygon","coordinates": [[[[-82.528,8.4098,24.3424],[-82.5307,8.4293,39.1762],[-82.5341,8.4373,49.9001],[-82.538,8.4421,61.6672],[-82.5885,8.4569,100.4263],[-82.6012,8.4561,100.9406],[-82.6214,8.4578,96.77],[-82.6272,8.4562,88.1877],[-82.6287,8.451,84.6438],[-82.6248,8.4493,82.0372],[-82.6175,8.4399,76.7458],[-82.6013,8.4326,70.3761],[-82.5889,8.4294,65.971],[-82.5843,8.4236,56.7965],[-82.5804,8.4132,47.4528],[-82.5735,8.4065,30.7769],[-82.5456,8.4039,41.3932],[-82.5346,8.4062,21.196],[-82.528,8.4098,24.3424]]]]}
,"properties": {"GID_3": "PAN.2.1.3_1","GID_0": "PAN","country": "Panama","GID_1": "PAN.2_1","province": "Chiriquí","NL_NAME_1": "NA","GID_2": "PAN.2.1_1","county": "Alanje","NL_NAME_2": "NA","city": "ElTejar","VARNAME_3": "NA","NL_NAME_3": "NA","TYPE_3": "Corregimiento","ENGTYPE_3": "Municipality","CC_3": "NA","HASC_3": "NA","name": "El_Tejar.city","area_km2": 37.73043,"hist_schema_id": "Elevation0-9000","hist_area_km2": {"25": 2.60078,"50": 14.15721,"75": 16.63125,"100": 4.34119}}}