{"type":"Feature","properties":{"GID_3":"PAN.9.1.6_1","GID_0":"PAN","country":"Panama","GID_1":"PAN.9_1","province":"LosSantos","NL_NAME_1":"NA","GID_2":"PAN.9.1_1","county":"Guararé","NL_NAME_2":"NA","city":"LaEnea","VARNAME_3":"NA","NL_NAME_3":"NA","TYPE_3":"Corregimiento","ENGTYPE_3":"Municipality","CC_3":"NA","HASC_3":"NA","name":"La_Enea.city"},
"geometry":{"type": "MultiPolygon","coordinates": [[[[-80.2884,7.8437,4.8585],[-80.2773,7.828,29.9617],[-80.2758,7.8212,37.0972],[-80.2736,7.8192,37.3684],[-80.2633,7.82,15.3199],[-80.2576,7.8166,10.171],[-80.2536,7.8175,22.8758],[-80.2448,7.8249,7.6864],[-80.2388,7.834,0.0],[-80.2418,7.8337,8.0797],[-80.2615,7.8465,14.965],[-80.2693,7.8576,0.0],[-80.281,7.8657,0.0],[-80.2847,7.851,3.1264],[-80.2884,7.8437,4.8585]]]]}}