{"type": "Feature","bbox": [-80.4733,8.4653,-80.363,8.563],"geometry": {"type": "MultiPolygon","coordinates": [[[[-80.4733,8.5112,479.3756],[-80.4689,8.5016,208.9904],[-80.4565,8.4853,62.031],[-80.4517,8.4832,63.3774],[-80.441,8.4837,117.7063],[-80.4353,8.481,22.0634],[-80.4318,8.4752,24.8381],[-80.4315,8.4683,27.2783],[-80.427,8.4653,35.3533],[-80.4158,8.4715,40.3212],[-80.4055,8.4744,47.6566],[-80.4025,8.4729,44.9368],[-80.3953,8.4824,51.2534],[-80.3943,8.4952,44.1464],[-80.3881,8.5072,56.1149],[-80.3837,8.5114,69.0616],[-80.3762,8.5127,65.5845],[-80.3723,8.5084,73.4158],[-80.3706,8.5087,73.4158],[-80.3666,8.5113,79.0996],[-80.363,8.5184,81.3897],[-80.3661,8.5263,69.6618],[-80.3774,8.5376,119.5954],[-80.3863,8.5303,69.8936],[-80.3933,8.5314,68.4838],[-80.3932,8.5346,70.0343],[-80.3876,8.5398,61.4245],[-80.3867,8.5446,79.249],[-80.3876,8.5482,85.3668],[-80.3911,8.5504,170.4583],[-80.3933,8.5566,217.0309],[-80.3985,8.563,254.3374],[-80.4068,8.5578,200.3202],[-80.4112,8.5579,190.393],[-80.4199,8.5613,164.9073],[-80.4356,8.5556,56.8749],[-80.4372,8.5462,53.5127],[-80.4434,8.5429,42.489],[-80.4453,8.5396,50.212],[-80.4364,8.5251,46.8381],[-80.4345,8.5172,40.4248],[-80.4357,8.5148,38.4191],[-80.4733,8.5112,479.3756]]]]}
,"properties": {"GID_3": "PAN.3.6.1_1","GID_0": "PAN","country": "Panama","GID_1": "PAN.3_1","province": "Coclé","NL_NAME_1": "NA","GID_2": "PAN.3.6_1","county": "Penonomé","NL_NAME_2": "NA","city": "Cañaveral","VARNAME_3": "NA","NL_NAME_3": "NA","TYPE_3": "Corregimiento","ENGTYPE_3": "Municipality","CC_3": "NA","HASC_3": "NA","name": "Cañaveral.city","area_km2": 65.86208,"hist_schema_id": "Elevation0-9000","hist_area_km2": {"25": 8.01051,"50": 32.77378,"75": 13.39854,"100": 3.12427,"125": 2.20164,"150": 1.86615,"175": 1.19517,"200": 0.81775,"225": 0.92259,"250": 0.31452,"275": 0.23065,"300": 0.27259,"325": 0.18872,"350": 0.06291,"375": 0.02097,"400": 0.06291,"425": 0.08388,"450": 0.02097,"475": 0.02097,"500": 0.04194,"525": 0.10484,"550": 0.02097,"575": 0.04194,"600": 0.04194,"625": 0.02097}}}