{"type": "Feature","bbox": [-81.746,8.2577,-81.7012,8.3404],"geometry": {"type": "MultiPolygon","coordinates": [[[[-81.729,8.2577,68.991],[-81.7194,8.2588,141.183],[-81.7155,8.2611,235.4916],[-81.7151,8.2675,206.4628],[-81.7192,8.2719,124.0525],[-81.72,8.2778,167.7385],[-81.7164,8.2829,229.5396],[-81.716,8.2899,309.7896],[-81.7114,8.2903,358.5241],[-81.7083,8.2942,375.5112],[-81.7061,8.2946,456.9767],[-81.7012,8.3131,416.131],[-81.7091,8.323,455.2277],[-81.7057,8.3326,434.3997],[-81.7139,8.3404,601.8336],[-81.7194,8.3397,447.8244],[-81.7241,8.3348,366.2559],[-81.7282,8.3106,160.2815],[-81.7265,8.2995,180.3341],[-81.7305,8.2796,225.7928],[-81.7333,8.2775,201.9372],[-81.7399,8.277,77.0092],[-81.7428,8.2662,176.4855],[-81.746,8.2618,233.0485],[-81.7448,8.2604,231.3411],[-81.7377,8.2627,160.7244],[-81.7356,8.2681,100.351],[-81.7316,8.2719,69.8713],[-81.7289,8.2662,72.0466],[-81.729,8.2577,68.991]]]]}
,"properties": {"GID_3": "PAN.10.5.12_1","GID_0": "PAN","country": "Panama","GID_1": "PAN.10_1","province": "NgöbeBuglé","NL_NAME_1": "NA","GID_2": "PAN.10.5_1","county": "Müna","NL_NAME_2": "NA","city": "Umani","VARNAME_3": "NA","NL_NAME_3": "NA","TYPE_3": "Corregimiento","ENGTYPE_3": "Municipality","CC_3": "NA","HASC_3": "NA","name": "Umani.city","area_km2": 18.60939,"hist_schema_id": "Elevation0-9000","hist_area_km2": {"50": 0.12589,"75": 0.75534,"100": 1.11203,"125": 1.36378,"150": 1.82534,"175": 1.95117,"200": 1.8043,"225": 1.72037,"250": 1.61545,"275": 0.86016,"300": 0.73428,"325": 0.62939,"350": 0.88114,"375": 0.69232,"400": 0.56643,"425": 0.41958,"450": 0.48252,"475": 0.27272,"500": 0.20978,"525": 0.1888,"550": 0.14685,"575": 0.14685,"600": 0.06293,"625": 0.02098,"650": 0.02098}}}