{"type": "Feature","bbox": [-81.0298,8.0267,-80.7258,8.1486],"geometry": {"type": "MultiPolygon","coordinates": [[[[-80.7941,8.0623,69.1648],[-80.7689,8.0734,45.0129],[-80.7537,8.0744,61.4011],[-80.7456,8.0863,50.7927],[-80.7355,8.089,47.1312],[-80.7322,8.0914,47.3356],[-80.7258,8.1122,35.3772],[-80.7523,8.1129,32.5663],[-80.77,8.1036,20.7],[-80.7824,8.1044,28.6429],[-80.8006,8.1107,28.0224],[-80.8245,8.125,41.0282],[-80.8403,8.1323,35.8799],[-80.8553,8.1386,38.2068],[-80.8642,8.1404,54.6098],[-80.8724,8.1366,44.8411],[-80.8738,8.1331,43.6517],[-80.8729,8.1316,39.1354],[-80.8517,8.1262,44.7815],[-80.8468,8.1217,29.3076],[-80.847,8.1169,33.2083],[-80.8515,8.1136,28.5946],[-80.8602,8.1111,38.9555],[-80.8805,8.1078,37.9506],[-80.886,8.1083,41.4147],[-80.9058,8.1133,56.3607],[-80.9155,8.1201,58.0019],[-80.9286,8.1261,83.2221],[-80.9363,8.1318,144.3923],[-80.9438,8.145,118.8433],[-80.9492,8.1482,76.1738],[-80.9532,8.1486,74.9944],[-80.9667,8.1395,86.9407],[-80.9762,8.1167,91.9417],[-80.9802,8.1116,72.4979],[-81.0206,8.09,95.7571],[-81.0298,8.0871,99.1942],[-81.0246,8.0594,87.0118],[-81.0243,8.0501,18.113],[-81.0213,8.044,33.0975],[-81.0168,8.0401,69.0883],[-81.0067,8.038,60.348],[-80.9791,8.0267,77.8752],[-80.9671,8.0424,71.8067],[-80.9653,8.0563,104.8762],[-80.951,8.0863,90.5242],[-80.9465,8.0887,80.3717],[-80.9416,8.086,88.5802],[-80.9293,8.0686,92.5944],[-80.9261,8.074,82.8854],[-80.9244,8.0878,77.0531],[-80.9198,8.0936,71.5856],[-80.9155,8.103,64.8541],[-80.9119,8.1004,51.7463],[-80.9066,8.0817,85.9564],[-80.8914,8.0902,54.0312],[-80.8633,8.0917,39.7844],[-80.8401,8.0796,40.6737],[-80.8245,8.0662,33.4244],[-80.8224,8.067,32.7895],[-80.818,8.065,38.827],[-80.8163,8.0676,37.7216],[-80.8111,8.0687,39.2453],[-80.8047,8.0627,45.1805],[-80.7979,8.0636,66.4917],[-80.7941,8.0623,69.1648]]]]}
,"properties": {"GID_3": "PAN.13.10.8_1","GID_0": "PAN","country": "Panama","GID_1": "PAN.13_1","province": "Veraguas","NL_NAME_1": "NA","GID_2": "PAN.13.10_1","county": "Santiago","NL_NAME_2": "NA","city": "Santiago","VARNAME_3": "NA","NL_NAME_3": "NA","TYPE_3": "Corregimiento","ENGTYPE_3": "Municipality","CC_3": "NA","HASC_3": "NA","name": "Santiago.city","area_km2": 167.4462,"hist_schema_id": "Elevation0-9000","hist_area_km2": {"25": 37.4058,"50": 59.9303,"75": 35.9794,"100": 28.4214,"125": 4.177,"150": 1.0915,"175": 0.3568,"200": 0.084}}}