{"type": "Feature","bbox": [-79.5395,8.9628,-79.5262,8.9754],"geometry": {"type": "MultiPolygon","coordinates": [[[[-79.5395,8.9628,8.939],[-79.5346,8.9641,4.1257],[-79.5287,8.971,5.4784],[-79.5316,8.9754,16.5572],[-79.5345,8.9686,9.6158],[-79.5395,8.9657,14.0873],[-79.5395,8.9628,8.939]]],
[[[-79.5262,8.97,2.0644],[-79.5279,8.9707,0.8174],[-79.5276,8.9693,3.4815],[-79.5262,8.97,2.0644]]]]}
,"properties": {"GID_3": "PAN.12.6.8_1","GID_0": "PAN","country": "Panama","GID_1": "PAN.12_1","province": "Panamá","NL_NAME_1": "NA","GID_2": "PAN.12.6_1","county": "Panamá","NL_NAME_2": "NA","city": "LaExposiciónoCalidonia","VARNAME_3": "NA","NL_NAME_3": "NA","TYPE_3": "Corregimiento","ENGTYPE_3": "Municipality","CC_3": "NA","HASC_3": "NA","name": "La_Exposicióno_Calidonia.city","area_km2": 0.6282893,"hist_schema_id": "Elevation0-9000","hist_area_km2": {"0": 0.5654612,"25": 0.0628282}}}