{"type": "Feature","bbox": [-79.2527,9.0342,-78.9075,9.2405],"geometry": {"type": "MultiPolygon","coordinates": [[[[-79.0207,9.2152,29.3094],[-79.0306,9.2162,38.6657],[-79.0488,9.2147,36.9509],[-79.0662,9.2082,40.4039],[-79.0789,9.1949,23.5306],[-79.0834,9.1824,20.2798],[-79.0865,9.1803,25.0808],[-79.0905,9.1822,24.6643],[-79.1001,9.1932,33.7011],[-79.104,9.2036,40.0122],[-79.1162,9.2252,334.5019],[-79.1234,9.2331,325.9487],[-79.1535,9.2405,249.5879],[-79.1709,9.2375,286.7693],[-79.187,9.2372,346.6433],[-79.2053,9.2289,206.8585],[-79.2116,9.2208,129.1265],[-79.2251,9.2116,113.2605],[-79.2337,9.2088,95.403],[-79.2377,9.2053,112.654],[-79.2414,9.1996,107.6962],[-79.2434,9.191,88.9024],[-79.2475,9.1862,77.7491],[-79.2524,9.1762,119.4396],[-79.2527,9.165,52.0657],[-79.2472,9.1536,46.4053],[-79.2418,9.1358,49.7811],[-79.2291,9.1264,35.1178],[-79.2095,9.123,27.4683],[-79.1938,9.1089,18.2379],[-79.1752,9.1034,11.113],[-79.1646,9.1079,8.9603],[-79.1591,9.1078,6.3762],[-79.1483,9.1007,8.6879],[-79.1474,9.0946,18.0597],[-79.1311,9.0942,25.1224],[-79.1208,9.0977,23.0487],[-79.0936,9.0934,0.5],[-79.0791,9.0947,3.0654],[-79.0608,9.0872,7.8538],[-79.0516,9.0759,44.5317],[-79.0396,9.0691,27.1551],[-79.0342,9.0621,52.2109],[-79.0307,9.0618,49.1356],[-79.0201,9.0662,58.2166],[-79.0112,9.0657,63.247],[-78.994,9.0527,136.8366],[-78.9681,9.0384,334.8636],[-78.9548,9.0378,139.4402],[-78.935,9.0428,307.3831],[-78.9218,9.0371,241.0693],[-78.9075,9.0342,319.6814],[-78.9161,9.0522,296.621],[-78.9295,9.0699,225.5354],[-78.9309,9.0794,296.7943],[-78.9288,9.0948,163.7112],[-78.9301,9.1054,113.4352],[-78.9328,9.1102,63.4923],[-78.9425,9.1164,44.5566],[-78.948,9.1238,28.8201],[-78.9493,9.1289,99.6709],[-78.9481,9.1389,35.1169],[-78.9491,9.1442,23.2208],[-78.9604,9.159,16.1915],[-78.9727,9.1636,10.5747],[-78.979,9.17,9.8506],[-78.9785,9.1769,21.8218],[-78.9641,9.1876,6.5402],[-78.9628,9.1899,16.6938],[-78.9639,9.1928,18.868],[-78.9706,9.1978,25.2094],[-78.9746,9.2049,7.6095],[-78.9791,9.209,82.5433],[-78.9907,9.2087,14.8632],[-79.0044,9.2136,18.2487],[-79.0207,9.2152,29.3094]]]]}
,"properties": {"GID_3": "PAN.12.2.3_1","GID_0": "PAN","country": "Panama","GID_1": "PAN.12_1","province": "Panamá","NL_NAME_1": "NA","GID_2": "PAN.12.2_1","county": "Chepo","NL_NAME_2": "NA","city": "Chepo","VARNAME_3": "NA","NL_NAME_3": "NA","TYPE_3": "Corregimiento","ENGTYPE_3": "Municipality","CC_3": "NA","HASC_3": "NA","name": "Chepo.city","area_km2": 477.6208,"hist_schema_id": "Elevation0-9000","hist_area_km2": {"0": 94.0122,"25": 153.9398,"50": 68.491,"75": 32.8219,"100": 18.9228,"125": 13.8991,"150": 12.6642,"175": 12.602,"200": 10.8223,"225": 9.7968,"250": 9.6713,"275": 8.0173,"300": 7.5566,"325": 4.877,"350": 4.2697,"375": 2.9301,"400": 2.6998,"425": 2.3859,"450": 2.3231,"475": 1.8208,"500": 1.2138,"525": 0.4604,"550": 0.4814,"575": 0.3558,"600": 0.3767,"625": 0.1884,"650": 0.0209}}}