{"type": "Feature","bbox": [-80.1751,8.3393,-80.0525,8.5216],"geometry": {"type": "MultiPolygon","coordinates": [[[[-80.1099,8.3549,0.0],[-80.1113,8.3549,0.0],[-80.1115,8.3518,0.0],[-80.1104,8.3521,0.0],[-80.1099,8.3549,0.0]]],
[[[-80.1367,8.4763,163.3632],[-80.1353,8.4708,120.5482],[-80.138,8.4494,91.6327],[-80.1421,8.4375,64.1979],[-80.1376,8.4158,47.1297],[-80.1321,8.4047,33.5927],[-80.1334,8.3978,50.4764],[-80.1382,8.3946,19.5014],[-80.1381,8.3915,23.5451],[-80.1401,8.3899,18.5694],[-80.1422,8.3915,16.2409],[-80.1396,8.3946,19.5014],[-80.1395,8.398,29.8533],[-80.143,8.402,26.8272],[-80.1513,8.4207,44.9348],[-80.1536,8.4376,61.1963],[-80.1603,8.4401,82.4597],[-80.1651,8.4388,65.8266],[-80.163,8.4307,73.5519],[-80.165,8.4153,48.01],[-80.1625,8.4069,47.408],[-80.1637,8.4019,54.5141],[-80.1738,8.3866,23.7449],[-80.171,8.3849,26.012],[-80.1698,8.3787,28.7896],[-80.1751,8.371,18.6719],[-80.1702,8.3557,14.7385],[-80.1692,8.3474,15.9238],[-80.1627,8.3393,2.0731],[-80.1496,8.3476,3.4082],[-80.1474,8.3507,8.3981],[-80.1432,8.3504,0.0],[-80.1415,8.3538,4.7807],[-80.1382,8.3543,5.7162],[-80.1265,8.3638,12.5384],[-80.1212,8.366,14.4383],[-80.119,8.3649,0.0],[-80.1065,8.3743,7.9644],[-80.0813,8.3876,1.9759],[-80.0746,8.3935,3.438],[-80.054,8.4041,32.6815],[-80.0525,8.4063,34.0995],[-80.058,8.415,35.0338],[-80.0644,8.416,50.2421],[-80.0688,8.4257,68.9445],[-80.0721,8.4283,67.7332],[-80.0742,8.4412,89.2955],[-80.0848,8.4554,107.6202],[-80.0907,8.4592,125.0353],[-80.0931,8.4671,153.2937],[-80.0979,8.4705,132.6598],[-80.1002,8.4803,166.204],[-80.0979,8.4943,172.0309],[-80.1143,8.5216,339.0427],[-80.1164,8.5205,346.9475],[-80.1149,8.5109,290.4449],[-80.1167,8.5055,273.739],[-80.1277,8.4965,230.1859],[-80.1307,8.4893,205.9137],[-80.1358,8.484,192.455],[-80.1367,8.4763,163.3632]]]]}
,"properties": {"GID_3": "PAN.3.2.8_1","GID_0": "PAN","country": "Panama","GID_1": "PAN.3_1","province": "Coclé","NL_NAME_1": "NA","GID_2": "PAN.3.2_1","county": "Antón","NL_NAME_2": "NA","city": "RíoHato","VARNAME_3": "NA","NL_NAME_3": "NA","TYPE_3": "Corregimiento","ENGTYPE_3": "Municipality","CC_3": "NA","HASC_3": "NA","name": "Río_Hato.city","area_km2": 118.54353,"hist_schema_id": "Elevation0-9000","hist_area_km2": {"0": 6.37696,"25": 35.34391,"50": 31.64994,"75": 14.95367,"100": 9.10185,"125": 6.03975,"150": 4.38289,"175": 3.3133,"200": 2.93578,"225": 1.74047,"250": 1.42591,"275": 0.75488,"300": 0.35647,"325": 0.14678,"350": 0.02097}}}