{"type":"Feature","properties":{"GID_3":"PAN.7.5.5_1","GID_0":"PAN","country":"Panama","GID_1":"PAN.7_1","province":"Herrera","NL_NAME_1":"NA","GID_2":"PAN.7.5_1","county":"Parita","NL_NAME_2":"NA","city":"Parita","VARNAME_3":"NA","NL_NAME_3":"NA","TYPE_3":"Corregimiento","ENGTYPE_3":"Municipality","CC_3":"NA","HASC_3":"NA","name":"Parita.city"},
"geometry":{"type": "MultiPolygon","coordinates": [[[[-80.4841,7.9805,6.4596],[-80.4855,7.9847,7.16],[-80.4769,7.996,4.0812],[-80.4763,7.9991,5.1255],[-80.4728,8.0022,3.2612],[-80.4696,8.0023,2.9682],[-80.4674,8.0076,34.8843],[-80.4629,8.0113,20.8674],[-80.459,8.0121,1.5],[-80.4615,8.0155,19.2892],[-80.4595,8.0178,18.1029],[-80.4582,8.0243,11.0435],[-80.4547,8.0226,11.6172],[-80.4546,8.0199,5.2631],[-80.4569,8.0166,6.2797],[-80.4539,8.0144,5.4222],[-80.4499,8.0176,4.4688],[-80.4465,8.0257,2.5003],[-80.4493,8.0276,5.6834],[-80.449,8.0307,2.316],[-80.4576,8.0393,6.4293],[-80.4651,8.051,19.6196],[-80.4696,8.076,0.0],[-80.4737,8.0774,3.0609],[-80.4807,8.084,0.0],[-80.4832,8.0846,7.3904],[-80.4854,8.0896,0.0],[-80.4978,8.0904,3.7294],[-80.5033,8.0859,20.1832],[-80.5047,8.0765,1.233],[-80.514,8.0648,6.2043],[-80.5128,8.0612,7.5893],[-80.5165,8.0567,6.2069],[-80.5162,8.0516,7.3699],[-80.5228,8.0482,10.7665],[-80.5286,8.0488,14.1447],[-80.5309,8.0399,19.1752],[-80.5357,8.0302,35.3269],[-80.5495,8.0263,33.9844],[-80.5558,8.0151,82.8234],[-80.5608,8.0153,75.2839],[-80.5768,8.0113,57.758],[-80.5748,8.0078,42.0535],[-80.5553,7.9961,46.265],[-80.5587,7.9777,24.7352],[-80.5575,7.9732,27.6924],[-80.5547,7.9711,26.0405],[-80.5586,7.9646,51.5011],[-80.574,7.9657,38.9949],[-80.5799,7.9646,32.4137],[-80.5738,7.9624,37.9295],[-80.5527,7.9474,44.4204],[-80.5033,7.9422,39.2836],[-80.4971,7.9704,12.1317],[-80.4908,7.9724,10.4259],[-80.4893,7.9785,4.1488],[-80.487,7.9783,4.7944],[-80.4841,7.9805,6.4596]]]]}}