{"type":"Feature","properties":{"GID_3":"PAN.11.7.3_1","GID_0":"PAN","country":"Panama","GID_1":"PAN.11_1","province":"PanamáOeste","NL_NAME_1":"NA","GID_2":"PAN.11.7_1","county":"Taboga","NL_NAME_2":"NA","city":"Taboga","VARNAME_3":"NA","NL_NAME_3":"NA","TYPE_3":"Corregimiento","ENGTYPE_3":"Municipality","CC_3":"NA","HASC_3":"NA","name":"Taboga.city"},
"geometry":{"type": "MultiPolygon","coordinates": [[[[-79.5774,8.7418,0.0],[-79.5801,8.7413,4.3555],[-79.5796,8.7374,0.0],[-79.5774,8.7332,0.0],[-79.5749,8.7335,0.0],[-79.5749,8.7413,0.0],[-79.5774,8.7418,0.0]]],
[[[-79.5518,8.8029,0.0676],[-79.5529,8.8035,0.0676],[-79.5535,8.8007,0.0],[-79.5565,8.7999,20.9937],[-79.5587,8.8026,3.5976],[-79.5663,8.8032,16.2644],[-79.5707,8.7979,0.0],[-79.5715,8.7865,0.0],[-79.5696,8.7857,0.0],[-79.5685,8.7821,0.0],[-79.566,8.7812,0.0],[-79.564,8.7826,0.0],[-79.5618,8.7799,0.0],[-79.5554,8.7799,0.0],[-79.5554,8.7818,0.0],[-79.5512,8.7812,40.4852],[-79.5496,8.774,0.7668],[-79.5457,8.7743,0.0],[-79.5449,8.7757,3.4633],[-79.5435,8.7743,0.0],[-79.5407,8.7774,0.0],[-79.5415,8.7851,0.0],[-79.5457,8.7882,76.5577],[-79.549,8.7868,55.7286],[-79.5551,8.7951,7.9809],[-79.5549,8.7993,0.0],[-79.5515,8.8001,0.0],[-79.5518,8.8029,0.0676]]],
[[[-79.6068,8.8137,0.0],[-79.6062,8.8149,2.2311],[-79.6062,8.8162,5.5731],[-79.6085,8.814,7.6443],[-79.6068,8.8137,0.0]]],
[[[-79.534,8.7804,67.1897],[-79.5368,8.781,23.538],[-79.5382,8.7788,3.1819],[-79.5362,8.7688,0.0],[-79.531,8.7746,0.0],[-79.534,8.7804,67.1897]]],
[[[-79.5104,8.8129,42.3994],[-79.5113,8.8146,20.6374],[-79.5154,8.8121,28.9021],[-79.5204,8.806,45.8781],[-79.5226,8.8054,4.1608],[-79.5218,8.8021,28.7856],[-79.5243,8.8004,0.0],[-79.524,8.799,0.0],[-79.5193,8.8021,12.3481],[-79.5165,8.801,0.0],[-79.5165,8.7988,0.0],[-79.5149,8.8013,0.0],[-79.5118,8.8013,0.0],[-79.509,8.8082,7.6736],[-79.5104,8.8129,42.3994]]]]}}