{"type":"Feature","properties":{"GID_3":"PAN.10.2.4_1","GID_0":"PAN","country":"Panama","GID_1":"PAN.10_1","province":"NgöbeBuglé","NL_NAME_1":"NA","GID_2":"PAN.10.2_1","county":"Kankintú","NL_NAME_2":"NA","city":"Guoroní","VARNAME_3":"NA","NL_NAME_3":"NA","TYPE_3":"Corregimiento","ENGTYPE_3":"Municipality","CC_3":"NA","HASC_3":"NA","name":"Guoroní.city"},
"geometry":{"type": "MultiPolygon","coordinates": [[[[-81.8558,8.6726,1653.1562],[-81.8211,8.6602,687.0895],[-81.7501,8.6413,384.2498],[-81.7379,8.6409,378.3828],[-81.7281,8.6431,709.332],[-81.722,8.6409,709.385],[-81.6949,8.6201,795.983],[-81.693,8.6148,741.3118],[-81.6932,8.6056,871.6138],[-81.6889,8.5968,1094.4672],[-81.6916,8.5805,1636.9198],[-81.6692,8.5745,1368.6965],[-81.6649,8.57,1677.282],[-81.6604,8.5605,1862.4854],[-81.6389,8.5747,1538.8855],[-81.6329,8.5741,1776.2546],[-81.6254,8.583,1651.2729],[-81.6223,8.5965,1571.0033],[-81.6149,8.6066,1466.7689],[-81.6206,8.6115,1281.9272],[-81.6215,8.6257,991.6068],[-81.6237,8.6329,945.502],[-81.623,8.6452,997.7535],[-81.6163,8.6599,795.3717],[-81.6163,8.6716,654.0782],[-81.618,8.6771,632.9234],[-81.638,8.7021,779.618],[-81.6607,8.7196,1002.1199],[-81.6682,8.7224,890.6054],[-81.6815,8.7466,837.7588],[-81.6819,8.7503,763.703],[-81.679,8.7559,623.2546],[-81.6809,8.7601,619.4145],[-81.6873,8.7624,969.8716],[-81.7012,8.7623,703.5817],[-81.7107,8.7653,572.4597],[-81.7184,8.7712,319.3765],[-81.7201,8.7814,563.752],[-81.7336,8.7876,246.4277],[-81.7345,8.8013,246.8393],[-81.7397,8.8167,341.4093],[-81.7408,8.8278,174.3801],[-81.747,8.8329,233.5131],[-81.7491,8.8334,281.3138],[-81.7493,8.8243,387.1143],[-81.7533,8.8183,329.9509],[-81.7598,8.8148,376.3845],[-81.7885,8.8063,67.3046],[-81.8536,8.7512,1122.7301],[-81.8548,8.7464,1221.1858],[-81.8531,8.6781,1508.1182],[-81.8558,8.6726,1653.1562]]]]}}