{"type":"Feature","properties":{"GID_3":"PAN.13.2.11_1","GID_0":"PAN","country":"Panama","GID_1":"PAN.13_1","province":"Veraguas","NL_NAME_1":"NA","GID_2":"PAN.13.2_1","county":"Calobre","NL_NAME_2":"NA","city":"Monjarás","VARNAME_3":"NA","NL_NAME_3":"NA","TYPE_3":"Corregimiento","ENGTYPE_3":"Municipality","CC_3":"NA","HASC_3":"NA","name":"Monjarás.city"},
"geometry":{"type": "MultiPolygon","coordinates": [[[[-80.8328,8.3455,184.7737],[-80.8284,8.3571,207.5952],[-80.8237,8.3779,222.851],[-80.8279,8.3956,305.4627],[-80.8267,8.412,461.4818],[-80.8191,8.4299,920.1542],[-80.8332,8.422,738.7036],[-80.8407,8.415,584.0693],[-80.8487,8.3906,233.7804],[-80.8523,8.3918,340.1271],[-80.864,8.405,327.9964],[-80.8667,8.404,467.4326],[-80.8716,8.3964,524.4165],[-80.8754,8.3962,561.4739],[-80.8808,8.3912,646.8556],[-80.8821,8.3548,264.7671],[-80.8792,8.3457,302.754],[-80.8328,8.3455,184.7737]]]]}}