{"type": "Feature","bbox": [-80.1704,8.4013,-79.509,9.1903],"geometry": {"type": "MultiPolygon","coordinates": [[[[-80.0931,8.5114,263.147],[-80.0998,8.4851,191.819],[-80.0981,8.4709,132.6598],[-80.0931,8.4671,153.2937],[-80.0907,8.4592,125.0353],[-80.0848,8.4554,107.6202],[-80.0742,8.4412,89.2955],[-80.0721,8.4283,67.7332],[-80.0688,8.4257,68.9445],[-80.0644,8.416,50.2421],[-80.0584,8.4153,35.0338],[-80.0565,8.4108,44.5664],[-80.0528,8.4078,38.3486],[-80.0535,8.4045,32.6815],[-80.0597,8.4013,20.5027],[-80.0585,8.4013,0.0],[-80.0518,8.4049,20.9833],[-80.046,8.406,6.2717],[-80.0399,8.4124,18.9317],[-80.021,8.4213,10.5821],[-79.9932,8.4418,0.0],[-79.9785,8.449,17.2418],[-79.9757,8.449,5.7162],[-79.9704,8.456,5.819],[-79.9582,8.4626,0.0],[-79.9568,8.4663,18.7999],[-79.9512,8.4676,0.0],[-79.9524,8.4707,1.1152],[-79.9504,8.4793,0.0],[-79.9432,8.4929,6.2562],[-79.939,8.4943,6.6241],[-79.9318,8.5001,2.8376],[-79.9137,8.5076,12.4962],[-79.9135,8.5118,17.0565],[-79.9085,8.5143,2.7848],[-79.9079,8.5165,2.0327],[-79.9007,8.5221,14.5686],[-79.8957,8.5221,12.3064],[-79.8915,8.5249,3.2184],[-79.8818,8.5268,0.0],[-79.8757,8.5299,0.0],[-79.8751,8.5318,0.0],[-79.8776,8.5349,4.1408],[-79.8779,8.5421,8.1058],[-79.8746,8.5443,1.5938],[-79.8749,8.546,3.7167],[-79.8676,8.5485,0.9125],[-79.8671,8.5532,4.2728],[-79.8443,8.5579,2.2913],[-79.8412,8.559,0.4869],[-79.8399,8.5621,11.5904],[-79.8335,8.5613,3.6167],[-79.8271,8.5649,6.4183],[-79.8238,8.5646,3.388],[-79.8238,8.566,6.5792],[-79.8179,8.5657,2.8707],[-79.784,8.5765,0.0],[-79.7582,8.5946,0.0],[-79.7271,8.6237,2.2056],[-79.6985,8.6479,0.0],[-79.6982,8.6554,2.4188],[-79.7004,8.6568,0.7322],[-79.7151,8.6421,0.0],[-79.7265,8.6374,0.0],[-79.7332,8.6279,2.1789],[-79.7457,8.6232,0.0],[-79.7474,8.6193,0.0],[-79.7449,8.6193,1.8912],[-79.7451,8.6151,0.3928],[-79.749,8.6104,4.1947],[-79.7562,8.6099,1.8141],[-79.7521,8.614,0.0],[-79.7568,8.6171,0.0],[-79.7676,8.6168,4.259],[-79.7804,8.6126,1.0745],[-79.7824,8.6143,0.0],[-79.7893,8.6149,2.8718],[-79.8012,8.6218,0.0],[-79.8099,8.6237,3.8091],[-79.8201,8.6318,0.0],[-79.8276,8.6346,0.0],[-79.829,8.6368,0.0],[-79.836,8.636,0.0],[-79.8421,8.6468,4.3802],[-79.8529,8.6532,2.2441],[-79.8571,8.6518,5.2587],[-79.8538,8.6468,4.4554],[-79.8538,8.6404,5.3254],[-79.8551,8.6393,1.5538],[-79.8546,8.6468,2.4919],[-79.859,8.6504,2.9855],[-79.8529,8.6587,0.0],[-79.8474,8.6613,3.6373],[-79.8485,8.6663,2.0189],[-79.8465,8.6613,3.6373],[-79.8521,8.6571,0.0],[-79.8521,8.6543,0.0],[-79.8424,8.6501,0.0],[-79.8349,8.6426,2.3943],[-79.8276,8.6476,2.7284],[-79.8271,8.651,3.5318],[-79.8254,8.6507,3.131],[-79.8213,8.6563,1.1326],[-79.8168,8.6565,0.0],[-79.8096,8.6524,4.003],[-79.8063,8.6524,3.9217],[-79.801,8.6613,0.0],[-79.7951,8.6665,0.0],[-79.7654,8.6774,13.6973],[-79.7657,8.6793,38.3713],[-79.7554,8.6913,5.6972],[-79.7526,8.6921,0.0],[-79.7596,8.696,2.3188],[-79.7596,8.7026,1.5679],[-79.7571,8.7082,5.2818],[-79.7507,8.7068,0.0],[-79.7499,8.7115,0.0],[-79.7454,8.7115,0.0],[-79.7479,8.7168,0.0],[-79.7524,8.7185,0.0],[-79.7468,8.7201,0.0],[-79.7424,8.724,0.0],[-79.7432,8.7265,5.6838],[-79.746,8.7279,6.086],[-79.7529,8.7268,1.4237],[-79.7526,8.7304,0.0],[-79.7471,8.7321,32.6675],[-79.7471,8.734,12.6998],[-79.7501,8.736,0.0],[-79.7524,8.7349,14.7305],[-79.7529,8.7379,0.0],[-79.7554,8.7371,20.7895],[-79.7554,8.7393,1.479],[-79.7599,8.7435,4.4066],[-79.7574,8.7479,21.0716],[-79.7576,8.7535,4.1854],[-79.7615,8.754,55.8755],[-79.7646,8.7582,1.2967],[-79.7618,8.7618,20.3479],[-79.7615,8.7657,17.8353],[-79.7632,8.7671,3.7486],[-79.7624,8.7699,1.5195],[-79.7679,8.7713,2.4937],[-79.7682,8.7746,0.0],[-79.7721,8.7782,4.9075],[-79.7724,8.7804,3.2804],[-79.7699,8.7826,3.5021],[-79.7718,8.7835,6.5852],[-79.7721,8.7862,13.389099999999999],[-79.7671,8.7918,0.0],[-79.769,8.7957,0.0],[-79.7657,8.7996,1.3001],[-79.7665,8.8046,2.4084],[-79.7635,8.809,12.3163],[-79.759,8.8107,0.0],[-79.7565,8.8137,0.0],[-79.759,8.8176,3.4235],[-79.7546,8.8165,0.0],[-79.7513,8.8185,0.0],[-79.7507,8.8215,0.0],[-79.754,8.8257,4.2628],[-79.7524,8.8274,0.0],[-79.7529,8.829,5.9652],[-79.7515,8.8299,5.9652],[-79.7485,8.8263,0.0],[-79.7465,8.8263,0.0],[-79.7476,8.8304,6.8259],[-79.7454,8.8318,4.5991],[-79.7487,8.8382,0.0],[-79.7424,8.8449,2.2934],[-79.7393,8.8438,0.0],[-79.7404,8.849,0.0],[-79.734,8.8482,0.0],[-79.7299,8.8501,0.0],[-79.7296,8.8551,2.0797],[-79.7201,8.8624,12.175],[-79.706,8.856,0.5677],[-79.7049,8.8588,0.0],[-79.7101,8.8607,4.2097],[-79.7124,8.866,4.9548],[-79.7101,8.8704,2.9264],[-79.7085,8.8701,0.0],[-79.709,8.8687,0.0],[-79.7068,8.8699,0.0],[-79.7087,8.8729,0.0],[-79.7057,8.8768,1.4223],[-79.7035,8.8765,4.2489],[-79.7029,8.8729,0.0],[-79.7007,8.876,5.7247],[-79.699,8.8749,8.4949],[-79.6965,8.8676,0.0],[-79.6915,8.8707,8.1152],[-79.6888,8.876,4.5849],[-79.6826,8.8765,16.5564],[-79.6793,8.8699,1.7548],[-79.6807,8.8671,0.8704],[-79.6799,8.8643,1.1822],[-79.6749,8.8604,0.0],[-79.6735,8.8612,0.5522],[-79.6707,8.8596,0.0],[-79.666,8.8646,5.5527],[-79.6701,8.8696,0.0],[-79.6693,8.8735,4.686],[-79.671,8.8754,18.6882],[-79.6704,8.8796,0.0],[-79.6721,8.8838,9.1836],[-79.6687,8.8851,8.2081],[-79.6687,8.889,11.2922],[-79.6657,8.8888,0.0],[-79.6665,8.8901,0.0],[-79.664,8.8901,0.0],[-79.6621,8.8937,0.0],[-79.6596,8.8937,1.4582],[-79.6585,8.8888,0.0],[-79.6579,8.8915,1.6368],[-79.6551,8.8918,3.4716],[-79.6554,8.8851,0.0],[-79.6515,8.8824,5.136],[-79.6524,8.8796,0.0],[-79.6499,8.8813,0.0],[-79.646,8.8785,0.0],[-79.6446,8.879,0.0],[-79.6457,8.8851,0.0],[-79.6363,8.886,3.6783],[-79.634,8.8843,0.0],[-79.631,8.8854,0.0],[-79.6299,8.8838,0.0],[-79.6296,8.8854,0.0],[-79.624,8.8854,0.0],[-79.6254,8.8871,6.3871],[-79.6193,8.8874,0.0],[-79.6162,8.8924,4.8448],[-79.606,8.8943,5.7659],[-79.5937,8.8932,14.772],[-79.5929,8.8907,7.8745],[-79.5871,8.8904,0.0],[-79.5815,8.8871,3.3903],[-79.581,8.8885,3.3903],[-79.5835,8.8912,0.0],[-79.5826,8.896,23.5821],[-79.579,8.8982,3.4655],[-79.5721,8.8965,0.0],[-79.5663,8.9001,0.0],[-79.5629,8.9068,0.0],[-79.5593,8.9229,0.0],[-79.5674,8.929,0.0],[-79.5682,8.9313,0.0],[-79.5671,8.9365,0.0],[-79.5643,8.9401,0.0],[-79.5663,8.9432,0.0],[-79.5718,8.9421,0.0],[-79.574,8.9437,8.3765],[-79.5726,8.9454,0.0],[-79.574,8.9479,3.967],[-79.5718,8.9513,0.0],[-79.5718,8.9546,0.5],[-79.5735,8.9551,0.5],[-79.571,8.9546,0.5],[-79.5715,8.9579,0.5],[-79.5765,8.9624,0.5],[-79.5776,8.9668,0.5],[-79.5846,8.9762,-12.5812],[-79.5832,8.9771,-1.4873],[-79.5815,8.9743,-6.556],[-79.5796,8.9754,1.0],[-79.586,8.9904,2.5],[-79.5837,8.9907,5.6766],[-79.5801,8.986,6.0259],[-79.5776,8.9757,5.8877],[-79.5753,8.9802,9.079],[-79.5764,8.9886,17.5199],[-79.5814,8.995,20.2631],[-79.6046,9.0062,16.5238],[-79.608,9.0143,16.625],[-79.6122,9.0182,25.5268],[-79.6451,9.0382,38.9884],[-79.6551,9.053,25.0],[-79.672,9.067,40.7528],[-79.6807,9.0864,25.0],[-79.6932,9.1037,48.0252],[-79.6921,9.1071,25.0],[-79.6979,9.1096,25.0],[-79.7026,9.109,25.0],[-79.704,9.1062,38.1293],[-79.7049,9.1087,30.696],[-79.7079,9.1099,33.4771],[-79.7051,9.114,25.0],[-79.7085,9.1149,25.0],[-79.7126,9.1149,25.5035],[-79.7129,9.1138,25.5035],[-79.7101,9.1126,35.0019],[-79.7112,9.1124,35.0019],[-79.7193,9.1149,28.9443],[-79.7237,9.1099,27.1068],[-79.7329,9.1132,35.222],[-79.7354,9.1168,36.0273],[-79.744,9.1196,25.0],[-79.7462,9.1185,25.0],[-79.7462,9.1165,25.0],[-79.7429,9.1112,25.0],[-79.7457,9.1099,32.3676],[-79.7471,9.1129,25.0],[-79.7485,9.1124,25.0],[-79.7482,9.1096,25.0],[-79.746,9.1079,25.0],[-79.7468,9.1068,40.6964],[-79.7507,9.109,25.0],[-79.7515,9.1129,29.0979],[-79.7535,9.1126,57.98],[-79.7513,9.1168,44.9746],[-79.754,9.1193,25.0],[-79.7596,9.1143,25.0],[-79.7582,9.1049,32.1763],[-79.779,9.116,25.0],[-79.7929,9.1166,25.0],[-79.8047,9.1229,25.0],[-79.811,9.1326,25.0],[-79.8127,9.1682,25.0],[-79.8184,9.1743,25.0],[-79.8283,9.1749,25.0],[-79.8352,9.1773,25.0],[-79.8448,9.1848,25.0],[-79.8487,9.1845,25.0],[-79.8541,9.1811,25.0],[-79.8603,9.1812,25.0],[-79.885,9.1891,25.0],[-79.907,9.1903,25.0],[-79.9237,9.1847,25.0],[-79.9346,9.1753,25.0],[-79.9478,9.1589,25.0],[-79.9496,9.1198,25.0],[-79.9566,9.1101,25.0],[-79.9692,9.1057,25.0],[-79.9798,9.0957,25.0],[-79.9807,9.0858,25.0],[-79.9684,9.0711,25.0],[-79.9525,9.0376,25.0],[-79.9546,9.0299,25.0],[-79.9589,9.0232,25.0],[-79.9587,9.0118,25.0],[-79.9554,9.0096,25.3242],[-79.9561,9.005,35.7891],[-79.9617,8.9968,25.2677],[-79.9645,8.984,58.374],[-79.9694,8.9887,27.2984],[-79.9749,8.9895,28.1276],[-79.9767,8.9834,40.2065],[-79.982,8.982,33.5082],[-79.9833,8.9788,36.6009],[-79.9874,8.9779,45.4244],[-79.9915,8.971,59.6067],[-80.0513,8.9764,27.5598],[-80.0555,8.9751,64.9579],[-80.0922,9.0032,136.6991],[-80.1157,8.9732,157.257],[-80.1362,8.9658,207.9924],[-80.1415,8.9567,36.9164],[-80.145,8.9452,37.5777],[-80.1423,8.9399,29.3294],[-80.1368,8.9347,35.0228],[-80.139,8.9263,53.0788],[-80.1475,8.9195,45.5462],[-80.1494,8.9105,55.8326],[-80.1541,8.9109,61.6764],[-80.155,8.9036,75.4314],[-80.16,8.8975,152.835],[-80.169,8.8903,102.1146],[-80.1653,8.8723,170.6356],[-80.1662,8.8672,176.1305],[-80.1641,8.8466,238.3129],[-80.1704,8.8317,182.9452],[-80.162,8.8196,200.0581],[-80.1559,8.7812,310.308],[-80.151,8.7774,270.9922],[-80.1491,8.7685,333.3265],[-80.1435,8.759,401.0547],[-80.1383,8.7535,478.4915],[-80.1304,8.7504,359.4503],[-80.1264,8.7461,302.7159],[-80.1242,8.727,508.4845],[-80.1198,8.7161,397.8233],[-80.1149,8.7123,395.8785],[-80.1165,8.7029,459.1071],[-80.1138,8.697,499.2256],[-80.1148,8.6878,533.0528],[-80.1109,8.6757,693.3364],[-80.112799999999993,8.664,887.0435],[-80.1183,8.6555,650.4899],[-80.1184,8.6429,823.9301],[-80.1115,8.627,828.5816],[-80.112799999999993,8.614,653.3525],[-80.1107,8.6115,670.2891],[-80.1057,8.6109,675.7585],[-80.1002,8.5871,793.9468],[-80.1037,8.5746,588.132],[-80.1041,8.5629,587.2928],[-80.1135,8.5665,572.1406],[-80.1221,8.5666,575.7341],[-80.1117,8.5546,509.1388],[-80.1095,8.5474,465.3539],[-80.111,8.5417,427.2533],[-80.107,8.5345,397.9113],[-80.1004,8.5292,356.7848],[-80.0963,8.5195,282.2485],[-80.0922,8.5152,279.4836],[-80.0931,8.5114,263.147]]],
[[[-79.8288,8.6404,0.0],[-79.8282,8.6454,0.0],[-79.8293,8.6457,1.398],[-79.8321,8.644,4.4723],[-79.8326,8.6415,0.0],[-79.8288,8.6404,0.0]]],
[[[-79.5899,8.5796,4.7719],[-79.5949,8.5807,0.0],[-79.5951,8.5793,0.0],[-79.5921,8.5796,8.5551],[-79.5918,8.5785,23.9241],[-79.5965,8.5726,2.066],[-79.5957,8.5715,0.0],[-79.594,8.5724,148.7594],[-79.5937,8.5701,0.0],[-79.5904,8.5679,0.0],[-79.5885,8.5687,0.0],[-79.5854,8.5746,0.0],[-79.5868,8.5793,0.0],[-79.5899,8.5796,4.7719]]],
[[[-79.6113,8.5849,3.7006],[-79.6132,8.5865,0.0],[-79.6126,8.5826,0.0],[-79.611,8.5835,0.0],[-79.6113,8.5849,3.7006]]],
[[[-79.6001,8.6096,3.0957],[-79.6046,8.6096,14.7671],[-79.6062,8.6115,0.0],[-79.6054,8.6079,2.7686],[-79.6071,8.6054,0.0],[-79.6068,8.6018,18.0017],[-79.6118,8.6021,1.7972],[-79.6121,8.5943,0.0],[-79.6099,8.5912,0.0],[-79.6032,8.5976,2.072],[-79.6001,8.5968,0.0],[-79.599,8.5946,0.0],[-79.5979,8.5954,0.0],[-79.5949,8.5937,0.0],[-79.5935,8.5912,0.0],[-79.5915,8.5915,0.0],[-79.5932,8.5949,0.0],[-79.5918,8.6013,0.0],[-79.5963,8.604,1.9409],[-79.5963,8.6065,0.0],[-79.6001,8.6096,3.0957]]],
[[[-79.741,8.6743,0.7963],[-79.744,8.6754,3.3725],[-79.7418,8.6693,2.5967],[-79.7399,8.6713,0.0],[-79.741,8.6743,0.7963]]],
[[[-79.7429,8.7015,13.1033],[-79.7454,8.7024,0.0],[-79.744,8.6968,0.0],[-79.7421,8.6971,0.0],[-79.7429,8.7015,13.1033]]],
[[[-79.739,8.7104,1.8825],[-79.7385,8.7118,0.0],[-79.7415,8.7121,0.0],[-79.7412,8.7096,0.0],[-79.739,8.7104,1.8825]]],
[[[-79.7426,8.741,0.0],[-79.7426,8.7426,0.0],[-79.7454,8.7432,2.6731],[-79.7482,8.7385,2.6532],[-79.7443,8.7376,0.0],[-79.7426,8.741,0.0]]],
[[[-79.7535,8.7429,6.6248],[-79.7524,8.7443,0.0],[-79.7535,8.7449,4.9895],[-79.7557,8.7438,0.0],[-79.7551,8.7421,0.0],[-79.7535,8.7429,6.6248]]],
[[[-79.7312,8.7782,5.5038],[-79.7337,8.779,0.0],[-79.7321,8.776,5.0311],[-79.7307,8.7765,5.0311],[-79.7312,8.7782,5.5038]]],
[[[-79.5774,8.7332,0.0],[-79.5749,8.7335,0.0],[-79.5749,8.7413,0.0],[-79.5788,8.7421,0.0],[-79.5801,8.7396,0.0],[-79.5774,8.7332,0.0]]],
[[[-79.5321,8.7779,0.0],[-79.5343,8.7812,24.3625],[-79.5368,8.781,23.538],[-79.5382,8.7788,3.1819],[-79.5362,8.7688,0.0],[-79.5312,8.7738,0.0],[-79.5321,8.7779,0.0]]],
[[[-79.5515,8.8018,2.3112],[-79.5529,8.8035,0.0676],[-79.5535,8.8007,0.0],[-79.5565,8.7999,20.9937],[-79.5587,8.8026,3.5976],[-79.5663,8.8032,16.2644],[-79.5707,8.7979,0.0],[-79.5715,8.7865,0.0],[-79.5696,8.7857,0.0],[-79.5685,8.7821,0.0],[-79.566,8.7812,0.0],[-79.564,8.7826,0.0],[-79.5618,8.7799,0.0],[-79.5554,8.7799,0.0],[-79.5554,8.7818,0.0],[-79.5512,8.7812,40.4852],[-79.5496,8.774,0.7668],[-79.5457,8.7743,0.0],[-79.5449,8.7757,3.4633],[-79.5435,8.7743,0.0],[-79.5407,8.7774,0.0],[-79.5415,8.7851,0.0],[-79.5457,8.7882,76.5577],[-79.549,8.7868,55.7286],[-79.5551,8.7951,7.9809],[-79.5549,8.7993,0.0],[-79.5518,8.7999,0.0],[-79.5515,8.8018,2.3112]]],
[[[-79.5104,8.8124,42.3994],[-79.5113,8.8146,20.6374],[-79.5179,8.8101,19.6926],[-79.5204,8.806,45.8781],[-79.5226,8.8054,4.1608],[-79.5218,8.8021,28.7856],[-79.5243,8.7993,0.0],[-79.5193,8.8021,12.3481],[-79.5165,8.801,0.0],[-79.5165,8.7988,0.0],[-79.5149,8.8013,0.0],[-79.5118,8.8013,0.0],[-79.509,8.8082,7.6736],[-79.5104,8.8124,42.3994]]],
[[[-79.6082,8.8132,0.0],[-79.6068,8.8137,0.0],[-79.6062,8.8162,5.5731],[-79.6074,8.816,5.6281],[-79.6082,8.8132,0.0]]],
[[[-79.5649,8.8593,0.0],[-79.5638,8.8601,0.0],[-79.564,8.861,8.8302],[-79.5657,8.8601,0.0],[-79.5649,8.8593,0.0]]],
[[[-79.694,8.8607,0.0],[-79.6943,8.8646,0.0],[-79.696,8.8649,0.0],[-79.6965,8.8621,0.0],[-79.6949,8.8585,0.0],[-79.6937,8.8585,0.0],[-79.694,8.8607,0.0]]],
[[[-79.5935,8.8765,0.0],[-79.5926,8.8779,6.6544],[-79.5943,8.8788,0.0],[-79.5943,8.8757,0.0],[-79.5935,8.8765,0.0]]],
[[[-79.7237,8.8474,0.0],[-79.7251,8.8485,1.2801],[-79.7274,8.8485,0.0],[-79.7251,8.8463,0.0],[-79.7237,8.8474,0.0]]],
[[[-79.764,9.1115,25.0],[-79.7646,9.1099,25.0],[-79.7629,9.1079,25.0],[-79.7613,9.112,49.0674],[-79.7626,9.1129,25.0],[-79.764,9.1115,25.0]]],
[[[-79.7218,9.1168,25.0],[-79.726,9.1162,28.5202],[-79.7265,9.114,25.0],[-79.7249,9.1135,31.6833],[-79.7237,9.114,38.6338],[-79.7232,9.111,28.5689],[-79.7204,9.1146,30.3074],[-79.7218,9.1168,25.0]]]]}
,"properties": {"GID_1": "PAN.11_1","GID_0": "PAN","country": "Panama","province": "PanamáOeste","VARNAME_1": "NA","NL_NAME_1": "NA","TYPE_1": "Provincia","ENGTYPE_1": "Province","CC_1": "NA","HASC_1": "PA.PO","ISO_1": "NA","name": "Panamá_Oeste.province","area_km2": 3059.345,"hist_schema_id": "Elevation0-9000","hist_area_km2": {"0": 170.427,"25": 360.661,"50": 312.982,"75": 297.762,"100": 316.985,"125": 301.413,"150": 201.258,"175": 156.88,"200": 136.481,"225": 121.799,"250": 93.475,"275": 74.138,"300": 59.117,"325": 49.018,"350": 39.799,"375": 34.687,"400": 28.567,"425": 26.492,"450": 23.433,"475": 22.678,"500": 21.211,"525": 18.927,"550": 15.385,"575": 15.929,"600": 14.295,"625": 13.854,"650": 13.33,"675": 12.911,"700": 11.905,"725": 12.157,"750": 11.507,"775": 12.115,"800": 9.558,"825": 10.082,"850": 6.56,"875": 5.282,"900": 4.989,"925": 4.003,"950": 4.444,"975": 3.312,"1000": 3.102,"1025": 2.536,"1050": 1.824,"1075": 1.195,"1100": 0.608,"1125": 0.168,"1150": 0.063}}}