{"type": "Feature","bbox": [-78.1099,7.4479,-77.6475,8.0441],"geometry": {"type": "MultiPolygon","coordinates": [[[[-77.7048,7.4987,458.7363],[-77.6975,7.5053,445.1278],[-77.6999,7.5163,493.3773],[-77.7078,7.5322,537.7755],[-77.7302,7.5656,743.9432],[-77.735,7.5762,767.7176],[-77.7344,7.5834,774.2102],[-77.731,7.5881,658.7322],[-77.7334,7.5957,687.2696],[-77.7315,7.5998,603.2365],[-77.7377,7.6048,773.4412],[-77.7404,7.6178,682.7188],[-77.7373,7.6433,873.9182],[-77.7344,7.6521,768.95],[-77.7269,7.6618,768.3193],[-77.7193,7.6648,945.59],[-77.707,7.6664,1194.7218],[-77.6834,7.6649,1236.9655],[-77.6774,7.6631,1161.967],[-77.67,7.6578,988.5138],[-77.6665,7.6521,934.5289],[-77.6596,7.6458,986.8554],[-77.6475,7.6444,1492.272],[-77.6478,7.6494,1491.7184],[-77.6516,7.6616,1267.827],[-77.6523,7.6692,990.5543],[-77.6568,7.677,942.9636],[-77.672,7.6863,1077.3228],[-77.6766,7.6912,1037.467],[-77.6844,7.6944,967.9294],[-77.6857,7.7043,979.502],[-77.696,7.7131,867.3304],[-77.7015,7.7213,860.9913],[-77.714,7.7239,1001.9733],[-77.7178,7.7274,973.6328],[-77.7273,7.7301,1011.652],[-77.7299,7.7385,1097.4735],[-77.7383,7.7445,1251.8876],[-77.7431,7.7542,1217.2416],[-77.7379,7.7674,1612.0522],[-77.7268,7.7853,1572.0398],[-77.7269,7.798,1418.7195],[-77.7132,7.8146,1248.9731],[-77.7046,7.8415,1242.4927],[-77.6899,7.8652,784.8421],[-77.6892,7.8772,1131.9314],[-77.6798,7.8873,800.2024],[-77.675,7.898,749.5146],[-77.6668,7.9101,650.4391],[-77.6645,7.9259,397.5858],[-77.666,7.9356,351.0262],[-77.6691,7.9421,411.2559],[-77.67,7.9558,359.2146],[-77.6899,7.9484,1095.7371],[-77.7495,7.918,424.6801],[-77.7541,7.9187,365.5636],[-77.7677,7.9316,266.7314],[-77.7737,7.9307,196.5959],[-77.7896,7.9239,159.009],[-77.7957,7.9237,168.9759],[-77.8066,7.9266,84.3341],[-77.8135,7.9371,98.0122],[-77.8284,7.9483,98.8531],[-77.844,7.9673,39.7808],[-77.8448,7.979,30.6664],[-77.8434,7.9875,37.2598],[-77.8489,7.9983,29.1065],[-77.8489,8.0107,27.4068],[-77.851,8.0174,28.5966],[-77.8602,8.0332,25.4607],[-77.871,8.0432,20.2228],[-77.8744,8.0441,21.32],[-77.8843,8.0383,11.7195],[-77.9037,8.036,30.1106],[-77.9188,8.0275,25.7308],[-77.9361,8.022,36.8219],[-78.1099,7.9834,210.7045],[-78.1067,7.977,229.6784],[-78.0931,7.9735,162.5439],[-78.0866,7.9655,254.2934],[-78.0822,7.9439,319.8951],[-78.0859,7.9226,125.2296],[-78.0844,7.919,131.2048],[-78.0815,7.9171,219.6421],[-78.0741,7.9199,427.1754],[-78.0663,7.9276,282.9973],[-78.0333,7.9518,215.3884],[-78.0259,7.9495,234.403],[-78.022,7.9446,250.1093],[-78.0171,7.9252,209.5985],[-78.0063,7.9035,160.5499],[-78.0051,7.8864,317.4305],[-77.9985,7.8724,469.8938],[-77.9926,7.8438,526.295],[-77.9843,7.8335,572.9943],[-77.9801,7.8145,500.368],[-77.9801,7.7982,545.0306],[-77.9764,7.7951,432.3035],[-77.9602,7.7939,539.6871],[-77.9562,7.7892,577.4597],[-77.9546,7.776,661.0837],[-77.9477,7.7586,769.5333],[-77.9486,7.7455,658.6611],[-77.9559,7.7392,582.9673],[-77.9568,7.7354,709.9017],[-77.9512,7.7251,689.9109],[-77.9477,7.7072,671.3497],[-77.9497,7.6894,855.8569],[-77.9439,7.6774,877.1653],[-77.9461,7.6621,951.6414],[-77.9448,7.6233,1088.7734],[-77.9285,7.6223,1031.7175],[-77.9248,7.6203,1041.0616],[-77.9233,7.6077,928.0269],[-77.9258,7.6011,1142.5692],[-77.9256,7.5958,1031.816],[-77.9215,7.5832,1068.9481],[-77.9164,7.5736,1090.0031],[-77.9158,7.566,972.6133],[-77.9099,7.5656,992.1055],[-77.9052,7.5585,945.1079],[-77.9077,7.5408,989.7609],[-77.901,7.5255,878.4053],[-77.8965,7.5231,712.4135],[-77.889,7.5257,961.1129],[-77.8787,7.5262,658.2033],[-77.8551,7.5258,536.1263],[-77.8461,7.5236,695.0617],[-77.8372,7.5172,571.8691],[-77.8348,7.5126,600.2373],[-77.834,7.5018,568.6174],[-77.8369,7.49,559.2263],[-77.8347,7.4782,732.0155],[-77.8064,7.4667,546.1422],[-77.8019,7.4679,497.8826],[-77.7971,7.4612,352.1866],[-77.7944,7.452,363.8003],[-77.7927,7.4511,315.1745],[-77.7794,7.4543,185.4746],[-77.7717,7.452,188.4849],[-77.7651,7.4479,175.3342],[-77.7616,7.4486,187.6945],[-77.7547,7.4559,218.7767],[-77.75,7.4652,192.8437],[-77.7297,7.4707,213.1706],[-77.7198,7.4814,269.7098],[-77.718,7.4898,392.754],[-77.7048,7.4987,458.7363]]]]}
,"properties": {"GID_3": "PAN.5.1.16_1","GID_0": "PAN","country": "Panama","GID_1": "PAN.5_1","province": "Darién","NL_NAME_1": "NA","GID_2": "PAN.5.1_1","county": "Chepigana","NL_NAME_2": "NA","city": "Tucutí","VARNAME_3": "NA","NL_NAME_3": "NA","TYPE_3": "Corregimiento","ENGTYPE_3": "Municipality","CC_3": "NA","HASC_3": "NA","name": "Tucutí.city","area_km2": 1584.067,"hist_schema_id": "Elevation0-9000","hist_area_km2": {"0": 7.558,"25": 81.847,"50": 68.625,"75": 57.835,"100": 70.525,"125": 93.368,"150": 119.561,"175": 121.527,"200": 98.389,"225": 82.874,"250": 67.644,"275": 50.399,"300": 45.127,"325": 38.216,"350": 35.149,"375": 33.7,"400": 32.251,"425": 30.382,"450": 28.259,"475": 23.659,"500": 24.184,"525": 22.145,"550": 22.524,"575": 19.541,"600": 17.418,"625": 16.872,"650": 15.968,"675": 14.56,"700": 12.816,"725": 12.018,"750": 11.997,"775": 10.967,"800": 10.547,"825": 9.013,"850": 8.446,"875": 8.845,"900": 8.362,"925": 7.941,"950": 8.887,"975": 8.656,"1000": 8.53,"1025": 9.58,"1050": 8.068,"1075": 8.887,"1100": 7.605,"1125": 7.647,"1150": 7.542,"1175": 7.962,"1200": 6.701,"1225": 6.575,"1250": 5.609,"1275": 5.357,"1300": 4.306,"1325": 3.697,"1350": 3.109,"1375": 3.214,"1400": 3.277,"1425": 3.025,"1450": 2.206,"1475": 2.437,"1500": 2.395,"1525": 1.45,"1550": 1.408,"1575": 1.429,"1600": 1.24,"1625": 0.903,"1650": 0.735,"1675": 0.42,"1700": 0.126,"1725": 0.021}}}