{"type": "Feature","bbox": [-78.4493,7.5157,-78.1519,8.1088],"geometry": {"type": "MultiPolygon","coordinates": [[[[-78.2187,7.5468,20.9974],[-78.2201,7.5465,0.0],[-78.221,7.5435,0.0],[-78.2187,7.5446,6.1321],[-78.2187,7.5468,20.9974]]],
[[[-78.2276,7.5685,20.9531],[-78.2293,7.5668,0.0],[-78.2282,7.5643,0.0],[-78.2268,7.5674,20.9531],[-78.2276,7.5685,20.9531]]],
[[[-78.2715,7.6624,0.0],[-78.2729,7.6626,0.0],[-78.2737,7.6585,0.0],[-78.2724,7.659,0.8365],[-78.2715,7.6624,0.0]]],
[[[-78.4224,8.0072,0.0],[-78.4249,8.0057,0.0],[-78.4235,8.0021,8.3024],[-78.4257,8.001,0.0],[-78.4243,7.989,0.0],[-78.4221,7.984,0.0],[-78.424,7.9793,0.0],[-78.4196,7.9754,0.0],[-78.4201,7.9729,0.0],[-78.4162,7.9646,0.0],[-78.4124,7.9626,1.386],[-78.4115,7.9496,0.0],[-78.4076,7.946,0.0],[-78.4062,7.939,0.0],[-78.4029,7.9349,89.3101],[-78.4024,7.9282,4.316],[-78.399,7.9226,0.0],[-78.4004,7.916,5.6679],[-78.3946,7.914,6.1974],[-78.3932,7.9065,0.0],[-78.3887,7.9038,0.0],[-78.3849,7.9051,0.0],[-78.3793,7.8976,0.0],[-78.3593,7.8857,4.206],[-78.3549,7.8763,0.0],[-78.3512,7.8768,2.7454],[-78.3449,7.8724,18.8061],[-78.3446,7.866,0.0],[-78.341,7.8621,119.9364],[-78.3412,7.8565,24.955],[-78.3393,7.8529,86.5952],[-78.3418,7.8476,0.0],[-78.3385,7.8476,21.7177],[-78.3354,7.8415,0.0],[-78.336,7.8396,0.0],[-78.3304,7.8296,52.2308],[-78.331,7.826,13.6164],[-78.3268,7.821,8.1255],[-78.3243,7.8207,37.3391],[-78.3221,7.8146,21.8749],[-78.316,7.8085,0.0],[-78.3162,7.8062,0.0],[-78.3087,7.7963,0.0],[-78.3085,7.7918,0.0],[-78.3054,7.7857,24.2121],[-78.3024,7.784,25.8281],[-78.3021,7.7804,5.025],[-78.2949,7.7701,6.5119],[-78.2943,7.7671,0.0],[-78.2924,7.7676,13.5747],[-78.291,7.766,6.6278],[-78.2899,7.7565,16.2414],[-78.2868,7.7535,6.7512],[-78.2876,7.749,32.469],[-78.2812,7.7412,3.2631],[-78.2812,7.7276,3.6324],[-78.2793,7.7257,90.2764],[-78.2821,7.7207,0.0],[-78.281,7.7176,0.0],[-78.2932,7.7096,10.2785],[-78.2932,7.7076,35.5602],[-78.2979,7.7026,0.0],[-78.2982,7.6988,0.0],[-78.2965,7.6965,0.0],[-78.2993,7.6965,0.0],[-78.2974,7.6946,0.0],[-78.2982,7.6915,0.0],[-78.2943,7.6915,16.0753],[-78.2968,7.6888,0.0],[-78.2976,7.6901,0.0],[-78.3021,7.6907,0.0],[-78.3018,7.6888,0.0],[-78.2988,7.6863,0.0],[-78.2974,7.6868,22.5771],[-78.2979,7.6832,0.0],[-78.296,7.6824,0.0],[-78.2932,7.6843,0.0],[-78.291,7.6832,0.0],[-78.2874,7.6874,0.0],[-78.2812,7.6843,0.0],[-78.2796,7.6815,0.0],[-78.2749,7.6818,0.0],[-78.274,7.6801,0.0],[-78.2726,7.6804,2.7106],[-78.2724,7.6843,0.0],[-78.2712,7.6812,80.4055],[-78.2763,7.6776,0.0],[-78.2737,7.6743,5.9907],[-78.2746,7.671,0.0],[-78.2726,7.6715,6.4377],[-78.2732,7.669,15.723],[-78.2707,7.6649,0.0],[-78.2665,7.6696,29.9591],[-78.2646,7.6699,0.0],[-78.2632,7.674,53.0518],[-78.2593,7.6738,14.1452],[-78.2557,7.669,0.0],[-78.2529,7.669,0.0],[-78.2521,7.6629,0.0],[-78.2493,7.6643,16.2299],[-78.2446,7.6635,23.1611],[-78.2385,7.6565,0.0],[-78.2382,7.654,11.5584],[-78.2412,7.6479,0.0],[-78.2399,7.6426,0.0],[-78.2374,7.6421,27.7544],[-78.2374,7.6357,0.0],[-78.2271,7.636,0.0],[-78.2218,7.6268,0.0],[-78.2168,7.626,34.3741],[-78.211,7.6182,0.0],[-78.206,7.6188,21.3582],[-78.2043,7.6126,0.0],[-78.2004,7.6118,23.9733],[-78.2001,7.604,17.018],[-78.1965,7.6001,17.9085],[-78.1963,7.594,0.0],[-78.2004,7.5915,24.4314],[-78.2074,7.5915,13.2146],[-78.206,7.5843,0.0],[-78.2085,7.5826,8.5031],[-78.2076,7.5804,94.5942],[-78.2104,7.5799,0.0],[-78.211,7.5782,0.0],[-78.211,7.5737,0.0],[-78.2093,7.5729,81.3637],[-78.209,7.5688,47.0452],[-78.2063,7.5657,7.0803],[-78.2063,7.5557,0.0],[-78.2029,7.5563,0.0],[-78.2032,7.559,40.0505],[-78.2001,7.5654,0.0],[-78.2012,7.5671,0.0],[-78.1985,7.5693,0.0],[-78.1985,7.574,0.0],[-78.2004,7.574,0.0],[-78.1996,7.5779,0.0],[-78.2018,7.5796,69.7134],[-78.2001,7.5838,6.685],[-78.1982,7.5815,0.0],[-78.1963,7.5821,25.9803],[-78.1929,7.5768,0.0],[-78.1915,7.5779,31.8592],[-78.1932,7.5824,0.0],[-78.1874,7.5843,3.6741],[-78.179,7.5826,0.0],[-78.1724,7.5774,64.5453],[-78.1712,7.5732,8.1299],[-78.174,7.5724,0.0],[-78.1757,7.5682,4.7885],[-78.1801,7.5654,14.3428],[-78.179,7.5624,0.0],[-78.1743,7.5596,27.6251],[-78.174,7.5563,33.3897],[-78.1762,7.5554,0.0],[-78.1757,7.5462,0.0],[-78.1779,7.5435,0.0],[-78.1768,7.5407,0.0],[-78.179,7.5404,62.251],[-78.1818,7.5443,0.0],[-78.1837,7.5401,81.5708],[-78.186,7.5407,0.0],[-78.1868,7.5387,2.681],[-78.1854,7.5382,2.681],[-78.186,7.5362,0.0],[-78.1826,7.5357,76.9597],[-78.1854,7.5251,0.0],[-78.1832,7.5232,0.0],[-78.1826,7.5157,0.0],[-78.1774,7.5201,0.0],[-78.1738,7.519,58.8217],[-78.1724,7.5162,0.0],[-78.1704,7.5165,0.0],[-78.1696,7.519,0.0],[-78.1721,7.5226,0.125],[-78.1707,7.5276,4.9527],[-78.1696,7.5232,1.9334],[-78.1595,7.5265,1.2933],[-78.1606,7.5299,19.9203],[-78.1633,7.5302,20.0379],[-78.1693,7.5367,38.9788],[-78.1611,7.5523,107.6045],[-78.1578,7.5627,23.9698],[-78.1568,7.575,85.6517],[-78.1519,7.586,218.2531],[-78.152,7.5968,199.4153],[-78.1586,7.6206,187.125],[-78.1725,7.6405,510.7767],[-78.1788,7.6525,548.0487],[-78.1817,7.6646,747.6776],[-78.1858,7.6712,880.8],[-78.2057,7.6841,704.2689],[-78.2149,7.6974,1127.8718],[-78.2327,7.714,572.9742],[-78.2396,7.7255,765.0334],[-78.2453,7.7318,694.6346],[-78.2586,7.7571,889.6814],[-78.2685,7.7696,648.6549],[-78.2703,7.7808,800.533],[-78.2752,7.7902,743.845],[-78.2759,7.8062,948.6989],[-78.2821,7.8212,979.0628],[-78.2949,7.8396,661.343],[-78.2961,7.8584,925.3699],[-78.3011,7.8602,706.3718],[-78.313,7.8574,371.5499],[-78.3178,7.8603,364.0096],[-78.3362,7.9052,191.0452],[-78.3356,7.9139,325.8582],[-78.3278,7.9249,302.2881],[-78.3253,7.9307,363.8475],[-78.3262,7.9333,371.7433],[-78.3357,7.9396,470.7607],[-78.3374,7.945,360.8462],[-78.3615,7.9599,979.7157],[-78.3701,7.9721,613.5689],[-78.3803,7.9814,443.8739],[-78.3923,7.9857,193.6388],[-78.4077,7.9867,99.2616],[-78.4176,7.9906,95.491],[-78.4195,7.9948,133.8842],[-78.4199,8.0038,51.3873],[-78.4224,8.0072,0.0]]],
[[[-78.4154,8.097,61.645],[-78.4104,8.099,4.2273],[-78.4062,8.1082,0.0],[-78.4088,8.1088,0.0],[-78.4099,8.1074,0.0],[-78.4238,8.1049,0.0],[-78.4287,8.0974,0.0],[-78.434,8.0926,0.0],[-78.4385,8.0846,13.4117],[-78.4407,8.086,1.8372],[-78.4429,8.0826,2.4849],[-78.4474,8.0707,0.0],[-78.446,8.0699,22.0725],[-78.4457,8.0621,42.9276],[-78.4468,8.0604,0.0],[-78.4493,8.061,0.0],[-78.4485,8.056,0.0],[-78.4451,8.0554,12.7332],[-78.4468,8.044,0.0],[-78.4435,8.044,23.3464],[-78.4418,8.0407,37.0359],[-78.4429,8.036,3.1151],[-78.441,8.0351,0.0],[-78.4407,8.0382,18.4354],[-78.4376,8.0363,41.7723],[-78.4365,8.0324,0.4995],[-78.434,8.031,0.0],[-78.4329,8.0215,0.0],[-78.4301,8.0229,0.0],[-78.4268,8.0174,0.0],[-78.4249,8.0171,41.8464],[-78.4243,8.0129,0.0],[-78.424,8.0199,102.6447],[-78.4269,8.0219,92.2428],[-78.4275,8.0282,158.1002],[-78.4355,8.0502,150.2347],[-78.4357,8.0593,116.8253],[-78.4347,8.0649,194.1992],[-78.4267,8.0764,211.667],[-78.4237,8.0861,239.9114],[-78.4235,8.0937,204.7721],[-78.4206,8.0938,203.6374],[-78.4205,8.0967,156.5639],[-78.4154,8.097,61.645]]]]}
,"properties": {"GID_3": "PAN.5.1.8_1","GID_0": "PAN","country": "Panama","GID_1": "PAN.5_1","province": "Darién","NL_NAME_1": "NA","GID_2": "PAN.5.1_1","county": "Chepigana","NL_NAME_2": "NA","city": "PuertoPiña","VARNAME_3": "NA","NL_NAME_3": "NA","TYPE_3": "Corregimiento","ENGTYPE_3": "Municipality","CC_3": "NA","HASC_3": "NA","name": "Puerto_Piña.city","area_km2": 277.4181,"hist_schema_id": "Elevation0-9000","hist_area_km2": {"0": 15.0218,"25": 14.7693,"50": 13.7592,"75": 15.546,"100": 15.8189,"125": 14.8943,"150": 15.1251,"175": 15.083,"200": 14.5367,"225": 12.6458,"250": 11.7424,"275": 11.9949,"300": 10.4823,"325": 9.9152,"350": 9.6629,"375": 9.1166,"400": 8.5075,"425": 7.5621,"450": 6.8269,"475": 5.3566,"500": 4.6003,"525": 4.6004,"550": 4.1802,"575": 3.403,"600": 3.0459,"625": 2.1007,"650": 2.6258,"675": 1.8695,"700": 1.5124,"725": 1.5335,"750": 1.3864,"775": 1.1344,"800": 1.1133,"825": 1.3234,"850": 0.8822,"875": 0.6932,"900": 0.6722,"925": 0.8192,"950": 0.5671,"975": 0.2731,"1000": 0.2731,"1025": 0.1681,"1050": 0.2101,"1075": 0.042,"1100": 0.021}}}