{"type":"Feature","properties":{"GID_3":"PAN.7.6.2_1","GID_0":"PAN","country":"Panama","GID_1":"PAN.7_1","province":"Herrera","NL_NAME_1":"NA","GID_2":"PAN.7.6_1","county":"Pesé","NL_NAME_2":"NA","city":"ElCiruelo","VARNAME_3":"NA","NL_NAME_3":"NA","TYPE_3":"Corregimiento","ENGTYPE_3":"Municipality","CC_3":"NA","HASC_3":"NA","name":"El_Ciruelo.city"},
"geometry":{"type": "MultiPolygon","coordinates": [[[[-80.7237,7.8263,225.032],[-80.7204,7.8275,220.743],[-80.7172,7.8262,193.0056],[-80.7154,7.8283,173.3669],[-80.7105,7.8418,144.7253],[-80.713,7.8454,138.1899],[-80.7139,7.8509,146.8],[-80.7056,7.8491,149.2908],[-80.7012,7.8549,175.4003],[-80.6921,7.8542,133.4155],[-80.6828,7.8558,141.8107],[-80.6682,7.8661,136.0783],[-80.666,7.87,159.3548],[-80.666,7.874,156.0895],[-80.6693,7.8797,120.0875],[-80.664,7.896,65.7582],[-80.6723,7.9007,88.5386],[-80.6831,7.8989,99.0642],[-80.6833,7.9077,75.2099],[-80.6781,7.9137,71.7639],[-80.6924,7.9228,111.8534],[-80.6976,7.923,86.0603],[-80.6995,7.9195,83.7704],[-80.7112,7.9148,93.282],[-80.713,7.9054,81.4775],[-80.719,7.9017,89.3289],[-80.7206,7.8984,120.4193],[-80.7229,7.8831,92.4425],[-80.7258,7.8774,96.3513],[-80.7261,7.8705,158.2885],[-80.7318,7.8619,114.0172],[-80.7366,7.86,127.5525],[-80.7387,7.8555,126.437],[-80.737,7.8519,128.7684],[-80.7371,7.8458,135.5203],[-80.731,7.8387,152.5062],[-80.7269,7.8288,194.854],[-80.7237,7.8263,225.032]]]]}}