{"type":"Feature","properties":{"GID_3":"PAN.11.4.3_1","GID_0":"PAN","country":"Panama","GID_1":"PAN.11_1","province":"PanamáOeste","NL_NAME_1":"NA","GID_2":"PAN.11.4_1","county":"LaChorrera","NL_NAME_2":"NA","city":"BarrioBalboa","VARNAME_3":"NA","NL_NAME_3":"NA","TYPE_3":"Corregimiento","ENGTYPE_3":"Municipality","CC_3":"NA","HASC_3":"NA","name":"Barrio_Balboa.city"},
"geometry":{"type": "MultiPolygon","coordinates": [[[[-79.7613,8.8646,67.5489],[-79.772,8.8716,64.0075],[-79.7825,8.8837,64.288],[-79.7844,8.8876,55.041],[-79.7847,8.8948,45.8164],[-79.7923,8.8905,66.7395],[-79.8075,8.8914,41.2696],[-79.8019,8.8812,73.6746],[-79.7976,8.8785,72.0582],[-79.7925,8.8708,77.4895],[-79.7883,8.8612,80.7472],[-79.776,8.8608,81.7343],[-79.7613,8.8646,67.5489]]]]}}