{"type": "Feature","bbox": [-81.6401,7.6076,-81.1621,8.1658],"geometry": {"type": "MultiPolygon","coordinates": [[[[-81.2757,7.6249,0.0],[-81.2793,7.6257,0.0],[-81.2796,7.6243,0.0],[-81.2743,7.6187,0.0],[-81.2715,7.6182,0.0],[-81.2712,7.6218,5.318],[-81.2757,7.6249,0.0]]],
[[[-81.3435,7.6485,0.0],[-81.3432,7.6507,0.0],[-81.3449,7.651,0.0],[-81.356,7.6493,0.0],[-81.3551,7.6474,17.9504],[-81.3518,7.6465,0.0],[-81.3435,7.6485,0.0]]],
[[[-81.3707,7.6565,8.1579],[-81.3701,7.6582,0.0],[-81.3746,7.6576,0.0],[-81.3737,7.656,15.5538],[-81.3707,7.6565,8.1579]]],
[[[-81.3799,7.6707,0.0],[-81.3854,7.6713,0.0],[-81.3849,7.6693,0.0],[-81.3812,7.6704,0.0],[-81.3815,7.6682,0.0],[-81.3801,7.6685,0.0],[-81.3799,7.6707,0.0]]],
[[[-81.481,7.6832,0.0],[-81.4851,7.6843,0.0],[-81.4804,7.6815,0.0],[-81.4763,7.6821,0.0],[-81.4768,7.684,0.0],[-81.481,7.6832,0.0]]],
[[[-81.616,7.6968,0.0],[-81.6154,7.6993,0.0],[-81.6185,7.6971,11.1769],[-81.6218,7.6988,0.0],[-81.6329,7.6943,3.949],[-81.6376,7.6951,32.1838],[-81.6396,7.6921,0.0],[-81.634,7.6915,0.0],[-81.6293,7.686,16.1462],[-81.6293,7.6837,0.0],[-81.6254,7.6882,0.0],[-81.6174,7.6854,0.0],[-81.6126,7.6879,14.271],[-81.6129,7.6932,0.0],[-81.6165,7.6951,7.936],[-81.6143,7.6971,0.0],[-81.616,7.6968,0.0]]],
[[[-81.6332,7.7054,0.0],[-81.6349,7.7063,0.0],[-81.6399,7.7021,0.0],[-81.6401,7.699,0.0],[-81.6363,7.6977,0.0],[-81.6343,7.7012,6.4974],[-81.6357,7.7035,6.1167],[-81.6332,7.7054,0.0]]],
[[[-81.6221,7.7021,0.0],[-81.6221,7.7032,0.0],[-81.6254,7.7035,0.0],[-81.6243,7.7021,0.0],[-81.6221,7.7021,0.0]]],
[[[-81.5415,7.724,0.0],[-81.5421,7.7254,0.0],[-81.544,7.7224,0.0],[-81.5407,7.7226,0.0],[-81.5415,7.724,0.0]]],
[[[-81.5815,7.7335,0.0],[-81.5804,7.7346,12.5954],[-81.5849,7.7338,0.0],[-81.5846,7.7332,0.5062],[-81.5815,7.7335,0.0]]],
[[[-81.5165,7.7532,16.8714],[-81.5182,7.7546,0.0],[-81.5235,7.7513,0.0],[-81.5218,7.7474,11.879],[-81.5185,7.7451,8.2164],[-81.5185,7.7412,0.0],[-81.514,7.7446,0.0],[-81.5162,7.7476,0.0],[-81.5143,7.7518,0.0],[-81.5165,7.7532,16.8714]]],
[[[-81.5762,7.7574,0.0],[-81.5774,7.7585,0.0],[-81.5835,7.7551,9.6031],[-81.5771,7.7538,33.0671],[-81.5765,7.7515,0.0],[-81.5779,7.7501,22.9751],[-81.5815,7.7513,13.004],[-81.5832,7.7485,44.3834],[-81.5879,7.7501,16.5353],[-81.591,7.7482,0.0],[-81.589,7.7429,0.0],[-81.5829,7.744,21.5164],[-81.581,7.7407,3.0755],[-81.5762,7.7426,10.3527],[-81.5774,7.7451,6.6519],[-81.5724,7.7454,0.0],[-81.5732,7.7471,47.8964],[-81.571,7.7482,0.0],[-81.5699,7.7554,0.0],[-81.5724,7.7574,0.0],[-81.5735,7.7562,11.4379],[-81.5762,7.7574,0.0]]],
[[[-81.5677,7.8294,9.6173],[-81.5851,7.8222,33.043],[-81.5888,7.8165,0.0],[-81.5879,7.8121,0.0],[-81.5921,7.811,15.6769],[-81.591,7.8087,12.1278],[-81.5929,7.8026,21.9178],[-81.5901,7.7968,0.0],[-81.5851,7.7974,42.1195],[-81.5837,7.7946,0.0],[-81.579,7.7957,22.9751],[-81.5776,7.7926,3.3098],[-81.5788,7.7871,0.0],[-81.5829,7.786,0.0],[-81.5829,7.7826,0.0],[-81.5768,7.7849,0.0],[-81.5754,7.7879,10.4389],[-81.5713,7.7857,20.9466],[-81.5718,7.7826,12.1317],[-81.574,7.7821,0.0],[-81.5746,7.7799,0.0],[-81.5715,7.7774,25.7695],[-81.5715,7.7729,20.9314],[-81.5751,7.7713,20.0724],[-81.584,7.7707,0.0],[-81.5843,7.7679,16.751],[-81.581,7.7668,0.0],[-81.5818,7.764,0.0],[-81.5782,7.7635,0.0],[-81.5735,7.7657,7.5869],[-81.5732,7.7626,5.0017],[-81.566,7.7599,0.0],[-81.5676,7.7585,45.0331],[-81.5671,7.756,19.843],[-81.5626,7.7515,0.0],[-81.5607,7.7521,13.7455],[-81.5596,7.7501,0.0],[-81.5599,7.7524,13.7455],[-81.5565,7.7538,22.4097],[-81.5554,7.7515,0.0],[-81.5507,7.7504,40.4923],[-81.5537,7.7465,0.0],[-81.5507,7.7468,16.8057],[-81.5485,7.7415,0.0],[-81.5432,7.739,9.2901],[-81.5404,7.7407,0.0],[-81.5404,7.7421,0.0],[-81.544,7.744,5.25],[-81.5432,7.749,11.5616],[-81.5415,7.7499,11.5616],[-81.544,7.7515,0.0],[-81.5482,7.7515,7.5934],[-81.5501,7.7546,0.0],[-81.5499,7.7565,3.8569],[-81.5468,7.7568,0.0],[-81.5454,7.7604,13.1143],[-81.549,7.7615,2.1718],[-81.5496,7.764,3.1396],[-81.5457,7.764,16.1712],[-81.5435,7.7671,60.5432],[-81.5338,7.764,20.9021],[-81.5312,7.7663,9.8822],[-81.5287,7.766,20.8524],[-81.5265,7.7618,0.0],[-81.519,7.7607,15.2474],[-81.5179,7.7624,5.8911],[-81.5188,7.7665,4.5865],[-81.5149,7.7637,0.0],[-81.5132,7.7663,2.1531],[-81.5104,7.7657,3.0366],[-81.5082,7.7676,4.103],[-81.5082,7.7657,1.1235],[-81.5037,7.764,3.2301],[-81.5018,7.7582,0.0],[-81.4954,7.7587,0.0],[-81.4943,7.7604,0.0],[-81.4912,7.7587,0.0],[-81.4921,7.7543,5.2668],[-81.4932,7.7554,5.2668],[-81.4954,7.7538,0.0],[-81.4968,7.7493,12.0492],[-81.5007,7.7499,0.0],[-81.499,7.7476,0.0],[-81.5035,7.7457,0.0],[-81.5004,7.744,4.1647],[-81.5004,7.7424,0.0],[-81.4965,7.7412,6.3371],[-81.4965,7.7354,7.6681],[-81.5015,7.7329,3.3775],[-81.5093,7.7346,0.0],[-81.5185,7.7332,13.5656],[-81.5193,7.7318,22.6254],[-81.526,7.7304,0.0],[-81.5268,7.7274,0.0],[-81.5304,7.729,0.0],[-81.5307,7.7257,12.9228],[-81.5346,7.7246,4.7122],[-81.5354,7.721,0.0],[-81.539,7.7199,0.6523],[-81.5385,7.7185,0.0],[-81.534,7.7179,0.0],[-81.5329,7.7157,54.2812],[-81.5263,7.7126,0.0],[-81.5188,7.7126,24.0633],[-81.5151,7.7076,0.0],[-81.5132,7.7096,0.0],[-81.5071,7.7099,0.0],[-81.5062,7.7087,0.0],[-81.5079,7.7049,0.0],[-81.5021,7.7043,7.2484],[-81.4974,7.7079,20.8281],[-81.4965,7.7049,0.0],[-81.4935,7.7057,0.0],[-81.4915,7.7087,0.0],[-81.4918,7.7118,24.6355],[-81.4887,7.709,0.0],[-81.4843,7.7099,0.0],[-81.4837,7.7082,0.0],[-81.4868,7.7063,9.1516],[-81.4874,7.7038,14.4054],[-81.4812,7.7043,8.9293],[-81.4824,7.7018,0.0],[-81.4801,7.7007,0.0],[-81.479,7.701,0.0],[-81.4793,7.7076,1.7497],[-81.4746,7.7054,0.0],[-81.4693,7.706,20.4545],[-81.4707,7.7035,8.0136],[-81.4674,7.7024,12.0017],[-81.4674,7.7054,21.466],[-81.4635,7.7043,10.0075],[-81.4651,7.706,29.6441],[-81.4646,7.7087,0.0],[-81.4554,7.7046,0.0],[-81.4546,7.7085,0.0],[-81.4512,7.7082,1.6212],[-81.449,7.7049,0.0],[-81.4499,7.7029,8.3052],[-81.4471,7.6996,0.0],[-81.4412,7.7029,0.0],[-81.4404,7.6979,0.0],[-81.4343,7.6963,1.9445],[-81.4332,7.6932,0.0],[-81.4335,7.6896,22.8673],[-81.4379,7.6896,3.6988],[-81.4362,7.6879,53.3825],[-81.4379,7.6863,0.0],[-81.4374,7.684,0.0],[-81.4421,7.6793,0.0],[-81.4415,7.6782,0.0],[-81.4396,7.6796,2.8254],[-81.4282,7.6799,0.0],[-81.4285,7.6787,0.0],[-81.4243,7.6782,0.0],[-81.421,7.679,10.3071],[-81.4168,7.6832,0.0],[-81.4149,7.6818,17.9069],[-81.4154,7.6768,0.0],[-81.4099,7.6785,0.0],[-81.4085,7.6746,0.0],[-81.4021,7.6726,14.0088],[-81.3962,7.6762,0.0],[-81.3979,7.6774,5.9584],[-81.3974,7.6807,0.0],[-81.399,7.6804,21.826],[-81.3985,7.6829,1.8262],[-81.3949,7.6832,7.2072],[-81.3935,7.6815,0.0],[-81.3901,7.6824,13.7309],[-81.3901,7.6793,8.6951],[-81.3863,7.6757,22.2953],[-81.3771,7.671,0.0],[-81.3768,7.6668,0.0],[-81.3737,7.6704,0.0],[-81.3704,7.6688,6.5125],[-81.3671,7.6701,0.0],[-81.3649,7.6671,9.5958],[-81.3599,7.669,40.4779],[-81.3565,7.6651,0.0],[-81.3496,7.6643,20.1606],[-81.3374,7.6576,0.0],[-81.334,7.6601,0.0],[-81.3304,7.6579,2.8264],[-81.3199,7.6562,13.1028],[-81.319,7.6537,0.0],[-81.3135,7.6499,0.0],[-81.311,7.6499,0.0],[-81.309,7.6518,6.4885],[-81.3129,7.6543,47.65],[-81.3129,7.656,17.7596],[-81.3107,7.6588,13.1724],[-81.3087,7.6588,9.7992],[-81.3099,7.6618,1.5703],[-81.3079,7.666,2.2935],[-81.3063,7.6643,2.2147],[-81.3065,7.6621,2.1926],[-81.2976,7.6599,2.2139],[-81.2943,7.6574,14.0408],[-81.2937,7.6551,19.0944],[-81.296,7.6543,7.4016],[-81.2951,7.6524,3.8974],[-81.2924,7.6535,0.0],[-81.289,7.6521,7.7918],[-81.2899,7.6479,0.0],[-81.2862,7.6437,0.0],[-81.284,7.644,8.8805],[-81.281,7.6413,3.6048],[-81.2804,7.6396,4.0422],[-81.2832,7.6374,8.4925],[-81.2782,7.6326,0.0],[-81.2718,7.6318,0.0],[-81.2615,7.6346,6.0642],[-81.2571,7.6274,9.6052],[-81.2535,7.6274,12.871],[-81.2501,7.6251,0.0],[-81.2462,7.6282,5.5197],[-81.2387,7.6215,0.0],[-81.2385,7.6151,0.0],[-81.2368,7.6151,0.0],[-81.229,7.6076,1.5139],[-81.2257,7.6085,0.0],[-81.216,7.616,0.0],[-81.216,7.6193,3.0414],[-81.2082,7.6232,6.3249],[-81.2085,7.6249,15.5979],[-81.2032,7.631,0.0],[-81.2032,7.6385,1.6513],[-81.1974,7.6524,0.0],[-81.2007,7.6537,12.938],[-81.2032,7.6632,0.0],[-81.206,7.6643,4.6388],[-81.2093,7.669,7.3734],[-81.194,7.6977,2.4847],[-81.1946,7.711,0.0],[-81.199,7.7149,0.0],[-81.2038,7.7149,0.0],[-81.2099,7.7096,0.0],[-81.2154,7.7093,0.0],[-81.2171,7.7065,13.3452],[-81.2157,7.7107,0.0],[-81.2199,7.7124,0.0],[-81.2254,7.7087,3.7624],[-81.2235,7.7057,6.1763],[-81.226,7.7046,4.0127],[-81.2279,7.6988,0.6463],[-81.2296,7.7015,0.0],[-81.2268,7.7057,0.0],[-81.231,7.7032,0.9233],[-81.231,7.6996,3.5329],[-81.2332,7.7015,0.0],[-81.2343,7.6993,0.6725],[-81.2343,7.704,0.0],[-81.2396,7.7076,2.417],[-81.2407,7.7149,0.0],[-81.2468,7.7165,10.7455],[-81.2507,7.7215,0.0],[-81.2485,7.7215,3.2877],[-81.2457,7.7174,4.9959],[-81.239,7.7171,14.732],[-81.2365,7.7104,0.0],[-81.2332,7.7082,0.0],[-81.2165,7.7163,0.0],[-81.2157,7.7207,0.0],[-81.2224,7.7246,1.4386],[-81.2257,7.7307,0.0],[-81.2288,7.7312,0.7444],[-81.226,7.7321,0.0],[-81.2265,7.749,10.0312],[-81.2321,7.7499,4.8227],[-81.2401,7.7485,6.3421],[-81.2438,7.7496,6.025],[-81.241,7.7501,0.0],[-81.2418,7.7515,0.0],[-81.2499,7.7524,2.4814],[-81.239,7.7532,0.0],[-81.2399,7.7549,0.0],[-81.2421,7.7549,0.0],[-81.2451,7.7532,3.3742],[-81.2438,7.756,0.8533],[-81.2457,7.7607,3.9571],[-81.2423,7.7562,0.7836],[-81.2371,7.7535,0.0],[-81.2312,7.7535,0.0],[-81.2349,7.7565,0.955],[-81.2376,7.7565,4.2208],[-81.2374,7.7585,2.0039],[-81.2351,7.7587,0.0],[-81.2354,7.7607,3.1186],[-81.2326,7.7574,0.7219],[-81.2301,7.7582,0.0],[-81.2307,7.7601,2.271],[-81.229,7.7579,0.0],[-81.2268,7.759,1.7971],[-81.2243,7.756,0.8136],[-81.2213,7.7576,3.4956],[-81.2179,7.7451,3.846],[-81.2224,7.744,0.0],[-81.2207,7.7471,0.751],[-81.2232,7.7488,0.0],[-81.2235,7.7304,0.0],[-81.2201,7.726,8.8848],[-81.2179,7.7257,0.0],[-81.2151,7.7312,0.0],[-81.2087,7.7335,0.6395],[-81.209,7.7396,1.8724],[-81.2057,7.7468,0.0],[-81.194,7.7562,7.5848],[-81.1943,7.7587,7.092],[-81.1985,7.7593,3.4594],[-81.2012,7.7621,0.0],[-81.2071,7.764,0.0],[-81.2112,7.7635,17.5756],[-81.206,7.7651,0.0],[-81.1974,7.761,0.0],[-81.1915,7.7618,0.0],[-81.1929,7.761,0.0],[-81.1918,7.7587,0.5369],[-81.1937,7.7546,0.0],[-81.2054,7.7435,10.7369],[-81.2068,7.7387,0.0],[-81.2021,7.7382,0.0],[-81.1957,7.7399,0.0],[-81.1937,7.7435,4.3452],[-81.1854,7.7482,0.5935],[-81.1851,7.7499,0.0],[-81.1801,7.7507,5.5224],[-81.1765,7.7493,0.0],[-81.1782,7.7554,0.0],[-81.1718,7.7643,0.0],[-81.1682,7.7776,0.0],[-81.1718,7.7801,4.3542],[-81.1732,7.7838,5.6217],[-81.1701,7.7954,0.0],[-81.1718,7.7979,0.0],[-81.1701,7.8001,0.0],[-81.1696,7.8096,0.0],[-81.1804,7.8174,0.0],[-81.1837,7.8254,5.5496],[-81.1815,7.8312,0.0],[-81.181,7.8393,1.5413],[-81.1771,7.8421,12.8839],[-81.1771,7.8485,6.4948],[-81.1824,7.8493,0.0],[-81.1799,7.8541,0.0],[-81.183,7.8532,0.0],[-81.1925,7.8639,29.4993],[-81.1992,7.876,3.1494],[-81.2093,7.8826,0.0],[-81.2074,7.9005,0.0],[-81.1835,7.9031,35.5754],[-81.1833,7.9133,134.1214],[-81.1879,7.9187,7.2788],[-81.2038,7.9237,16.4189],[-81.2148,7.9337,15.914],[-81.2182,7.96,91.9689],[-81.2182,7.9841,77.8196],[-81.2249,7.9943,143.8849],[-81.2262,8.0005,103.8717],[-81.2246,8.0065,126.2054],[-81.2222,8.0092,130.8963],[-81.2163,8.0108,131.4461],[-81.2064,8.0107,87.7176],[-81.196,8.0153,49.7246],[-81.1912,8.0191,43.6854],[-81.1906,8.0227,49.2136],[-81.1945,8.0312,72.7724],[-81.1951,8.0374,115.6771],[-81.187,8.0537,60.1426],[-81.1754,8.0638,60.0033],[-81.1767,8.0683,66.2269],[-81.1999,8.0938,99.3978],[-81.2499,8.1439,71.4428],[-81.2509,8.1475,165.7884],[-81.2585,8.1539,66.8194],[-81.2993,8.1517,85.3379],[-81.3242,8.163,188.8062],[-81.3355,8.1658,162.8484],[-81.3548,8.1611,96.9736],[-81.362,8.149,67.5681],[-81.3639,8.1428,44.6129],[-81.3711,8.1394,61.0547],[-81.3754,8.1299,74.679],[-81.371,8.1278,48.1837],[-81.3679,8.1226,43.7469],[-81.3691,8.1197,51.2539],[-81.3731,8.1176,95.9302],[-81.373,8.1094,38.3771],[-81.3773,8.0991,36.3002],[-81.377,8.0875,63.3682],[-81.3856,8.0779,34.7373],[-81.3911,8.068,42.2545],[-81.4071,8.0564,152.571],[-81.3958,8.031,194.7446],[-81.4072,8.0138,146.816],[-81.4065,8.011,148.5947],[-81.4111,7.9917,288.9101],[-81.4197,7.9745,206.2369],[-81.4345,7.9673,356.7776],[-81.4386,7.9638,360.8763],[-81.4517,7.926,367.8941],[-81.4665,7.9059,357.4734],[-81.474,7.8996,427.7261],[-81.4795,7.8923,372.1443],[-81.4871,7.869,102.2646],[-81.5085,7.8519,418.1533],[-81.5227,7.8362,437.7617],[-81.5474,7.8358,232.7438],[-81.5677,7.8294,9.6173]]],
[[[-81.5843,7.7851,14.7905],[-81.5843,7.7868,0.0],[-81.5865,7.7865,0.0],[-81.5882,7.7843,9.2884],[-81.5849,7.7835,0.0],[-81.5843,7.7851,14.7905]]],
[[[-81.2038,7.7196,1.5208],[-81.2082,7.7199,0.0],[-81.2149,7.7132,1.5918],[-81.2107,7.711,3.7263],[-81.2029,7.7171,0.0],[-81.2038,7.7196,1.5208]]],
[[[-81.1735,7.749,0.0],[-81.176,7.7493,0.0],[-81.1746,7.7457,2.8705],[-81.1724,7.7471,0.0],[-81.1735,7.749,0.0]]],
[[[-81.1685,7.839,0.0],[-81.1696,7.8399,0.0],[-81.1729,7.8382,0.0],[-81.1785,7.826,1.1926],[-81.1793,7.8204,0.0],[-81.1771,7.819,0.5999],[-81.1699,7.8193,0.0],[-81.1635,7.8268,0.0],[-81.1621,7.8351,0.0],[-81.1685,7.839,0.0]]]]}
,"properties": {"GID_2": "PAN.13.11_1","GID_0": "PAN","country": "Panama","GID_1": "PAN.13_1","province": "Veraguas","NL_NAME_1": "NA","county": "Soná","VARNAME_2": "NA","NL_NAME_2": "NA","TYPE_2": "Distrito","ENGTYPE_2": "District","CC_2": "NA","HASC_2": "PA.VR.SO","name": "Soná.county","area_km2": 1603.783,"hist_schema_id": "Elevation0-9000","hist_area_km2": {"0": 144.242,"25": 288.404,"50": 191.383,"75": 161.7,"100": 134.945,"125": 109.537,"150": 89.19,"175": 74.976,"200": 60.005,"225": 50.409,"250": 42.365,"275": 42.638,"300": 39.488,"325": 37.45,"350": 33.921,"375": 31.443,"400": 25.52,"425": 18.379,"450": 11.279,"475": 7.121,"500": 4.033,"525": 2.458,"550": 1.47,"575": 0.882,"600": 0.273,"625": 0.231,"650": 0.042}}}