{"type": "Feature","bbox": [-81.1125,8.0221,-81.0641,8.0728],"geometry": {"type": "MultiPolygon","coordinates": [[[[-81.0834,8.0728,52.7773],[-81.0947,8.0646,32.0734],[-81.0934,8.0514,31.2113],[-81.1064,8.0484,49.7517],[-81.1102,8.0463,100.5935],[-81.1125,8.0422,60.5723],[-81.1059,8.0288,44.1418],[-81.0958,8.0221,25.8953],[-81.0793,8.0366,36.4571],[-81.0703,8.0373,39.1988],[-81.0663,8.041,42.7653],[-81.0641,8.0571,40.1766],[-81.0693,8.0695,42.3437],[-81.0731,8.069,50.3719],[-81.0834,8.0728,52.7773]]]]}
,"properties": {"GID_3": "PAN.13.7.3_1","GID_0": "PAN","country": "Panama","GID_1": "PAN.13_1","province": "Veraguas","NL_NAME_1": "NA","GID_2": "PAN.13.7_1","county": "RíodeJesús","NL_NAME_2": "NA","city": "LosCastillos","VARNAME_3": "NA","NL_NAME_3": "NA","TYPE_3": "Corregimiento","ENGTYPE_3": "Municipality","CC_3": "NA","HASC_3": "NA","name": "Los_Castillos.city","area_km2": 17.00465,"hist_schema_id": "Elevation0-9000","hist_area_km2": {"25": 5.94124,"50": 8.20834,"75": 2.18328,"100": 0.50384,"125": 0.14695,"150": 0.02099}}}