{"type": "Feature","bbox": [-82.6335,8.6543,-82.5505,8.7977],"geometry": {"type": "MultiPolygon","coordinates": [[[[-82.5714,8.7653,1994.2996],[-82.5647,8.7691,2330.0442],[-82.5577,8.7763,2204.8799],[-82.5523,8.784,2419.4363],[-82.5505,8.7946,2693.1675],[-82.5698,8.7868,2149.1663],[-82.5891,8.7844,2157.1785],[-82.5941,8.7961,1922.0549],[-82.5976,8.7977,1787.7],[-82.6036,8.7975,1701.8121],[-82.6191,8.7896,1513.8658],[-82.6194,8.7801,1467.424],[-82.6254,8.7691,1507.6951],[-82.6309,8.7652,1404.2496],[-82.6335,8.7607,1381.5703],[-82.6313,8.7484,1414.845],[-82.6329,8.7307,1128.4702],[-82.6289,8.7102,1074.9662],[-82.6207,8.6907,1032.6969],[-82.6165,8.685,977.7123],[-82.6153,8.6668,915.6407],[-82.6107,8.662,865.5029],[-82.6073,8.6543,818.6133],[-82.6048,8.6668,763.1505],[-82.6082,8.6772,888.6362],[-82.6081,8.6819,888.0314],[-82.6016,8.6965,1021.0463],[-82.6052,8.7058,1093.2046],[-82.6038,8.7156,1163.5144],[-82.6056,8.7348,1264.0538],[-82.6045,8.7412,1373.433],[-82.608,8.7467,1489.9905],[-82.6079,8.749,1449.7917],[-82.604,8.7551,1526.6299],[-82.5952,8.763,1655.4993],[-82.5714,8.7653,1994.2996]]]]}
,"properties": {"GID_3": "PAN.2.3.3_1","GID_0": "PAN","country": "Panama","GID_1": "PAN.2_1","province": "Chiriquí","NL_NAME_1": "NA","GID_2": "PAN.2.3_1","county": "Boquerón","NL_NAME_2": "NA","city": "Cordillera","VARNAME_3": "NA","NL_NAME_3": "NA","TYPE_3": "Corregimiento","ENGTYPE_3": "Municipality","CC_3": "NA","HASC_3": "NA","name": "Cordillera.city","area_km2": 47.46443,"hist_schema_id": "Elevation0-9000","hist_area_km2": {"750": 0.08384,"775": 0.06288,"800": 0.06288,"825": 0.14672,"850": 0.29344,"875": 0.27248,"900": 0.54495,"925": 0.73358,"950": 0.83836,"975": 0.96411,"1000": 1.08984,"1025": 0.98503,"1050": 1.25748,"1075": 2.15865,"1100": 1.48797,"1125": 1.40412,"1150": 1.52985,"1175": 0.96401,"1200": 1.19452,"1225": 0.98495,"1250": 0.94303,"1275": 1.17353,"1300": 0.98491,"1325": 1.32017,"1350": 2.07456,"1375": 1.52971,"1400": 1.17347,"1425": 0.85914,"1450": 1.02678,"1475": 1.34105,"1500": 1.17342,"1525": 0.98484,"1550": 0.88006,"1575": 0.5448,"1600": 0.62862,"1625": 0.48194,"1650": 0.48194,"1675": 0.39812,"1700": 0.48194,"1725": 0.35622,"1750": 0.52385,"1775": 0.39812,"1800": 0.62861,"1825": 0.33526,"1850": 0.48194,"1875": 0.50289,"1900": 0.44004,"1925": 0.46098,"1950": 0.52385,"1975": 0.69149,"2000": 0.44003,"2025": 0.79625,"2050": 0.46099,"2075": 0.50289,"2100": 0.50289,"2125": 0.41908,"2150": 0.60766,"2175": 0.52384,"2200": 0.33526,"2225": 0.23049,"2250": 0.18858,"2275": 0.20954,"2300": 0.23049,"2325": 0.12572,"2350": 0.14667,"2375": 0.08381,"2400": 0.06286,"2425": 0.10477,"2475": 0.10477,"2500": 0.08381,"2525": 0.10477,"2550": 0.10477,"2575": 0.06286,"2600": 0.04191,"2625": 0.02095,"2650": 0.02095,"2675": 0.02095,"2700": 0.02095,"2725": 0.02095}}}