{"type":"Feature","properties":{"GID_3":"PAN.11.1.2_1","GID_0":"PAN","country":"Panama","GID_1":"PAN.11_1","province":"PanamáOeste","NL_NAME_1":"NA","GID_2":"PAN.11.1_1","county":"Arraiján","NL_NAME_2":"NA","city":"JuanDemóstenesArosemena","VARNAME_3":"NA","NL_NAME_3":"NA","TYPE_3":"Corregimiento","ENGTYPE_3":"Municipality","CC_3":"NA","HASC_3":"NA","name":"Juan_Demóstenes_Arosemena.city"},
"geometry":{"type": "MultiPolygon","coordinates": [[[[-79.7053,8.9817,93.6219],[-79.7183,8.9785,97.5327],[-79.7243,8.98,126.829],[-79.7274,8.9791,142.2225],[-79.7297,8.9751,90.7064],[-79.7287,8.9697,67.3437],[-79.7311,8.9566,25.4357],[-79.7347,8.9566,45.7234],[-79.7411,8.9601,78.455],[-79.7462,8.9589,101.07],[-79.7458,8.9528,125.9385],[-79.7476,8.9487,102.0462],[-79.7568,8.9429,175.1287],[-79.7621,8.9348,112.3845],[-79.7676,8.9317,94.6593],[-79.769,8.9281,67.3354],[-79.7688,8.9182,39.2333],[-79.7615,8.9068,18.0322],[-79.7459,8.9107,15.1385],[-79.7391,8.907,16.449],[-79.733,8.9008,19.2774],[-79.7257,8.9036,14.8773],[-79.7147,8.9041,7.9349],[-79.7105,8.9084,13.4895],[-79.7074,8.9147,18.7506],[-79.7076,8.9271,32.4535],[-79.6997,8.9354,25.2553],[-79.6937,8.9356,34.8885],[-79.6885,8.9379,67.2055],[-79.685,8.9538,48.4605],[-79.6863,8.9596,41.7073],[-79.6928,8.9653,52.0238],[-79.6973,8.9736,98.4473],[-79.7053,8.9817,93.6219]]]]}}