{"type":"Feature","properties":{"GID_3":"PAN.13.5.6_1","GID_0":"PAN","country":"Panama","GID_1":"PAN.13_1","province":"Veraguas","NL_NAME_1":"NA","GID_2":"PAN.13.5_1","county":"LasPalmas","NL_NAME_2":"NA","city":"LasPalmas","VARNAME_3":"NA","NL_NAME_3":"NA","TYPE_3":"Corregimiento","ENGTYPE_3":"Municipality","CC_3":"NA","HASC_3":"NA","name":"Las_Palmas.city"},
"geometry":{"type": "MultiPolygon","coordinates": [[[[-81.5283,8.1459,224.4239],[-81.5281,8.135,310.3465],[-81.5261,8.1321,330.1331],[-81.523,8.1313,253.518],[-81.5169,8.1356,293.8767],[-81.5121,8.136,215.7893],[-81.4913,8.1217,245.4829],[-81.4678,8.1211,273.2404],[-81.4438,8.1176,329.2489],[-81.4224,8.1175,219.7643],[-81.4134,8.1116,149.9169],[-81.3983,8.1122,77.6679],[-81.3821,8.1218,52.187],[-81.3754,8.1299,74.679],[-81.3711,8.1394,61.0547],[-81.3639,8.1428,44.6129],[-81.362,8.149,67.5681],[-81.3548,8.1611,96.9736],[-81.3619,8.1737,138.4389],[-81.3622,8.1782,122.6567],[-81.3742,8.1862,147.4572],[-81.4009,8.1819,233.9164],[-81.4131,8.1858,264.7509],[-81.4278,8.1781,206.1532],[-81.4326,8.1815,215.0109],[-81.4375,8.1936,220.5546],[-81.4422,8.1984,235.0417],[-81.4655,8.2034,337.5785],[-81.4729,8.2026,418.4391],[-81.4833,8.2076,451.134],[-81.4974,8.2093,345.4125],[-81.4923,8.1984,306.4862],[-81.5051,8.1885,338.7679],[-81.4961,8.1768,305.9904],[-81.4952,8.1667,220.7266],[-81.4964,8.1613,195.7196],[-81.5179,8.1482,284.5602],[-81.5283,8.1459,224.4239]]]]}}