{"type": "Feature","bbox": [-82.5505,8.7911,-82.3681,8.8836],"geometry": {"type": "MultiPolygon","coordinates": [[[[-82.5471,8.8729,2254.8547],[-82.5457,8.8689,2386.321],[-82.5459,8.8585,2284.6216],[-82.5476,8.8507,2152.4265],[-82.5505,8.7946,2693.1675],[-82.5363,8.805,3262.6372],[-82.523,8.8079,2948.8877],[-82.5079,8.7986,2362.3831],[-82.5021,8.7911,2119.3164],[-82.4876,8.7955,1745.2949],[-82.4633,8.7942,1446.3926],[-82.4472,8.798,1241.8313],[-82.4342,8.7929,1191.7998],[-82.4218,8.7959,1353.7942],[-82.4087,8.7952,1746.6802],[-82.4057,8.7967,1724.2161],[-82.4014,8.8046,1588.6246],[-82.3957,8.8032,1712.0356],[-82.3895,8.8046,1967.4879],[-82.3824,8.8016,2231.2207],[-82.379,8.8026,2257.8369],[-82.3753,8.8078,2206.3123],[-82.3681,8.8273,2182.7651],[-82.3732,8.831,1922.5934],[-82.3812,8.8335,1767.8962],[-82.3847,8.8382,1694.6987],[-82.402,8.8437,1603.4771],[-82.4102,8.8442,1542.8389],[-82.4241,8.8522,1591.7726],[-82.4319,8.8528,1695.7104],[-82.4449,8.8576,1891.9108],[-82.4587,8.8694,2032.561],[-82.4706,8.8722,1812.6328],[-82.4872,8.8836,1891.6554],[-82.5074,8.8834,2255.4866],[-82.5159,8.8808,2379.7393],[-82.5302,8.8655,2833.3237],[-82.5347,8.8629,2729.4688],[-82.5471,8.8729,2254.8547]]]]}
,"properties": {"GID_3": "PAN.2.4.5_1","GID_0": "PAN","country": "Panama","GID_1": "PAN.2_1","province": "Chiriquí","NL_NAME_1": "NA","GID_2": "PAN.2.4_1","county": "Boquete","NL_NAME_2": "NA","city": "LosNaranjos","VARNAME_3": "NA","NL_NAME_3": "NA","TYPE_3": "Corregimiento","ENGTYPE_3": "Municipality","CC_3": "NA","HASC_3": "NA","name": "Los_Naranjos.city","area_km2": 136.725,"hist_schema_id": "Elevation0-9000","hist_area_km2": {"1150": 0.0629,"1175": 0.2095,"1200": 0.5238,"1225": 0.5867,"1250": 1.1314,"1275": 0.7752,"1300": 0.9638,"1325": 1.1105,"1350": 1.1314,"1375": 1.3828,"1400": 1.6552,"1425": 1.2571,"1450": 1.6552,"1475": 2.0533,"1500": 2.4723,"1525": 2.0952,"1550": 2.0323,"1575": 2.0532,"1600": 2.7237,"1625": 2.4513,"1650": 3.0379,"1675": 2.8075,"1700": 2.996,"1725": 2.996,"1750": 3.2055,"1775": 2.9331,"1800": 2.5979,"1825": 3.373,"1850": 3.2892,"1875": 3.0797,"1900": 3.5406,"1925": 3.8758,"1950": 3.2054,"1975": 3.7082,"2000": 3.7082,"2025": 3.1216,"2050": 3.1844,"2075": 2.9121,"2100": 3.6034,"2125": 3.3101,"2150": 2.7445,"2175": 2.5559,"2200": 2.3045,"2225": 1.9065,"2250": 1.8436,"2275": 1.6551,"2300": 1.1104,"2325": 1.3617,"2350": 1.4456,"2375": 1.0475,"2400": 1.3827,"2425": 1.4665,"2450": 1.1523,"2475": 1.257,"2500": 1.278,"2525": 1.3827,"2550": 1.1732,"2575": 0.9847,"2600": 0.9009,"2625": 0.7333,"2650": 0.859,"2675": 0.6914,"2700": 0.859,"2725": 0.5866,"2750": 0.6704,"2775": 0.7333,"2800": 0.5866,"2825": 0.5028,"2850": 0.5238,"2875": 0.4609,"2900": 0.2933,"2925": 0.4609,"2950": 0.2724,"2975": 0.419,"3000": 0.4609,"3025": 0.5238,"3050": 0.5447,"3075": 0.4609,"3100": 0.419,"3125": 0.4819,"3150": 0.5028,"3175": 0.4609,"3200": 0.4609,"3225": 0.3771,"3250": 0.2724,"3275": 0.3981,"3300": 0.2724,"3325": 0.2724,"3350": 0.1467,"3375": 0.0838,"3400": 0.0838,"3425": 0.0629,"3450": 0.021}}}