{"type": "Feature","bbox": [-80.6141,8.0113,-80.4921,8.1139],"geometry": {"type": "MultiPolygon","coordinates": [[[[-80.5559,8.0871,2.7171],[-80.5563,8.0839,3.8458],[-80.5664,8.0776,7.5569],[-80.5713,8.0764,9.5921],[-80.5782,8.078,4.2387],[-80.5833,8.0733,10.8869],[-80.5911,8.0765,6.7574],[-80.5972,8.0747,29.3127],[-80.6011,8.0765,14.9587],[-80.606,8.0746,8.4289],[-80.6116,8.0775,10.5726],[-80.6141,8.0732,22.7461],[-80.612799999999993,8.0679,17.6448],[-80.6081,8.0633,44.6221],[-80.5914,8.0569,72.3469],[-80.5965,8.0503,58.382],[-80.5961,8.0418,48.6881],[-80.5987,8.0361,119.5955],[-80.6115,8.0334,76.0309],[-80.588,8.0222,80.2298],[-80.5796,8.0156,70.6492],[-80.5768,8.0113,57.758],[-80.5608,8.0153,75.2839],[-80.5558,8.0151,82.8234],[-80.5495,8.0263,33.9844],[-80.5362,8.0297,35.3269],[-80.5309,8.0399,19.1752],[-80.5286,8.0488,14.1447],[-80.5228,8.0482,10.7665],[-80.5162,8.0516,7.3699],[-80.5165,8.0567,6.2069],[-80.5128,8.0612,7.5893],[-80.514,8.0648,6.2043],[-80.5047,8.0765,1.233],[-80.5033,8.0859,20.1832],[-80.4978,8.0904,3.7294],[-80.4921,8.0907,0.0],[-80.4985,8.0946,24.6323],[-80.499,8.1029,9.6344],[-80.5051,8.1043,1.1884],[-80.5074,8.1112,4.9206],[-80.5104,8.1093,2.621],[-80.5082,8.104,7.3846],[-80.511,8.0983,10.5049],[-80.5138,8.0966,8.2588],[-80.5178,8.0969,11.628],[-80.5189,8.103,3.1749],[-80.5251,8.1024,3.5621],[-80.5237,8.1117,2.2925],[-80.526,8.1139,2.5844],[-80.5272,8.1128,2.5099],[-80.5265,8.1089,2.4259],[-80.5296,8.1059,2.2739],[-80.534,8.1051,4.863],[-80.5327,8.1106,2.2928],[-80.5356,8.1119,2.7338],[-80.5384,8.1104,2.6767],[-80.538,8.1042,6.6531],[-80.5402,8.1015,2.6903],[-80.5467,8.1038,3.029],[-80.5503,8.1032,3.1061],[-80.5505,8.0974,6.8297],[-80.5559,8.0871,2.7171]]]]}
,"properties": {"GID_3": "PAN.7.5.4_1","GID_0": "PAN","country": "Panama","GID_1": "PAN.7_1","province": "Herrera","NL_NAME_1": "NA","GID_2": "PAN.7.5_1","county": "Parita","NL_NAME_2": "NA","city": "París","VARNAME_3": "NA","NL_NAME_3": "NA","TYPE_3": "Corregimiento","ENGTYPE_3": "Municipality","CC_3": "NA","HASC_3": "NA","name": "París.city","area_km2": 72.73975,"hist_schema_id": "Elevation0-9000","hist_area_km2": {"0": 23.65761,"25": 31.19517,"50": 6.46606,"75": 4.82868,"100": 3.40108,"125": 1.76353,"150": 0.92374,"175": 0.31492,"200": 0.18895}}}