{"type": "Feature","bbox": [-81.515,8.5842,-81.3181,8.753],"geometry": {"type": "MultiPolygon","coordinates": [[[[-81.4999,8.7159,1239.3663],[-81.5032,8.7102,1322.9723],[-81.5015,8.7021,1175.3472],[-81.5074,8.687,1178.2715],[-81.5077,8.6822,1123.6934],[-81.507,8.6774,1086.5986],[-81.5034,8.671,1005.564],[-81.5035,8.6622,1098.7367],[-81.4956,8.657,946.4747],[-81.4954,8.6553,998.8719],[-81.4998,8.651,1107.3298],[-81.515,8.6444,927.7646],[-81.5031,8.6443,1210.446],[-81.4894,8.6472,1089.5337],[-81.4787,8.6358,1010.5736],[-81.4582,8.6344,561.4724],[-81.4498,8.6283,625.1502],[-81.4359,8.6227,469.3539],[-81.4275,8.6233,712.8523],[-81.4182,8.6163,538.2431],[-81.4156,8.6116,622.2266],[-81.4089,8.6063,615.5714],[-81.3877,8.5999,690.0829],[-81.375,8.5933,925.4176],[-81.3625,8.5842,1302.7229],[-81.3523,8.5844,1496.6697],[-81.3566,8.6014,1332.8333],[-81.3481,8.6163,1342.259],[-81.3429,8.6192,1262.0747],[-81.334,8.6201,1050.0123],[-81.3238,8.6308,950.9244],[-81.3191,8.6518,787.0807],[-81.3181,8.6807,1107.151],[-81.3277,8.6808,1025.1599],[-81.3399,8.6768,450.9403],[-81.3423,8.6778,440.3589],[-81.3465,8.6906,429.946],[-81.3483,8.7026,529.3773],[-81.3543,8.714,441.386],[-81.3753,8.7252,135.9892],[-81.3883,8.7357,162.6982],[-81.389,8.7403,132.6028],[-81.3861,8.7476,157.8385],[-81.3878,8.7527,165.4307],[-81.393,8.753,14.8046],[-81.3983,8.7438,20.051],[-81.4054,8.7375,124.4561],[-81.4147,8.7385,42.4578],[-81.4253,8.7342,83.8639],[-81.4423,8.7378,257.3488],[-81.4553,8.7368,403.2182],[-81.4697,8.7331,498.3221],[-81.478,8.7293,572.7029],[-81.4885,8.728,766.157],[-81.4925,8.7239,893.207],[-81.4933,8.719,976.4695],[-81.4999,8.7159,1239.3663]]]]}
,"properties": {"GID_3": "PAN.10.3.4_1","GID_0": "PAN","country": "Panama","GID_1": "PAN.10_1","province": "NgöbeBuglé","NL_NAME_1": "NA","GID_2": "PAN.10.3_1","county": "Kusapín","NL_NAME_2": "NA","city": "LomaYuca","VARNAME_3": "NA","NL_NAME_3": "NA","TYPE_3": "Corregimiento","ENGTYPE_3": "Municipality","CC_3": "NA","HASC_3": "NA","name": "Loma_Yuca.city","area_km2": 236.1964,"hist_schema_id": "Elevation0-9000","hist_area_km2": {"25": 0.7335,"50": 1.5508,"75": 2.5358,"100": 3.0387,"125": 3.395,"150": 2.5149,"175": 2.6825,"200": 3.3322,"225": 3.7305,"250": 4.2964,"275": 5.051,"300": 5.5121,"325": 5.4283,"350": 6.686,"375": 6.8118,"400": 6.6022,"425": 6.7071,"450": 6.4766,"475": 6.833,"500": 6.9797,"525": 7.1475,"550": 7.0637,"575": 6.5816,"600": 6.6864,"625": 6.1204,"650": 5.848,"675": 5.9318,"700": 5.8899,"725": 5.785,"750": 5.1771,"775": 5.3239,"800": 5.7431,"825": 5.1981,"850": 5.1352,"875": 5.0095,"900": 4.9047,"925": 4.7999,"950": 4.234,"975": 3.9405,"1000": 4.0244,"1025": 3.8567,"1050": 4.0034,"1075": 3.2908,"1100": 3.0603,"1125": 3.3118,"1150": 2.4314,"1175": 2.4943,"1200": 2.3057,"1225": 1.6769,"1250": 1.8446,"1275": 1.2996,"1300": 1.1319,"1325": 0.7127,"1350": 0.9014,"1375": 0.566,"1400": 0.566,"1425": 0.4612,"1450": 0.2516,"1475": 0.2935,"1500": 0.2096,"1525": 0.0419,"1550": 0.0419}}}