{"type": "Feature","bbox": [-79.9905,8.7777,-79.7026,9.1824],"geometry": {"type": "MultiPolygon","coordinates": [[[[-79.789,8.7914,37.5644],[-79.7844,8.7826,49.2282],[-79.7727,8.7777,4.9075],[-79.7701,8.7826,3.5021],[-79.7718,8.7835,6.5852],[-79.7721,8.7862,13.389099999999999],[-79.7671,8.7918,0.0],[-79.769,8.7957,0.0],[-79.7657,8.7996,1.3001],[-79.7668,8.804,2.4084],[-79.7635,8.809,12.3163],[-79.7568,8.8132,0.0],[-79.759,8.8176,3.4235],[-79.7546,8.8165,0.0],[-79.7513,8.8185,0.0],[-79.7507,8.8215,0.0],[-79.754,8.8257,4.2628],[-79.7524,8.8274,0.0],[-79.7529,8.829,5.9652],[-79.7515,8.8299,5.9652],[-79.7485,8.8263,0.0],[-79.7465,8.8263,0.0],[-79.7476,8.8304,6.8259],[-79.7454,8.8318,4.5991],[-79.7487,8.8382,0.0],[-79.7424,8.8449,2.2934],[-79.7393,8.8438,0.0],[-79.7404,8.849,0.0],[-79.734,8.8482,0.0],[-79.7299,8.8501,0.0],[-79.7296,8.8551,2.0797],[-79.7201,8.8624,12.175],[-79.706,8.856,0.5677],[-79.7049,8.8588,0.0],[-79.7101,8.8607,4.2097],[-79.7124,8.866,4.9548],[-79.7101,8.8704,2.9264],[-79.7085,8.8701,0.0],[-79.709,8.8687,0.0],[-79.7068,8.8699,0.0],[-79.7087,8.8729,0.0],[-79.7068,8.876,1.4223],[-79.7036,8.8765,0.0],[-79.7026,8.8813,16.1079],[-79.7053,8.8923,8.1865],[-79.7147,8.9041,7.9349],[-79.7257,8.9036,14.8773],[-79.733,8.9008,19.2774],[-79.7391,8.907,16.449],[-79.7459,8.9107,15.1385],[-79.7615,8.9068,18.0322],[-79.7677,8.915,26.9708],[-79.7692,8.9212,43.6396],[-79.7683,8.9307,94.6593],[-79.7621,8.9348,112.3845],[-79.7568,8.9429,175.1287],[-79.7476,8.9487,102.0462],[-79.7458,8.9528,125.9385],[-79.7462,8.9589,101.07],[-79.7519,8.9635,116.2977],[-79.7537,8.9732,137.3551],[-79.7745,8.9902,129.9897],[-79.7564,9.0227,102.6328],[-79.7692,9.0348,75.6931],[-79.7695,9.0503,88.1116],[-79.7731,9.0535,73.3632],[-79.7821,9.0565,68.3231],[-79.7891,9.0627,92.7127],[-79.793,9.0684,83.567],[-79.7944,9.077,118.7244],[-79.7976,9.0815,40.6557],[-79.8021,9.0799,33.6894],[-79.8024,9.0821,31.4966],[-79.804,9.0801,35.6479],[-79.8035,9.0765,40.476],[-79.8065,9.0757,25.0],[-79.8065,9.0729,25.0],[-79.8046,9.0715,37.2986],[-79.809,9.0718,25.0],[-79.8065,9.0685,26.571],[-79.804,9.0682,49.71],[-79.8087,9.0676,39.8903],[-79.8082,9.0629,37.1855],[-79.8107,9.0649,37.4072],[-79.8082,9.0699,25.0],[-79.8101,9.0704,38.209],[-79.8085,9.0757,25.0],[-79.8115,9.0757,28.699],[-79.811,9.0801,25.0],[-79.8154,9.0782,34.1441],[-79.816,9.0815,29.2287],[-79.8185,9.0818,39.9134],[-79.821,9.0796,25.0],[-79.821,9.076,30.3624],[-79.8235,9.0771,25.0],[-79.8232,9.0732,25.0],[-79.8204,9.0715,40.2284],[-79.8204,9.0696,30.2461],[-79.824,9.0718,25.0],[-79.8229,9.0654,43.1809],[-79.8238,9.0551,30.332],[-79.8254,9.0557,34.4109],[-79.8262,9.0532,31.1847],[-79.826,9.0624,25.0],[-79.8288,9.061,40.5897],[-79.8324,9.0551,25.0],[-79.8307,9.0524,49.9924],[-79.8276,9.0513,29.1085],[-79.8274,9.0435,25.0],[-79.8249,9.0426,28.5085],[-79.8246,9.0407,26.3392],[-79.8299,9.0363,25.972],[-79.8326,9.0371,29.1208],[-79.8324,9.0399,28.0109],[-79.8376,9.0457,27.9423],[-79.8326,9.0488,28.206],[-79.8346,9.0537,27.5743],[-79.836,9.0521,25.0],[-79.8396,9.0521,25.0],[-79.839,9.0482,31.4255],[-79.8435,9.0518,27.048],[-79.8418,9.0485,25.3231],[-79.8451,9.0482,26.8035],[-79.8437,9.0399,25.4095],[-79.8451,9.039,25.4095],[-79.8463,9.0421,25.0],[-79.8468,9.0379,29.094],[-79.8487,9.0368,26.8207],[-79.8501,9.0401,30.2451],[-79.8535,9.041,25.6328],[-79.8535,9.0424,28.0209],[-79.8504,9.0426,26.7054],[-79.8507,9.0446,26.53],[-79.8532,9.0451,26.4568],[-79.8501,9.0465,25.9042],[-79.8524,9.0488,29.5435],[-79.8496,9.051,25.0],[-79.8518,9.0518,26.3205],[-79.8554,9.0504,30.9397],[-79.8535,9.0529,25.2197],[-79.856,9.0568,27.2183],[-79.8582,9.0546,25.0],[-79.8568,9.0521,29.784],[-79.8587,9.0488,25.3935],[-79.8599,9.0507,25.2846],[-79.8618,9.0504,27.3203],[-79.8599,9.0529,25.548],[-79.8615,9.0554,30.014],[-79.8649,9.0513,26.414],[-79.8618,9.0476,27.2899],[-79.8668,9.0463,26.8731],[-79.8668,9.0482,27.132],[-79.8696,9.0488,25.6637],[-79.8696,9.0501,25.6637],[-79.8671,9.0521,25.9705],[-79.8682,9.0546,25.6489],[-79.8649,9.0562,25.3853],[-79.8704,9.0649,26.3413],[-79.8743,9.0635,25.5892],[-79.8763,9.0651,25.543],[-79.8757,9.0676,26.5413],[-79.8735,9.0665,25.2622],[-79.874,9.0704,25.0],[-79.8807,9.071,27.5786],[-79.8799,9.0746,28.8657],[-79.8763,9.0726,25.9899],[-79.8765,9.0746,27.4452],[-79.8751,9.0749,26.4206],[-79.8721,9.0696,25.4878],[-79.8704,9.0726,29.4703],[-79.8679,9.0729,28.4662],[-79.8665,9.069,25.0],[-79.864,9.0676,35.2428],[-79.8649,9.0651,25.5427],[-79.8626,9.064,26.3209],[-79.8635,9.059,26.151],[-79.861,9.0612,29.1378],[-79.8562,9.0604,25.0],[-79.8568,9.0632,25.0],[-79.861,9.0651,26.6325],[-79.8574,9.0657,25.3265],[-79.8562,9.0679,27.1041],[-79.8549,9.0651,25.2366],[-79.8524,9.0718,28.2592],[-79.8512,9.0696,25.9695],[-79.8479,9.0713,26.2555],[-79.849,9.0682,26.2726],[-79.8474,9.0679,34.0522],[-79.8471,9.0649,25.0],[-79.8451,9.0674,30.4907],[-79.8435,9.0671,38.2506],[-79.8418,9.0607,25.0],[-79.8407,9.0632,27.8676],[-79.8385,9.061,27.4982],[-79.8368,9.0626,25.0],[-79.841,9.0657,27.705],[-79.8407,9.0671,31.6767],[-79.8385,9.0674,25.0],[-79.8432,9.0696,28.6796],[-79.8426,9.0707,30.8723],[-79.8368,9.0696,31.5965],[-79.8368,9.0679,25.8373],[-79.8346,9.0682,26.0178],[-79.8326,9.0654,25.0],[-79.8304,9.0685,36.746],[-79.831,9.0626,33.9376],[-79.8268,9.0635,25.0],[-79.8254,9.0671,43.6677],[-79.826,9.0779,27.3208],[-79.8187,9.084,25.0],[-79.8196,9.0871,32.6094],[-79.8185,9.0887,25.8571],[-79.8243,9.091,30.045],[-79.8215,9.0929,25.0],[-79.8229,9.0946,25.0],[-79.8213,9.0957,26.8907],[-79.8224,9.0974,38.5896],[-79.8179,9.094,27.3373],[-79.8165,9.0954,25.0],[-79.8146,9.0946,32.5026],[-79.8104,9.099,34.7071],[-79.804,9.101,25.0],[-79.8068,9.1074,34.126],[-79.8085,9.1079,34.126],[-79.8054,9.1107,31.3995],[-79.809,9.1129,46.5608],[-79.8087,9.1199,39.406],[-79.8143,9.1218,43.7902],[-79.814,9.1201,55.063],[-79.8165,9.1193,29.0733],[-79.8199,9.1149,32.1756],[-79.8193,9.1188,25.0],[-79.8229,9.1215,25.0],[-79.8254,9.1276,40.0897],[-79.8313,9.1335,25.0],[-79.8324,9.1315,39.7667],[-79.8349,9.1315,46.4888],[-79.836,9.1337,34.5897],[-79.8374,9.1335,25.0],[-79.8329,9.126,39.8184],[-79.8354,9.1243,25.0],[-79.8324,9.1232,25.0],[-79.8324,9.1179,25.803],[-79.8343,9.1224,25.0],[-79.8362,9.1221,25.0],[-79.8376,9.1274,25.0],[-79.839,9.1271,25.0],[-79.8385,9.1246,42.1127],[-79.844,9.1257,25.0],[-79.8443,9.1229,26.5152],[-79.8479,9.1246,26.7273],[-79.8465,9.1232,25.0],[-79.8474,9.1215,31.9474],[-79.8512,9.1254,30.4505],[-79.8496,9.129,25.0],[-79.8532,9.129,25.0],[-79.8551,9.1257,27.0136],[-79.8562,9.1274,29.6717],[-79.8543,9.1282,25.0],[-79.8574,9.1282,29.6717],[-79.8582,9.131,36.1929],[-79.8613,9.1324,25.0],[-79.8646,9.129,25.0],[-79.8621,9.1221,29.3504],[-79.8621,9.1188,25.0],[-79.8646,9.1188,25.0],[-79.8646,9.1174,28.0574],[-79.8624,9.1154,32.7336],[-79.8662,9.1135,45.0167],[-79.8674,9.1149,31.555],[-79.8701,9.1146,28.6279],[-79.8718,9.1157,25.8706],[-79.8707,9.1185,27.1322],[-79.8751,9.1185,28.2814],[-79.8707,9.1218,26.0526],[-79.8765,9.1218,35.9796],[-79.8779,9.1232,28.4078],[-79.8746,9.124,26.4758],[-79.8743,9.1265,25.0],[-79.8793,9.1274,25.5283],[-79.8779,9.1324,25.0],[-79.881,9.1343,25.0],[-79.8824,9.1379,25.0],[-79.8799,9.1382,25.0],[-79.8796,9.1424,28.592],[-79.8754,9.1418,33.6865],[-79.8774,9.1401,25.0],[-79.8763,9.1365,25.0],[-79.8746,9.1365,25.0],[-79.8724,9.1387,25.8119],[-79.8735,9.1404,25.0],[-79.871,9.1396,25.0],[-79.8696,9.1413,27.5223],[-79.8715,9.1424,25.0],[-79.8701,9.1451,25.0],[-79.8751,9.146,26.4904],[-79.8763,9.1488,25.0],[-79.8776,9.1468,46.9484],[-79.8799,9.1476,25.0],[-79.881,9.1457,28.7228],[-79.8818,9.1476,25.0],[-79.8829,9.146,36.7354],[-79.8801,9.1632,25.0],[-79.8815,9.1668,27.6012],[-79.8851,9.1674,25.0],[-79.8846,9.1654,33.6064],[-79.8824,9.1654,35.2455],[-79.8854,9.1649,46.3156],[-79.8887,9.1676,25.0],[-79.8876,9.1713,32.5177],[-79.884,9.1713,25.0],[-79.8815,9.1749,28.5768],[-79.8801,9.1743,25.0],[-79.8812,9.1785,29.9974],[-79.8851,9.1812,25.0],[-79.8868,9.1796,25.0],[-79.886,9.1776,33.5689],[-79.8907,9.1743,40.1705],[-79.8893,9.1715,37.1099],[-79.8932,9.1699,25.0],[-79.8932,9.1676,26.8241],[-79.8954,9.1674,25.0],[-79.8907,9.1657,54.1273],[-79.8954,9.164,25.0],[-79.8943,9.1601,30.5134],[-79.8962,9.1599,25.0],[-79.8971,9.1521,25.0],[-79.8987,9.1524,25.0],[-79.8985,9.1493,37.7769],[-79.8962,9.149,47.8236],[-79.896,9.1476,28.2861],[-79.899,9.1476,42.4912],[-79.9018,9.1432,28.5006],[-79.9037,9.1451,41.2461],[-79.9018,9.146,29.666],[-79.9029,9.1499,27.9132],[-79.9018,9.1526,25.0],[-79.9046,9.1515,31.0155],[-79.9061,9.1468,26.8848],[-79.9074,9.1479,32.9674],[-79.9071,9.1521,25.0],[-79.9032,9.1563,34.1444],[-79.9057,9.1574,28.4734],[-79.9088,9.1557,34.9817],[-79.906,9.1587,28.4734],[-79.9112,9.1585,34.8439],[-79.9062,9.161,25.0],[-79.9079,9.1635,34.1667],[-79.9099,9.161,27.9749],[-79.9099,9.1676,25.0],[-79.914,9.1663,41.9705],[-79.9151,9.1679,25.0],[-79.9137,9.1696,35.1464],[-79.9179,9.1679,35.7416],[-79.9179,9.1735,25.0],[-79.9199,9.1735,57.0919],[-79.9187,9.1754,25.0],[-79.9204,9.1776,25.0],[-79.9235,9.1746,42.0144],[-79.9268,9.1643,35.4018],[-79.931,9.1646,28.7995],[-79.9343,9.1629,27.4447],[-79.9321,9.1599,25.0],[-79.9324,9.1551,25.0],[-79.9235,9.1582,51.1958],[-79.9262,9.1546,33.3414],[-79.9287,9.1543,25.0],[-79.9265,9.1488,41.2772],[-79.9238,9.1479,28.7565],[-79.9262,9.1479,33.4558],[-79.9285,9.1493,25.0],[-79.929,9.1471,31.4658],[-79.9315,9.1504,27.3801],[-79.9362,9.1507,25.0],[-79.9351,9.144,33.6659],[-79.9382,9.1443,25.0],[-79.9385,9.1429,25.0],[-79.9354,9.141,29.6086],[-79.9329,9.1424,39.2634],[-79.9335,9.1401,28.1579],[-79.9318,9.1393,34.7912],[-79.9318,9.1371,37.5602],[-79.9304,9.1374,37.5602],[-79.9304,9.1396,34.7912],[-79.9287,9.1379,25.0],[-79.9251,9.1387,35.0113],[-79.9262,9.1332,26.6439],[-79.9249,9.1324,28.801],[-79.9232,9.1346,28.4142],[-79.9221,9.1301,25.0],[-79.9171,9.1324,29.7417],[-79.9207,9.1287,29.965699999999998],[-79.9251,9.1287,29.3494],[-79.9262,9.1274,28.5453],[-79.9315,9.1313,26.6111],[-79.9301,9.1279,25.0],[-79.9318,9.1263,26.6614],[-79.9301,9.1268,26.6614],[-79.9287,9.1249,26.3439],[-79.9238,9.1279,29.3494],[-79.9221,9.1263,26.304],[-79.9204,9.1271,29.965699999999998],[-79.9204,9.1246,25.0],[-79.9182,9.124,28.0121],[-79.9232,9.1215,26.7134],[-79.9143,9.1182,27.4993],[-79.9157,9.116,25.0],[-79.9076,9.1132,27.5532],[-79.9101,9.1129,29.6246],[-79.9132,9.114,25.0],[-79.9135,9.1118,29.9006],[-79.9168,9.1146,27.875],[-79.919,9.114,26.4112],[-79.9229,9.116,25.0],[-79.9229,9.114,26.0888],[-79.9196,9.1135,30.7193],[-79.9218,9.1118,25.0],[-79.9193,9.1087,35.2679],[-79.9232,9.1096,25.0],[-79.9232,9.1085,25.3352],[-79.9193,9.1054,29.2897],[-79.924,9.1071,26.2332],[-79.9262,9.109,27.0367],[-79.9265,9.1124,25.0],[-79.9282,9.1124,25.0],[-79.9279,9.1071,25.0],[-79.9232,9.1051,27.351],[-79.9229,9.1035,28.8213],[-79.9274,9.1035,25.5642],[-79.9287,9.1018,25.0],[-79.9262,9.1026,25.5642],[-79.9251,9.0979,28.3652],[-79.9229,9.0968,25.0],[-79.921,9.0974,27.6354],[-79.9207,9.0993,30.8024],[-79.919,9.0988,34.8524],[-79.9204,9.089,25.0],[-79.9187,9.0901,26.7776],[-79.916,9.0893,26.7719],[-79.9163,9.0921,28.2717],[-79.9143,9.0865,26.4765],[-79.9124,9.0851,25.0],[-79.9037,9.0879,30.0467],[-79.9029,9.0854,25.0],[-79.9007,9.0857,46.906],[-79.899,9.0832,28.7767],[-79.9043,9.0843,28.6937],[-79.9062,9.0863,26.6914],[-79.9118,9.0804,31.7973],[-79.9129,9.0821,25.0],[-79.916,9.0815,26.0664],[-79.9179,9.0776,25.532],[-79.919,9.0782,25.532],[-79.9185,9.0815,25.0],[-79.9199,9.0815,25.0],[-79.921,9.0793,25.0],[-79.9199,9.0726,25.5706],[-79.9215,9.0726,25.5706],[-79.9226,9.0826,25.8445],[-79.9246,9.0837,25.8979],[-79.9235,9.0854,25.0],[-79.9268,9.0865,26.2377],[-79.9251,9.0879,25.0],[-79.9257,9.0899,25.0],[-79.9285,9.0888,30.7707],[-79.9293,9.0901,30.7707],[-79.9268,9.0921,26.1727],[-79.9262,9.096,25.0],[-79.9282,9.0938,32.6062],[-79.9315,9.0968,33.0583],[-79.9354,9.0957,25.7911],[-79.936,9.0976,25.0],[-79.9371,9.0957,25.0],[-79.936,9.0938,26.4149],[-79.9399,9.0938,25.997],[-79.9413,9.0957,26.4403],[-79.9396,9.0957,26.661],[-79.9396,9.0976,25.8683],[-79.9415,9.096,26.4403],[-79.9418,9.0996,25.0],[-79.944,9.1015,25.0],[-79.9457,9.0996,38.4608],[-79.9432,9.0974,34.836],[-79.9426,9.0915,26.722],[-79.9449,9.089,26.7671],[-79.9435,9.0887,30.4865],[-79.9429,9.0843,27.3777],[-79.9454,9.0851,31.9702],[-79.9463,9.0837,30.157],[-79.9421,9.0801,25.0],[-79.9362,9.0804,27.0094],[-79.9365,9.079,27.0094],[-79.9393,9.0793,26.8427],[-79.9404,9.0763,25.0],[-79.9376,9.0749,25.0],[-79.9376,9.0726,25.0],[-79.9301,9.0707,30.427],[-79.9299,9.0688,28.3757],[-79.9268,9.0674,32.8675],[-79.9285,9.066,29.3107],[-79.931,9.0674,25.0],[-79.9315,9.0649,29.1936],[-79.9332,9.0657,25.0],[-79.9349,9.064,25.0],[-79.934,9.0671,25.0],[-79.9351,9.0685,25.0],[-79.9415,9.066,26.159],[-79.9388,9.0696,25.4561],[-79.9415,9.0751,25.9627],[-79.9443,9.076,26.0873],[-79.9435,9.0782,25.0],[-79.9457,9.0804,25.0],[-79.9474,9.0768,34.3334],[-79.9501,9.0799,25.4177],[-79.9529,9.0771,25.0],[-79.9546,9.0779,25.0],[-79.9529,9.0812,27.7492],[-79.9493,9.0818,25.984],[-79.9518,9.0826,25.0],[-79.951,9.0846,27.0345],[-79.9565,9.0854,27.6767],[-79.9535,9.0879,28.8794],[-79.9493,9.0863,26.4102],[-79.9529,9.0896,28.2137],[-79.9512,9.0949,29.0037],[-79.956,9.0887,29.5608],[-79.959,9.0929,26.1178],[-79.9587,9.0968,25.0],[-79.961,9.0946,27.1033],[-79.9587,9.089,28.5366],[-79.9601,9.0874,27.1129],[-79.9582,9.0857,28.0466],[-79.9599,9.0835,29.7723],[-79.9629,9.0843,25.0],[-79.9618,9.0801,29.5517],[-79.964,9.0807,25.0],[-79.9654,9.0787,25.0],[-79.9626,9.0765,25.0],[-79.9599,9.0779,27.9082],[-79.9601,9.0749,25.614],[-79.9568,9.0737,25.0],[-79.9574,9.0724,25.0],[-79.9613,9.0724,25.0],[-79.9596,9.0704,28.7813],[-79.961,9.0668,25.0],[-79.9563,9.0671,33.912],[-79.9532,9.064,34.3048],[-79.954,9.0621,32.9578],[-79.9526,9.0601,27.1318],[-79.954,9.0588,27.1318],[-79.9526,9.0568,31.5356],[-79.9557,9.0565,25.0],[-79.9546,9.0535,25.8293],[-79.956,9.0537,27.9857],[-79.9565,9.0513,26.5077],[-79.9521,9.0532,28.7074],[-79.9515,9.0513,29.275],[-79.9535,9.0507,28.316],[-79.9538,9.0474,27.6054],[-79.9468,9.0471,28.5622],[-79.9515,9.0429,29.4405],[-79.9504,9.039,27.2584],[-79.9493,9.0407,30.5058],[-79.9446,9.0407,27.0677],[-79.9437,9.0374,27.845],[-79.9476,9.0351,25.0],[-79.9451,9.0349,27.2945],[-79.9413,9.0304,34.4342],[-79.9374,9.0301,25.0],[-79.9368,9.0285,29.3183],[-79.9454,9.0315,32.2513],[-79.9463,9.0332,25.0],[-79.949,9.0332,25.0],[-79.9476,9.0321,26.0673],[-79.9476,9.0279,26.6032],[-79.9521,9.0282,29.9194],[-79.9496,9.0224,28.7117],[-79.9507,9.0193,25.8825],[-79.9524,9.0182,30.5704],[-79.9535,9.0224,26.2475],[-79.9568,9.0215,25.0],[-79.9565,9.0154,25.0],[-79.954,9.0126,29.8211],[-79.9557,9.0112,25.0],[-79.9561,9.005,35.7891],[-79.9617,8.9968,25.2677],[-79.9645,8.984,58.374],[-79.9694,8.9887,27.2984],[-79.9749,8.9895,28.1276],[-79.9767,8.9834,40.2065],[-79.982,8.982,33.5082],[-79.9833,8.9788,36.6009],[-79.9874,8.9779,45.4244],[-79.9905,8.9724,81.3756],[-79.9848,8.9638,99.1603],[-79.9714,8.93,142.524],[-79.9846,8.9242,248.7425],[-79.9756,8.9064,191.0464],[-79.9804,8.8884,242.7079],[-79.9768,8.8688,261.0051],[-79.9772,8.8604,270.3685],[-79.9687,8.8397,252.7001],[-79.9603,8.8364,182.9237],[-79.9565,8.8321,181.65],[-79.9509,8.83,183.1313],[-79.9383,8.835,169.3682],[-79.9387,8.8199,178.8039],[-79.9315,8.8186,236.4338],[-79.9226,8.8208,226.0531],[-79.9098,8.8074,126.1056],[-79.9051,8.8084,221.8249],[-79.8987,8.8152,109.8829],[-79.8805,8.8191,151.8514],[-79.8759,8.8186,92.6342],[-79.8572,8.8111,183.1528],[-79.8542,8.8129,155.2561],[-79.853,8.8179,127.2326],[-79.8497,8.8168,119.6159],[-79.8402,8.8271,68.4905],[-79.8276,8.8305,130.3182],[-79.8321,8.8141,121.5099],[-79.8255,8.8041,31.9517],[-79.8168,8.798,35.3902],[-79.8082,8.8,12.1361],[-79.8036,8.7998,69.5419],[-79.8014,8.7982,81.1623],[-79.7966,8.8018,7.8458],[-79.7924,8.8019,17.7214],[-79.789,8.7914,37.5644]]],
[[[-79.724,8.8476,0.0],[-79.7251,8.8485,1.2801],[-79.7274,8.8485,0.0],[-79.7251,8.8463,0.0],[-79.724,8.8476,0.0]]],
[[[-79.7988,9.0862,69.0921],[-79.7991,9.0893,67.5451],[-79.7949,9.0915,25.0],[-79.7974,9.0918,48.4836],[-79.796,9.0976,28.0737],[-79.7935,9.099,25.0],[-79.7943,9.1018,37.0118],[-79.7951,9.0999,44.8569],[-79.7968,9.101,43.9486],[-79.7949,9.1051,25.0],[-79.796,9.1076,32.4822],[-79.794,9.1074,25.0],[-79.7932,9.1137,25.0],[-79.7979,9.1168,35.4091],[-79.8001,9.1165,30.8142],[-79.7988,9.1124,25.0],[-79.801,9.1115,25.0],[-79.7988,9.1046,25.0],[-79.7974,9.1046,28.791],[-79.799,9.1021,25.0],[-79.7982,9.0979,52.6116],[-79.8043,9.0976,34.1766],[-79.8049,9.0929,32.0577],[-79.8032,9.0913,29.7128],[-79.806,9.0879,32.7129],[-79.8071,9.0879,41.3726],[-79.8057,9.0899,28.3732],[-79.8071,9.0982,34.5459],[-79.8129,9.0951,32.5026],[-79.8126,9.0918,49.5624],[-79.8143,9.0904,53.1693],[-79.8138,9.0865,25.0],[-79.8099,9.0876,37.2088],[-79.8129,9.0843,25.3871],[-79.8087,9.0832,27.1556],[-79.8079,9.0793,27.1268],[-79.8051,9.0837,33.6379],[-79.8018,9.0829,45.429],[-79.801,9.0812,25.0],[-79.7982,9.0815,40.6557],[-79.7988,9.0862,69.0921]]],
[[[-79.8396,9.129,25.0],[-79.8426,9.129,25.0],[-79.8426,9.1271,27.4247],[-79.8404,9.1274,33.8092],[-79.8396,9.129,25.0]]],
[[[-79.8426,9.131,25.0],[-79.8412,9.1296,25.0],[-79.8396,9.1299,25.0],[-79.8418,9.1321,25.0],[-79.8426,9.131,25.0]]],
[[[-79.8346,9.1362,32.3884],[-79.8332,9.1371,29.4318],[-79.8329,9.1388,25.0],[-79.8349,9.1379,35.6365],[-79.8346,9.1362,32.3884]]],
[[[-79.9176,9.0829,25.0],[-79.916,9.0846,25.0],[-79.9185,9.0857,25.0],[-79.9187,9.0837,25.0],[-79.9176,9.0829,25.0]]],
[[[-79.8704,9.1271,25.0],[-79.8693,9.124,27.1813],[-79.8676,9.1238,26.567],[-79.8701,9.1279,25.0],[-79.8704,9.1271,25.0]]],
[[[-79.876,9.1296,25.0],[-79.8737,9.1304,25.0],[-79.8743,9.1318,25.0],[-79.8774,9.1299,25.0],[-79.876,9.1296,25.0]]],
[[[-79.9232,9.0924,25.0],[-79.921,9.0918,25.0],[-79.9207,9.0929,25.0],[-79.9235,9.0935,25.0],[-79.9232,9.0924,25.0]]],
[[[-79.9232,9.0954,26.1387],[-79.9235,9.0946,26.1387],[-79.9201,9.0946,25.7657],[-79.9201,9.0957,25.0],[-79.9232,9.0954,26.1387]]],
[[[-79.9279,9.0982,27.0284],[-79.9296,9.099,25.0],[-79.9293,9.0965,25.0],[-79.9276,9.0968,25.0],[-79.9279,9.0982,27.0284]]],
[[[-79.9307,9.1054,25.0],[-79.9315,9.1082,25.0],[-79.9337,9.1079,27.3323],[-79.9324,9.1051,25.0],[-79.9307,9.1054,25.0]]],
[[[-79.8551,9.1379,25.0],[-79.8562,9.1385,26.8602],[-79.8574,9.1385,26.8602],[-79.8546,9.1365,25.0],[-79.8551,9.1379,25.0]]],
[[[-79.8979,9.1618,25.0],[-79.8971,9.1607,25.0],[-79.899,9.1651,29.5294],[-79.8993,9.1637,25.0],[-79.8979,9.1618,25.0]]],
[[[-79.9282,9.1685,25.8305],[-79.9293,9.1704,28.0956],[-79.9307,9.1704,25.0],[-79.9304,9.1676,25.0],[-79.9282,9.1685,25.8305]]],
[[[-79.9271,9.1721,25.0],[-79.9274,9.1743,25.0],[-79.9285,9.1746,25.0],[-79.9293,9.1713,25.0],[-79.9271,9.1721,25.0]]],
[[[-79.8387,9.1732,40.7985],[-79.8407,9.1707,36.2954],[-79.8426,9.174,37.5608],[-79.8426,9.1785,41.0385],[-79.8451,9.1796,30.4483],[-79.8482,9.1738,25.0],[-79.8474,9.171,54.7148],[-79.8538,9.1768,25.0],[-79.856,9.1765,47.6244],[-79.8571,9.1749,39.3703],[-79.8557,9.1735,69.765],[-79.8582,9.1715,25.0],[-79.8549,9.1721,69.765],[-79.854,9.1696,29.5615],[-79.8587,9.1696,25.0],[-79.8587,9.1663,28.7489],[-79.8624,9.1657,44.69],[-79.8613,9.1754,32.4144],[-79.8635,9.1754,42.1704],[-79.8637,9.1718,46.674],[-79.866,9.1743,25.0],[-79.8699,9.1713,37.8914],[-79.869,9.1699,25.0],[-79.8665,9.1701,25.0],[-79.8657,9.1657,56.4931],[-79.8662,9.1637,37.8454],[-79.8685,9.1635,25.0],[-79.8674,9.1607,27.8292],[-79.8693,9.1563,29.1714],[-79.8685,9.1515,25.0],[-79.8704,9.1485,25.0],[-79.8682,9.1488,39.9972],[-79.8674,9.1449,25.0],[-79.8651,9.1449,38.2788],[-79.866,9.1424,27.8292],[-79.8626,9.1435,25.0],[-79.861,9.1393,25.0],[-79.8562,9.1393,32.5905],[-79.8538,9.1404,25.0],[-79.854,9.1418,39.3742],[-79.8499,9.1418,25.0],[-79.8521,9.1382,25.0],[-79.8479,9.1351,32.8866],[-79.8479,9.1329,27.5254],[-79.8437,9.1354,27.6941],[-79.8421,9.1443,41.1075],[-79.8415,9.1421,30.5454],[-79.8393,9.1449,39.6405],[-79.8354,9.1429,27.8647],[-79.8371,9.1482,28.2474],[-79.8343,9.1463,27.3266],[-79.8285,9.1476,37.7827],[-79.8274,9.1451,32.0116],[-79.8296,9.1407,28.3956],[-79.8282,9.1399,25.0],[-79.8249,9.1457,25.0],[-79.8271,9.1471,37.7827],[-79.8251,9.1485,25.0],[-79.8262,9.151,31.8737],[-79.8226,9.1526,25.0],[-79.8193,9.1576,33.9709],[-79.8193,9.1615,31.28],[-79.8246,9.1654,35.774],[-79.8282,9.1646,33.3615],[-79.8299,9.1624,38.9132],[-79.8321,9.1629,52.0728],[-79.8313,9.1657,25.0],[-79.8357,9.1635,60.3785],[-79.8365,9.1674,31.488],[-79.8332,9.1746,25.0],[-79.8387,9.1732,40.7985]]],
[[[-79.8499,9.1771,25.0],[-79.8504,9.1757,25.0],[-79.846,9.1788,46.7254],[-79.844,9.1824,25.0],[-79.8482,9.1807,35.3344],[-79.8499,9.1771,25.0]]]]}
,"properties": {"GID_2": "PAN.11.4_1","GID_0": "PAN","country": "Panama","GID_1": "PAN.11_1","province": "PanamáOeste","NL_NAME_1": "NA","county": "LaChorrera","VARNAME_2": "NA","NL_NAME_2": "NA","TYPE_2": "Distrito","ENGTYPE_2": "District","CC_2": "NA","HASC_2": "PA.PN.LC","name": "La_Chorrera.county","area_km2": 803.349,"hist_schema_id": "Elevation0-9000","hist_area_km2": {"0": 11.1454,"25": 77.6475,"50": 158.8086,"75": 145.956,"100": 155.8258,"125": 120.7649,"150": 62.0616,"175": 32.8664,"200": 20.5082,"225": 10.2228,"250": 4.7345,"275": 2.0321,"300": 0.5028,"325": 0.2095,"350": 0.0629}}}