{"type":"Feature","properties":{"GID_3":"PAN.11.2.5_1","GID_0":"PAN","country":"Panama","GID_1":"PAN.11_1","province":"PanamáOeste","NL_NAME_1":"NA","GID_2":"PAN.11.2_1","county":"Capira","NL_NAME_2":"NA","city":"CirídelosSotos","VARNAME_3":"NA","NL_NAME_3":"NA","TYPE_3":"Corregimiento","ENGTYPE_3":"Municipality","CC_3":"NA","HASC_3":"NA","name":"Cirídelos_Sotos.city"},
"geometry":{"type": "MultiPolygon","coordinates": [[[[-80.15,8.9102,65.8361],[-80.1517,8.8986,166.4535],[-80.1442,8.8778,215.0607],[-80.1395,8.8741,245.662],[-80.1319,8.8712,217.5239],[-80.1262,8.8727,164.7307],[-80.1214,8.877,132.0419],[-80.1172,8.8769,261.9715],[-80.1025,8.8635,188.851],[-80.0997,8.863,134.1362],[-80.0935,8.8746,247.1595],[-80.0869,8.8822,268.2032],[-80.0817,8.9013,142.5123],[-80.0749,8.9053,133.5301],[-80.0606,8.905,220.538],[-80.0598,8.92,161.7185],[-80.0678,8.9371,121.7748],[-80.0686,8.9514,184.6293],[-80.0669,8.9578,118.5823],[-80.0615,8.9628,156.0552],[-80.055,8.9753,47.9173],[-80.0657,8.9819,100.3297],[-80.0922,9.0032,136.6991],[-80.1157,8.9732,157.257],[-80.1362,8.9658,207.9924],[-80.1415,8.9567,36.9164],[-80.145,8.9452,37.5777],[-80.1423,8.9399,29.3294],[-80.1372,8.9356,34.7436],[-80.1371,8.9315,42.8129],[-80.1397,8.9254,41.9104],[-80.1475,8.9195,45.5462],[-80.15,8.9102,65.8361]]]]}}