{"type": "Feature","bbox": [-80.5104,8.5112,-80.3989,8.6315],"geometry": {"type": "MultiPolygon","coordinates": [[[[-80.4733,8.5112,479.3756],[-80.4357,8.5148,38.4191],[-80.4345,8.5172,40.4248],[-80.4364,8.5251,46.8381],[-80.4453,8.5396,50.212],[-80.4434,8.5429,42.489],[-80.4372,8.5462,53.5127],[-80.4356,8.5556,56.8749],[-80.4199,8.5613,164.9073],[-80.4112,8.5579,190.393],[-80.4068,8.5578,200.3202],[-80.3989,8.5627,254.3374],[-80.4028,8.5731,463.4237],[-80.408,8.6069,142.3699],[-80.4083,8.6186,145.3194],[-80.4168,8.6145,98.1897],[-80.4275,8.6161,116.5605],[-80.4337,8.6108,80.4733],[-80.4469,8.6182,77.9459],[-80.4533,8.626,112.124],[-80.4643,8.6315,102.7445],[-80.4698,8.6203,155.8792],[-80.4887,8.611,450.812],[-80.5022,8.6125,393.9849],[-80.5086,8.6086,190.6193],[-80.5104,8.5917,161.4725],[-80.506,8.5827,363.7556],[-80.4996,8.5805,433.5784],[-80.4935,8.575,305.9783],[-80.4915,8.5702,302.8346],[-80.4931,8.5629,316.0946],[-80.4912,8.5559,268.7551],[-80.4867,8.552,286.0261],[-80.4744,8.5488,158.4211],[-80.4682,8.5435,110.1462],[-80.472,8.5366,198.6237],[-80.473,8.5286,278.5258],[-80.4769,8.5203,365.9179],[-80.4768,8.517,410.338],[-80.4733,8.5112,479.3756]]]]}
,"properties": {"GID_3": "PAN.3.3.3_1","GID_0": "PAN","country": "Panama","GID_1": "PAN.3_1","province": "Coclé","NL_NAME_1": "NA","GID_2": "PAN.3.3_1","county": "LaPintada","NL_NAME_2": "NA","city": "LaPintada","VARNAME_3": "NA","NL_NAME_3": "NA","TYPE_3": "Corregimiento","ENGTYPE_3": "Municipality","CC_3": "NA","HASC_3": "NA","name": "La_Pintada.city","area_km2": 91.1353,"hist_schema_id": "Elevation0-9000","hist_area_km2": {"25": 0.14678,"50": 10.96521,"75": 20.60826,"100": 10.8177,"125": 8.02947,"150": 6.37335,"175": 5.53476,"200": 4.90578,"225": 5.17839,"250": 4.04627,"275": 3.29153,"300": 2.51584,"325": 3.01911,"350": 2.09659,"375": 0.90154,"400": 0.81767,"425": 0.64996,"450": 0.41934,"475": 0.20967,"500": 0.14678,"525": 0.16774,"550": 0.12581,"575": 0.06291,"600": 0.08387,"625": 0.02097}}}