{"type":"Feature","properties":{"GID_3":"PAN.11.4.1_1","GID_0":"PAN","country":"Panama","GID_1":"PAN.11_1","province":"PanamáOeste","NL_NAME_1":"NA","GID_2":"PAN.11.4_1","county":"LaChorrera","NL_NAME_2":"NA","city":"Amador","VARNAME_3":"NA","NL_NAME_3":"NA","TYPE_3":"Corregimiento","ENGTYPE_3":"Municipality","CC_3":"NA","HASC_3":"NA","name":"Amador.city"},
"geometry":{"type": "MultiPolygon","coordinates": [[[[-79.8208,9.1141,32.1756],[-79.8195,9.1145,32.1756],[-79.8193,9.1188,25.0],[-79.8229,9.1215,25.0],[-79.8254,9.1276,40.0897],[-79.8313,9.1335,25.0],[-79.8324,9.1315,39.7667],[-79.8349,9.1315,46.4888],[-79.836,9.1337,34.5897],[-79.8374,9.1335,25.0],[-79.8329,9.126,39.8184],[-79.8354,9.1243,25.0],[-79.8324,9.1232,25.0],[-79.8324,9.1179,25.803],[-79.8343,9.1224,25.0],[-79.8362,9.1221,25.0],[-79.8376,9.1274,25.0],[-79.839,9.1271,25.0],[-79.8385,9.1246,42.1127],[-79.844,9.1257,25.0],[-79.8443,9.1229,26.5152],[-79.8479,9.1246,26.7273],[-79.8465,9.1232,25.0],[-79.8474,9.1215,31.9474],[-79.8512,9.1254,30.4505],[-79.8496,9.129,25.0],[-79.8532,9.129,25.0],[-79.8551,9.1257,27.0136],[-79.8562,9.1274,29.6717],[-79.8543,9.1282,25.0],[-79.8574,9.1282,29.6717],[-79.8604,9.1324,25.0],[-79.8646,9.129,25.0],[-79.8621,9.1221,29.3504],[-79.8621,9.1188,25.0],[-79.8646,9.1188,25.0],[-79.8624,9.116,28.6426],[-79.864,9.1138,32.7336],[-79.8715,9.1154,27.6152],[-79.8712,9.1188,25.0],[-79.8751,9.1185,28.2814],[-79.8707,9.1218,26.0526],[-79.8765,9.1218,35.9796],[-79.8779,9.1232,28.4078],[-79.8746,9.124,26.4758],[-79.8743,9.1265,25.0],[-79.8793,9.1274,25.5283],[-79.8779,9.1324,25.0],[-79.881,9.1343,25.0],[-79.8824,9.1379,25.0],[-79.8799,9.1382,25.0],[-79.8796,9.1424,28.592],[-79.8754,9.1418,33.6865],[-79.8774,9.1401,25.0],[-79.8763,9.1365,25.0],[-79.8746,9.1365,25.0],[-79.8724,9.1387,25.8119],[-79.8737,9.1401,25.0],[-79.871,9.1396,25.0],[-79.8696,9.1421,25.0],[-79.8715,9.1424,25.0],[-79.8701,9.1451,25.0],[-79.8751,9.146,26.4904],[-79.8763,9.1488,25.0],[-79.8776,9.1468,46.9484],[-79.8799,9.1476,25.0],[-79.881,9.1457,28.7228],[-79.8818,9.1476,25.0],[-79.8829,9.146,36.7354],[-79.8801,9.1632,25.0],[-79.8815,9.1668,27.6012],[-79.8851,9.1674,25.0],[-79.8846,9.1654,33.6064],[-79.8824,9.1654,35.2455],[-79.8854,9.1649,46.3156],[-79.8887,9.1676,25.0],[-79.8876,9.1713,32.5177],[-79.884,9.1713,25.0],[-79.8815,9.1749,28.5768],[-79.8801,9.1743,25.0],[-79.8812,9.1785,29.9974],[-79.8849,9.1812,25.0],[-79.8868,9.1796,25.0],[-79.886,9.1776,33.5689],[-79.8907,9.1743,40.1705],[-79.8893,9.1715,37.1099],[-79.8932,9.1699,25.0],[-79.8932,9.1676,26.8241],[-79.8954,9.1674,25.0],[-79.8907,9.1657,54.1273],[-79.8954,9.164,25.0],[-79.8943,9.1601,30.5134],[-79.8962,9.1599,25.0],[-79.8971,9.1521,25.0],[-79.8987,9.1524,25.0],[-79.8985,9.1493,37.7769],[-79.8962,9.149,47.8236],[-79.896,9.1476,28.2861],[-79.899,9.1476,42.4912],[-79.9018,9.1432,28.5006],[-79.9037,9.1451,41.2461],[-79.9018,9.146,29.666],[-79.9029,9.1499,27.9132],[-79.9018,9.1526,25.0],[-79.9046,9.1515,31.0155],[-79.9061,9.1468,26.8848],[-79.9074,9.1479,32.9674],[-79.9071,9.1521,25.0],[-79.9032,9.1563,34.1444],[-79.9057,9.1574,28.4734],[-79.9088,9.1557,34.9817],[-79.906,9.1587,28.4734],[-79.9112,9.1585,34.8439],[-79.9062,9.161,25.0],[-79.9079,9.1635,34.1667],[-79.9099,9.161,27.9749],[-79.9099,9.1676,25.0],[-79.914,9.1663,41.9705],[-79.9151,9.1679,25.0],[-79.9137,9.1696,35.1464],[-79.9179,9.1679,35.7416],[-79.9179,9.1735,25.0],[-79.9199,9.1735,57.0919],[-79.9187,9.1754,25.0],[-79.9199,9.1776,25.0],[-79.9232,9.1751,42.0144],[-79.9268,9.1643,35.4018],[-79.931,9.1646,28.7995],[-79.9343,9.1629,27.4447],[-79.9321,9.1599,25.0],[-79.9324,9.1551,25.0],[-79.9235,9.1582,51.1958],[-79.9262,9.1546,33.3414],[-79.9287,9.1543,25.0],[-79.9265,9.1488,41.2772],[-79.9238,9.1479,28.7565],[-79.9262,9.1479,33.4558],[-79.9285,9.1493,25.0],[-79.929,9.1471,31.4658],[-79.9315,9.1504,27.3801],[-79.9362,9.1507,25.0],[-79.9351,9.144,33.6659],[-79.9382,9.1443,25.0],[-79.9385,9.1429,25.0],[-79.9354,9.141,29.6086],[-79.9329,9.1424,39.2634],[-79.9335,9.1401,28.1579],[-79.9318,9.1393,34.7912],[-79.9318,9.1371,37.5602],[-79.9304,9.1374,37.5602],[-79.9304,9.1396,34.7912],[-79.9287,9.1379,25.0],[-79.9251,9.1387,35.0113],[-79.9262,9.1332,26.6439],[-79.9249,9.1324,28.801],[-79.9232,9.1346,28.4142],[-79.9221,9.1301,25.0],[-79.9171,9.1324,29.7417],[-79.9207,9.1287,29.965699999999998],[-79.9251,9.1287,29.3494],[-79.9262,9.1274,28.5453],[-79.9315,9.1313,26.6111],[-79.9301,9.1279,25.0],[-79.9318,9.1263,26.6614],[-79.9301,9.1268,26.6614],[-79.9287,9.1249,26.3439],[-79.9238,9.1279,29.3494],[-79.9221,9.1263,26.304],[-79.9204,9.1271,29.965699999999998],[-79.9204,9.1246,25.0],[-79.9182,9.124,28.0121],[-79.9232,9.1215,26.7134],[-79.9143,9.1182,27.4993],[-79.9157,9.116,25.0],[-79.9076,9.1132,27.5532],[-79.9101,9.1129,29.6246],[-79.9132,9.114,25.0],[-79.9135,9.1118,29.9006],[-79.9168,9.1146,27.875],[-79.919,9.114,26.4112],[-79.9229,9.116,25.0],[-79.9229,9.114,26.0888],[-79.9196,9.1135,30.7193],[-79.9218,9.1118,25.0],[-79.9193,9.1087,35.2679],[-79.9232,9.1096,25.0],[-79.9232,9.1085,25.3352],[-79.919,9.1057,32.7308],[-79.9229,9.1062,26.813],[-79.9262,9.109,27.0367],[-79.9265,9.1124,25.0],[-79.9282,9.1124,25.0],[-79.9279,9.1071,25.0],[-79.9232,9.1051,27.351],[-79.9229,9.1035,28.8213],[-79.9274,9.1035,25.5642],[-79.9287,9.1018,25.0],[-79.9262,9.1026,25.5642],[-79.9251,9.0979,28.3652],[-79.9229,9.0968,25.0],[-79.921,9.0974,27.6354],[-79.9207,9.0993,30.8024],[-79.919,9.0988,34.8524],[-79.9201,9.0888,25.0],[-79.9187,9.0901,26.7776],[-79.916,9.0893,26.7719],[-79.9163,9.0921,28.2717],[-79.9143,9.0865,26.4765],[-79.9124,9.0851,25.0],[-79.9037,9.0879,30.0467],[-79.9029,9.0854,25.0],[-79.9007,9.0857,46.906],[-79.899,9.0832,28.7767],[-79.9043,9.0843,28.6937],[-79.9062,9.0863,26.6914],[-79.9118,9.0804,31.7973],[-79.9129,9.0821,25.0],[-79.916,9.0815,26.0664],[-79.9179,9.0776,25.532],[-79.919,9.0782,25.532],[-79.9185,9.0815,25.0],[-79.9199,9.0815,25.0],[-79.921,9.0793,25.0],[-79.9199,9.0726,25.5706],[-79.9215,9.0726,25.5706],[-79.9226,9.0826,25.8445],[-79.9246,9.0837,25.8979],[-79.9235,9.0854,25.0],[-79.9268,9.0865,26.2377],[-79.9251,9.0879,25.0],[-79.9257,9.0899,25.0],[-79.9285,9.0888,30.7707],[-79.9293,9.0901,30.7707],[-79.9268,9.0921,26.1727],[-79.9262,9.096,25.0],[-79.9282,9.0938,32.6062],[-79.9315,9.0968,33.0583],[-79.9354,9.0957,25.7911],[-79.936,9.0976,25.0],[-79.9371,9.0957,25.0],[-79.936,9.0938,26.4149],[-79.9399,9.0938,25.997],[-79.9413,9.0957,26.4403],[-79.9396,9.0957,26.661],[-79.9396,9.0976,25.8683],[-79.9415,9.096,26.4403],[-79.9418,9.0996,25.0],[-79.944,9.1015,25.0],[-79.9457,9.0996,38.4608],[-79.9432,9.0974,34.836],[-79.9426,9.0915,26.722],[-79.9449,9.089,26.7671],[-79.9435,9.0887,30.4865],[-79.9429,9.0843,27.3777],[-79.9454,9.0851,31.9702],[-79.9463,9.0837,30.157],[-79.9421,9.0801,25.0],[-79.9362,9.0804,27.0094],[-79.9365,9.079,27.0094],[-79.9393,9.0793,26.8427],[-79.9404,9.0763,25.0],[-79.9376,9.0749,25.0],[-79.9376,9.0726,25.0],[-79.9301,9.0707,30.427],[-79.9299,9.0688,28.3757],[-79.9268,9.0665,28.1978],[-79.931,9.0674,25.0],[-79.9315,9.0649,29.1936],[-79.9332,9.0657,25.0],[-79.9349,9.064,25.0],[-79.934,9.0671,25.0],[-79.9365,9.0685,25.0],[-79.9413,9.0657,26.159],[-79.9388,9.0696,25.4561],[-79.9415,9.0751,25.9627],[-79.9443,9.076,26.0873],[-79.9435,9.0782,25.0],[-79.9465,9.0804,25.0],[-79.9474,9.0768,34.3334],[-79.9437,9.0706,66.6876],[-79.9454,9.0683,77.3182],[-79.9451,9.0633,39.4616],[-79.9439,9.0608,47.1443],[-79.9373,9.0578,50.9021],[-79.9283,9.0452,44.7467],[-79.9325,9.0325,54.9492],[-79.928,9.0176,71.4764],[-79.9236,9.0136,62.9773],[-79.9124,9.0126,95.62],[-79.9094,9.0107,102.9279],[-79.9072,9.0055,86.8378],[-79.908,8.9949,95.355],[-79.9059,8.9866,112.442],[-79.9029,8.981,100.9478],[-79.8947,8.9742,113.9897],[-79.8775,8.9774,102.2522],[-79.8743,8.9901,104.0525],[-79.8863,8.9928,106.4874],[-79.8964,9.0117,87.253],[-79.892,9.0312,45.7226],[-79.8918,9.0441,41.9174],[-79.8871,9.0495,40.4912],[-79.8791,9.0511,46.6495],[-79.8702,9.0646,25.4785],[-79.8754,9.0643,25.543],[-79.8763,9.0671,26.5413],[-79.8735,9.0665,25.2622],[-79.8732,9.0696,25.0],[-79.8757,9.0713,25.4553],[-79.8801,9.0704,31.9514],[-79.8804,9.074,28.8657],[-79.8763,9.0726,25.9899],[-79.8765,9.0746,27.4452],[-79.8751,9.0749,26.4206],[-79.8721,9.0696,25.4878],[-79.8704,9.0726,29.4703],[-79.8679,9.0729,28.4662],[-79.8665,9.0696,25.0],[-79.8648,9.0722,37.1581],[-79.864,9.0751,44.0021],[-79.8635,9.0855,46.3882],[-79.8605,9.0918,52.9837],[-79.8354,9.0965,47.7493],[-79.8306,9.1,37.3077],[-79.8263,9.1087,35.6074],[-79.8262,9.1122,75.368],[-79.8208,9.1141,32.1756]]],
[[[-79.9171,9.0832,25.0],[-79.9163,9.0851,25.0],[-79.9185,9.0857,25.0],[-79.9187,9.0837,25.0],[-79.9171,9.0832,25.0]]],
[[[-79.8701,9.1265,26.1034],[-79.8693,9.124,27.1813],[-79.8676,9.1238,26.567],[-79.8704,9.1279,25.0],[-79.8701,9.1265,26.1034]]],
[[[-79.8749,9.1296,25.0],[-79.8737,9.131,25.0],[-79.8757,9.1321,25.0],[-79.8754,9.1304,25.0],[-79.8774,9.1293,25.0],[-79.8749,9.1296,25.0]]],
[[[-79.9232,9.0921,25.0],[-79.921,9.0918,25.0],[-79.9207,9.0929,25.0],[-79.9235,9.0935,25.0],[-79.9232,9.0921,25.0]]],
[[[-79.9235,9.0954,26.1387],[-79.9235,9.0946,26.1387],[-79.9201,9.0946,25.7657],[-79.9201,9.0957,25.0],[-79.9235,9.0954,26.1387]]],
[[[-79.9282,9.0982,27.0284],[-79.9296,9.099,25.0],[-79.9293,9.0965,25.0],[-79.9276,9.0968,25.0],[-79.9282,9.0982,27.0284]]],
[[[-79.9301,9.1054,25.0],[-79.9315,9.1082,25.0],[-79.9337,9.1079,27.3323],[-79.9324,9.1051,25.0],[-79.9301,9.1054,25.0]]],
[[[-79.9282,9.1685,25.8305],[-79.9293,9.1704,28.0956],[-79.9307,9.1704,25.0],[-79.9304,9.1676,25.0],[-79.9282,9.1685,25.8305]]],
[[[-79.9271,9.1721,25.0],[-79.9274,9.1743,25.0],[-79.9285,9.1746,25.0],[-79.9293,9.1713,25.0],[-79.9271,9.1721,25.0]]],
[[[-79.8557,9.1379,25.0],[-79.8574,9.1385,26.8602],[-79.8546,9.1365,25.0],[-79.8546,9.1376,25.0],[-79.8557,9.1379,25.0]]],
[[[-79.8976,9.1618,25.0],[-79.8971,9.1607,25.0],[-79.899,9.1651,29.5294],[-79.8993,9.1637,25.0],[-79.8976,9.1618,25.0]]],
[[[-79.8407,9.129,25.0],[-79.8426,9.129,25.0],[-79.8426,9.1271,27.4247],[-79.8396,9.1282,33.8092],[-79.8407,9.129,25.0]]],
[[[-79.8426,9.1307,25.0],[-79.8412,9.1296,25.0],[-79.8396,9.1299,25.0],[-79.8418,9.1321,25.0],[-79.8426,9.1307,25.0]]],
[[[-79.8346,9.136,32.3884],[-79.8332,9.1371,29.4318],[-79.8329,9.1388,25.0],[-79.8349,9.1379,35.6365],[-79.8346,9.136,32.3884]]],
[[[-79.8376,9.1732,40.7985],[-79.8399,9.1732,25.0],[-79.8407,9.1707,36.2954],[-79.8426,9.174,37.5608],[-79.8426,9.1785,41.0385],[-79.8446,9.1796,30.4483],[-79.8482,9.1738,25.0],[-79.8474,9.171,54.7148],[-79.8554,9.1768,53.9996],[-79.8571,9.1754,39.3703],[-79.8557,9.1735,69.765],[-79.8582,9.1715,25.0],[-79.8549,9.1721,69.765],[-79.854,9.1696,29.5615],[-79.8587,9.1696,25.0],[-79.8587,9.1663,28.7489],[-79.8618,9.1654,64.298],[-79.8626,9.1707,46.674],[-79.8607,9.1726,43.2624],[-79.8613,9.1754,32.4144],[-79.8635,9.1754,42.1704],[-79.8637,9.1718,46.674],[-79.8651,9.1743,25.0],[-79.869,9.1724,25.0],[-79.8699,9.1701,25.0],[-79.8665,9.1701,25.0],[-79.8657,9.1657,56.4931],[-79.8662,9.1637,37.8454],[-79.8685,9.1635,25.0],[-79.8674,9.1607,27.8292],[-79.8693,9.1563,29.1714],[-79.8685,9.1515,25.0],[-79.8707,9.1493,25.0],[-79.8674,9.1479,27.6444],[-79.8674,9.1449,25.0],[-79.8651,9.1449,38.2788],[-79.866,9.1424,27.8292],[-79.8626,9.1435,25.0],[-79.861,9.1393,25.0],[-79.8562,9.1393,32.5905],[-79.8538,9.1404,25.0],[-79.854,9.1418,39.3742],[-79.8499,9.1418,25.0],[-79.8521,9.1382,25.0],[-79.8479,9.1351,32.8866],[-79.8479,9.1329,27.5254],[-79.8437,9.1354,27.6941],[-79.8421,9.1443,41.1075],[-79.8415,9.1421,30.5454],[-79.8393,9.1449,39.6405],[-79.8354,9.1429,27.8647],[-79.8371,9.1482,28.2474],[-79.8343,9.1463,27.3266],[-79.8293,9.1482,28.4281],[-79.8274,9.1451,32.0116],[-79.8296,9.1407,28.3956],[-79.8282,9.1399,25.0],[-79.8265,9.1415,25.0],[-79.8249,9.1457,25.0],[-79.8271,9.1471,37.7827],[-79.8251,9.1485,25.0],[-79.8262,9.151,31.8737],[-79.8215,9.1538,29.7416],[-79.819,9.161,31.28],[-79.8246,9.1654,35.774],[-79.8282,9.1646,33.3615],[-79.8299,9.1624,38.9132],[-79.8321,9.1629,52.0728],[-79.8313,9.1657,25.0],[-79.8357,9.1635,60.3785],[-79.8365,9.1674,31.488],[-79.8332,9.1746,25.0],[-79.8376,9.1732,40.7985]]],
[[[-79.8499,9.1771,25.0],[-79.8504,9.1757,25.0],[-79.846,9.1788,46.7254],[-79.844,9.1824,25.0],[-79.8482,9.1807,35.3344],[-79.8499,9.1771,25.0]]]]}}