{"type": "Feature","bbox": [-80.1221,8.5061,-80.0293,8.6362],"geometry": {"type": "MultiPolygon","coordinates": [[[[-80.0931,8.5166,239.6892],[-80.0874,8.5218,308.3262],[-80.082,8.5219,308.2249],[-80.0792,8.519,285.4752],[-80.0813,8.515,290.806],[-80.0797,8.5073,254.009],[-80.0782,8.5061,240.5341],[-80.0736,8.5101,240.6993],[-80.0678,8.5191,291.1298],[-80.0492,8.5172,174.1917],[-80.0379,8.5258,261.7788],[-80.0293,8.5414,278.2778],[-80.0364,8.5466,286.1829],[-80.0452,8.5622,382.2285],[-80.0546,8.5671,412.3835],[-80.059,8.5776,542.4731],[-80.0743,8.5825,635.8406],[-80.0848,8.5899,725.1207],[-80.0852,8.5964,616.0309],[-80.0761,8.6175,989.3625],[-80.0796,8.6274,952.1893],[-80.0806,8.6362,1032.2505],[-80.1091,8.6114,670.2891],[-80.1055,8.6103,723.3945],[-80.1002,8.5878,793.9468],[-80.1038,8.5736,598.8211],[-80.1038,8.5632,587.2928],[-80.1135,8.5665,572.1406],[-80.1221,8.5666,575.7341],[-80.1117,8.5546,509.1388],[-80.1095,8.5474,465.3539],[-80.111,8.5417,427.2533],[-80.1073,8.535,397.9113],[-80.1016,8.5311,384.817],[-80.0963,8.5195,282.2485],[-80.0931,8.5166,239.6892]]]]}
,"properties": {"GID_3": "PAN.11.6.7_1","GID_0": "PAN","country": "Panama","GID_1": "PAN.11_1","province": "PanamáOeste","NL_NAME_1": "NA","GID_2": "PAN.11.6_1","county": "SanCarlos","NL_NAME_2": "NA","city": "LosLlanitos","VARNAME_3": "NA","NL_NAME_3": "NA","TYPE_3": "Corregimiento","ENGTYPE_3": "Municipality","CC_3": "NA","HASC_3": "NA","name": "Los_Llanitos.city","area_km2": 62.20628,"hist_schema_id": "Elevation0-9000","hist_area_km2": {"175": 0.0629,"200": 0.14678,"225": 0.71292,"250": 2.28552,"275": 4.00486,"300": 4.42415,"325": 4.63377,"350": 5.01114,"375": 4.90624,"400": 3.24982,"425": 3.06109,"450": 3.0401,"475": 2.55786,"500": 2.99812,"525": 2.34815,"550": 1.94979,"575": 1.6353,"600": 1.48853,"625": 1.02727,"650": 1.2998,"675": 1.63519,"700": 2.09638,"725": 1.86576,"750": 1.29973,"775": 1.23683,"800": 1.09009,"825": 0.96431,"850": 0.25155,"875": 0.20963,"900": 0.27251,"925": 0.18866,"950": 0.1677,"975": 0.04192,"1000": 0.04193}}}