{"type": "Feature","bbox": [-81.6561,8.4182,-81.5798,8.5903],"geometry": {"type": "MultiPolygon","coordinates": [[[[-81.6329,8.5741,1776.2546],[-81.6362,8.5212,1384.8088],[-81.633,8.5053,1025.1833],[-81.6276,8.4962,870.2998],[-81.6272,8.493,1016.0704],[-81.6335,8.4833,774.5059],[-81.6397,8.4664,540.9407],[-81.6388,8.4591,588.8477],[-81.6347,8.4509,617.3863],[-81.6561,8.4337,782.691],[-81.6331,8.4336,547.9102],[-81.6285,8.4258,406.1879],[-81.6193,8.4182,339.4908],[-81.5986,8.4352,391.6482],[-81.5943,8.4423,494.0142],[-81.599,8.451,446.397],[-81.6002,8.458,460.735],[-81.5983,8.4635,472.0698],[-81.5936,8.4695,521.2665],[-81.5919,8.4848,567.9334],[-81.5884,8.4943,635.6663],[-81.5867,8.5069,700.5275],[-81.5918,8.5201,822.403],[-81.5871,8.5371,942.426],[-81.5814,8.5486,1069.7018],[-81.5798,8.5574,1063.0474],[-81.5881,8.5724,1415.3854],[-81.6047,8.5753,1721.9221],[-81.6155,8.5859,1883.3251],[-81.6231,8.5903,1603.0874],[-81.6254,8.583,1651.2729],[-81.6329,8.5741,1776.2546]]]]}
,"properties": {"GID_3": "PAN.10.5.10_1","GID_0": "PAN","country": "Panama","GID_1": "PAN.10_1","province": "NgöbeBuglé","NL_NAME_1": "NA","GID_2": "PAN.10.5_1","county": "Müna","NL_NAME_2": "NA","city": "Roka","VARNAME_3": "NA","NL_NAME_3": "NA","TYPE_3": "Corregimiento","ENGTYPE_3": "Municipality","CC_3": "NA","HASC_3": "NA","name": "Roka.city","area_km2": 84.88261,"hist_schema_id": "Elevation0-9000","hist_area_km2": {"325": 0.04195,"350": 0.56628,"375": 0.92282,"400": 1.19545,"425": 2.32795,"450": 1.46807,"475": 1.82459,"500": 1.46805,"525": 1.74067,"550": 1.5729,"575": 1.76163,"600": 1.69869,"625": 1.36316,"650": 1.53091,"675": 1.13244,"700": 1.27922,"725": 1.44699,"750": 1.426,"775": 1.48891,"800": 1.4889,"825": 1.63569,"850": 1.11142,"875": 1.40497,"900": 1.23719,"925": 1.06944,"950": 1.25816,"975": 1.4259,"1000": 1.44686,"1025": 1.4259,"1050": 1.6146,"1075": 1.44686,"1100": 1.46782,"1125": 1.36294,"1150": 1.17424,"1175": 1.34194,"1200": 1.30001,"1225": 1.06936,"1250": 1.19517,"1275": 1.50969,"1300": 1.3,"1325": 1.3629,"1350": 1.42579,"1375": 1.53064,"1400": 1.25804,"1425": 1.48869,"1450": 1.32095,"1475": 1.40482,"1500": 1.29997,"1525": 1.17417,"1550": 1.09028,"1575": 0.79676,"1600": 1.02739,"1625": 0.96447,"1650": 0.9435,"1675": 0.92253,"1700": 0.83867,"1725": 0.90157,"1750": 0.94347,"1775": 0.94347,"1800": 0.85961,"1825": 0.88056,"1850": 0.64994,"1875": 0.69187,"1900": 0.77573,"1925": 0.64993,"1950": 0.7338,"1975": 0.56608,"2000": 0.54511,"2025": 0.39835,"2050": 0.54511,"2075": 0.44028,"2100": 0.39835,"2125": 0.29352,"2150": 0.16773,"2175": 0.08386,"2200": 0.02097}}}