{"type":"Feature","properties":{"GID_3":"PAN.12.3.3_1","GID_0":"PAN","country":"Panama","GID_1":"PAN.12_1","province":"Panamá","NL_NAME_1":"NA","GID_2":"PAN.12.3_1","county":"Chimán","NL_NAME_2":"NA","city":"GonzaloVasquez","VARNAME_3":"NA","NL_NAME_3":"NA","TYPE_3":"Corregimiento","ENGTYPE_3":"Municipality","CC_3":"NA","HASC_3":"NA","name":"Gonzalo_Vasquez.city"},
"geometry":{"type": "MultiPolygon","coordinates": [[[[-78.4657,8.4118,0.0],[-78.4679,8.4112,0.0],[-78.4676,8.4087,0.0],[-78.4668,8.4087,0.0],[-78.4657,8.4118,0.0]]],
[[[-78.4554,8.4905,47.0759],[-78.4563,8.4915,47.0759],[-78.4669,8.4752,27.8094],[-78.4675,8.4613,19.4077],[-78.4728,8.4548,36.9804],[-78.4707,8.4481,2.0194],[-78.4685,8.4474,0.9841],[-78.466,8.4499,1.8617],[-78.4654,8.4565,10.8387],[-78.4635,8.4587,4.2704],[-78.464,8.4468,0.0],[-78.4612,8.446,2.0196],[-78.4612,8.4443,0.0],[-78.4574,8.4424,2.0036],[-78.456,8.4399,0.9439],[-78.4621,8.4404,1.5177],[-78.4657,8.4435,3.1038],[-78.4715,8.4413,0.0],[-78.4713,8.439,0.0],[-78.466,8.4357,0.0],[-78.4649,8.4301,0.0],[-78.4607,8.4249,0.7797],[-78.451,8.4179,1.5738],[-78.451,8.414,0.0],[-78.4526,8.4143,0.0],[-78.4532,8.4126,1.5662],[-78.4532,8.4079,0.6302],[-78.4504,8.406,32.5757],[-78.451,8.3829,0.0],[-78.449,8.3832,0.0],[-78.449,8.386,22.4465],[-78.4432,8.3843,6.7215],[-78.4388,8.3851,0.0],[-78.4376,8.3787,8.7073],[-78.431,8.3701,1.763],[-78.431,8.366,0.0],[-78.4271,8.3649,6.2752],[-78.4235,8.3615,14.4315],[-78.4229,8.3526,0.0],[-78.4207,8.351,0.0],[-78.4208,8.3474,2.8451],[-78.4187,8.3503,30.9589],[-78.4184,8.3589,43.2594],[-78.4206,8.369,85.6135],[-78.4223,8.3997,136.9896],[-78.4251,8.4077,168.2458],[-78.4298,8.4371,266.6761],[-78.4417,8.4714,130.786],[-78.4483,8.4825,97.5228],[-78.4554,8.4905,47.0759]]]]}}