{"type":"Feature","properties":{"GID_3":"PAN.1.1.2_1","GID_0":"PAN","country":"Panama","GID_1":"PAN.1_1","province":"BocasdelToro","NL_NAME_1":"NA","GID_2":"PAN.1.1_1","county":"BocasdelToro","NL_NAME_2":"NA","city":"BocasdelToro","VARNAME_3":"NA","NL_NAME_3":"NA","TYPE_3":"Corregimiento","ENGTYPE_3":"Municipality","CC_3":"NA","HASC_3":"NA","name":"Bocasdel_Toro.city"},
"geometry":{"type": "MultiPolygon","coordinates": [[[[-82.2276,9.3568,0.0],[-82.2276,9.3551,4.2807],[-82.231,9.3532,2.7004],[-82.2357,9.3407,0.0],[-82.2379,9.3399,0.0],[-82.2371,9.3382,0.0],[-82.231,9.3401,0.0],[-82.2282,9.351,6.13],[-82.2249,9.3529,0.0],[-82.2276,9.3568,0.0]]],
[[[-82.2746,9.4413,0.0],[-82.276,9.4413,0.0],[-82.2768,9.4382,19.9612],[-82.2871,9.441,0.0],[-82.2896,9.4382,16.2099],[-82.2943,9.4371,0.0],[-82.2965,9.434,0.0],[-82.3049,9.4315,0.0],[-82.3087,9.4282,3.3737],[-82.3238,9.4285,0.0],[-82.3243,9.4268,0.0],[-82.3215,9.4218,8.2486],[-82.3223,9.4185,14.0831],[-82.3251,9.4165,3.2534],[-82.3307,9.416,0.8373],[-82.3321,9.4129,0.0],[-82.3299,9.411,4.4101],[-82.3288,9.4049,3.9853],[-82.3243,9.4051,0.0],[-82.321,9.401,0.417],[-82.3165,9.4029,0.9789],[-82.3154,9.3974,0.0],[-82.314,9.3979,0.0],[-82.314,9.4012,0.8766],[-82.3104,9.3999,1.8041],[-82.3118,9.3968,0.2329],[-82.3099,9.3954,1.9444],[-82.311,9.3929,0.284],[-82.3049,9.3876,0.1895],[-82.3046,9.3851,0.0],[-82.3018,9.3851,1.3061],[-82.3035,9.3815,1.0827],[-82.3015,9.3807,1.6569],[-82.3029,9.3776,0.3171],[-82.2962,9.3799,0.5421],[-82.299,9.3754,0.0],[-82.2968,9.376,1.4604],[-82.2968,9.3737,0.0],[-82.291,9.3729,0.1704],[-82.2865,9.3704,0.0],[-82.2837,9.3635,0.0],[-82.2787,9.3665,0.2633],[-82.2782,9.371,3.3468],[-82.2757,9.3721,5.5876],[-82.276,9.3685,0.0],[-82.2724,9.3676,0.4417],[-82.2721,9.366,0.0],[-82.2757,9.3651,0.0834],[-82.2754,9.3624,0.2425],[-82.2785,9.3615,0.0],[-82.2768,9.3601,0.0],[-82.2718,9.3638,0.2926],[-82.274,9.3596,0.0],[-82.2704,9.3582,0.0],[-82.2624,9.3496,0.2849],[-82.2618,9.3499,0.2849],[-82.2624,9.3521,0.1064],[-82.2635,9.3538,0.4731],[-82.2613,9.3557,1.3859],[-82.2637,9.3585,9.8837],[-82.2596,9.3565,1.3859],[-82.2585,9.354,4.2804],[-82.2601,9.3526,0.4107],[-82.2582,9.3526,4.2504],[-82.2565,9.3501,1.6032],[-82.2582,9.3474,0.1232],[-82.2549,9.3476,2.876],[-82.2518,9.3438,0.0],[-82.2535,9.341,0.7028],[-82.2585,9.3421,0.0],[-82.2585,9.3385,0.3441],[-82.2543,9.3354,0.0],[-82.2518,9.3299,0.0],[-82.2504,9.3329,1.7312],[-82.2462,9.3346,0.0],[-82.2479,9.339,0.929],[-82.2404,9.3349,0.0],[-82.2385,9.3399,0.0],[-82.2415,9.3435,1.1684],[-82.2499,9.344,0.9379],[-82.2543,9.3485,2.876],[-82.2554,9.3526,4.1662],[-82.2538,9.3565,6.8487],[-82.249,9.3579,0.0],[-82.2476,9.3615,1.0872],[-82.241,9.3604,0.0],[-82.2376,9.3638,0.7644],[-82.2376,9.3674,0.0],[-82.2396,9.3685,2.9719],[-82.2396,9.3713,2.2898],[-82.2379,9.3726,0.0],[-82.2393,9.3774,3.7659],[-82.2343,9.3838,0.0],[-82.236,9.3882,6.8081],[-82.2351,9.3904,7.6516],[-82.2385,9.3913,2.211],[-82.244,9.3968,9.3974],[-82.2454,9.4018,2.2788],[-82.2554,9.4149,9.5594],[-82.256,9.4207,0.0],[-82.2582,9.4243,0.0],[-82.2562,9.4274,0.0],[-82.2565,9.431,0.0],[-82.2585,9.4313,0.0],[-82.2593,9.4343,0.0],[-82.2679,9.4371,0.0],[-82.2696,9.439,0.0],[-82.2735,9.4385,7.0401],[-82.2746,9.4413,0.0]]]]}}