{"type": "Feature","bbox": [-82.716,8.43,-82.6796,8.5739],"geometry": {"type": "MultiPolygon","coordinates": [[[[-82.6796,8.4525,117.2455],[-82.6862,8.4564,120.5159],[-82.6891,8.4722,146.974],[-82.692,8.4788,140.5716],[-82.6925,8.4897,179.6094],[-82.6867,8.5026,191.3965],[-82.6859,8.5093,213.214],[-82.6907,8.5241,250.9863],[-82.6897,8.5327,273.3875],[-82.6964,8.548,312.0013],[-82.6893,8.5588,373.1616],[-82.6948,8.5676,395.013],[-82.7114,8.5739,394.8419],[-82.7135,8.5652,353.6025],[-82.7116,8.5531,332.1568],[-82.716,8.5303,283.8302],[-82.7143,8.5219,251.0082],[-82.7069,8.5186,260.0006],[-82.7052,8.5162,251.4134],[-82.7035,8.5053,205.8967],[-82.7069,8.4914,168.8562],[-82.7113,8.4863,148.1877],[-82.7124,8.4798,134.377],[-82.7087,8.4384,62.7899],[-82.7027,8.4374,65.3567],[-82.7027,8.4335,56.1577],[-82.6989,8.432,56.9545],[-82.6904,8.43,65.3088],[-82.6833,8.4306,69.9056],[-82.6815,8.4389,81.8231],[-82.6828,8.4431,91.4721],[-82.6796,8.4525,117.2455]]]]}
,"properties": {"GID_3": "PAN.2.5.9_1","GID_0": "PAN","country": "Panama","GID_1": "PAN.2_1","province": "Chiriquí","NL_NAME_1": "NA","GID_2": "PAN.2.5_1","county": "Bugaba","NL_NAME_2": "NA","city": "SantaMarta","VARNAME_3": "NA","NL_NAME_3": "NA","TYPE_3": "Corregimiento","ENGTYPE_3": "Municipality","CC_3": "NA","HASC_3": "NA","name": "Santa_Marta.city","area_km2": 36.29806,"hist_schema_id": "Elevation0-9000","hist_area_km2": {"50": 0.37751,"75": 4.69784,"100": 4.73962,"125": 3.46022,"150": 2.95682,"175": 1.63564,"200": 1.8453,"225": 1.84526,"250": 2.15973,"275": 2.87259,"300": 2.95639,"325": 2.7047,"350": 2.05468,"375": 1.76112,"400": 0.23062}}}