{"type": "Feature","bbox": [-80.9471,7.948,-80.815,8.103],"geometry": {"type": "MultiPolygon","coordinates": [[[[-80.9102,7.9612,106.7009],[-80.8972,7.9676,137.5049],[-80.8854,7.9523,188.9826],[-80.8617,7.948,160.7965],[-80.8548,7.9602,161.7543],[-80.8428,7.9634,153.4725],[-80.8398,7.9789,146.5909],[-80.8386,7.9803,132.7668],[-80.8344,7.9797,131.2384],[-80.8315,7.9913,75.0538],[-80.8283,7.9967,85.4228],[-80.815,7.9991,90.0166],[-80.8186,8.0047,86.3893],[-80.8213,8.017,69.9508],[-80.8256,8.0209,62.9413],[-80.8287,8.0273,55.4161],[-80.8358,8.0296,71.7868],[-80.8342,8.0381,53.038],[-80.8366,8.0401,49.5872],[-80.8369,8.0453,46.6668],[-80.8426,8.0569,40.3418],[-80.8383,8.0606,36.5092],[-80.8361,8.0663,34.8499],[-80.8286,8.0646,41.6974],[-80.8245,8.0662,33.4244],[-80.8401,8.0796,40.6737],[-80.8633,8.0917,39.7844],[-80.8914,8.0902,54.0312],[-80.9066,8.0817,85.9564],[-80.9119,8.1004,51.7463],[-80.9155,8.103,64.8541],[-80.9198,8.0936,71.5856],[-80.9244,8.0878,77.0531],[-80.9261,8.074,82.8854],[-80.9395,8.046,77.9991],[-80.9386,8.0359,79.386],[-80.9426,8.0262,137.2525],[-80.9471,8.0004,96.8395],[-80.9405,7.9872,108.5976],[-80.9357,7.9703,140.627],[-80.9252,7.9594,99.9591],[-80.9102,7.9612,106.7009]]]]}
,"properties": {"GID_2": "PAN.13.1_1","GID_0": "PAN","country": "Panama","GID_1": "PAN.13_1","province": "Veraguas","NL_NAME_1": "NA","county": "Atalaya","VARNAME_2": "NA","NL_NAME_2": "NA","TYPE_2": "Distrito","ENGTYPE_2": "District","CC_2": "NA","HASC_2": "PA.VR.AT","name": "Atalaya.county","area_km2": 166.8871,"hist_schema_id": "Elevation0-9000","hist_area_km2": {"25": 1.6794,"50": 38.6693,"75": 41.8411,"100": 29.3721,"125": 25.7199,"150": 19.0228,"175": 9.0497,"200": 1.4698,"225": 0.063}}}