{"type":"Feature","properties":{"GID_1":"PAN.12_1","GID_0":"PAN","country":"Panama","province":"Panamá","VARNAME_1":"Panam ","NL_NAME_1":"NA","TYPE_1":"Provincia","ENGTYPE_1":"Province","CC_1":"NA","HASC_1":"PA.PN","ISO_1":"NA","name":"Panamá.province"},
"geometry":{"type": "MultiPolygon","coordinates": [[[[-78.9999,7.9999,0.0],[-78.9999,8.0001,0.0],[-79.0001,8.0001,0.0],[-79.0001,7.9999,0.0],[-78.9999,7.9999,0.0]]],
[[[-78.9332,8.2749,0.0],[-78.9346,8.2762,0.0],[-78.934,8.274,0.8115],[-78.9321,8.2726,0.0],[-78.9324,8.2737,0.0],[-78.9332,8.2749,0.0]]],
[[[-78.8943,8.2982,0.0],[-78.8893,8.3001,0.0],[-78.8871,8.2993,0.0],[-78.8854,8.3012,11.0889],[-78.8796,8.299,7.3778],[-78.8776,8.3012,4.3959],[-78.8757,8.2987,0.0],[-78.8724,8.3001,0.0],[-78.871,8.2971,2.9549],[-78.8676,8.2951,0.0],[-78.8629,8.2968,0.0],[-78.8574,8.2949,0.0],[-78.854,8.3004,2.4276],[-78.8518,8.3007,4.5469],[-78.8543,8.3088,9.6044],[-78.8507,8.3151,3.3678],[-78.8424,8.3201,0.0],[-78.846,8.3274,32.7045],[-78.8446,8.3332,0.0],[-78.8399,8.3396,0.0],[-78.8332,8.3401,0.0],[-78.831,8.344,0.0],[-78.8326,8.3451,39.9362],[-78.8362,8.3438,13.2488],[-78.8385,8.3462,2.7106],[-78.8432,8.3446,15.8784],[-78.841,8.3476,0.0],[-78.8426,8.356,4.779],[-78.8393,8.3571,0.0],[-78.8385,8.3621,0.0],[-78.8404,8.3621,6.9585],[-78.841,8.3657,0.0],[-78.844,8.3671,0.0],[-78.8521,8.3679,11.5064],[-78.8482,8.3732,1.1911],[-78.8532,8.3751,7.7856],[-78.8543,8.3799,0.4765],[-78.8512,8.381,2.5473],[-78.8479,8.3796,5.5983],[-78.8504,8.3824,0.0],[-78.8551,8.3835,3.5867],[-78.8554,8.3854,0.0],[-78.8501,8.3865,2.9953],[-78.8482,8.3832,4.8569],[-78.841,8.3843,0.0],[-78.8388,8.3882,0.0],[-78.836,8.3888,14.919],[-78.8368,8.3946,0.0],[-78.8346,8.3943,0.0],[-78.8335,8.3968,26.5869],[-78.836,8.3971,3.1354],[-78.8365,8.3949,0.0],[-78.8412,8.3968,0.0],[-78.8415,8.3985,21.9629],[-78.8368,8.3999,0.0],[-78.8365,8.4018,0.0],[-78.8385,8.4032,1.8279],[-78.8426,8.4129,2.123],[-78.8449,8.4121,0.0],[-78.8454,8.4062,12.1394],[-78.8479,8.4068,4.5103],[-78.8485,8.4135,0.9448],[-78.8526,8.4129,14.2761],[-78.8535,8.4143,4.7014],[-78.8585,8.4074,0.0],[-78.8607,8.4076,1.2416],[-78.8604,8.4118,30.9916],[-78.856,8.4168,4.4042],[-78.8582,8.4221,0.0],[-78.8601,8.4215,0.0],[-78.8632,8.4129,5.3098],[-78.8654,8.4129,0.0],[-78.8646,8.4199,5.7201],[-78.8596,8.4326,3.6884],[-78.8596,8.4362,4.7405],[-78.8624,8.4415,44.244],[-78.8604,8.4443,8.3056],[-78.8574,8.444,0.0],[-78.8576,8.446,0.0],[-78.8582,8.4474,0.0],[-78.8607,8.446,0.0],[-78.8624,8.4471,49.4714],[-78.8618,8.4504,8.4151],[-78.8665,8.451,14.6441],[-78.8668,8.4554,13.8083],[-78.8704,8.4496,9.3976],[-78.8729,8.4532,1.1071],[-78.8712,8.4574,0.0],[-78.8721,8.4587,0.0],[-78.8765,8.4563,15.2954],[-78.8771,8.4582,24.7095],[-78.8737,8.4596,0.0],[-78.8732,8.4615,0.0],[-78.8774,8.4651,4.6058],[-78.8779,8.4682,8.8084],[-78.8787,8.4632,0.0],[-78.8801,8.4651,0.0],[-78.8832,8.4649,3.3232],[-78.8812,8.4724,0.0],[-78.8849,8.471,8.2719],[-78.8887,8.4754,1.7765],[-78.8926,8.4743,9.8116],[-78.896,8.4657,2.4655],[-78.8938,8.4601,0.0],[-78.8962,8.4557,0.0],[-78.8987,8.4574,1.1855],[-78.9001,8.4554,8.6135],[-78.8993,8.4579,9.3901],[-78.8954,8.4582,1.5271],[-78.8965,8.4607,0.0],[-78.904,8.4601,9.7739],[-78.9046,8.4663,1.5117],[-78.9062,8.4663,3.4165],[-78.9054,8.4693,2.0416],[-78.9115,8.4696,1.6518],[-78.9124,8.471,0.0],[-78.9137,8.4688,0.0],[-78.9168,8.4679,3.7309],[-78.9154,8.4643,8.8326],[-78.9182,8.4621,1.7805],[-78.9207,8.4626,4.5653],[-78.9199,8.4671,0.0],[-78.9251,8.4637,7.0496],[-78.9299,8.4649,0.0],[-78.929,8.4601,0.0],[-78.9251,8.4579,1.5733],[-78.9268,8.4563,5.4168],[-78.9321,8.4565,14.6804],[-78.9321,8.4593,7.2276],[-78.934,8.4601,1.9374],[-78.9351,8.4579,9.2108],[-78.9401,8.4585,10.4263],[-78.9432,8.4538,0.7538],[-78.9485,8.4529,12.5049],[-78.9515,8.4557,2.7302],[-78.9512,8.4587,0.0],[-78.956,8.4582,8.2908],[-78.9563,8.4596,4.2414],[-78.9585,8.4596,6.8988],[-78.9607,8.4571,13.5927],[-78.9649,8.4565,21.5181],[-78.9668,8.4607,0.0],[-78.9726,8.4568,20.3102],[-78.9729,8.4482,14.8094],[-78.9751,8.4468,6.3037],[-78.9754,8.4446,0.0],[-78.9721,8.441,14.2133],[-78.9737,8.4307,0.0],[-78.9696,8.4324,9.8935],[-78.9665,8.4304,6.7992],[-78.9682,8.4271,2.754],[-78.971,8.4263,8.7437],[-78.9707,8.4229,0.0],[-78.9646,8.4207,2.2122],[-78.9665,8.4204,0.0],[-78.9654,8.4171,0.0],[-78.9665,8.4154,0.0],[-78.9649,8.4135,0.0],[-78.9679,8.4107,3.3955],[-78.9596,8.3929,0.0],[-78.961,8.3871,0.0],[-78.9599,8.3821,9.638],[-78.9651,8.3751,10.2609],[-78.9693,8.3771,0.0],[-78.9682,8.3726,6.3902],[-78.9732,8.3682,0.0],[-78.9574,8.3532,1.428],[-78.9532,8.3429,1.0759],[-78.9485,8.3424,1.6415],[-78.9524,8.341,5.7628],[-78.9535,8.339,5.0271],[-78.9571,8.3393,0.0],[-78.9563,8.3265,1.2883],[-78.9526,8.3271,5.4593],[-78.9454,8.3207,4.8472],[-78.9504,8.3218,5.1745],[-78.9529,8.3246,0.0],[-78.9554,8.3226,0.0],[-78.9554,8.3171,0.0],[-78.9599,8.3163,2.3005],[-78.9618,8.3199,1.9854],[-78.9615,8.3274,4.9035],[-78.9599,8.3299,1.6834],[-78.9624,8.3315,2.7506],[-78.9621,8.3282,4.9035],[-78.9657,8.3276,0.0],[-78.964,8.3257,5.1718],[-78.9662,8.3201,1.2275],[-78.9646,8.3126,6.4799],[-78.9718,8.3096,2.8832],[-78.9715,8.3051,0.0],[-78.9682,8.3032,1.7559],[-78.9649,8.2957,0.0],[-78.9657,8.294,0.0],[-78.9618,8.294,8.6956],[-78.9638,8.2932,0.0],[-78.9621,8.291,0.0],[-78.959,8.2896,0.0],[-78.9521,8.2907,16.1328],[-78.9418,8.2849,9.4487],[-78.9351,8.2768,0.0],[-78.9349,8.2782,0.0],[-78.9351,8.2796,0.0],[-78.9329,8.2804,3.8133],[-78.9326,8.2757,0.0],[-78.9285,8.274,1.3216],[-78.9276,8.2712,8.2522],[-78.9287,8.2693,1.9877],[-78.9326,8.2693,1.5804],[-78.9315,8.2665,12.6095],[-78.9332,8.2646,1.2223],[-78.9307,8.2629,1.3213],[-78.931,8.2593,0.0],[-78.9279,8.2551,0.0],[-78.9282,8.2526,0.0],[-78.924,8.2504,0.0],[-78.9279,8.2415,0.0],[-78.9229,8.2385,6.6123],[-78.9232,8.2365,9.17],[-78.9279,8.2376,0.0],[-78.9287,8.2365,0.0],[-78.9265,8.2337,0.0],[-78.9199,8.2307,2.6683],[-78.9187,8.2279,7.8052],[-78.9115,8.2246,0.0],[-78.9062,8.219,0.0],[-78.9026,8.2229,3.0061],[-78.8974,8.2218,0.0],[-78.8979,8.2265,0.0],[-78.896,8.2288,0.0],[-78.8982,8.231,0.0],[-78.9013,8.2301,0.0],[-78.9018,8.2279,5.2199],[-78.9057,8.2279,14.3029],[-78.9079,8.2296,13.2516],[-78.9107,8.2374,0.0],[-78.9124,8.2374,6.6253],[-78.9124,8.239,4.8967],[-78.9107,8.2385,0.0],[-78.9107,8.2496,0.0],[-78.9124,8.2551,15.2817],[-78.9185,8.2635,0.0],[-78.9224,8.2654,14.0936],[-78.9221,8.2699,10.5529],[-78.919,8.2754,0.0],[-78.9215,8.2838,7.4231],[-78.9179,8.2868,0.0],[-78.9168,8.2915,1.2085],[-78.9196,8.2971,7.9281],[-78.9165,8.2968,0.0],[-78.9135,8.299,4.9875],[-78.9118,8.2935,0.0],[-78.9099,8.2943,1.2024],[-78.9101,8.2979,3.4047],[-78.904,8.3071,21.5421],[-78.9015,8.3085,0.0],[-78.8976,8.3054,0.0],[-78.9001,8.2982,1.1756],[-78.8971,8.296,2.5374],[-78.8943,8.2982,0.0]]],
[[[-79.0026,8.3321,0.0],[-79.0021,8.3349,0.0],[-79.0035,8.3349,0.0],[-79.0049,8.3318,0.0],[-79.0026,8.3321,0.0]]],
[[[-78.9065,8.2182,0.0],[-78.9079,8.2193,0.0],[-78.9093,8.2193,0.0],[-78.9079,8.2174,0.41],[-78.9065,8.2182,0.0]]],
[[[-78.8412,8.281,0.0],[-78.8412,8.2835,0.0],[-78.8432,8.2832,15.8725],[-78.8449,8.2807,18.441],[-78.8476,8.281,15.208],[-78.8515,8.2776,20.9274],[-78.8538,8.2776,0.0],[-78.8529,8.274,0.0],[-78.8512,8.274,7.9674],[-78.8526,8.2724,0.0],[-78.8504,8.2718,1.4961],[-78.851,8.2676,0.0],[-78.8485,8.2676,0.0],[-78.8476,8.2704,0.5518],[-78.844,8.2699,0.0],[-78.8432,8.2682,0.0],[-78.8401,8.2685,0.0],[-78.8401,8.2729,0.0],[-78.8371,8.276,0.0],[-78.8412,8.2771,7.7354],[-78.8412,8.281,0.0]]],
[[[-78.8887,8.2921,0.0],[-78.8887,8.294,0.0],[-78.8896,8.2946,0.0],[-78.8907,8.2907,0.0],[-78.8887,8.2921,0.0]]],
[[[-79.0054,8.3343,6.3527],[-79.0043,8.3357,0.0],[-79.0076,8.3354,30.3671],[-79.0082,8.3338,0.0],[-79.0074,8.3332,0.0],[-79.0054,8.3343,6.3527]]],
[[[-78.989,8.3374,4.2882],[-78.9865,8.3371,0.0],[-78.9863,8.3379,0.0],[-78.9887,8.3385,4.2882],[-78.989,8.3374,4.2882]]],
[[[-78.8074,8.3707,0.0],[-78.8099,8.3699,26.9711],[-78.8115,8.3657,13.6213],[-78.811,8.3588,0.0331],[-78.8096,8.361,0.0],[-78.806,8.3604,0.0],[-78.8037,8.3649,0.0],[-78.8051,8.3676,14.1654],[-78.8046,8.3715,6.7643],[-78.8074,8.3707,0.0]]],
[[[-78.811,8.3687,0.0],[-78.8071,8.3754,0.0],[-78.8079,8.3799,0.0],[-78.8176,8.3929,0.0],[-78.8276,8.399,0.0],[-78.8349,8.3882,0.0],[-78.8388,8.376,0.0],[-78.8301,8.3674,0.0],[-78.8151,8.3657,0.0],[-78.811,8.3687,0.0]]],
[[[-78.4665,8.4107,0.0],[-78.4657,8.4124,0.0],[-78.4679,8.4112,0.0],[-78.4676,8.4087,0.0],[-78.4668,8.4087,0.0],[-78.4665,8.4107,0.0]]],
[[[-78.4483,8.4825,97.5228],[-78.4604,8.4977,84.6047],[-78.462,8.5169,50.0067],[-78.4771,8.5343,88.4653],[-78.4752,8.5392,119.2534],[-78.4762,8.5481,28.2003],[-78.4844,8.5617,15.6703],[-78.4875,8.5727,62.6791],[-78.487,8.5907,52.7497],[-78.49,8.6005,29.1409],[-78.4801,8.606,47.224],[-78.4761,8.6106,50.1078],[-78.4737,8.6287,69.3668],[-78.475,8.6351,145.256],[-78.4728,8.6425,189.1685],[-78.4776,8.6469,134.2587],[-78.482,8.6553,110.0488],[-78.4916,8.6579,120.6935],[-78.4953,8.6609,156.0924],[-78.4969,8.6651,204.0451],[-78.497,8.6795,216.2946],[-78.5005,8.6823,127.9103],[-78.5074,8.6845,79.0031],[-78.5123,8.6939,151.1661],[-78.5122,8.7013,222.455],[-78.5051,8.7195,266.788],[-78.5055,8.7342,245.7879],[-78.5043,8.7383,210.4298],[-78.5025,8.7395,223.0814],[-78.4918,8.7385,251.3113],[-78.4883,8.7444,302.3944],[-78.4814,8.7504,319.4359],[-78.4793,8.7585,404.4185],[-78.4799,8.7761,715.6235],[-78.476,8.7882,841.2253],[-78.4771,8.7939,796.0405],[-78.4828,8.8049,818.4673],[-78.4561,8.8251,647.7259],[-78.4401,8.8283,483.5996],[-78.43,8.8269,367.2939],[-78.404,8.8376,204.5247],[-78.3964,8.8378,139.9071],[-78.3818,8.8339,100.4536],[-78.3618,8.8321,332.2511],[-78.3537,8.8285,401.2626],[-78.3483,8.8228,440.9955],[-78.3492,8.8075,657.865],[-78.347,8.8006,568.7996],[-78.3434,8.7964,618.5797],[-78.3334,8.7956,601.1082],[-78.3122,8.8047,600.9022],[-78.3026,8.8155,136.7254],[-78.302,8.8198,106.4819],[-78.3053,8.8263,113.2175],[-78.3049,8.8317,142.5332],[-78.2934,8.8478,195.7562],[-78.2874,8.849,146.1559],[-78.275,8.844,119.8028],[-78.2681,8.8467,97.8497],[-78.2632,8.8508,99.4636],[-78.2538,8.8648,119.2303],[-78.2401,8.8761,111.7481],[-78.2345,8.8763,115.261],[-78.2297,8.8719,111.7246],[-78.2215,8.877,123.3889],[-78.2078,8.877,119.4631],[-78.203,8.8747,117.0936],[-78.1933,8.8656,125.4789],[-78.1825,8.8604,117.1944],[-78.1752,8.861,120.855],[-78.1668,8.8659,126.2444],[-78.1635,8.8713,123.1043],[-78.1665,8.8838,117.2815],[-78.16,8.8916,103.0691],[-78.157,8.9008,101.0945],[-78.151,8.9098,89.005],[-78.1537,8.9197,88.1671],[-78.1532,8.9248,90.2395],[-78.1405,8.9305,111.415],[-78.1222,8.9347,114.8204],[-78.1105,8.9437,139.5741],[-78.1072,8.9632,151.3814],[-78.112799999999993,8.9778,192.6017],[-78.1074,8.9888,138.2388],[-78.0951,9.0015,120.1934],[-78.0939,9.0211,210.8558],[-78.0858,9.0296,299.5761],[-78.0721,9.0319,298.8693],[-78.0611,9.0384,178.4718],[-78.0559,9.0467,382.1927],[-78.0559,9.0495,343.3629],[-78.06,9.0566,240.6378],[-78.0562,9.0645,368.1019],[-78.0532,9.0847,462.0938],[-78.05,9.0886,450.1034],[-78.0581,9.0957,618.3864],[-78.0676,9.0983,588.4861],[-78.0695,9.1003,648.9276],[-78.0678,9.1153,422.7347],[-78.0656,9.1211,288.4794],[-78.066,9.1261,432.0807],[-78.0669,9.1297,510.9965],[-78.0697,9.1323,570.5142],[-78.0787,9.1327,522.8206],[-78.082,9.1371,517.791],[-78.0856,9.1507,360.9333],[-78.0826,9.1606,351.7012],[-78.092,9.1649,624.5153],[-78.0981,9.1697,526.5258],[-78.1103,9.1689,414.9617],[-78.122,9.1728,422.698],[-78.1262,9.1799,414.6921],[-78.1365,9.1831,436.6889],[-78.149,9.1835,304.2868],[-78.1565,9.1879,476.8645],[-78.1678,9.1885,357.6271],[-78.1797,9.1933,266.159],[-78.2012,9.1927,329.6563],[-78.2171,9.1961,293.918],[-78.2228,9.1959,251.1179],[-78.2276,9.1936,238.5394],[-78.233,9.1863,256.648],[-78.2442,9.1849,329.3372],[-78.2504,9.1863,267.6766],[-78.273,9.198,394.222],[-78.2823,9.2073,378.7559],[-78.2922,9.2115,327.1499],[-78.2923,9.2137,369.8546],[-78.2875,9.2181,438.3112],[-78.2881,9.2252,355.745],[-78.2953,9.2435,349.9256],[-78.3014,9.2505,441.2747],[-78.3022,9.2617,469.6121],[-78.3049,9.2637,461.0052],[-78.3099,9.2634,370.8076],[-78.3194,9.2563,340.5478],[-78.3301,9.2557,385.8467],[-78.3382,9.2455,259.6132],[-78.3404,9.2449,333.3402],[-78.3534,9.2521,343.5177],[-78.372,9.2536,393.4731],[-78.376,9.2579,371.4695],[-78.3785,9.2683,363.7469],[-78.3839,9.2735,320.6381],[-78.3883,9.2742,337.8479],[-78.3996,9.2717,326.7177],[-78.4071,9.2662,369.1022],[-78.4146,9.2567,435.5303],[-78.4164,9.2527,472.2166],[-78.4139,9.2374,549.3593],[-78.4159,9.2328,553.1498],[-78.4258,9.2375,485.4107],[-78.4338,9.245,506.248],[-78.4382,9.2447,528.1563],[-78.4459,9.2393,546.4525],[-78.4484,9.2459,373.809],[-78.463,9.2625,483.4225],[-78.4659,9.278,301.2597],[-78.4752,9.2911,419.9213],[-78.4767,9.3,573.2913],[-78.489,9.3034,581.0088],[-78.4962,9.3078,468.3533],[-78.5008,9.3127,399.4825],[-78.504,9.3235,339.3451],[-78.5036,9.3279,369.7183],[-78.4961,9.3346,281.173],[-78.5015,9.3388,302.2047],[-78.5029,9.3472,407.9063],[-78.5119,9.3468,322.2369],[-78.5229,9.3492,272.3512],[-78.5301,9.3435,310.3128],[-78.5337,9.3365,357.339],[-78.5468,9.3271,275.1557],[-78.5586,9.328,340.6153],[-78.5719,9.323,273.9323],[-78.5893,9.3267,331.1312],[-78.5924,9.3259,311.7246],[-78.5979,9.3205,326.4154],[-78.612,9.3233,384.7975],[-78.6216,9.3198,559.7048],[-78.6306,9.3279,607.6073],[-78.6365,9.3359,497.3197],[-78.6474,9.3397,531.2377],[-78.6518,9.344,550.9676],[-78.6658,9.3496,437.9168],[-78.674,9.3647,371.6388],[-78.6857,9.3692,270.1809],[-78.6911,9.3771,257.2624],[-78.6941,9.3775,302.0337],[-78.702,9.3729,343.6489],[-78.7058,9.3727,281.4763],[-78.7109,9.3754,228.1026],[-78.7141,9.3831,397.7715],[-78.7171,9.385,427.0888],[-78.7205,9.3847,303.6832],[-78.7244,9.3816,356.6751],[-78.732,9.367,564.4172],[-78.7415,9.362,530.9615],[-78.7511,9.365,471.6372],[-78.7633,9.3663,425.874],[-78.7741,9.3717,411.4142],[-78.7832,9.3733,459.0992],[-78.8151,9.3836,630.9725],[-78.8212,9.3813,467.9481],[-78.8365,9.3684,446.443],[-78.8531,9.361,377.9872],[-78.863,9.3543,449.6432],[-78.8703,9.3555,439.5662],[-78.8816,9.3684,471.1157],[-78.8893,9.3688,502.0479],[-78.8961,9.3631,398.6985],[-78.9007,9.3532,346.4938],[-78.9102,9.3435,343.12],[-78.9101,9.3389,292.0783],[-78.9059,9.3302,334.8138],[-78.9078,9.3255,331.0129],[-78.9244,9.3102,411.7645],[-78.9337,9.3066,373.3232],[-78.9418,9.307,433.1606],[-78.9561,9.3131,348.2859],[-78.9623,9.314,341.2154],[-78.9891,9.3022,428.529],[-79.0089,9.2998,466.7136],[-79.0231,9.2951,412.1892],[-79.0505,9.2997,462.4782],[-79.0727,9.2988,487.8494],[-79.1004,9.3063,408.9601],[-79.102,9.3081,343.8937],[-79.1014,9.3105,263.5349],[-79.0907,9.3152,412.6301],[-79.0904,9.3178,396.4002],[-79.093,9.3224,278.6923],[-79.1059,9.3347,465.3174],[-79.1158,9.339,223.9586],[-79.1253,9.3398,221.7379],[-79.1311,9.3391,169.2973],[-79.144,9.3334,221.4386],[-79.1555,9.3318,332.9321],[-79.173,9.3386,292.4222],[-79.1765,9.3386,316.4423],[-79.193,9.3314,353.8795],[-79.2021,9.3305,418.3478],[-79.2151,9.3201,544.3445],[-79.2308,9.3135,653.515],[-79.2393,9.3077,567.2812],[-79.2465,9.311,590.6763],[-79.2712,9.3107,681.3152],[-79.2824,9.3169,770.3039],[-79.2823,9.3216,862.7358],[-79.2775,9.3275,818.3044],[-79.2722,9.3292,838.9773],[-79.27,9.3354,829.3729],[-79.2537,9.3407,654.8481],[-79.2511,9.3447,643.0848],[-79.2594,9.3513,644.2726],[-79.2651,9.361,513.3405],[-79.2577,9.3754,521.9051],[-79.2536,9.3965,449.2772],[-79.2553,9.3986,404.4169],[-79.2586,9.3986,440.706],[-79.2756,9.3918,549.3967],[-79.2763,9.3934,533.0423],[-79.2711,9.4096,456.0892],[-79.2615,9.4245,643.058],[-79.2636,9.4326,436.4412],[-79.2685,9.4361,407.4147],[-79.2704,9.4403,344.1578],[-79.2724,9.4377,396.4734],[-79.2794,9.4367,368.9288],[-79.2815,9.4347,283.1515],[-79.2849,9.4351,380.2389],[-79.2982,9.4497,257.95],[-79.3059,9.4541,499.4273],[-79.3096,9.4545,389.812],[-79.3164,9.4526,409.1338],[-79.3203,9.4486,460.2856],[-79.3268,9.4469,439.8297],[-79.3295,9.4411,613.9231],[-79.3361,9.434,535.6339],[-79.3447,9.4302,275.8085],[-79.3492,9.4299,269.7012],[-79.3519,9.4314,234.1936],[-79.3544,9.4339,283.0375],[-79.3549,9.4403,169.2655],[-79.3621,9.444,144.6672],[-79.3733,9.4385,132.2363],[-79.3793,9.4295,270.8068],[-79.4055,9.4219,515.7794],[-79.4058,9.4201,508.3386],[-79.4132,9.4214,406.5417],[-79.4135,9.4244,358.7672],[-79.4112,9.4284,375.2559],[-79.4042,9.4281,444.6986],[-79.4003,9.4318,381.539],[-79.3911,9.4327,387.8729],[-79.3838,9.4397,221.0152],[-79.3798,9.4408,196.2645],[-79.3795,9.4424,235.0976],[-79.3809,9.444,238.2364],[-79.3797,9.4505,389.8751],[-79.3808,9.455,297.468],[-79.3774,9.4726,111.1278],[-79.3828,9.4803,191.2285],[-79.3941,9.4865,347.0168],[-79.3954,9.4891,374.5911],[-79.3867,9.501,190.5215],[-79.3757,9.5072,140.4398],[-79.3873,9.5084,138.1158],[-79.4038,9.5187,201.9868],[-79.4084,9.5158,214.1012],[-79.418,9.5146,180.5342],[-79.4186,9.5064,248.313],[-79.4199,9.5041,426.1522],[-79.4228,9.5035,424.6428],[-79.4374,9.5086,237.9456],[-79.4527,9.5233,85.0166],[-79.4662,9.5094,83.9546],[-79.4741,9.4949,155.5947],[-79.4827,9.4887,180.9433],[-79.4876,9.4882,201.2947],[-79.4909,9.4911,174.4851],[-79.5067,9.4908,341.7767],[-79.5111,9.4855,250.0122],[-79.5164,9.4862,251.8427],[-79.5222,9.4824,251.1754],[-79.5303,9.4816,289.7939],[-79.5333,9.4799,218.5102],[-79.5344,9.4753,220.861],[-79.5327,9.4716,307.5019],[-79.5358,9.4658,194.8115],[-79.5361,9.4496,181.1832],[-79.5434,9.4368,178.6876],[-79.5423,9.4226,173.3202],[-79.5534,9.4122,177.6344],[-79.5536,9.4068,140.6281],[-79.5552,9.4048,193.1458],[-79.5529,9.401,200.9968],[-79.5571,9.3976,148.7648],[-79.5595,9.3918,187.7932],[-79.5595,9.387,151.3332],[-79.5669,9.3769,117.9131],[-79.5668,9.37,95.7385],[-79.5585,9.3613,75.8773],[-79.5593,9.3588,72.5],[-79.5563,9.3468,74.7389],[-79.5599,9.3449,72.5],[-79.5618,9.3457,115.0816],[-79.5693,9.3332,73.7131],[-79.5735,9.3313,72.5],[-79.5724,9.3299,74.4845],[-79.5738,9.3262,72.5],[-79.5771,9.3237,72.5],[-79.5807,9.3282,72.5],[-79.5824,9.3335,72.5],[-79.5862,9.3315,72.5],[-79.5926,9.3376,79.1916],[-79.5926,9.334,77.097],[-79.5907,9.3324,75.9517],[-79.5874,9.3321,77.9439],[-79.5874,9.3301,85.9029],[-79.5824,9.3304,81.9748],[-79.5801,9.3215,72.5],[-79.5824,9.3199,99.0622],[-79.5818,9.3168,72.5],[-79.584,9.316,72.5],[-79.5832,9.3104,72.5],[-79.5843,9.3068,91.7639],[-79.5821,9.3068,75.3638],[-79.5807,9.3049,77.2491],[-79.5857,9.3026,72.5],[-79.5846,9.3004,72.5],[-79.5871,9.2979,121.1635],[-79.5893,9.2885,72.5],[-79.5915,9.2871,84.8421],[-79.5935,9.2821,79.5203],[-79.5918,9.2779,72.5],[-79.5943,9.2774,80.5054],[-79.596,9.2738,88.5536],[-79.5963,9.271,85.3867],[-79.5921,9.2732,72.5],[-79.5929,9.2629,72.5],[-79.5985,9.259,86.3034],[-79.6004,9.2676,90.7463],[-79.6021,9.2651,72.5],[-79.6004,9.2571,72.5],[-79.6029,9.2554,89.4576],[-79.6024,9.254,72.5],[-79.606,9.2537,74.61],[-79.6074,9.2515,77.227],[-79.6018,9.2524,72.5],[-79.599,9.2501,88.7825],[-79.5985,9.2518,82.8006],[-79.6007,9.2529,80.2759],[-79.6004,9.2546,80.871],[-79.5987,9.2546,80.871],[-79.5971,9.2579,72.5],[-79.5885,9.2615,90.9757],[-79.5882,9.2565,72.5],[-79.5896,9.2546,78.6714],[-79.5871,9.2554,95.112],[-79.5868,9.2535,80.5415],[-79.5932,9.2485,72.5],[-79.594,9.2457,72.5],[-79.5965,9.2479,86.5696],[-79.5971,9.2463,73.5664],[-79.5996,9.2474,78.9501],[-79.5999,9.2457,72.5],[-79.5965,9.2443,72.5],[-79.5946,9.241,99.3768],[-79.5932,9.2415,76.1387],[-79.5896,9.2382,75.3475],[-79.5888,9.2343,79.6485],[-79.5868,9.234,74.7261],[-79.5901,9.231,74.8404],[-79.5885,9.229,83.6967],[-79.5907,9.2271,87.3207],[-79.5888,9.2249,76.0201],[-79.5901,9.2235,72.5],[-79.589,9.221,78.7724],[-79.5971,9.2221,93.9691],[-79.5987,9.2201,72.5],[-79.6007,9.2204,72.5],[-79.5993,9.224,72.5],[-79.6018,9.2274,83.8191],[-79.6085,9.2285,72.5],[-79.6087,9.2263,72.5],[-79.6132,9.2274,121.8661],[-79.6171,9.2224,72.5],[-79.6215,9.2212,104.3513],[-79.619,9.2193,72.5],[-79.6193,9.2143,75.6017],[-79.6185,9.2162,77.5073],[-79.6129,9.2168,72.5],[-79.6137,9.211,75.2076],[-79.6165,9.2118,53.625],[-79.6188,9.2104,51.6764],[-79.6207,9.2035,64.6334],[-79.6363,9.2082,27.1825],[-79.6399,9.2068,29.1593],[-79.6476,9.2085,26.0],[-79.6501,9.1974,34.1029],[-79.6588,9.1812,35.6297],[-79.6561,9.1778,27.796],[-79.6587,9.1737,46.369],[-79.6584,9.1587,29.4374],[-79.6609,9.155,42.9284],[-79.672,9.1522,28.0368],[-79.6772,9.1451,47.1751],[-79.6782,9.1382,25.5],[-79.6826,9.136,25.375],[-79.6799,9.134,25.5164],[-79.6779,9.1362,25.5],[-79.6762,9.1332,26.238],[-79.6793,9.1307,25.4806],[-79.6868,9.129,25.0],[-79.6846,9.1246,26.0141],[-79.6818,9.1243,32.8886],[-79.6857,9.1207,25.0],[-79.6821,9.1188,33.5703],[-79.6829,9.1157,85.5697],[-79.6885,9.1143,26.3095],[-79.6876,9.1126,30.1942],[-79.6926,9.1138,25.0],[-79.6949,9.1114,26.3122],[-79.6901,9.1085,32.2195],[-79.6932,9.1037,48.0252],[-79.6807,9.0864,25.0],[-79.672,9.067,40.7528],[-79.6551,9.053,25.0],[-79.6451,9.0382,38.9884],[-79.6122,9.0182,25.5268],[-79.608,9.0143,16.625],[-79.6046,9.0062,16.5238],[-79.5798,8.9935,17.5262],[-79.5754,8.9851,9.6675],[-79.5754,8.9795,9.079],[-79.5776,8.9757,5.8877],[-79.5738,8.9654,0.5],[-79.5707,8.9649,0.5],[-79.5665,8.961,8.0211],[-79.5657,8.956,4.2796],[-79.5676,8.9549,2.6643],[-79.5679,8.9474,0.0],[-79.5632,8.9449,2.2536],[-79.5632,8.9426,0.0],[-79.5604,8.9432,0.0],[-79.5568,8.9412,9.7433],[-79.5437,8.9304,0.0],[-79.5429,8.9326,0.0],[-79.5446,8.9343,0.9026],[-79.5454,8.9429,2.9698],[-79.549,8.9426,4.2628],[-79.5529,8.9449,5.6844],[-79.5504,8.9446,2.351],[-79.5474,8.9457,3.3572],[-79.5465,8.9482,5.7641],[-79.5379,8.9501,0.0],[-79.5315,8.9493,1.7251],[-79.5307,8.9532,0.0],[-79.5357,8.9554,7.2099],[-79.5371,8.959,6.5225],[-79.5329,8.9671,9.6158],[-79.5287,8.9712,5.4784],[-79.5276,8.9693,3.4815],[-79.5254,8.9701,2.0644],[-79.5268,8.9732,3.5992],[-79.5249,8.9757,10.7982],[-79.5188,8.9751,2.7774],[-79.5176,8.969,1.4158],[-79.5118,8.9738,3.1181],[-79.5065,8.9749,0.0],[-79.506,8.9762,0.0],[-79.509,8.9776,13.3402],[-79.5079,8.9804,0.7022],[-79.4976,8.9876,0.0],[-79.491,8.9968,0.0],[-79.4946,8.999,0.0],[-79.4946,9.0021,4.2126],[-79.4921,9.0043,6.7075],[-79.4857,9.0037,0.0],[-79.4851,9.0021,0.0],[-79.4796,9.0068,0.0],[-79.4699,9.009,2.5295],[-79.4629,9.0085,4.2989],[-79.4551,9.0115,5.0323],[-79.4532,9.0107,11.8008],[-79.4529,9.0118,11.8008],[-79.4451,9.0126,13.0611],[-79.4371,9.0182,5.732],[-79.4332,9.0126,3.3212],[-79.4313,9.0149,11.3218],[-79.4076,9.0163,2.0145],[-79.406,9.0179,2.2164],[-79.4007,9.016,0.0],[-79.4015,9.0199,15.7082],[-79.3993,9.024,14.4214],[-79.3926,9.019,10.3539],[-79.3935,9.0165,0.0],[-79.3901,9.0165,0.0],[-79.3782,9.0204,3.5101],[-79.3587,9.0218,4.9128],[-79.3546,9.026,6.979],[-79.3479,9.0229,7.8999],[-79.2901,9.024,0.0],[-79.2885,9.0257,5.6195],[-79.2671,9.0224,5.8818],[-79.2668,9.0193,0.0],[-79.2624,9.019,0.0],[-79.2593,9.0157,0.0],[-79.2549,9.016,0.0],[-79.2543,9.0182,0.0],[-79.2474,9.0171,0.0],[-79.2468,9.0185,0.0],[-79.244,9.0185,0.0],[-79.2049,9.014,6.8499],[-79.2038,9.0124,0.0],[-79.1937,9.0121,0.0],[-79.1929,9.0104,0.0],[-79.1896,9.0096,0.0],[-79.189,9.011,0.0],[-79.1918,9.0135,0.0],[-79.1779,9.0113,0.0],[-79.1774,9.0151,0.2209],[-79.1729,9.0157,0.0],[-79.1743,9.0274,18.2887],[-79.1726,9.0201,2.7306],[-79.1674,9.0168,3.8399],[-79.1687,9.0154,2.4045],[-79.1704,9.0163,1.3571],[-79.1687,9.0129,0.0],[-79.1515,9.011,1.4685],[-79.1349,9.0065,0.0],[-79.1246,8.9996,0.0],[-79.1193,8.9999,0.0],[-79.1057,8.9963,2.0569],[-79.1004,8.9879,2.6069],[-79.0876,8.9915,4.7544],[-79.0754,8.9901,2.6838],[-79.0529,8.9779,0.0],[-79.044,8.9757,12.4322],[-79.0396,8.9818,0.5],[-79.0468,8.9871,21.0615],[-79.0443,8.9868,6.4295],[-79.0385,8.9829,14.6085],[-79.0368,8.979,0.0],[-79.0312,8.9776,1.9392],[-79.0271,8.9701,0.0],[-79.0235,8.9707,4.3835],[-79.0176,8.9676,2.849],[-79.0171,8.9654,0.0],[-79.0126,8.966,3.9957],[-79.0096,8.9632,0.0],[-79.0001,8.961,2.5503],[-78.9785,8.9482,8.9255],[-78.9765,8.9446,1.8791],[-78.9704,8.9465,2.2724],[-78.9638,8.9401,0.0],[-78.9596,8.9415,2.1188],[-78.9579,8.9377,0.0],[-78.9526,8.9388,5.6501],[-78.9512,8.9363,0.9661],[-78.9421,8.9335,1.0828],[-78.9421,8.9324,1.0828],[-78.9329,8.9365,1.024],[-78.9329,8.9307,0.0],[-78.9287,8.926,0.0],[-78.9262,8.9285,0.7916],[-78.9221,8.9285,0.0],[-78.9154,8.9279,8.8398],[-78.9168,8.9249,1.0985],[-78.9149,8.9237,0.0],[-78.9107,8.9251,12.0599],[-78.9074,8.9196,0.0],[-78.9079,8.9171,6.8995],[-78.9107,8.916,5.8033],[-78.9104,8.9129,7.0058],[-78.9065,8.9107,10.5593],[-78.9063,8.9082,0.0],[-78.8988,8.9074,17.5024],[-78.8988,8.9038,10.6651],[-78.896,8.9043,12.0442],[-78.8921,8.9026,19.9159],[-78.8893,8.8976,7.1309],[-78.8896,8.894,2.81],[-78.8846,8.8935,23.5534],[-78.8807,8.8774,0.0],[-78.8779,8.8751,7.9545],[-78.8801,8.8679,2.7602],[-78.8757,8.8662,14.2497],[-78.8737,8.854,9.8017],[-78.8685,8.8435,0.0],[-78.8651,8.8412,12.9439],[-78.8649,8.8337,0.0],[-78.8624,8.829,1.2188],[-78.8599,8.8282,0.0],[-78.8582,8.8296,8.035],[-78.846,8.8165,0.0],[-78.836,8.8126,6.3545],[-78.8296,8.8201,3.248],[-78.819,8.8185,0.0],[-78.8163,8.8196,0.0],[-78.8154,8.8176,0.0],[-78.8107,8.8171,4.728],[-78.8107,8.8143,0.0],[-78.8079,8.8135,0.3162],[-78.8071,8.8093,0.0],[-78.8112,8.801,0.0],[-78.8096,8.8013,3.5975],[-78.8096,8.7965,0.0],[-78.8079,8.7957,3.3105],[-78.8049,8.799,12.7451],[-78.7996,8.7993,0.0],[-78.7985,8.8015,6.1522],[-78.7937,8.8026,0.0],[-78.786,8.8099,0.0],[-78.786,8.8121,7.4451],[-78.7838,8.8135,0.0],[-78.7849,8.8171,0.0],[-78.7832,8.8185,0.0],[-78.7854,8.8254,1.7664],[-78.7838,8.8293,5.285],[-78.7843,8.834,2.4563],[-78.781,8.8324,0.0],[-78.779,8.8346,0.0],[-78.7732,8.8354,0.0],[-78.7729,8.8337,17.7304],[-78.7763,8.8335,11.3164],[-78.7804,8.8304,0.0],[-78.7824,8.8221,0.0],[-78.7796,8.8199,0.0],[-78.7701,8.8182,0.0],[-78.7588,8.8099,0.0],[-78.7543,8.8143,10.297],[-78.7549,8.821,4.8465],[-78.7538,8.821,4.8465],[-78.7529,8.8137,14.1618],[-78.7571,8.8074,0.0],[-78.7554,8.804,1.5058],[-78.7582,8.8013,4.6398],[-78.7562,8.7857,0.0],[-78.754,8.7849,0.0],[-78.7549,8.781,1.0424],[-78.7535,8.7799,0.0],[-78.7549,8.7771,11.9357],[-78.7524,8.7754,6.383],[-78.7529,8.774,6.383],[-78.7465,8.7751,0.0],[-78.7438,8.769,3.2351],[-78.741,8.7701,0.5788],[-78.7412,8.7643,1.3931],[-78.7343,8.764,11.5137],[-78.7332,8.7612,0.5967],[-78.7296,8.7587,0.0],[-78.7271,8.7593,3.89],[-78.7254,8.7568,0.0],[-78.7232,8.7582,6.7179],[-78.7129,8.7562,1.1697],[-78.7115,8.7612,12.0],[-78.7112,8.7557,1.6713],[-78.7046,8.7582,0.0],[-78.7043,8.7499,0.0],[-78.694,8.7488,2.48],[-78.6932,8.7471,3.2947],[-78.6862,8.7476,1.5668],[-78.6815,8.7571,2.306],[-78.6813,8.7474,0.0],[-78.6762,8.7474,5.0876],[-78.6768,8.744,0.0],[-78.6738,8.7424,3.773],[-78.6751,8.7396,0.0],[-78.6712,8.7379,2.8647],[-78.6751,8.7349,0.0],[-78.6751,8.731,0.0],[-78.664,8.7324,3.3624],[-78.6635,8.7343,0.0],[-78.666,8.7388,2.3189],[-78.6626,8.7362,0.0],[-78.6624,8.734,0.0],[-78.6637,8.7312,14.5851],[-78.6738,8.7296,4.0288],[-78.6749,8.7262,0.0],[-78.6826,8.7224,11.4964],[-78.6762,8.7188,6.1388],[-78.676,8.7168,0.0],[-78.6676,8.711,14.5562],[-78.6643,8.7062,0.0],[-78.6615,8.7082,0.0],[-78.6651,8.7154,17.545],[-78.6624,8.716,5.4894],[-78.6574,8.7251,7.5897],[-78.6526,8.7293,6.5501],[-78.6487,8.7318,1.4518],[-78.646,8.731,0.0],[-78.6429,8.7326,8.0455],[-78.6346,8.7282,0.0],[-78.6329,8.7218,2.1265],[-78.6357,8.7196,0.0],[-78.6349,8.7154,23.7795],[-78.641,8.7065,3.0005],[-78.6363,8.6999,1.8646],[-78.6368,8.6943,31.6834],[-78.6387,8.6924,5.5131],[-78.636,8.6915,0.0],[-78.6346,8.6882,2.8792],[-78.6279,8.6896,8.4687],[-78.6265,8.6868,17.2898],[-78.6271,8.6835,2.1324],[-78.626,8.6835,2.1324],[-78.6271,8.6807,20.5468],[-78.6221,8.6751,5.3309],[-78.6232,8.6726,0.0],[-78.6185,8.6721,20.236],[-78.6154,8.6743,37.5531],[-78.6168,8.6793,1.4037],[-78.6149,8.6804,0.0],[-78.6146,8.6835,3.8066],[-78.6118,8.6776,3.6614],[-78.6076,8.6768,0.0],[-78.6071,8.6807,4.3958],[-78.609,8.6846,14.0897],[-78.6057,8.6829,2.8764],[-78.6038,8.6876,4.526],[-78.5993,8.6893,12.1741],[-78.5996,8.6854,0.0],[-78.5899,8.6818,0.0],[-78.5835,8.6768,3.2065],[-78.5796,8.6674,0.0],[-78.5804,8.6632,0.0],[-78.5693,8.6576,18.5838],[-78.5668,8.6543,0.0],[-78.5576,8.6499,0.0],[-78.5549,8.6501,0.0],[-78.5518,8.6474,1.5612],[-78.5443,8.6462,4.5078],[-78.5393,8.6415,0.0],[-78.5379,8.6446,5.7715],[-78.5346,8.6443,11.3239],[-78.5326,8.6421,9.0846],[-78.5304,8.6424,0.0],[-78.5299,8.644,5.5481],[-78.5249,8.6438,7.473],[-78.5201,8.6368,8.1956],[-78.5246,8.6396,0.0],[-78.5307,8.6399,0.0],[-78.5237,8.6313,18.1749],[-78.5251,8.6287,0.0],[-78.5207,8.6232,0.0],[-78.521,8.6185,0.0],[-78.5196,8.6185,0.7746],[-78.5176,8.6168,1.0464],[-78.5165,8.614,4.4762],[-78.5176,8.6124,11.429],[-78.5196,8.6179,0.7746],[-78.5249,8.6151,0.0],[-78.5235,8.6107,8.5583],[-78.526,8.6093,0.0],[-78.5246,8.6079,0.0],[-78.5243,8.6029,15.0947],[-78.5265,8.6032,0.7991],[-78.5268,8.6013,0.0],[-78.524,8.6001,0.0],[-78.5182,8.6024,16.7211],[-78.5157,8.6007,15.1092],[-78.5174,8.5985,0.0],[-78.516,8.5971,16.4479],[-78.5099,8.5965,1.1025],[-78.5121,8.5921,1.0368],[-78.506,8.5865,0.0],[-78.5043,8.5815,0.0],[-78.5015,8.5807,15.1535],[-78.5057,8.5746,0.8444],[-78.5051,8.569,0.7255],[-78.5021,8.5671,2.1004],[-78.4999,8.5712,0.6192],[-78.4968,8.5712,5.1195],[-78.5007,8.5662,0.0],[-78.4976,8.564,6.611],[-78.4965,8.5607,3.8587],[-78.4943,8.5601,1.6367],[-78.4954,8.556,4.269],[-78.4971,8.5607,3.8587],[-78.5021,8.5651,2.8144],[-78.504,8.5651,0.8597],[-78.5051,8.5607,15.6936],[-78.5065,8.5607,0.6332],[-78.5057,8.5676,0.0],[-78.5088,8.5771,0.9752],[-78.5149,8.5807,0.0],[-78.5151,8.5796,0.8587],[-78.5121,8.5763,0.0],[-78.5151,8.5788,0.8587],[-78.5165,8.5782,27.5289],[-78.5168,8.5826,3.7742],[-78.5229,8.5871,0.0],[-78.529,8.589,0.0],[-78.5354,8.5849,24.1394],[-78.5424,8.5857,0.0],[-78.544,8.5885,10.5058],[-78.5465,8.5871,0.0],[-78.5429,8.5843,11.4075],[-78.5424,8.5776,26.7866],[-78.5374,8.576,23.1044],[-78.5321,8.5693,24.725],[-78.5343,8.5665,0.0],[-78.5307,8.5646,13.2764],[-78.5287,8.5565,0.0],[-78.5324,8.5565,2.0999],[-78.5324,8.5546,14.2881],[-78.5263,8.5507,8.1054],[-78.5224,8.5515,20.0322],[-78.5137,8.5432,1.0371],[-78.5085,8.5424,3.5448],[-78.5082,8.5401,1.0937],[-78.5121,8.5376,17.7981],[-78.5118,8.5337,5.2114],[-78.5154,8.534,7.8753],[-78.5135,8.5318,20.3492],[-78.5149,8.5299,0.0],[-78.5126,8.5271,5.8562],[-78.5037,8.5254,22.5079],[-78.5021,8.521,0.0],[-78.4982,8.5235,0.0],[-78.4957,8.5204,12.6295],[-78.4979,8.5179,0.0],[-78.4968,8.5074,3.2659],[-78.4985,8.5074,0.0],[-78.4993,8.5054,17.0825],[-78.5035,8.5057,0.0],[-78.5024,8.5026,0.0],[-78.5051,8.4979,17.0207],[-78.5035,8.4926,20.0856],[-78.5004,8.4921,20.509],[-78.5015,8.489,12.8567],[-78.5001,8.4882,1.5911],[-78.4996,8.4815,2.9592],[-78.4979,8.4807,2.9592],[-78.4982,8.476,0.0],[-78.5068,8.4746,13.5987],[-78.5082,8.4649,0.0],[-78.4985,8.4521,5.2469],[-78.4968,8.4471,27.4261],[-78.4899,8.4449,0.0],[-78.4779,8.434,7.7459],[-78.4746,8.4249,0.5186],[-78.4724,8.426,0.0],[-78.4729,8.429,0.0],[-78.4701,8.4307,0.0],[-78.471,8.434,0.0],[-78.4757,8.4351,12.9208],[-78.4743,8.4435,1.8667],[-78.4726,8.4476,5.4014],[-78.4668,8.4485,0.0],[-78.4654,8.4565,10.8387],[-78.4635,8.4587,4.2704],[-78.464,8.4468,0.0],[-78.4612,8.446,2.0196],[-78.4612,8.4443,0.0],[-78.4574,8.4424,2.0036],[-78.456,8.4399,0.9439],[-78.4621,8.4404,1.5177],[-78.4649,8.4435,3.1038],[-78.4715,8.4404,0.0],[-78.4693,8.4371,0.0],[-78.466,8.4357,0.0],[-78.4649,8.4301,0.0],[-78.4607,8.4249,0.7797],[-78.451,8.4179,1.5738],[-78.451,8.414,0.0],[-78.4526,8.4143,0.0],[-78.4532,8.4126,1.5662],[-78.4532,8.4079,0.6302],[-78.4504,8.406,32.5757],[-78.451,8.3829,0.0],[-78.449,8.3832,0.0],[-78.449,8.386,22.4465],[-78.4432,8.3843,6.7215],[-78.4388,8.3851,0.0],[-78.4376,8.3787,8.7073],[-78.431,8.3701,1.763],[-78.431,8.366,0.0],[-78.4271,8.3649,6.2752],[-78.4235,8.3615,14.4315],[-78.4229,8.3526,0.0],[-78.4207,8.351,0.0],[-78.4208,8.3474,2.8451],[-78.4187,8.3503,30.9589],[-78.4184,8.3589,43.2594],[-78.4206,8.369,85.6135],[-78.4225,8.4013,179.0199],[-78.4251,8.4077,168.2458],[-78.4261,8.4191,170.049],[-78.4302,8.4385,299.6421],[-78.4361,8.4521,241.3319],[-78.4417,8.4714,130.786],[-78.4483,8.4825,97.5228]],
[[-79.5575,9.3588,72.5],[-79.5576,9.3588,72.5],[-79.5576,9.3592,72.5],[-79.5575,9.3588,72.5]],
[[-79.6104,9.2251,72.8353],[-79.6085,9.2251,72.5],[-79.609,9.2226,72.5],[-79.6101,9.2235,72.5],[-79.6104,9.2251,72.8353]]],
[[[-78.5362,8.5329,0.0],[-78.5385,8.5349,4.5771],[-78.5393,8.5304,0.0],[-78.5368,8.5299,0.0],[-78.5376,8.5318,13.2527],[-78.5362,8.5329,0.0]]],
[[[-78.7732,8.1979,3.1555],[-78.7765,8.1993,0.0],[-78.7779,8.194,1.1873],[-78.7765,8.1926,0.0],[-78.7726,8.1937,0.0],[-78.7715,8.1962,18.8955],[-78.7732,8.1979,3.1555]]],
[[[-78.7032,8.6337,0.0],[-78.7038,8.6343,0.0],[-78.7065,8.6349,0.0],[-78.7057,8.6324,0.0],[-78.7032,8.6337,0.0]]],
[[[-78.7607,8.811,4.8934],[-78.7624,8.8124,0.0],[-78.7635,8.8121,0.0],[-78.7615,8.8082,0.0],[-78.7607,8.811,4.8934]]],
[[[-78.5454,8.544,17.2372],[-78.5443,8.5457,0.0],[-78.5471,8.5449,17.2372],[-78.5462,8.5421,0.0],[-78.5451,8.5426,0.0],[-78.5454,8.544,17.2372]]],
[[[-78.6249,8.6413,0.0],[-78.6279,8.6426,0.0],[-78.6338,8.6404,0.0],[-78.634,8.6324,0.0],[-78.6315,8.6318,0.0],[-78.6271,8.6354,0.0],[-78.6274,8.6388,44.4821],[-78.6243,8.6385,0.0],[-78.6249,8.6413,0.0]]],
[[[-78.6301,8.6607,0.0],[-78.6315,8.6604,4.1928],[-78.6315,8.6629,0.0],[-78.6329,8.6629,3.8299],[-78.6382,8.6593,5.4215],[-78.6371,8.6565,0.0],[-78.6329,8.6585,2.7709],[-78.634,8.656,0.0],[-78.6315,8.6546,0.0],[-78.6304,8.6571,0.0],[-78.6318,8.6585,2.7709],[-78.6296,8.6582,0.0],[-78.6301,8.6607,0.0]]],
[[[-78.8526,8.4315,18.8783],[-78.8551,8.4329,8.9079],[-78.8549,8.4285,0.0],[-78.849,8.4229,0.0],[-78.8504,8.4265,7.0096],[-78.8521,8.4271,6.5548],[-78.8526,8.4315,18.8783]]],
[[[-78.8471,8.441,0.0],[-78.8471,8.4435,0.0],[-78.8487,8.4432,7.2618],[-78.8493,8.4413,0.0],[-78.8471,8.441,0.0]]],
[[[-78.8524,8.4587,0.0803],[-78.8532,8.4604,3.2893],[-78.8549,8.4601,0.0],[-78.8518,8.4565,0.0],[-78.8524,8.4587,0.0803]]],
[[[-78.9057,8.4729,13.884],[-78.9088,8.4746,7.1086],[-78.9071,8.471,9.3452],[-78.9043,8.4701,6.0601],[-78.9043,8.4665,1.5117],[-78.9026,8.466,2.0847],[-78.9015,8.4701,13.4132],[-78.9057,8.4729,13.884]]],
[[[-79.0085,8.4429,0.0],[-79.0057,8.4435,0.0],[-79.006,8.4471,0.0],[-79.011,8.4413,0.0],[-79.0085,8.4429,0.0]]],
[[[-78.9907,8.4535,0.0],[-78.9893,8.4538,2.1814],[-78.9893,8.4554,2.1814],[-78.9907,8.4551,1.2143],[-78.9907,8.4535,0.0]]],
[[[-78.9354,8.4624,0.0],[-78.9365,8.4643,2.836],[-78.9393,8.4632,0.0],[-78.9376,8.4612,0.0],[-78.9354,8.4624,0.0]]],
[[[-78.9399,8.4635,0.0],[-78.939,8.4651,1.994],[-78.9396,8.4671,1.4374],[-78.9418,8.4621,0.0],[-78.9399,8.4635,0.0]]],
[[[-78.9987,8.4887,8.5487],[-78.9999,8.489,7.7098],[-78.999,8.4932,2.1481],[-79.0001,8.4932,3.5875],[-79.0035,8.4904,16.1989],[-79.0065,8.4912,5.054],[-79.0101,8.4879,7.4806],[-79.0085,8.4846,6.7046],[-79.0121,8.4849,5.8714],[-79.0126,8.4813,1.5474],[-79.0096,8.4824,6.8875],[-79.0082,8.479,0.0],[-79.0046,8.4799,0.0],[-79.0026,8.4843,1.2352],[-79.0001,8.4838,0.0],[-79.0001,8.4771,0.0],[-79.004,8.4751,0.0],[-79.0032,8.4715,11.5648],[-79.0051,8.4699,9.9285],[-79.0085,8.471,0.0],[-79.0093,8.4679,0.0],[-79.0115,8.4732,2.0755],[-79.0168,8.4713,0.0],[-79.0171,8.4696,13.0878],[-79.0201,8.4715,14.9314],[-79.0232,8.466,2.4316],[-79.014,8.4663,16.2698],[-79.0079,8.4607,15.8557],[-79.0082,8.4582,0.0],[-79.0065,8.4582,0.0],[-79.0051,8.4624,8.5278],[-79.0029,8.4626,10.0512],[-78.9893,8.4601,12.5519],[-78.9868,8.4499,1.163],[-78.9829,8.451,10.2824],[-78.9796,8.4499,5.4057],[-78.9824,8.4449,0.0],[-78.9804,8.4413,0.0],[-78.9796,8.444,9.803],[-78.9762,8.4463,0.0],[-78.9774,8.4532,8.6561],[-78.9796,8.4568,2.7464],[-78.9757,8.459,10.1446],[-78.9729,8.4635,0.0],[-78.9854,8.461,0.0],[-78.9865,8.4657,0.0],[-78.989,8.4671,0.0],[-78.9879,8.4696,3.6677],[-78.9938,8.4693,0.9885],[-78.9943,8.4704,0.9885],[-78.9935,8.4729,1.6492],[-78.9896,8.4754,9.8944],[-78.9865,8.4749,0.0],[-78.9849,8.4779,6.0284],[-78.9807,8.4776,0.0],[-78.9788,8.4815,0.0],[-78.9799,8.4838,8.1955],[-78.9743,8.489,3.7838],[-78.9824,8.4887,0.0],[-78.984,8.4826,1.4587],[-78.991,8.4785,7.4043],[-78.9935,8.4796,0.0],[-78.9957,8.4743,18.3768],[-78.9965,8.4776,0.0],[-78.9999,8.4763,3.1869],[-78.9999,8.4851,0.0],[-78.9976,8.4876,0.0],[-78.9987,8.4887,8.5487]]],
[[[-78.9149,8.4707,1.5435],[-78.9137,8.4699,0.0],[-78.9126,8.4721,0.0],[-78.9135,8.4726,1.297],[-78.9149,8.4707,1.5435]]],
[[[-79.0082,8.4935,7.7188],[-79.0082,8.4946,9.2719],[-79.0113,8.4938,0.0],[-79.0107,8.4926,2.0166],[-79.0082,8.4935,7.7188]]],
[[[-78.9546,8.4979,0.0],[-78.9538,8.4985,0.0],[-78.9535,8.4999,0.0],[-78.9554,8.4976,0.0],[-78.9546,8.4979,0.0]]],
[[[-78.901,8.4729,0.0],[-78.9001,8.4732,0.0],[-78.8993,8.4757,0.0],[-78.9024,8.4724,0.0],[-78.901,8.4729,0.0]]],
[[[-78.911,8.4738,0.0],[-78.9096,8.474,0.0],[-78.9096,8.476,0.0],[-78.9118,8.4754,0.0],[-78.911,8.4738,0.0]]],
[[[-78.9024,8.4774,1.4842],[-78.9029,8.481,1.4311],[-78.904,8.481,0.0],[-78.9051,8.476,7.7616],[-78.9021,8.4746,0.0],[-78.9024,8.4774,1.4842]]],
[[[-79.096,8.2051,0.0],[-79.0968,8.2068,0.0],[-79.0982,8.2071,0.0],[-79.0979,8.2049,0.0],[-79.096,8.2051,0.0]]],
[[[-79.096,8.2096,0.0],[-79.096,8.2126,0.0],[-79.0974,8.2126,0.0],[-79.0979,8.2093,0.0],[-79.096,8.2096,0.0]]],
[[[-79.1029,8.3151,27.2965],[-79.1032,8.3174,0.0],[-79.1082,8.3171,0.0],[-79.1104,8.3154,57.1032],[-79.1174,8.3163,0.0],[-79.1168,8.3132,19.7455],[-79.1207,8.3107,9.3356],[-79.1229,8.304,0.0],[-79.1265,8.3004,15.1231],[-79.1296,8.2996,0.0],[-79.1274,8.2968,35.5208],[-79.1299,8.2954,0.0],[-79.1285,8.291,13.9234],[-79.1296,8.2854,0.0],[-79.1265,8.2849,0.0],[-79.1293,8.281,27.6776],[-79.1254,8.279,0.0],[-79.1279,8.274,0.0],[-79.1276,8.2701,0.0],[-79.1307,8.2676,0.0],[-79.131,8.2621,0.0],[-79.1285,8.2618,0.0],[-79.1293,8.2604,0.0],[-79.1257,8.2585,3.7965],[-79.1288,8.2574,0.0],[-79.1288,8.256,0.0],[-79.1343,8.2551,7.7974],[-79.1368,8.2596,0.0],[-79.1393,8.2538,26.6677],[-79.1407,8.2535,0.0],[-79.1404,8.2513,0.0],[-79.1429,8.251,0.0],[-79.1426,8.2437,16.9199],[-79.1446,8.2413,0.0],[-79.1446,8.2382,0.0],[-79.1424,8.2376,0.0],[-79.1401,8.2432,20.8327],[-79.1379,8.2424,3.1466],[-79.1374,8.2363,2.4071],[-79.1335,8.2285,0.0],[-79.1349,8.2232,0.4201],[-79.1279,8.2263,0.0],[-79.131,8.2224,0.0],[-79.1299,8.214,0.0],[-79.1288,8.2126,5.2246],[-79.1235,8.2124,12.2848],[-79.1204,8.2082,0.0],[-79.1171,8.2085,0.0],[-79.1132,8.2121,19.3093],[-79.1113,8.2096,0.7846],[-79.109,8.2126,17.1397],[-79.1085,8.2185,0.0],[-79.1104,8.2199,2.6984],[-79.1104,8.226,0.0],[-79.1079,8.2263,0.0],[-79.106,8.2304,0.0],[-79.0996,8.2279,0.0],[-79.0971,8.2299,0.3895],[-79.099,8.2301,0.0],[-79.0987,8.2396,0.0],[-79.1029,8.2407,27.2658],[-79.1015,8.2435,0.0],[-79.1057,8.244,7.1185],[-79.1065,8.246,3.7131],[-79.1062,8.2496,4.7289],[-79.1012,8.2557,3.9477],[-79.0976,8.256,0.0],[-79.0907,8.2604,0.0],[-79.0837,8.2588,34.7992],[-79.0843,8.256,0.0],[-79.0826,8.254,0.0],[-79.0776,8.2551,0.0],[-79.0782,8.2582,24.0869],[-79.0735,8.2568,0.0],[-79.0693,8.2582,0.0],[-79.066,8.2574,6.4525],[-79.066,8.2601,9.6744],[-79.0679,8.2601,40.2374],[-79.0696,8.2643,4.472],[-79.076,8.2629,17.1059],[-79.0757,8.2671,0.0],[-79.0779,8.2674,2.9293],[-79.076,8.2679,2.9293],[-79.0762,8.2693,0.0],[-79.0829,8.2721,0.0],[-79.0846,8.2824,13.5193],[-79.0829,8.2871,0.0],[-79.0871,8.2915,51.1916],[-79.089,8.2985,10.3007],[-79.0912,8.2993,5.9761],[-79.0957,8.3057,0.0],[-79.0985,8.3063,4.7443],[-79.099,8.3104,7.308],[-79.1018,8.3104,13.4329],[-79.1029,8.3151,27.2965]]],
[[[-79.1146,8.4257,12.6076],[-79.1137,8.429,0.0],[-79.116,8.4293,0.0],[-79.1257,8.424,0.0],[-79.1296,8.4168,0.0],[-79.1274,8.4115,52.8306],[-79.1318,8.404,0.0],[-79.1279,8.4001,0.0],[-79.1215,8.4032,6.4188],[-79.1165,8.3974,12.6188],[-79.1168,8.3913,0.0],[-79.114,8.3921,22.811],[-79.114,8.3899,0.0],[-79.1101,8.389,0.0],[-79.1085,8.3904,0.0],[-79.1043,8.3888,15.11],[-79.0996,8.3829,3.9724],[-79.0957,8.3824,2.094],[-79.096,8.3776,2.4448],[-79.0921,8.3793,19.9035],[-79.0904,8.3768,0.0],[-79.086,8.3774,0.0],[-79.084,8.3821,0.0],[-79.0851,8.3863,0.0],[-79.0829,8.3874,5.5355],[-79.0826,8.3929,19.5123],[-79.0804,8.3957,11.6087],[-79.0807,8.3982,8.4383],[-79.0865,8.401,44.7951],[-79.0824,8.414,6.2204],[-79.0871,8.4196,21.7998],[-79.0901,8.419,5.9398],[-79.0915,8.4149,4.3503],[-79.0912,8.4126,3.1994],[-79.089,8.4115,0.0],[-79.0912,8.4085,0.0],[-79.0904,8.4043,0.0],[-79.0943,8.4021,0.0],[-79.0965,8.4099,0.0],[-79.0996,8.4071,0.0],[-79.1021,8.4076,0.0],[-79.1004,8.4149,0.0],[-79.1135,8.4201,36.9869],[-79.1151,8.4221,17.5687],[-79.1146,8.4257,12.6076]]],
[[[-79.0126,8.3629,8.1108],[-79.0104,8.3635,3.7858],[-79.0101,8.3649,2.8417],[-79.0154,8.3626,10.1311],[-79.0126,8.3629,8.1108]]],
[[[-78.9626,8.3929,0.0],[-78.9621,8.3951,1.9829],[-78.9643,8.3957,0.0],[-78.9643,8.3938,0.0],[-78.9668,8.3915,2.4285],[-78.9646,8.391,2.7114],[-78.9626,8.3929,0.0]]],
[[[-78.9796,8.4268,0.0],[-78.9818,8.4279,2.2791],[-78.9832,8.4254,2.5346],[-78.9812,8.4246,0.0],[-78.9796,8.4268,0.0]]],
[[[-78.9901,8.4429,6.1867],[-78.9913,8.4443,0.0],[-78.9924,8.4413,0.0],[-78.9907,8.4415,0.0],[-78.9901,8.4429,6.1867]]],
[[[-79.1065,8.4226,0.0],[-79.1068,8.424,3.1838],[-79.1099,8.4238,5.8262],[-79.1085,8.4204,0.0],[-79.1065,8.4226,0.0]]],
[[[-79.0426,8.4813,0.0],[-79.0421,8.4829,0.0],[-79.0432,8.4835,0.0],[-79.0443,8.4807,0.0],[-79.0426,8.4813,0.0]]],
[[[-79.0493,8.4874,7.573],[-79.0488,8.4899,0.0],[-79.0532,8.4857,3.2413],[-79.0512,8.4812,0.0],[-79.0482,8.4832,0.0],[-79.0493,8.4874,7.573]]],
[[[-79.0554,8.5026,0.0],[-79.0557,8.5046,4.5025],[-79.0582,8.5051,14.653],[-79.0596,8.5024,0.0],[-79.0629,8.5013,4.2306],[-79.0646,8.4971,5.5477],[-79.0682,8.4951,0.0],[-79.066,8.4882,5.0373],[-79.0687,8.4818,0.0],[-79.0674,8.4812,0.0],[-79.066,8.4835,9.8943],[-79.0615,8.4846,12.5348],[-79.0587,8.4818,0.0],[-79.056,8.4862,13.2998],[-79.0543,8.4857,4.0736],[-79.0526,8.4876,4.8202],[-79.0551,8.4921,1.4966],[-79.0518,8.4951,6.5296],[-79.0493,8.5007,0.0],[-79.0535,8.4996,0.0],[-79.0557,8.4946,0.8989],[-79.0576,8.4938,4.3949],[-79.0554,8.5026,0.0]]],
[[[-79.0482,8.4926,5.8469],[-79.0471,8.4954,0.0],[-79.0499,8.4954,8.5126],[-79.0532,8.491,4.0657],[-79.0507,8.4912,0.0],[-79.0507,8.4935,0.0],[-79.0482,8.4926,5.8469]]],
[[[-79.0274,8.5213,8.8466],[-79.0296,8.5238,0.0],[-79.0335,8.5221,0.0],[-79.039,8.5124,0.0],[-79.0387,8.5096,7.943],[-79.0424,8.5068,4.8063],[-79.0437,8.5026,0.0],[-79.0396,8.4996,0.0],[-79.0362,8.4996,0.4427],[-79.0349,8.5018,18.2453],[-79.0318,8.501,7.0037],[-79.0304,8.4982,16.7424],[-79.0338,8.4946,0.0],[-79.029,8.4954,0.0],[-79.0282,8.4915,0.0],[-79.0246,8.4957,14.3408],[-79.0218,8.4951,0.0],[-79.0249,8.499,18.5151],[-79.024,8.5018,0.0],[-79.029,8.501,3.3224],[-79.0299,8.5032,0.0],[-79.0321,8.5026,0.0],[-79.0307,8.5057,0.0],[-79.0324,8.5065,0.84],[-79.0324,8.5124,0.0],[-79.0285,8.5157,1.2827],[-79.0285,8.5182,0.9817],[-79.0263,8.5201,0.0],[-79.0274,8.5213,8.8466]]],
[[[-79.0563,8.5074,0.0],[-79.0557,8.5093,3.4134],[-79.0585,8.509,1.6912],[-79.0582,8.5082,0.0],[-79.0563,8.5074,0.0]]],
[[[-79.0426,8.5238,1.9784],[-79.0393,8.5243,2.826],[-79.0396,8.5257,0.0],[-79.0507,8.5224,14.3919],[-79.0471,8.5176,13.4239],[-79.0515,8.5115,0.0],[-79.051,8.5099,0.0],[-79.0449,8.5115,0.0],[-79.0379,8.5196,0.0],[-79.0379,8.5221,0.0],[-79.0429,8.521,1.4422],[-79.0426,8.5238,1.9784]]],
[[[-79.0246,8.5151,1.0765],[-79.0279,8.516,1.2827],[-79.0263,8.5151,1.0765],[-79.0265,8.5118,0.0],[-79.0215,8.5104,0.0],[-79.0221,8.5135,0.0],[-79.0246,8.5151,1.0765]]],
[[[-79.0182,8.5221,0.0],[-79.0232,8.5232,3.0314],[-79.026,8.5207,0.0],[-79.0237,8.521,9.7781],[-79.0215,8.5182,0.0],[-79.0188,8.5179,4.6369],[-79.0146,8.5204,0.0],[-79.0151,8.5232,0.0],[-79.0168,8.521,3.8149],[-79.0182,8.5221,0.0]]],
[[[-79.0057,8.5296,0.0],[-79.0057,8.531,0.0],[-79.0076,8.531,0.0],[-79.0079,8.5282,0.0],[-79.0071,8.5282,0.0],[-79.0057,8.5296,0.0]]],
[[[-79.0101,8.5318,6.8625],[-79.0104,8.5301,0.0],[-79.0076,8.5312,0.0],[-79.0082,8.5326,0.0],[-79.0101,8.5318,6.8625]]],
[[[-79.031,8.5376,8.4281],[-79.0307,8.5396,0.0],[-79.0332,8.5399,4.8722],[-79.0371,8.5379,0.0],[-79.0354,8.5365,0.0],[-79.036,8.5335,0.0],[-79.0346,8.5335,0.0],[-79.031,8.5376,8.4281]]],
[[[-79.0335,8.5485,0.0],[-79.0318,8.5518,0.0],[-79.0332,8.5515,0.0],[-79.0362,8.5474,0.0],[-79.0349,8.5468,0.0],[-79.0335,8.5485,0.0]]],
[[[-79.0246,8.5771,4.1728],[-79.0237,8.579,0.0],[-79.0304,8.5774,1.3839],[-79.0326,8.5729,11.17],[-79.026,8.5749,1.813],[-79.0246,8.5715,0.0],[-79.0282,8.5688,0.0],[-79.0287,8.5654,0.0],[-79.0224,8.564,0.0],[-79.0176,8.5676,0.0],[-79.0176,8.5696,2.7997],[-79.021,8.5707,7.8343],[-79.0179,8.5724,2.6039],[-79.0171,8.5754,10.8187],[-79.0199,8.5738,6.7714],[-79.024,8.574,5.0234],[-79.0246,8.5771,4.1728]]],
[[[-79.0254,8.5957,19.3984],[-79.0249,8.5974,0.0],[-79.0282,8.5965,11.5008],[-79.0304,8.5935,45.2046],[-79.031,8.5951,7.8025],[-79.0329,8.5951,0.0],[-79.0362,8.5932,6.1402],[-79.0338,8.5868,0.0],[-79.0346,8.5838,6.5394],[-79.0312,8.5843,10.2843],[-79.0301,8.5815,0.0],[-79.0299,8.5835,1.7272],[-79.0224,8.584,0.0],[-79.0188,8.5874,20.0112],[-79.0174,8.5907,1.5629],[-79.0246,8.5926,27.729],[-79.024,8.5946,0.0],[-79.0254,8.5957,19.3984]]],
[[[-79.1068,8.2096,0.0],[-79.1076,8.2113,1.4753],[-79.1096,8.211,1.2514],[-79.1093,8.2049,0.0],[-79.1062,8.2076,0.0],[-79.1068,8.2096,0.0]]],
[[[-79.1232,8.2093,0.0],[-79.1243,8.2107,0.0],[-79.126,8.2101,0.0],[-79.1249,8.2082,0.0],[-79.1232,8.2093,0.0]]],
[[[-79.1062,8.4457,0.0],[-79.1082,8.4474,0.0],[-79.1107,8.4454,34.7792],[-79.1101,8.441,7.6919],[-79.1071,8.4407,21.9151],[-79.1062,8.4457,0.0]]],
[[[-79.1296,8.9585,6.3107],[-79.1324,8.959,0.0],[-79.1332,8.9576,0.0],[-79.1318,8.956,0.0],[-79.1332,8.9507,0.0],[-79.131,8.9493,0.0],[-79.1321,8.9485,0.0],[-79.129,8.9476,5.5792],[-79.1332,8.9429,0.0],[-79.1315,8.9418,0.0],[-79.1279,8.9426,0.0],[-79.1279,8.941,0.0],[-79.1265,8.941,0.0],[-79.1276,8.9471,5.5792],[-79.1229,8.9501,0.0],[-79.1287,8.9535,33.5158],[-79.1296,8.9585,6.3107]]],
[[[-79.061,8.6013,20.5429],[-79.0604,8.6029,11.5782],[-79.0638,8.6024,0.0],[-79.0643,8.5982,0.6923],[-79.061,8.5982,0.0],[-79.061,8.6013,20.5429]]],
[[[-79.0615,8.6346,3.0219],[-79.0626,8.6363,3.9358],[-79.0668,8.636,3.0239],[-79.0665,8.6324,8.345],[-79.0687,8.6293,0.0],[-79.0682,8.626,0.0],[-79.071,8.626,0.0],[-79.0723,8.624,0.0],[-79.0724,8.6196,0.0],[-79.0674,8.6174,27.9916],[-79.0649,8.6143,8.3329],[-79.064,8.6076,0.7738],[-79.0618,8.6079,13.1456],[-79.0607,8.614,20.1243],[-79.0582,8.6151,0.0],[-79.0515,8.624,22.3516],[-79.0524,8.6254,22.3516],[-79.0549,8.624,5.9797],[-79.0582,8.6254,17.9391],[-79.0599,8.6282,29.5881],[-79.0579,8.6307,4.9307],[-79.0585,8.6346,0.0],[-79.0615,8.6346,3.0219]]],
[[[-79.0315,8.6335,0.0],[-79.0332,8.6351,0.0],[-79.0343,8.6326,5.2563],[-79.0365,8.6332,2.3473],[-79.0362,8.6313,9.9572],[-79.0387,8.629,17.6925],[-79.0413,8.6299,2.6272],[-79.0446,8.626,2.8267],[-79.046,8.6187,0.0],[-79.0421,8.619,0.395],[-79.0413,8.6221,23.6679],[-79.0376,8.6243,19.3394],[-79.0329,8.6243,0.0],[-79.031,8.6274,17.6065],[-79.0274,8.6274,10.7886],[-79.0279,8.6293,3.7046],[-79.031,8.629,3.303],[-79.0326,8.6307,0.0],[-79.0315,8.6335,0.0]]],
[[[-79.0349,8.649,2.3625],[-79.034,8.651,0.0],[-79.0354,8.6515,0.0],[-79.0376,8.6482,0.0],[-79.0362,8.6482,0.0],[-79.0349,8.649,2.3625]]],
[[[-79.5226,8.9068,0.0],[-79.5212,8.9065,0.0],[-79.5215,8.9051,0.0],[-79.5149,8.9051,0.0],[-79.5149,8.9113,0.0],[-79.5215,8.9101,13.8395],[-79.5226,8.9068,0.0]]],
[[[-79.5218,8.9151,0.0],[-79.5237,8.9165,15.0766],[-79.5263,8.9146,4.692],[-79.524,8.9126,2.6327],[-79.5218,8.9151,0.0]]],
[[[-79.5324,8.9174,0.0],[-79.5354,8.9179,0.0],[-79.5343,8.9146,1.5032],[-79.5296,8.9135,1.8434],[-79.5296,8.9157,0.0],[-79.5324,8.9174,0.0]]],
[[[-79.1379,8.9629,0.0],[-79.1371,8.9649,0.0],[-79.1421,8.9618,0.0],[-79.1399,8.9618,0.0],[-79.1379,8.9629,0.0]]],
[[[-79.1874,9.0085,0.0],[-79.1849,9.0093,0.0],[-79.1874,9.0099,0.0],[-79.1899,9.0076,0.0],[-79.1874,9.0085,0.0]]],
[[[-79.0512,8.6668,0.0],[-79.0512,8.6701,0.0],[-79.0593,8.6693,14.6521],[-79.0593,8.6657,43.3954],[-79.0543,8.6621,8.4325],[-79.0479,8.6629,6.3876],[-79.0512,8.6668,0.0]]],
[[[-79.0612,8.6715,3.1811],[-79.0626,8.6729,4.836],[-79.0651,8.6721,0.0],[-79.0646,8.6712,2.5788],[-79.0612,8.6715,3.1811]]],
[[[-79.0982,8.9771,0.0],[-79.0996,8.9788,0.0],[-79.0976,8.9743,0.0],[-79.0976,8.9768,0.0],[-79.0982,8.9771,0.0]]],
[[[-79.1007,8.9804,0.0],[-79.1004,8.979,0.0],[-79.0999,8.9785,0.0],[-79.1001,8.9818,0.0],[-79.1007,8.9804,0.0]]],
[[[-79.6871,9.1232,25.0],[-79.6854,9.1235,25.0],[-79.6874,9.1276,25.0],[-79.6876,9.1243,25.0],[-79.6871,9.1232,25.0]]],
[[[-79.6846,9.1324,25.0],[-79.6835,9.1315,25.0],[-79.6818,9.1329,25.0],[-79.6846,9.1332,25.0],[-79.6846,9.1324,25.0]]]]}}