{"type":"Feature","properties":{"GID_2":"PAN.9.5_1","GID_0":"PAN","country":"Panama","GID_1":"PAN.9_1","province":"LosSantos","NL_NAME_1":"NA","county":"Pedasí","VARNAME_2":"NA","NL_NAME_2":"NA","TYPE_2":"Distrito","ENGTYPE_2":"District","CC_2":"NA","HASC_2":"PA.LS.PD","name":"Pedasí.county"},
"geometry":{"type": "MultiPolygon","coordinates": [[[[-80.1868,7.4235,6.1874],[-80.1885,7.4243,0.0],[-80.1904,7.4221,9.0034],[-80.1876,7.4215,0.0],[-80.1868,7.4235,6.1874]]],
[[[-80.2509,7.4801,174.1685],[-80.2571,7.4802,119.0758],[-80.2498,7.4747,123.6107],[-80.2058,7.4521,129.7301],[-80.2308,7.4264,6.937],[-80.2288,7.4257,1.8143],[-80.229,7.4232,0.0],[-80.2271,7.4207,0.0],[-80.2187,7.4165,0.0],[-80.2157,7.4188,0.0],[-80.2135,7.4249,0.0],[-80.2049,7.4221,0.0],[-80.2043,7.4249,4.252],[-80.2065,7.429,4.9849],[-80.2046,7.4313,2.3257],[-80.1952,7.4329,3.1869],[-80.1899,7.431,3.8105],[-80.1862,7.4276,3.0703],[-80.186,7.4232,6.1874],[-80.1882,7.4196,3.7662],[-80.1874,7.4179,0.0],[-80.1818,7.4151,0.0],[-80.1815,7.4188,13.6568],[-80.179,7.4188,13.7291],[-80.1738,7.4157,4.3055],[-80.174,7.4143,0.0],[-80.1762,7.4143,0.0],[-80.1749,7.4115,0.0],[-80.1715,7.4121,7.5653],[-80.1696,7.4104,0.0],[-80.164,7.4121,21.32],[-80.161,7.4107,1.2967],[-80.1615,7.4129,2.8015],[-80.1599,7.4146,0.0],[-80.161,7.4168,9.8709],[-80.1565,7.4154,0.0],[-80.1551,7.4182,0.0],[-80.1451,7.4168,0.0],[-80.1465,7.4199,0.0],[-80.1449,7.4238,10.4362],[-80.1338,7.4249,0.0],[-80.1296,7.4321,12.6598],[-80.1029,7.4299,0.0],[-80.0985,7.4271,0.0],[-80.0954,7.4285,0.0],[-80.0907,7.4357,6.8576],[-80.0813,7.4346,0.0],[-80.0801,7.4399,0.0],[-80.0785,7.441,7.2161],[-80.0685,7.4401,0.0],[-80.0679,7.4418,4.2807],[-80.0704,7.444,16.8819],[-80.0646,7.4504,0.0],[-80.0515,7.4532,0.0],[-80.0471,7.451,5.4105],[-80.041,7.4515,5.7598],[-80.0307,7.449,0.5474],[-80.0243,7.4557,5.1239],[-80.019,7.4562,0.0],[-80.0179,7.4585,1.8421],[-80.0137,7.4582,0.0],[-80.0137,7.4599,0.0],[-80.0029,7.466,4.9796],[-79.9993,7.4651,0.0],[-79.9976,7.4735,0.0],[-79.9993,7.4749,0.0],[-80.0013,7.4735,6.1566],[-80.0024,7.4782,14.1211],[-79.9993,7.4807,2.9473],[-79.996,7.4779,0.0],[-79.9938,7.4788,0.0],[-79.996,7.4821,0.0],[-79.996,7.4851,0.0],[-79.999,7.4879,3.0942],[-79.9993,7.4999,0.0],[-80.0021,7.5018,10.9512],[-79.9965,7.5093,0.0],[-79.9915,7.5118,0.0],[-79.9912,7.5146,0.0],[-79.9957,7.5204,0.0],[-79.9971,7.526,0.0],[-80.0029,7.5293,4.2717],[-80.0035,7.5365,0.0],[-80.0085,7.5474,10.3768],[-80.0282,7.5685,5.8079],[-80.0307,7.5771,0.0],[-80.0329,7.5793,10.6047],[-80.0318,7.5846,0.0],[-80.0329,7.589,7.8386],[-80.031,7.5915,1.6883],[-80.049,7.6279,0.0],[-80.049,7.6337,0.0],[-80.0468,7.6335,0.0],[-80.0465,7.6357,0.0],[-80.0501,7.6379,1.9249],[-80.0554,7.6454,1.8927],[-80.0615,7.6482,3.2613],[-80.0646,7.6468,1.9347],[-80.0656,7.6415,17.9236],[-80.0769,7.6311,8.9148],[-80.082,7.6214,23.003],[-80.0861,7.6179,28.8079],[-80.0905,7.6031,21.8881],[-80.0907,7.5946,18.9768],[-80.1142,7.587,43.6693],[-80.1221,7.577,44.6279],[-80.116,7.5603,74.8021],[-80.1231,7.5483,94.3256],[-80.1312,7.5436,98.4763],[-80.1352,7.5311,111.1764],[-80.1458,7.528,123.3774],[-80.1603,7.5306,155.6771],[-80.1687,7.5263,178.8505],[-80.1697,7.5359,197.4034],[-80.1825,7.5607,306.3618],[-80.1862,7.5532,226.8999],[-80.2155,7.5183,43.808],[-80.2366,7.4784,129.0922],[-80.247,7.4784,136.2116],[-80.2509,7.4801,174.1685]]],
[[[-79.9982,7.6354,5.811],[-80.0013,7.6343,0.3809],[-80.0018,7.6299,1.23],[-80.0001,7.629,1.23],[-80.0001,7.626,0.0],[-80.0026,7.6232,0.6275],[-80.0021,7.6212,0.0],[-79.9993,7.621,0.0],[-79.9951,7.6274,0.0],[-79.9968,7.6299,0.0],[-79.9951,7.6335,0.0],[-79.9982,7.6354,5.811]]]]}}