{"type": "Feature","bbox": [-81.8538,8.1501,-81.7841,8.2709],"geometry": {"type": "MultiPolygon","coordinates": [[[[-81.8526,8.2709,60.6706],[-81.8538,8.2611,55.9123],[-81.8507,8.2531,33.331],[-81.8455,8.2458,32.67],[-81.8425,8.245,33.1629],[-81.8419,8.2418,31.131],[-81.8322,8.2384,48.439],[-81.827,8.2398,23.4692],[-81.8247,8.2337,35.3983],[-81.8306,8.2269,42.46],[-81.8305,8.2253,41.2328],[-81.8209,8.2142,27.1526],[-81.8157,8.2016,16.7724],[-81.8155,8.1977,14.6189],[-81.8086,8.1906,14.2804],[-81.809,8.1867,12.9019],[-81.8137,8.18,6.4251],[-81.8227,8.1786,3.5724],[-81.8277,8.1719,3.6505],[-81.8284,8.1677,3.2824],[-81.8264,8.1604,13.6792],[-81.8293,8.1574,2.692],[-81.8068,8.1501,0.8498],[-81.8071,8.1524,0.0],[-81.8104,8.1532,0.8241],[-81.8135,8.1576,4.5874],[-81.8054,8.1519,0.7288],[-81.8034,8.1531,4.021],[-81.8034,8.1605,7.0938],[-81.7984,8.1653,14.7126],[-81.7915,8.1612,2.7255],[-81.7894,8.1711,3.3907],[-81.7841,8.1792,2.9394],[-81.7842,8.1816,5.1408],[-81.7922,8.1861,13.1854],[-81.7929,8.1955,139.4985],[-81.8024,8.208,7.9611],[-81.8021,8.2147,7.2891],[-81.8046,8.2169,9.5404],[-81.8105,8.2175,5.3728],[-81.8165,8.2253,9.8558],[-81.8232,8.2412,22.7911],[-81.8273,8.2435,22.0843],[-81.8336,8.2527,34.233],[-81.8526,8.2709,60.6706]]]]}
,"properties": {"GID_3": "PAN.2.9.4_1","GID_0": "PAN","country": "Panama","GID_1": "PAN.2_1","province": "Chiriquí","NL_NAME_1": "NA","GID_2": "PAN.2.9_1","county": "Remedios","NL_NAME_2": "NA","city": "Remedios","VARNAME_3": "NA","NL_NAME_3": "NA","TYPE_3": "Corregimiento","ENGTYPE_3": "Municipality","CC_3": "NA","HASC_3": "NA","name": "Remedios.city","area_km2": 26.81949,"hist_schema_id": "Elevation0-9000","hist_area_km2": {"0": 13.6204,"25": 7.61752,"50": 4.23861,"75": 0.90229,"100": 0.25181,"125": 0.16789,"150": 0.02099}}}