{"type":"Feature","properties":{"GID_3":"PAN.10.1.8_1","GID_0":"PAN","country":"Panama","GID_1":"PAN.10_1","province":"NgöbeBuglé","NL_NAME_1":"NA","GID_2":"PAN.10.1_1","county":"Besiko","NL_NAME_2":"NA","city":"Soloy","VARNAME_3":"NA","NL_NAME_3":"NA","TYPE_3":"Corregimiento","ENGTYPE_3":"Municipality","CC_3":"NA","HASC_3":"NA","name":"Soloy.city"},
"geometry":{"type": "MultiPolygon","coordinates": [[[[-82.0758,8.4798,197.6487],[-82.0691,8.4839,205.7006],[-82.0663,8.4891,179.9349],[-82.0563,8.4972,248.3709],[-82.0481,8.4981,348.0403],[-82.0481,8.5301,292.1174],[-82.0514,8.5383,261.9266],[-82.0576,8.5451,327.082],[-82.0634,8.5627,394.8441],[-82.0735,8.5741,543.9563],[-82.0694,8.5901,840.6455],[-82.0848,8.6091,1252.5022],[-82.0888,8.6185,1257.5291],[-82.0891,8.6287,1437.8842],[-82.0915,8.6313,1475.8616],[-82.0922,8.6385,1581.6284],[-82.1133,8.6475,1935.1083],[-82.1191,8.6351,1811.3933],[-82.1214,8.6204,1760.4207],[-82.1188,8.6088,1522.2246],[-82.1207,8.5963,1229.7737],[-82.116,8.5785,729.6622],[-82.1216,8.5527,553.6642],[-82.1305,8.538,513.5841],[-82.1324,8.5283,502.8205],[-82.1257,8.4793,647.6285],[-82.1206,8.4639,322.7117],[-82.1228,8.4546,229.2417],[-82.1214,8.4515,231.524],[-82.1175,8.4504,281.4404],[-82.1095,8.4545,233.0288],[-82.1029,8.4558,249.6761],[-82.0983,8.4608,215.1279],[-82.0924,8.459,129.3952],[-82.089,8.4651,148.2428],[-82.0898,8.4711,121.8824],[-82.0833,8.4743,130.5915],[-82.0795,8.48,130.2826],[-82.0758,8.4798,197.6487]]]]}}