{"type": "Feature","bbox": [-78.7065,8.6318,-78.476,8.8737],"geometry": {"type": "MultiPolygon","coordinates": [[[[-78.7051,8.6346,0.0],[-78.7065,8.6349,0.0],[-78.7057,8.6324,0.0],[-78.7032,8.6329,0.0],[-78.7038,8.6343,0.0],[-78.7051,8.6346,0.0]]],
[[[-78.6263,8.6424,0.0],[-78.6338,8.6404,0.0],[-78.634,8.6324,0.0],[-78.6315,8.6318,0.0],[-78.6271,8.6354,0.0],[-78.6268,8.6393,5.6794],[-78.6243,8.6385,0.0],[-78.6263,8.6424,0.0]]],
[[[-78.6318,8.6615,33.3634],[-78.6315,8.6629,0.0],[-78.6329,8.6629,3.8299],[-78.6382,8.6599,5.4215],[-78.6371,8.6565,0.0],[-78.6329,8.6585,2.7709],[-78.6338,8.6554,0.0],[-78.631,8.6549,0.0],[-78.6304,8.6571,0.0],[-78.6318,8.6585,2.7709],[-78.631,8.6593,4.1928],[-78.6299,8.6579,0.0],[-78.6296,8.659,4.1928],[-78.6318,8.6615,33.3634]]],
[[[-78.4819,8.8018,784.2969],[-78.4828,8.8049,818.4673],[-78.4947,8.81,446.4453],[-78.5058,8.8191,305.3643],[-78.5089,8.8193,280.5529],[-78.5151,8.8151,331.6548],[-78.5198,8.8177,326.6746],[-78.5263,8.8188,366.108],[-78.5353,8.8235,552.2298],[-78.5383,8.8269,537.7151],[-78.5409,8.8273,470.662],[-78.5415,8.8232,504.3306],[-78.5508,8.8257,493.1177],[-78.5539,8.8315,493.2094],[-78.5533,8.8549,558.3486],[-78.5594,8.8737,521.96],[-78.5722,8.8436,394.269],[-78.5801,8.8327,225.2702],[-78.5919,8.8249,70.9583],[-78.5943,8.8132,76.5001],[-78.5931,8.8044,34.4031],[-78.5945,8.8003,24.1519],[-78.6024,8.7933,38.105],[-78.6193,8.7857,16.7517],[-78.6265,8.7793,20.6399],[-78.63,8.7513,24.2756],[-78.6245,8.7462,16.8209],[-78.6249,8.7405,0.0],[-78.6358,8.7318,2.5648],[-78.6359,8.7285,0.0],[-78.6346,8.7282,0.0],[-78.6329,8.7218,2.1265],[-78.6357,8.7196,0.0],[-78.6349,8.7154,23.7795],[-78.641,8.7051,0.0],[-78.6365,8.7015,2.0166],[-78.6368,8.6943,31.6834],[-78.6387,8.6924,5.5131],[-78.636,8.6915,0.0],[-78.6346,8.6882,2.8792],[-78.6279,8.6896,8.4687],[-78.6265,8.6868,17.2898],[-78.6271,8.6835,2.1324],[-78.626,8.6835,2.1324],[-78.6271,8.6807,20.5468],[-78.6221,8.6751,5.3309],[-78.6232,8.6726,0.0],[-78.6185,8.6721,20.236],[-78.6154,8.6743,37.5531],[-78.6168,8.6793,1.4037],[-78.6149,8.6804,0.0],[-78.6146,8.6835,3.8066],[-78.6118,8.6776,3.6614],[-78.6076,8.6768,0.0],[-78.6071,8.6807,4.3958],[-78.609,8.6846,14.0897],[-78.6057,8.6829,2.8764],[-78.6038,8.6876,4.526],[-78.5993,8.6893,12.1741],[-78.5996,8.6854,0.0],[-78.5899,8.6818,0.0],[-78.5835,8.6768,3.2065],[-78.5807,8.6718,0.0],[-78.5796,8.6671,0.0],[-78.5807,8.6649,0.0],[-78.579,8.6618,0.0],[-78.5738,8.6604,3.577],[-78.5668,8.6543,0.0],[-78.5576,8.6499,0.0],[-78.5549,8.6501,0.0],[-78.5518,8.6474,1.5612],[-78.5426,8.6449,0.0],[-78.5415,8.6522,0.0],[-78.5518,8.6574,7.422],[-78.5555,8.6613,25.2231],[-78.5534,8.6733,24.1224],[-78.549,8.6793,21.7792],[-78.5489,8.6847,4.8217],[-78.5463,8.6875,3.6007],[-78.5477,8.6946,22.6822],[-78.5405,8.7047,15.8666],[-78.5407,8.7132,26.7996],[-78.5391,8.7171,28.1365],[-78.5366,8.7177,32.6644],[-78.5217,8.7176,151.0415],[-78.5073,8.7116,276.6006],[-78.505,8.7203,266.788],[-78.5055,8.7342,245.7879],[-78.5043,8.7383,210.4298],[-78.5025,8.7395,223.0814],[-78.4918,8.7385,251.3113],[-78.4883,8.7444,302.3944],[-78.4816,8.7497,319.4359],[-78.4793,8.7585,404.4185],[-78.4799,8.7761,715.6235],[-78.476,8.7882,841.2253],[-78.4771,8.7939,796.0405],[-78.4819,8.8018,784.2969]]]]}
,"properties": {"GID_3": "PAN.12.3.2_1","GID_0": "PAN","country": "Panama","GID_1": "PAN.12_1","province": "Panamá","NL_NAME_1": "NA","GID_2": "PAN.12.3_1","county": "Chimán","NL_NAME_2": "NA","city": "Chimán","VARNAME_3": "NA","NL_NAME_3": "NA","TYPE_3": "Corregimiento","ENGTYPE_3": "Municipality","CC_3": "NA","HASC_3": "NA","name": "Chimán.city","area_km2": 229.3341,"hist_schema_id": "Elevation0-9000","hist_area_km2": {"0": 15.4457,"25": 80.3068,"50": 26.2991,"75": 17.3296,"100": 13.83,"125": 8.6961,"150": 7.1454,"175": 5.511,"200": 4.1698,"225": 4.7356,"250": 3.5412,"275": 3.4783,"300": 4.6935,"325": 4.1277,"350": 2.5563,"375": 2.3886,"400": 2.0115,"425": 2.0952,"450": 1.8857,"475": 2.0533,"500": 2.7237,"525": 3.0589,"550": 2.1161,"575": 1.718,"600": 1.4666,"625": 1.1523,"650": 1.1314,"675": 0.6285,"700": 0.7124,"725": 0.6076,"750": 0.5238,"775": 0.419,"800": 0.419,"825": 0.1886,"850": 0.0629,"900": 0.0209,"925": 0.0209,"950": 0.0419,"975": 0.0209}}}