{"type": "Feature","bbox": [-82.6029,8.5768,-82.5538,8.7483],"geometry": {"type": "MultiPolygon","coordinates": [[[[-82.5668,8.6043,566.3733],[-82.5689,8.6258,664.4839],[-82.568,8.6365,708.6518],[-82.5644,8.6507,782.0107],[-82.5581,8.6637,855.3627],[-82.5572,8.6766,940.0237],[-82.5538,8.6862,1013.6292],[-82.5568,8.6897,1029.126],[-82.5548,8.7036,1147.8484],[-82.5574,8.7192,1193.7548],[-82.5665,8.7483,1601.0085],[-82.57,8.7308,1343.5125],[-82.5804,8.7212,1289.553],[-82.5884,8.7078,1103.511],[-82.5905,8.7008,1066.6528],[-82.5936,8.6793,919.8365],[-82.5964,8.6713,800.2233],[-82.5919,8.6604,801.5613],[-82.591,8.6467,696.2938],[-82.5889,8.64,677.4191],[-82.5894,8.6335,654.1237],[-82.5979,8.6201,586.1246],[-82.5983,8.6158,610.4459],[-82.6016,8.6136,592.8795],[-82.6029,8.6013,531.8258],[-82.6019,8.5846,425.3525],[-82.5881,8.5861,470.5045],[-82.5774,8.5768,429.915],[-82.5751,8.5867,477.2042],[-82.5712,8.5922,509.5822],[-82.5668,8.6043,566.3733]]]]}
,"properties": {"GID_3": "PAN.2.3.5_1","GID_0": "PAN","country": "Panama","GID_1": "PAN.2_1","province": "Chiriquí","NL_NAME_1": "NA","GID_2": "PAN.2.3_1","county": "Boquerón","NL_NAME_2": "NA","city": "Guayabal","VARNAME_3": "NA","NL_NAME_3": "NA","TYPE_3": "Corregimiento","ENGTYPE_3": "Municipality","CC_3": "NA","HASC_3": "NA","name": "Guayabal.city","area_km2": 55.39892,"hist_schema_id": "Elevation0-9000","hist_area_km2": {"425": 0.46122,"450": 1.25787,"475": 2.01257,"500": 2.34796,"525": 2.15926,"550": 2.85101,"575": 2.30594,"600": 1.90761,"625": 1.71892,"650": 1.7189,"675": 1.29964,"700": 1.42539,"725": 1.27864,"750": 1.65592,"775": 1.6559,"800": 1.65587,"825": 1.88642,"850": 2.01216,"875": 1.9283,"900": 1.73964,"925": 1.8025,"950": 1.90727,"975": 1.61383,"1000": 1.46711,"1025": 1.52997,"1050": 1.23654,"1075": 1.46707,"1100": 1.21556,"1125": 1.08981,"1150": 1.06884,"1175": 1.11075,"1200": 0.77542,"1225": 0.64967,"1250": 0.71254,"1275": 0.64967,"1300": 0.50297,"1325": 0.25148,"1350": 0.20957,"1375": 0.25148,"1400": 0.10478,"1425": 0.02096,"1450": 0.08382,"1475": 0.14669,"1500": 0.10478,"1525": 0.06287,"1550": 0.06287,"1575": 0.02096}}}