{"type": "Feature","bbox": [-79.9654,8.9282,-79.8942,9.0968],"geometry": {"type": "MultiPolygon","coordinates": [[[[-79.9645,8.984,58.374],[-79.9548,8.9714,36.2389],[-79.9544,8.9692,61.5858],[-79.9561,8.9674,49.5673],[-79.9543,8.9655,90.0444],[-79.9516,8.9682,90.4867],[-79.9426,8.9654,129.4841],[-79.9314,8.9584,144.3379],[-79.9246,8.9611,129.9432],[-79.9205,8.9584,128.185],[-79.9203,8.9552,129.1886],[-79.9316,8.9321,166.8864],[-79.9289,8.9302,159.368],[-79.9249,8.9282,185.1721],[-79.921,8.9284,194.6464],[-79.8964,8.9407,156.0757],[-79.8942,8.9521,146.9586],[-79.8947,8.9742,113.9897],[-79.9029,8.981,100.9478],[-79.9059,8.9866,112.442],[-79.908,8.9949,95.355],[-79.908,9.0083,95.5225],[-79.9113,9.0122,104.7025],[-79.9214,9.0128,69.2473],[-79.928,9.0176,71.4764],[-79.9325,9.0325,54.9492],[-79.9283,9.0452,44.7467],[-79.9373,9.0578,50.9021],[-79.9445,9.0615,44.0633],[-79.9454,9.0678,77.3182],[-79.9437,9.0706,66.6876],[-79.9474,9.0768,34.3334],[-79.9501,9.0799,25.4177],[-79.9529,9.0771,25.0],[-79.9546,9.0779,25.0],[-79.9529,9.0812,27.7492],[-79.9499,9.081,25.984],[-79.9493,9.0826,26.5476],[-79.9518,9.0826,25.0],[-79.951,9.0846,27.0345],[-79.9563,9.0851,27.6767],[-79.9565,9.0865,26.3166],[-79.9535,9.0879,28.8794],[-79.9493,9.0871,25.0],[-79.9529,9.0896,28.2137],[-79.9515,9.091,25.7972],[-79.9518,9.0951,29.0037],[-79.9532,9.0913,29.4683],[-79.9571,9.089,28.5366],[-79.959,9.0929,26.1178],[-79.9587,9.0968,25.0],[-79.961,9.0938,27.1033],[-79.959,9.0913,25.0],[-79.9587,9.0885,29.0252],[-79.9601,9.0874,27.1129],[-79.9582,9.0857,28.0466],[-79.9599,9.0835,29.7723],[-79.9629,9.0843,25.0],[-79.9618,9.0801,29.5517],[-79.964,9.0807,25.0],[-79.9654,9.0787,25.0],[-79.9626,9.0765,25.0],[-79.9599,9.0779,27.9082],[-79.9601,9.0749,25.614],[-79.9568,9.0737,25.0],[-79.9574,9.0724,25.0],[-79.9613,9.0724,25.0],[-79.9596,9.0704,28.7813],[-79.961,9.0668,25.0],[-79.9563,9.0671,33.912],[-79.9532,9.064,34.3048],[-79.954,9.0621,32.9578],[-79.9526,9.0601,27.1318],[-79.954,9.0588,27.1318],[-79.9526,9.0568,31.5356],[-79.9557,9.0565,25.0],[-79.9546,9.0535,25.8293],[-79.9568,9.0521,25.0],[-79.9557,9.051,26.5077],[-79.9521,9.0532,28.7074],[-79.9515,9.0513,29.275],[-79.9535,9.0507,28.316],[-79.9538,9.0474,27.6054],[-79.9468,9.0471,28.5622],[-79.9515,9.0429,29.4405],[-79.9504,9.039,27.2584],[-79.9493,9.0407,30.5058],[-79.9446,9.0407,27.0677],[-79.9437,9.0374,27.845],[-79.9476,9.0351,25.0],[-79.9451,9.0349,27.2945],[-79.9413,9.0304,34.4342],[-79.9374,9.0301,25.0],[-79.9368,9.0285,29.3183],[-79.9488,9.0335,25.0],[-79.9476,9.0279,26.6032],[-79.9521,9.0282,29.9194],[-79.9496,9.0224,28.7117],[-79.9507,9.0193,25.8825],[-79.9524,9.0182,30.5704],[-79.9535,9.0224,26.2475],[-79.9568,9.0215,25.0],[-79.9565,9.0154,25.0],[-79.954,9.0126,29.8211],[-79.9557,9.0112,25.0],[-79.9561,9.005,35.7891],[-79.9617,8.9968,25.2677],[-79.9645,8.984,58.374]]]]}
,"properties": {"GID_3": "PAN.11.4.11_1","GID_0": "PAN","country": "Panama","GID_1": "PAN.11_1","province": "PanamáOeste","NL_NAME_1": "NA","GID_2": "PAN.11.4_1","county": "LaChorrera","NL_NAME_2": "NA","city": "Iturralde","VARNAME_3": "NA","NL_NAME_3": "NA","TYPE_3": "Corregimiento","ENGTYPE_3": "Municipality","CC_3": "NA","HASC_3": "NA","name": "Iturralde.city","area_km2": 60.54175,"hist_schema_id": "Elevation0-9000","hist_area_km2": {"25": 6.93078,"50": 11.51672,"75": 12.02006,"100": 10.47102,"125": 10.66001,"150": 7.53986,"175": 1.13102,"200": 0.27229}}}