{"type":"Feature","properties":{"GID_3":"PAN.10.3.2_1","GID_0":"PAN","country":"Panama","GID_1":"PAN.10_1","province":"NgöbeBuglé","NL_NAME_1":"NA","GID_2":"PAN.10.3_1","county":"Kusapín","NL_NAME_2":"NA","city":"CalavéboraoSantaCatalina","VARNAME_3":"NA","NL_NAME_3":"NA","TYPE_3":"Corregimiento","ENGTYPE_3":"Municipality","CC_3":"NA","HASC_3":"NA","name":"Calavéborao_Santa_Catalina.city"},
"geometry":{"type": "MultiPolygon","coordinates": [[[[-81.2175,8.7843,0.8424],[-81.2138,8.7854,20.0965],[-81.2171,8.7854,0.8424],[-81.2165,8.7874,2.0653],[-81.2135,8.7868,6.7224],[-81.2121,8.789,0.0],[-81.2265,8.7949,0.0],[-81.2449,8.7963,0.0],[-81.2557,8.7926,0.0],[-81.2646,8.7935,5.5323],[-81.269,8.7915,4.0626],[-81.2765,8.7913,2.3786],[-81.2843,8.7926,0.0],[-81.2877,8.7915,2.1984],[-81.2901,8.7854,7.2964],[-81.296,8.7818,4.8331],[-81.3026,8.7835,3.4206],[-81.3049,8.7821,3.1494],[-81.3088,8.7843,0.0],[-81.3151,8.784,1.5385],[-81.3215,8.7868,0.0],[-81.3301,8.7862,2.0118],[-81.3351,8.7829,4.3881],[-81.346,8.7851,22.0894],[-81.3512,8.7829,4.4901],[-81.3704,8.7913,5.1063],[-81.3812,8.799,0.0],[-81.3851,8.7971,27.3036],[-81.3835,8.7935,1.9186],[-81.3857,8.7896,1.2786],[-81.3851,8.7929,1.9128],[-81.3871,8.796,10.1582],[-81.3846,8.7996,1.0766],[-81.411,8.8038,0.0],[-81.4163,8.7965,14.6544],[-81.4199,8.7951,15.585],[-81.431,8.7957,0.0],[-81.4535,8.8046,3.0606],[-81.4551,8.8065,4.4531],[-81.4593,8.8046,13.6225],[-81.464,8.8071,0.0],[-81.4671,8.8046,2.1712],[-81.4683,8.8004,67.6829],[-81.4796,8.7963,49.9166],[-81.4826,8.794,37.2279],[-81.4834,8.7911,48.8929],[-81.4795,8.7819,127.0892],[-81.4656,8.7687,284.8017],[-81.4599,8.7594,559.3944],[-81.4591,8.7554,661.6586],[-81.4876,8.7375,879.6972],[-81.4928,8.7293,918.4493],[-81.4985,8.7258,959.9032],[-81.5003,8.7222,1018.8206],[-81.4999,8.7159,1239.3663],[-81.4933,8.719,976.4695],[-81.4925,8.7239,893.207],[-81.4885,8.728,766.157],[-81.478,8.7293,572.7029],[-81.4697,8.7331,498.3221],[-81.4553,8.7368,403.2182],[-81.4423,8.7378,257.3488],[-81.4253,8.7342,83.8639],[-81.4147,8.7385,42.4578],[-81.4054,8.7375,124.4561],[-81.3983,8.7438,20.051],[-81.393,8.753,14.8046],[-81.3902,8.7537,112.1319],[-81.3864,8.7497,176.7281],[-81.389,8.7403,132.6028],[-81.3877,8.7349,152.8304],[-81.3753,8.7252,135.9892],[-81.3535,8.7129,354.3746],[-81.3483,8.7026,529.3773],[-81.3461,8.689,426.8492],[-81.3414,8.6771,487.9831],[-81.3277,8.6808,1025.1599],[-81.3109,8.68,897.6717],[-81.3054,8.682,886.9391],[-81.2952,8.6777,748.5104],[-81.2828,8.688,649.9591],[-81.2719,8.6918,580.9692],[-81.2667,8.6908,617.0527],[-81.2597,8.6849,707.2464],[-81.2382,8.6876,316.8171],[-81.2273,8.6845,94.471],[-81.2214,8.6882,69.8944],[-81.2209,8.6947,91.0916],[-81.2157,8.7004,80.922],[-81.2166,8.7041,34.5685],[-81.2257,8.707,70.5956],[-81.2283,8.7113,93.0556],[-81.2227,8.7204,62.6834],[-81.2251,8.7313,61.5385],[-81.2199,8.7438,16.668],[-81.2258,8.7445,83.2909],[-81.2277,8.7542,13.768],[-81.2212,8.764,55.0041],[-81.2235,8.7805,18.1258],[-81.2212,8.7832,12.6952],[-81.2175,8.7843,0.8424]]],
[[[-81.2131,8.7856,6.7224],[-81.2136,8.786,6.7224],[-81.2138,8.786,6.7224],[-81.2138,8.7854,20.0965],[-81.2131,8.7856,6.7224]]]]}}