{"type": "Feature","bbox": [-81.8282,8.4262,-81.7172,8.5803],"geometry": {"type": "MultiPolygon","coordinates": [[[[-81.7432,8.4897,1311.2371],[-81.7483,8.4981,1625.7975],[-81.7683,8.5121,1551.752],[-81.7744,8.5226,1301.0564],[-81.7756,8.532,1161.9419],[-81.7783,8.5358,1263.3645],[-81.8061,8.5557,1627.2482],[-81.8121,8.5655,1719.5726],[-81.815,8.5803,2013.3784],[-81.8282,8.5556,1792.8298],[-81.8241,8.5248,958.0664],[-81.8199,8.5177,1159.7823],[-81.8163,8.5033,741.8646],[-81.8275,8.4666,452.3947],[-81.8161,8.4512,303.6033],[-81.805,8.4433,545.8182],[-81.7943,8.4262,392.8969],[-81.7817,8.4357,765.5338],[-81.7739,8.4384,856.6772],[-81.7649,8.4392,931.3165],[-81.7527,8.4432,800.1462],[-81.7474,8.4404,659.9153],[-81.7426,8.4606,827.7088],[-81.7357,8.4805,1197.5043],[-81.7176,8.5001,1550.3684],[-81.7172,8.5052,1581.4368],[-81.7197,8.5008,1569.0249],[-81.7285,8.4933,1471.0962],[-81.7432,8.4897,1311.2371]]]]}
,"properties": {"GID_3": "PAN.10.6.3_1","GID_0": "PAN","country": "Panama","GID_1": "PAN.10_1","province": "NgöbeBuglé","NL_NAME_1": "NA","GID_2": "PAN.10.6_1","county": "NoleDuima","NL_NAME_2": "NA","city": "Jädeberi","VARNAME_3": "NA","NL_NAME_3": "NA","TYPE_3": "Corregimiento","ENGTYPE_3": "Municipality","CC_3": "NA","HASC_3": "NA","name": "Jädeberi.city","area_km2": 94.63677,"hist_schema_id": "Elevation0-9000","hist_area_km2": {"275": 0.02097,"300": 0.18875,"325": 0.18875,"350": 0.35653,"375": 0.52431,"400": 0.52431,"425": 0.755,"450": 0.755,"475": 0.83888,"500": 1.17443,"525": 0.9647,"550": 1.02761,"575": 1.30024,"600": 1.1744,"625": 1.53092,"650": 1.30021,"675": 1.84546,"700": 1.36313,"725": 1.76156,"750": 1.71961,"775": 2.18096,"800": 2.62133,"825": 2.47453,"850": 2.74716,"875": 2.57939,"900": 2.2858,"925": 2.28582,"950": 2.20193,"975": 1.97127,"1000": 2.0761,"1025": 1.95026,"1050": 1.71956,"1075": 1.71957,"1100": 1.82439,"1125": 1.50982,"1150": 1.50982,"1175": 1.65659,"1200": 1.97115,"1225": 1.15331,"1250": 1.48882,"1275": 1.59365,"1300": 1.9711,"1325": 1.8872,"1350": 1.80332,"1375": 1.7404,"1400": 1.97106,"1425": 1.82428,"1450": 1.63555,"1475": 1.65649,"1500": 1.36294,"1525": 1.5097,"1550": 1.69842,"1575": 1.7194,"1600": 1.61454,"1625": 1.5726,"1650": 1.46777,"1675": 1.38387,"1700": 1.38385,"1725": 1.09033,"1750": 0.69194,"1775": 0.69193,"1800": 0.52419,"1825": 0.52417,"1850": 0.41934,"1875": 0.4403,"1900": 0.44031,"1925": 0.1887,"1950": 0.25159,"1975": 0.08386,"2000": 0.12579,"2025": 0.08386,"2050": 0.02097,"2075": 0.02097}}}