{"type":"Feature","properties":{"GID_3":"PAN.2.4.3_1","GID_0":"PAN","country":"Panama","GID_1":"PAN.2_1","province":"Chiriquí","NL_NAME_1":"NA","GID_2":"PAN.2.4_1","county":"Boquete","NL_NAME_2":"NA","city":"Caldera","VARNAME_3":"NA","NL_NAME_3":"NA","TYPE_3":"Corregimiento","ENGTYPE_3":"Municipality","CC_3":"NA","HASC_3":"NA","name":"Caldera.city"},
"geometry":{"type": "MultiPolygon","coordinates": [[[[-82.3874,8.6482,391.978],[-82.379,8.6425,361.1933],[-82.3672,8.6216,291.5505],[-82.3585,8.6104,265.3185],[-82.3491,8.6033,236.0194],[-82.3334,8.6008,261.3584],[-82.3386,8.6136,291.0867],[-82.3365,8.6176,382.0424],[-82.3354,8.6265,490.2269],[-82.3333,8.6288,517.127],[-82.3251,8.6312,627.0113],[-82.3186,8.63,649.0875],[-82.3156,8.636,560.9054],[-82.3305,8.654,402.9562],[-82.3303,8.6579,441.0939],[-82.3272,8.6623,559.6342],[-82.3266,8.6687,562.7258],[-82.3237,8.6709,543.9279],[-82.3124,8.6727,484.2263],[-82.3085,8.6777,477.3851],[-82.2854,8.684,434.6186],[-82.2592,8.6791,773.8735],[-82.257,8.6883,1055.9506],[-82.2588,8.6923,1176.6208],[-82.2606,8.7066,1153.2455],[-82.2582,8.7139,1209.5874],[-82.2531,8.7216,1485.7786],[-82.2507,8.7326,1288.8788],[-82.2361,8.7504,1169.2539],[-82.2257,8.7677,1425.4801],[-82.2363,8.7687,1501.1935],[-82.2426,8.7747,1688.0878],[-82.2516,8.7719,1692.8656],[-82.2551,8.7746,1793.6299],[-82.2568,8.7674,1651.8104],[-82.2608,8.7664,1569.9276],[-82.2719,8.7764,1433.8529],[-82.2844,8.7964,1312.5878],[-82.3001,8.8144,1128.9301],[-82.3067,8.8119,1313.5945],[-82.3147,8.8017,1840.8489],[-82.3228,8.7844,2058.845],[-82.3422,8.7658,1641.3478],[-82.3447,8.7539,1366.6477],[-82.3441,8.7461,1180.4413],[-82.3464,8.7421,1089.467],[-82.3434,8.7276,1194.1282],[-82.3462,8.7191,917.3773],[-82.3489,8.7185,900.2754],[-82.3531,8.7202,850.8864],[-82.3581,8.7258,734.8389],[-82.3657,8.7297,846.5562],[-82.3799,8.7338,1072.7628],[-82.3817,8.7197,898.4134],[-82.3902,8.7094,791.9304],[-82.393,8.7028,730.119],[-82.3946,8.6939,642.5757],[-82.3921,8.6845,527.6477],[-82.4002,8.6592,548.936],[-82.3912,8.6531,477.5958],[-82.3897,8.649,401.6708],[-82.3874,8.6482,391.978]]]]}}