{"type":"Feature","properties":{"GID_3":"PAN.7.2.6_1","GID_0":"PAN","country":"Panama","GID_1":"PAN.7_1","province":"Herrera","NL_NAME_1":"NA","GID_2":"PAN.7.2_1","county":"LasMinas","NL_NAME_2":"NA","city":"QuebradadelRosario","VARNAME_3":"NA","NL_NAME_3":"NA","TYPE_3":"Corregimiento","ENGTYPE_3":"Municipality","CC_3":"NA","HASC_3":"NA","name":"Quebradadel_Rosario.city"},
"geometry":{"type": "MultiPolygon","coordinates": [[[[-80.7836,7.6323,812.5088],[-80.7784,7.6309,804.5022],[-80.7666,7.6317,709.8239],[-80.7577,7.6267,708.8406],[-80.7452,7.6329,634.1509],[-80.7423,7.6361,571.3438],[-80.736,7.6376,578.3203],[-80.72,7.6819,444.3209],[-80.7041,7.7375,336.8078],[-80.7102,7.7425,386.3624],[-80.7215,7.7479,421.9687],[-80.7343,7.7431,400.0125],[-80.7458,7.7447,367.368],[-80.7503,7.7405,474.3544],[-80.7556,7.7384,447.4389],[-80.7568,7.7327,577.818],[-80.7589,7.7306,611.0956],[-80.7664,7.7282,582.0896],[-80.771,7.7304,623.6672],[-80.7766,7.7205,530.6686],[-80.7848,7.7192,530.9819],[-80.7953,7.7129,600.1749],[-80.8,7.713,523.774],[-80.8061,7.7073,554.8871],[-80.806,7.7056,527.2679],[-80.8018,7.7024,510.7419],[-80.7947,7.7002,493.3679],[-80.7864,7.6947,470.7899],[-80.7838,7.6909,470.7792],[-80.7794,7.6914,479.5996],[-80.7774,7.6896,457.7883],[-80.7799,7.6854,499.1537],[-80.7882,7.6837,601.5043],[-80.7892,7.6814,609.9306],[-80.7823,7.675,672.4487],[-80.7828,7.6728,704.2153],[-80.8048,7.6517,468.9434],[-80.7989,7.6463,546.4583],[-80.7978,7.6409,653.9821],[-80.7946,7.6374,639.6368],[-80.79,7.6375,643.9788],[-80.7836,7.6323,812.5088]]]]}}