{"type":"Feature","properties":{"GID_3":"PAN.4.1.2_1","GID_0":"PAN","country":"Panama","GID_1":"PAN.4_1","province":"Colón","NL_NAME_1":"NA","GID_2":"PAN.4.1_1","county":"Chagres","NL_NAME_2":"NA","city":"ElGuabo","VARNAME_3":"NA","NL_NAME_3":"NA","TYPE_3":"Corregimiento","ENGTYPE_3":"Municipality","CC_3":"NA","HASC_3":"NA","name":"El_Guabo.city"},
"geometry":{"type": "MultiPolygon","coordinates": [[[[-80.066,9.1518,77.0609],[-80.0675,9.1486,103.8558],[-80.0713,9.1486,61.2975],[-80.0775,9.1429,130.8922],[-80.0772,9.1304,72.6236],[-80.0722,9.1183,138.1327],[-80.0748,9.1102,30.5937],[-80.0773,9.1106,39.8376],[-80.0798,9.1144,34.8313],[-80.0818,9.1238,35.6018],[-80.0864,9.1293,134.3902],[-80.0879,9.1374,71.7474],[-80.0989,9.149,105.6255],[-80.1005,9.1479,68.9797],[-80.103,9.1399,105.7523],[-80.102,9.1294,24.7906],[-80.1039,9.1246,14.1941],[-80.109,9.1208,20.9939],[-80.1166,9.1218,98.609],[-80.1199,9.1184,116.9734],[-80.1227,9.1116,79.1688],[-80.1267,9.1088,28.0037],[-80.126,9.1044,61.674],[-80.1225,9.1001,25.4867],[-80.1208,9.0924,46.664],[-80.1174,9.0873,76.5848],[-80.1169,9.0824,46.1424],[-80.1118,9.0805,71.7109],[-80.1092,9.0763,36.5183],[-80.1125,9.0608,45.7265],[-80.0849,9.07,82.4926],[-80.0767,9.074,86.8067],[-80.0685,9.0827,51.818],[-80.0629,9.0836,50.5719],[-80.0609,9.0925,61.4391],[-80.0572,9.095,26.0807],[-80.0577,9.101,64.0887],[-80.0519,9.107,26.3254],[-80.0445,9.1398,75.8105],[-80.0514,9.1452,133.1681],[-80.0594,9.1454,109.8641],[-80.0622,9.1509,108.3935],[-80.066,9.1518,77.0609]]]]}}