{"type":"Feature","properties":{"GID_3":"PAN.10.4.5_1","GID_0":"PAN","country":"Panama","GID_1":"PAN.10_1","province":"NgöbeBuglé","NL_NAME_1":"NA","GID_2":"PAN.10.4_1","county":"Mironó","NL_NAME_2":"NA","city":"HatoJulí","VARNAME_3":"NA","NL_NAME_3":"NA","TYPE_3":"Corregimiento","ENGTYPE_3":"Municipality","CC_3":"NA","HASC_3":"NA","name":"Hato_Julí.city"},
"geometry":{"type": "MultiPolygon","coordinates": [[[[-81.8279,8.3308,134.968],[-81.8255,8.333,129.3317],[-81.825,8.3396,197.3045],[-81.8268,8.3446,181.5547],[-81.8337,8.3541,128.4675],[-81.8383,8.3679,329.7864],[-81.8415,8.3701,326.301],[-81.8541,8.3681,494.7098],[-81.8584,8.3459,164.9262],[-81.8578,8.3295,124.1744],[-81.8482,8.3315,127.4287],[-81.8279,8.3308,134.968]]]]}}