{"type": "Feature","bbox": [-80.9153,7.7779,-80.7717,7.908],"geometry": {"type": "MultiPolygon","coordinates": [[[[-80.7717,7.8395,196.7723],[-80.7764,7.8382,208.8281],[-80.779,7.8397,184.2163],[-80.7876,7.8385,224.9541],[-80.7963,7.8424,352.868],[-80.8021,7.8429,359.6813],[-80.8223,7.8383,297.1127],[-80.8241,7.8585,301.6266],[-80.809,7.8685,177.1258],[-80.809,7.8797,180.762],[-80.831,7.8872,253.7627],[-80.8353,7.8952,212.3871],[-80.8324,7.908,220.7854],[-80.8351,7.9073,189.7716],[-80.8384,7.9039,208.262],[-80.844,7.8918,270.5912],[-80.8426,7.8795,184.6588],[-80.8491,7.8731,253.3587],[-80.8466,7.8685,236.2679],[-80.8477,7.8608,329.9558],[-80.8548,7.8505,339.2124],[-80.8686,7.8451,276.7615],[-80.8689,7.8508,225.9278],[-80.8722,7.8534,205.9359],[-80.8755,7.8607,215.7393],[-80.8855,7.8461,392.3134],[-80.9084,7.8009,130.6369],[-80.9153,7.7932,145.1763],[-80.915,7.78,151.2995],[-80.9035,7.7852,209.0484],[-80.8977,7.783,202.1357],[-80.8911,7.7834,268.7089],[-80.8864,7.7787,277.3489],[-80.8774,7.7797,221.5632],[-80.8714,7.7783,194.3176],[-80.8704,7.7802,197.3195],[-80.8627,7.7801,301.967],[-80.8561,7.7779,321.1294],[-80.8515,7.7808,272.6963],[-80.8462,7.7797,280.0345],[-80.837,7.7829,313.9285],[-80.8344,7.7881,303.2677],[-80.8357,7.7944,189.6115],[-80.8288,7.7997,193.2],[-80.8215,7.809,335.4794],[-80.8072,7.8008,407.8724],[-80.7962,7.8007,411.4995],[-80.785,7.804,359.091],[-80.7803,7.8081,287.995],[-80.7717,7.8395,196.7723]]]]}
,"properties": {"GID_3": "PAN.7.4.1_1","GID_0": "PAN","country": "Panama","GID_1": "PAN.7_1","province": "Herrera","NL_NAME_1": "NA","GID_2": "PAN.7.4_1","county": "Ocú","NL_NAME_2": "NA","city": "CerroLargo","VARNAME_3": "NA","NL_NAME_3": "NA","TYPE_3": "Corregimiento","ENGTYPE_3": "Municipality","CC_3": "NA","HASC_3": "NA","name": "Cerro_Largo.city","area_km2": 100.88595,"hist_schema_id": "Elevation0-9000","hist_area_km2": {"75": 0.56717,"100": 1.49145,"125": 2.26869,"150": 3.84408,"175": 6.93149,"200": 7.89763,"225": 7.58268,"250": 7.20459,"275": 7.70879,"300": 9.51515,"325": 10.60736,"350": 10.27126,"375": 9.30505,"400": 6.84755,"425": 3.69683,"450": 2.12147,"475": 1.23928,"500": 0.77718,"525": 0.33608,"550": 0.27306,"575": 0.18904,"600": 0.16804,"625": 0.04201}}}