{"type":"Feature","properties":{"GID_3":"PAN.7.4.5_1","GID_0":"PAN","country":"Panama","GID_1":"PAN.7_1","province":"Herrera","NL_NAME_1":"NA","GID_2":"PAN.7.4_1","county":"Ocú","NL_NAME_2":"NA","city":"Ocú","VARNAME_3":"NA","NL_NAME_3":"NA","TYPE_3":"Corregimiento","ENGTYPE_3":"Municipality","CC_3":"NA","HASC_3":"NA","name":"Ocú.city"},
"geometry":{"type": "MultiPolygon","coordinates": [[[[-80.7371,7.8458,135.5203],[-80.7381,7.8576,138.0123],[-80.7363,7.8603,131.9549],[-80.7318,7.8619,114.0172],[-80.7261,7.8705,158.2885],[-80.7258,7.8774,96.3513],[-80.7229,7.8831,92.4425],[-80.7206,7.8984,120.4193],[-80.719,7.9017,89.3289],[-80.713,7.9054,81.4775],[-80.7112,7.9148,93.282],[-80.7146,7.9186,72.4678],[-80.715,7.9219,69.7809],[-80.7191,7.9229,70.9972],[-80.7227,7.9297,68.1515],[-80.7346,7.9341,93.8518],[-80.7326,7.9432,138.1355],[-80.7352,7.9505,139.6481],[-80.7319,7.9535,139.549],[-80.7338,7.9565,156.7326],[-80.7303,7.9628,105.6819],[-80.7315,7.9675,103.1321],[-80.719,7.9794,49.6007],[-80.7154,7.9877,59.3805],[-80.7084,7.9965,50.0954],[-80.7344,7.9925,48.056399999999996],[-80.7419,7.993,87.6357],[-80.7497,7.9878,68.3997],[-80.757,7.9854,102.2669],[-80.7627,7.9914,79.855],[-80.7719,7.9872,78.9025],[-80.7782,8.0,69.0145],[-80.7821,7.999,76.7382],[-80.7885,7.9913,89.645],[-80.7876,7.9876,82.9291],[-80.7913,7.9809,116.8888],[-80.7933,7.9802,101.8768],[-80.8054,7.9831,116.1079],[-80.7991,7.9919,91.2125],[-80.8044,7.9996,108.4876],[-80.8094,8.0146,94.098],[-80.8118,8.0165,88.6522],[-80.8151,8.0155,79.4377],[-80.8213,8.017,69.9508],[-80.8186,8.0047,86.3893],[-80.811,7.9925,96.6871],[-80.8108,7.9835,173.5962],[-80.8079,7.9748,150.0432],[-80.8109,7.9676,152.9135],[-80.8055,7.9622,133.8375],[-80.7991,7.9501,130.7756],[-80.8042,7.9409,126.5336],[-80.801,7.9339,131.3047],[-80.8022,7.9309,133.0072],[-80.806,7.9294,142.6754],[-80.8086,7.9249,150.6591],[-80.8138,7.9236,168.9376],[-80.8188,7.9193,160.7674],[-80.8235,7.9192,144.7632],[-80.8281,7.9157,152.2879],[-80.8351,7.9002,214.09],[-80.8352,7.8948,212.3871],[-80.8305,7.8868,232.7381],[-80.8106,7.8813,192.4303],[-80.809,7.8797,180.762],[-80.809,7.8685,177.1258],[-80.8241,7.8585,301.6266],[-80.8225,7.8385,297.1127],[-80.8198,7.838,326.8982],[-80.8021,7.8429,359.6813],[-80.7845,7.8383,215.0611],[-80.7794,7.8397,184.2163],[-80.7756,7.8383,193.8287],[-80.7699,7.8414,210.3195],[-80.7564,7.8395,232.3429],[-80.7544,7.8401,231.0885],[-80.7511,7.8459,160.2679],[-80.7371,7.8458,135.5203]]]]}}