{"type":"Feature","properties":{"GID_3":"PAN.6.2.1_1","GID_0":"PAN","country":"Panama","GID_1":"PAN.6_1","province":"Emberá","NL_NAME_1":"NA","GID_2":"PAN.6.2_1","county":"Sambú","NL_NAME_2":"NA","city":"Jingurudó","VARNAME_3":"NA","NL_NAME_3":"NA","TYPE_3":"Corregimiento","ENGTYPE_3":"Municipality","CC_3":"NA","HASC_3":"NA","name":"Jingurudó.city"},
"geometry":{"type": "MultiPolygon","coordinates": [[[[-77.9448,7.6233,1088.7734],[-77.9461,7.6621,951.6414],[-77.9439,7.6774,877.1653],[-77.9497,7.6894,855.8569],[-77.9477,7.7072,671.3497],[-77.9512,7.7251,689.9109],[-77.9568,7.7354,709.9017],[-77.9559,7.7392,582.9673],[-77.9486,7.7455,658.6611],[-77.9479,7.7604,675.33],[-77.9546,7.776,661.0837],[-77.9557,7.7871,654.5334],[-77.9578,7.792,505.5157],[-77.9617,7.7944,514.1353],[-77.9764,7.7951,432.3035],[-77.9801,7.7982,545.0306],[-77.9801,7.8145,500.368],[-77.9843,7.8335,572.9943],[-77.9926,7.8438,526.295],[-77.9985,7.8724,469.8938],[-78.0051,7.8864,317.4305],[-78.0063,7.9035,160.5499],[-78.0171,7.9252,209.5985],[-78.022,7.9446,250.1093],[-78.0259,7.9495,234.403],[-78.0333,7.9518,215.3884],[-78.0663,7.9276,282.9973],[-78.0741,7.9199,427.1754],[-78.0815,7.9171,219.6421],[-78.0844,7.919,131.2048],[-78.0859,7.9226,125.2296],[-78.0822,7.9439,319.8951],[-78.0866,7.9655,254.2934],[-78.0931,7.9735,162.5439],[-78.1067,7.977,229.6784],[-78.1099,7.9834,210.7045],[-78.109,7.9622,130.0669],[-78.1159,7.9498,116.7784],[-78.1269,7.9426,116.3283],[-78.1306,7.931,25.123],[-78.1368,7.9227,73.1893],[-78.1362,7.9184,128.794],[-78.1308,7.9103,91.0001],[-78.1297,7.9058,69.6985],[-78.1366,7.8987,69.8867],[-78.141,7.8899,113.51],[-78.141,7.8754,39.0357],[-78.151,7.8576,181.0307],[-78.1512,7.847,160.2496],[-78.1544,7.8383,399.7673],[-78.1546,7.8306,580.2587],[-78.1602,7.827,738.5902],[-78.1665,7.8201,327.5041],[-78.1724,7.8109,275.0522],[-78.1762,7.7991,681.8932],[-78.1807,7.7979,662.6346],[-78.1871,7.8005,272.1357],[-78.1912,7.8,137.1755],[-78.1994,7.7928,456.9469],[-78.2072,7.7891,301.8914],[-78.2117,7.7822,251.6221],[-78.2201,7.7749,302.7338],[-78.2196,7.7713,343.8688],[-78.2143,7.7658,579.4601],[-78.212,7.7591,930.1337],[-78.2107,7.737,634.4783],[-78.2088,7.7341,697.5964],[-78.2018,7.7304,837.456],[-78.1996,7.7269,676.3416],[-78.1981,7.7037,808.2119],[-78.1834,7.685,968.8652],[-78.1812,7.6794,1004.3649],[-78.1795,7.6654,807.5342],[-78.1459,7.6793,1336.0745],[-78.1253,7.6736,1335.3799],[-78.1089,7.6578,882.864],[-78.1032,7.6554,1029.1395],[-78.0944,7.6482,607.4049],[-78.0904,7.6486,524.7314],[-78.0854,7.6531,404.5077],[-78.0824,7.6526,473.999],[-78.0774,7.6208,294.2016],[-78.0722,7.6097,357.3777],[-78.0632,7.5812,131.7589],[-78.057,7.5822,151.8281],[-78.0493,7.5895,347.1046],[-78.0433,7.5923,316.0888],[-78.0417,7.5966,527.524],[-78.0412,7.6098,392.3374],[-78.0372,7.6139,434.7972],[-78.0254,7.6173,615.6299],[-78.0083,7.6195,1027.5333],[-78.0016,7.5969,815.8525],[-77.9963,7.5916,915.7914],[-77.9909,7.5903,875.3799],[-77.9791,7.5944,1165.5134],[-77.9706,7.6002,1324.969],[-77.9635,7.6107,1251.6758],[-77.9523,7.6167,997.4121],[-77.9448,7.6233,1088.7734]]]]}}