{"type": "Feature","bbox": [-82.2606,8.6403,-82.1444,8.7821],"geometry": {"type": "MultiPolygon","coordinates": [[[[-82.2592,8.6791,773.8735],[-82.2523,8.676,688.9456],[-82.2486,8.6701,644.415],[-82.2388,8.6611,761.9417],[-82.2328,8.6452,945.869],[-82.2275,8.6403,879.4949],[-82.2052,8.6464,1266.6407],[-82.1763,8.6497,1793.9426],[-82.1444,8.6561,1962.3651],[-82.1471,8.7605,1143.3075],[-82.1515,8.7614,1144.5156],[-82.1613,8.7587,1075.8868],[-82.1674,8.7628,1090.1345],[-82.1766,8.7637,1142.1309],[-82.1923,8.7742,1025.6045],[-82.1985,8.7802,894.1474],[-82.2038,8.7821,972.8423],[-82.2067,8.7812,1021.8848],[-82.2072,8.7767,1080.8094],[-82.2014,8.7625,1052.6486],[-82.2072,8.763,1075.8102],[-82.2248,8.7699,1478.5969],[-82.2361,8.7504,1169.2539],[-82.2507,8.7326,1288.8788],[-82.2531,8.7216,1485.7786],[-82.2582,8.7139,1209.5874],[-82.2606,8.7066,1153.2455],[-82.2588,8.6923,1176.6208],[-82.257,8.6883,1055.9506],[-82.2592,8.6791,773.8735]]]]}
,"properties": {"GID_3": "PAN.2.8.2_1","GID_0": "PAN","country": "Panama","GID_1": "PAN.2_1","province": "Chiriquí","NL_NAME_1": "NA","GID_2": "PAN.2.8_1","county": "Gualaca","NL_NAME_2": "NA","city": "Hornito","VARNAME_3": "NA","NL_NAME_3": "NA","TYPE_3": "Corregimiento","ENGTYPE_3": "Municipality","CC_3": "NA","HASC_3": "NA","name": "Hornito.city","area_km2": 148.4447,"hist_schema_id": "Elevation0-9000","hist_area_km2": {"600": 0.021,"625": 0.1048,"650": 0.2306,"675": 0.2306,"700": 0.4402,"725": 0.4192,"750": 0.6078,"775": 0.6707,"800": 0.7755,"825": 0.7546,"850": 0.7965,"875": 0.7546,"900": 0.8803,"925": 0.9851,"950": 0.9642,"975": 1.0689,"1000": 1.1528,"1025": 0.9013,"1050": 11.8401,"1075": 8.4243,"1100": 7.2299,"1125": 6.4755,"1150": 5.1974,"1175": 4.8831,"1200": 4.9669,"1225": 4.6316,"1250": 4.0448,"1275": 4.2335,"1300": 3.8771,"1325": 3.8143,"1350": 4.0868,"1375": 4.1496,"1400": 4.1077,"1425": 3.6676,"1450": 2.9132,"1475": 3.1856,"1500": 3.0599,"1525": 3.1437,"1550": 2.9342,"1575": 2.7875,"1600": 2.515,"1625": 2.4941,"1650": 2.0749,"1675": 2.1797,"1700": 1.7815,"1725": 1.7396,"1750": 1.7187,"1775": 1.7396,"1800": 1.6558,"1825": 1.5929,"1850": 1.8235,"1875": 1.7816,"1900": 1.53,"1925": 1.4043,"1950": 1.2786,"1975": 1.069,"2000": 1.2157,"2025": 1.2366,"2050": 1.027,"2075": 0.6498,"2100": 0.3354,"2125": 0.1258,"2150": 0.0629}}}