{"type":"Feature","properties":{"GID_3":"PAN.13.1.2_1","GID_0":"PAN","country":"Panama","GID_1":"PAN.13_1","province":"Veraguas","NL_NAME_1":"NA","GID_2":"PAN.13.1_1","county":"Atalaya","NL_NAME_2":"NA","city":"ElBarrito","VARNAME_3":"NA","NL_NAME_3":"NA","TYPE_3":"Corregimiento","ENGTYPE_3":"Municipality","CC_3":"NA","HASC_3":"NA","name":"El_Barrito.city"},
"geometry":{"type": "MultiPolygon","coordinates": [[[[-80.9457,8.0081,94.9911],[-80.9471,8.0004,96.8395],[-80.9405,7.9872,108.5976],[-80.9375,7.9739,69.6945],[-80.9357,7.9703,140.627],[-80.9252,7.9594,99.9591],[-80.9102,7.9612,106.7009],[-80.8972,7.9676,137.5049],[-80.8966,7.9796,168.7713],[-80.8992,7.9904,117.6085],[-80.9018,7.9967,126.1998],[-80.9074,8.0034,111.8961],[-80.9234,8.0134,124.0843],[-80.9457,8.0081,94.9911]]]]}}