{"type":"Feature","properties":{"GID_2":"PAN.2.3_1","GID_0":"PAN","country":"Panama","GID_1":"PAN.2_1","province":"Chiriquí","NL_NAME_1":"NA","county":"Boquerón","VARNAME_2":"NA","NL_NAME_2":"NA","TYPE_2":"Distrito","ENGTYPE_2":"District","CC_2":"NA","HASC_2":"PA.CH.BN","name":"Boquerón.county"},
"geometry":{"type": "MultiPolygon","coordinates": [[[[-82.5511,8.4463,82.58],[-82.538,8.4421,61.6672],[-82.5299,8.4484,76.7286],[-82.5226,8.4512,68.2757],[-82.5233,8.4638,79.1415],[-82.522,8.4735,97.6705],[-82.5232,8.4794,119.4349],[-82.5262,8.484,133.4715],[-82.5342,8.4923,153.0177],[-82.5305,8.5119,196.3601],[-82.5298,8.5322,270.1427],[-82.5315,8.5362,282.6953],[-82.5305,8.5452,314.5225],[-82.5373,8.5775,456.7534],[-82.5366,8.5847,486.9849],[-82.543,8.6063,583.4924],[-82.5468,8.6285,693.1151],[-82.5476,8.6338,729.4936],[-82.5459,8.6393,754.6768],[-82.5516,8.6823,997.6552],[-82.5568,8.6897,1029.126],[-82.5548,8.7036,1147.8484],[-82.5574,8.7192,1193.7548],[-82.5624,8.7378,1435.5404],[-82.5692,8.7529,1716.072],[-82.5692,8.7624,2010.0681],[-82.5714,8.7653,1994.2996],[-82.5647,8.7691,2330.0442],[-82.5577,8.7763,2204.8799],[-82.5523,8.784,2419.4363],[-82.5505,8.7946,2693.1675],[-82.5698,8.7868,2149.1663],[-82.5891,8.7844,2157.1785],[-82.5941,8.7961,1922.0549],[-82.5976,8.7977,1787.7],[-82.6036,8.7975,1701.8121],[-82.6191,8.7896,1513.8658],[-82.6194,8.7801,1467.424],[-82.6243,8.7707,1508.0862],[-82.6309,8.7652,1404.2496],[-82.6338,8.7597,1427.7474],[-82.6313,8.7484,1414.845],[-82.6329,8.7307,1128.4702],[-82.6289,8.7102,1074.9662],[-82.6207,8.6907,1032.6969],[-82.6165,8.685,977.7123],[-82.6153,8.6668,915.6407],[-82.6107,8.662,865.5029],[-82.6073,8.6543,818.6133],[-82.6056,8.642,737.7941],[-82.5998,8.62,625.2643],[-82.5979,8.6201,586.1246],[-82.5977,8.6177,611.2237],[-82.6016,8.6136,592.8795],[-82.6029,8.6013,531.8258],[-82.6019,8.5846,425.3525],[-82.6067,8.576,407.7773],[-82.6087,8.5652,357.8911],[-82.616,8.5485,321.7547],[-82.6156,8.5402,292.9937],[-82.6073,8.5309,256.1814],[-82.6026,8.5153,211.498],[-82.6044,8.507,201.5089],[-82.6046,8.4924,169.3019],[-82.6074,8.483,147.9908],[-82.611,8.4787,142.3079],[-82.6116,8.4736,127.6169],[-82.6143,8.4695,120.5166],[-82.6191,8.467,113.5247],[-82.6214,8.4578,96.77],[-82.6012,8.4561,100.9406],[-82.5885,8.4569,100.4263],[-82.5784,8.4548,91.392],[-82.5721,8.4511,84.3022],[-82.5511,8.4463,82.58]]]]}}