{"type":"Feature","properties":{"GID_3":"PAN.2.10.3_1","GID_0":"PAN","country":"Panama","GID_1":"PAN.2_1","province":"Chiriquí","NL_NAME_1":"NA","GID_2":"PAN.2.10_1","county":"Renacimiento","NL_NAME_2":"NA","city":"MonteLirio","VARNAME_3":"NA","NL_NAME_3":"NA","TYPE_3":"Corregimiento","ENGTYPE_3":"Municipality","CC_3":"NA","HASC_3":"NA","name":"Monte_Lirio.city"},
"geometry":{"type": "MultiPolygon","coordinates": [[[[-82.8018,8.8754,1200.5475],[-82.8038,8.8681,1191.8361],[-82.8112,8.8554,1134.7937],[-82.8191,8.8508,1119.5891],[-82.8379,8.8453,1038.9851],[-82.8452,8.8405,1007.3661],[-82.8559,8.8408,1015.1386],[-82.8601,8.8367,972.2614],[-82.8693,8.8339,969.9758],[-82.8726,8.8297,930.0398],[-82.8726,8.8247,959.0691],[-82.859,8.8187,945.0917],[-82.8448,8.8212,887.5917],[-82.842,8.8197,877.7505],[-82.8428,8.8148,875.6332],[-82.8493,8.8085,857.9566],[-82.853,8.7884,837.9747],[-82.8526,8.7859,864.2193],[-82.8484,8.7822,782.7748],[-82.8499,8.776,776.0072],[-82.8489,8.7709,726.9585],[-82.8423,8.7649,781.4835],[-82.8313,8.7618,731.5616],[-82.8175,8.7677,807.5834],[-82.8039,8.7692,809.5499],[-82.7954,8.7735,872.2959],[-82.7864,8.7824,878.5291],[-82.7707,8.7845,930.3065],[-82.7579,8.7903,968.0758],[-82.7424,8.8032,1014.7861],[-82.738,8.8238,1144.9553],[-82.7394,8.8344,1227.4884],[-82.7352,8.8395,1247.7156],[-82.7311,8.8532,1448.9214],[-82.7313,8.869,1699.6084],[-82.7231,8.8713,1532.552],[-82.7065,8.8914,1904.7786],[-82.7055,8.896,2019.0498],[-82.7162,8.9031,2085.0825],[-82.7252,8.9171,2350.291],[-82.7487,8.9065,2103.8494],[-82.7489,8.9022,2016.9094],[-82.7473,8.8992,1947.7122],[-82.7539,8.8921,1642.4546],[-82.7591,8.8889,1564.6052],[-82.7608,8.8851,1464.3187],[-82.7698,8.8823,1334.0553],[-82.7737,8.8786,1360.7051],[-82.7803,8.8758,1319.8036],[-82.7843,8.8756,1294.5573],[-82.7888,8.8777,1271.1367],[-82.799,8.8773,1224.6433],[-82.8018,8.8754,1200.5475]]]]}}