{"type": "Feature","bbox": [-81.5355,8.4081,-81.4725,8.5253],"geometry": {"type": "MultiPolygon","coordinates": [[[[-81.532,8.4435,455.825],[-81.5319,8.4352,442.866],[-81.5343,8.4252,416.9408],[-81.5224,8.4166,331.2543],[-81.5003,8.4084,415.982],[-81.4836,8.411,346.6246],[-81.479,8.41,288.6991],[-81.4785,8.4081,287.7473],[-81.4747,8.4084,325.6171],[-81.4736,8.4099,345.6035],[-81.4781,8.4149,301.3487],[-81.4811,8.4279,339.2432],[-81.4866,8.4363,398.5565],[-81.4877,8.4418,395.8573],[-81.4864,8.4552,551.3289],[-81.4772,8.4711,434.1606],[-81.4765,8.4821,537.8237],[-81.4788,8.4955,664.3552],[-81.4744,8.5057,606.7715],[-81.4725,8.5205,653.1255],[-81.479,8.5243,752.5803],[-81.4844,8.5253,919.1046],[-81.5021,8.5194,920.9438],[-81.5109,8.5147,705.7867],[-81.5169,8.5162,847.9294],[-81.5281,8.5235,901.6976],[-81.5327,8.5076,857.4932],[-81.5351,8.487,977.8186],[-81.5355,8.4779,862.7768],[-81.5299,8.4588,444.0873],[-81.532,8.4435,455.825]]]]}
,"properties": {"GID_3": "PAN.10.7.3_1","GID_0": "PAN","country": "Panama","GID_1": "PAN.10_1","province": "NgöbeBuglé","NL_NAME_1": "NA","GID_2": "PAN.10.7_1","county": "Ñürüm","NL_NAME_2": "NA","city": "BuenosAires","VARNAME_3": "NA","NL_NAME_3": "NA","TYPE_3": "Corregimiento","ENGTYPE_3": "Municipality","CC_3": "NA","HASC_3": "NA","name": "Buenos_Aires.city","area_km2": 69.68678,"hist_schema_id": "Elevation0-9000","hist_area_km2": {"275": 0.12585,"300": 0.67116,"325": 1.23745,"350": 1.4262,"375": 1.84567,"400": 1.99245,"425": 1.69882,"450": 1.84561,"475": 1.92949,"500": 2.22306,"525": 2.53765,"550": 2.60053,"575": 2.6005,"600": 3.25061,"625": 3.48126,"650": 3.01986,"675": 3.52313,"700": 2.74714,"725": 2.97781,"750": 2.87288,"775": 2.41152,"800": 1.97116,"825": 2.22279,"850": 1.88727,"875": 1.36302,"900": 1.40495,"925": 1.42593,"950": 1.3001,"975": 1.06944,"1000": 1.11138,"1025": 1.09041,"1050": 1.63562,"1075": 1.15332,"1100": 1.13235,"1125": 0.692,"1150": 0.60812,"1175": 0.83879,"1200": 0.41939,"1225": 0.35649,"1250": 0.29358,"1275": 0.33552,"1300": 0.2097,"1325": 0.08388,"1350": 0.06291}}}