{"type":"Feature","properties":{"GID_3":"PAN.11.4.9_1","GID_0":"PAN","country":"Panama","GID_1":"PAN.11_1","province":"PanamáOeste","NL_NAME_1":"NA","GID_2":"PAN.11.4_1","county":"LaChorrera","NL_NAME_2":"NA","city":"Herrera","VARNAME_3":"NA","NL_NAME_3":"NA","TYPE_3":"Corregimiento","ENGTYPE_3":"Municipality","CC_3":"NA","HASC_3":"NA","name":"Herrera.city"},
"geometry":{"type": "MultiPolygon","coordinates": [[[[-79.8947,8.9742,113.9897],[-79.8942,8.9521,146.9586],[-79.8964,8.9407,156.0757],[-79.8684,8.9218,137.754],[-79.8596,8.9135,138.9745],[-79.8366,8.9064,55.8113],[-79.8256,8.8991,61.5998],[-79.8227,8.9022,46.0663],[-79.8201,8.9026,46.8507],[-79.8116,8.8933,45.7991],[-79.8075,8.8914,41.2696],[-79.7923,8.8905,66.7395],[-79.7847,8.8948,45.8164],[-79.7837,8.9052,58.4309],[-79.785,8.9134,96.5997],[-79.7902,8.9242,62.0923],[-79.7992,8.9322,83.211],[-79.8023,8.9383,99.3145],[-79.8008,8.9456,106.1082],[-79.7925,8.9581,115.746],[-79.8074,8.9605,112.2872],[-79.8131,8.9641,113.7529],[-79.8193,8.9711,97.8901],[-79.8249,8.982,73.4918],[-79.8274,9.0033,40.0727],[-79.8371,8.9896,87.1998],[-79.8407,8.9872,98.5712],[-79.8609,8.9872,100.3544],[-79.8743,8.9901,104.0525],[-79.8775,8.9774,102.2522],[-79.8947,8.9742,113.9897]]]]}}