{"type": "Feature","bbox": [-80.7941,8.0252,-80.5551,8.1317],"geometry": {"type": "MultiPolygon","coordinates": [[[[-80.6939,8.0345,27.2347],[-80.6867,8.0366,49.7103],[-80.6857,8.0382,47.3477],[-80.6925,8.0487,40.9981],[-80.685,8.0584,32.1101],[-80.6841,8.0623,33.1151],[-80.6745,8.0693,23.8748],[-80.6699,8.07,16.7493],[-80.6683,8.0676,19.3195],[-80.6665,8.069,18.9814],[-80.6646,8.0682,21.451],[-80.6582,8.0766,17.9039],[-80.6534,8.0756,17.2224],[-80.6469,8.0778,29.6154],[-80.6423,8.0739,31.7254],[-80.6388,8.0735,26.817],[-80.6278,8.0758,24.0372],[-80.6232,8.0732,16.4852],[-80.6169,8.0722,17.13],[-80.6142,8.073,22.7461],[-80.6116,8.0775,10.5726],[-80.6056,8.0745,8.4289],[-80.6011,8.0765,14.9587],[-80.5972,8.0747,29.3127],[-80.5906,8.0764,6.7574],[-80.5838,8.0732,10.8869],[-80.5782,8.078,4.2387],[-80.5713,8.0764,9.5921],[-80.5658,8.0778,7.5569],[-80.5556,8.0847,3.8458],[-80.5598,8.0933,8.116],[-80.5551,8.105,3.5153],[-80.5553,8.1083,5.839],[-80.5625,8.1151,3.0525],[-80.5634,8.1198,2.9279],[-80.5678,8.1188,3.0837],[-80.5716,8.1249,2.8099],[-80.5744,8.1235,3.1631],[-80.5785,8.116,2.7912],[-80.5887,8.1188,6.7045],[-80.5894,8.1212,6.4813],[-80.588,8.1239,6.0319],[-80.5833,8.1241,4.2299],[-80.5803,8.1278,4.2435],[-80.5799,8.1302,4.3018],[-80.5815,8.1317,6.232],[-80.5855,8.1313,6.2911],[-80.5906,8.126,6.1007],[-80.6147,8.1245,4.7579],[-80.6232,8.1184,10.2131],[-80.6251,8.1185,10.9245],[-80.6291,8.1136,12.2947],[-80.6346,8.115,13.9082],[-80.6382,8.1113,9.9185],[-80.6413,8.1117,9.0184],[-80.6467,8.1071,9.4262],[-80.6468,8.1123,11.3551],[-80.651,8.1132,12.2113],[-80.6524,8.1193,11.1991],[-80.6552,8.1223,16.7985],[-80.6656,8.1202,8.4475],[-80.6682,8.1178,10.1083],[-80.6812,8.1169,21.116],[-80.7007,8.1254,22.159],[-80.7081,8.1263,20.9552],[-80.7198,8.121,32.5398],[-80.7258,8.1122,35.3772],[-80.7322,8.0914,47.3356],[-80.7355,8.089,47.1312],[-80.7456,8.0863,50.7927],[-80.7537,8.0744,61.4011],[-80.7689,8.0734,45.0129],[-80.7941,8.0623,69.1648],[-80.792,8.0609,72.6781],[-80.7869,8.0613,55.0517],[-80.7829,8.0558,73.3649],[-80.7754,8.0539,61.4317],[-80.7732,8.0514,50.5026],[-80.7722,8.0463,50.4224],[-80.7665,8.0419,82.8763],[-80.758,8.042,42.3121],[-80.7388,8.0286,55.223],[-80.7335,8.0321,41.5727],[-80.728,8.0332,41.9661],[-80.7234,8.0283,47.4218],[-80.7144,8.0252,37.5468],[-80.6939,8.0345,27.2347]]]]}
,"properties": {"GID_2": "PAN.7.7_1","GID_0": "PAN","country": "Panama","GID_1": "PAN.7_1","province": "Herrera","NL_NAME_1": "NA","county": "SantaMaría","VARNAME_2": "NA","NL_NAME_2": "NA","TYPE_2": "Distrito","ENGTYPE_2": "District","CC_2": "NA","HASC_2": "PA.HE.ST","name": "Santa_María.county","area_km2": 144.6527,"hist_schema_id": "Elevation0-9000","hist_area_km2": {"0": 46.5574,"25": 67.8448,"50": 23.4069,"75": 6.5708,"100": 0.2519,"125": 0.021}}}