{"type":"Feature","properties":{"GID_3":"PAN.9.4.5_1","GID_0":"PAN","country":"Panama","GID_1":"PAN.9_1","province":"LosSantos","NL_NAME_1":"NA","GID_2":"PAN.9.4_1","county":"Macaracas","NL_NAME_2":"NA","city":"ElCedro","VARNAME_3":"NA","NL_NAME_3":"NA","TYPE_3":"Corregimiento","ENGTYPE_3":"Municipality","CC_3":"NA","HASC_3":"NA","name":"El_Cedro.city"},
"geometry":{"type": "MultiPolygon","coordinates": [[[[-80.5661,7.7918,75.6629],[-80.5642,7.7773,81.0727],[-80.5609,7.771,60.2926],[-80.5615,7.7532,84.0511],[-80.5568,7.7448,111.9176],[-80.5554,7.7301,98.0195],[-80.5444,7.7342,101.2836],[-80.5394,7.7324,97.0566],[-80.5364,7.7289,89.6951],[-80.5338,7.729,77.9246],[-80.5139,7.7385,101.1778],[-80.5065,7.7513,228.2988],[-80.5035,7.7539,133.3887],[-80.485,7.761,173.4896],[-80.4985,7.7698,142.5654],[-80.5494,7.7768,79.022],[-80.5661,7.7918,75.6629]]]]}}