{"type":"Feature","properties":{"GID_3":"PAN.1.1.1_1","GID_0":"PAN","country":"Panama","GID_1":"PAN.1_1","province":"BocasdelToro","NL_NAME_1":"NA","GID_2":"PAN.1.1_1","county":"BocasdelToro","NL_NAME_2":"NA","city":"Bastimentos","VARNAME_3":"NA","NL_NAME_3":"NA","TYPE_3":"Corregimiento","ENGTYPE_3":"Municipality","CC_3":"NA","HASC_3":"NA","name":"Bastimentos.city"},
"geometry":{"type": "MultiPolygon","coordinates": [[[[-82.186,9.261,0.9833],[-82.1868,9.2618,0.9833],[-82.1846,9.2565,0.0],[-82.1826,9.2557,0.7158],[-82.184,9.259,1.4517],[-82.181,9.2588,0.0],[-82.1832,9.2612,0.2918],[-82.186,9.261,0.9833]]],
[[[-82.1913,9.2593,0.2193],[-82.1907,9.2607,0.0],[-82.191,9.2621,0.0],[-82.1929,9.2599,0.279],[-82.1913,9.2593,0.2193]]],
[[[-82.1904,9.2635,0.0],[-82.1915,9.2654,0.0],[-82.1918,9.2635,0.0],[-82.1896,9.2629,0.0],[-82.1904,9.2635,0.0]]],
[[[-82.1776,9.2676,0.0],[-82.1799,9.2679,0.0798],[-82.1801,9.266,0.1346],[-82.1799,9.2654,0.0],[-82.1787,9.266,0.0977],[-82.1799,9.2671,0.0798],[-82.1776,9.2676,0.0]]],
[[[-82.1674,9.2612,0.2567],[-82.1682,9.2626,0.0],[-82.1704,9.2615,0.5339],[-82.1699,9.2604,0.0],[-82.1674,9.2612,0.2567]]],
[[[-82.174,9.2654,0.0],[-82.1749,9.2671,0.0],[-82.1774,9.2662,0.0977],[-82.1768,9.2638,0.8583],[-82.1801,9.2621,0.4925],[-82.1771,9.2621,0.9214],[-82.1762,9.2651,0.8583],[-82.174,9.2654,0.0]]],
[[[-82.1579,9.2646,0.1216],[-82.1582,9.2657,0.0],[-82.1612,9.2649,0.0],[-82.1599,9.264,0.3159],[-82.1579,9.2646,0.1216]]],
[[[-82.1649,9.2699,0.3107],[-82.1668,9.2704,0.0],[-82.1663,9.2685,0.0],[-82.1621,9.2685,0.0],[-82.1629,9.2701,0.1916],[-82.1649,9.2699,0.3107]]],
[[[-82.1807,9.2879,0.0],[-82.1824,9.2882,0.0],[-82.1799,9.2862,0.0],[-82.1801,9.2882,0.0],[-82.1807,9.2879,0.0]]],
[[[-82.1921,9.289,0.4401],[-82.1937,9.291,0.276],[-82.1935,9.2885,0.3308],[-82.1954,9.2882,0.3308],[-82.194,9.2868,0.0],[-82.191,9.2876,0.0],[-82.1921,9.289,0.4401]]],
[[[-82.1999,9.2968,0.0],[-82.2012,9.2979,0.0],[-82.2015,9.2943,0.1923],[-82.1946,9.291,0.276],[-82.196,9.2929,0.1041],[-82.1943,9.2943,0.3194],[-82.1979,9.2937,0.3527],[-82.1976,9.2954,0.095],[-82.1999,9.2968,0.0]]],
[[[-82.1949,9.299,0.0639],[-82.1963,9.3007,0.0],[-82.196,9.2976,0.2435],[-82.1912,9.2937,0.0],[-82.1918,9.2968,0.2212],[-82.1949,9.299,0.0639]]],
[[[-82.1768,9.2999,0.0],[-82.1796,9.3007,0.0],[-82.1787,9.2993,0.0644],[-82.1815,9.299,0.0],[-82.1829,9.2962,0.0],[-82.1774,9.2951,0.0],[-82.1765,9.2976,0.0],[-82.1743,9.2954,0.0],[-82.1768,9.2999,0.0]]],
[[[-82.1874,9.301,0.0],[-82.189,9.3018,0.0],[-82.1862,9.2987,0.0],[-82.186,9.2999,0.1165],[-82.1874,9.301,0.0]]],
[[[-82.1815,9.3013,0.1144],[-82.1821,9.3029,0.1708],[-82.184,9.3029,0.0557],[-82.1824,9.2996,0.0],[-82.1804,9.3004,0.0],[-82.1815,9.3013,0.1144]]],
[[[-82.1743,9.2363,0.5589],[-82.1768,9.2371,0.0],[-82.1757,9.2349,0.0],[-82.1771,9.2335,0.0],[-82.1729,9.2349,0.4967],[-82.1743,9.2363,0.5589]]],
[[[-82.1687,9.2401,0.0],[-82.1679,9.2424,0.0],[-82.1729,9.2415,0.0],[-82.1721,9.2399,0.0],[-82.1687,9.2401,0.0]]],
[[[-82.1615,9.2451,0.2758],[-82.1657,9.2463,0.0],[-82.1671,9.2443,0.0],[-82.166,9.2429,0.0],[-82.1612,9.2435,0.0],[-82.1615,9.2451,0.2758]]],
[[[-82.1593,9.2615,0.2756],[-82.1621,9.2626,0.0],[-82.166,9.2621,0.0],[-82.1635,9.2601,0.0],[-82.1593,9.2615,0.2756]]],
[[[-82.1501,9.2429,0.0],[-82.1579,9.2437,0.2247],[-82.1596,9.2401,0.2507],[-82.1535,9.239,1.6026],[-82.151,9.2401,0.4687],[-82.1501,9.2429,0.0]]],
[[[-82.1371,9.2432,0.0],[-82.1368,9.2454,0.0],[-82.1401,9.244,0.0],[-82.1387,9.2426,0.5336],[-82.1371,9.2432,0.0]]],
[[[-82.0368,9.2554,5.5663],[-82.0407,9.2563,1.3496],[-82.0415,9.2549,0.0],[-82.0362,9.2518,0.0],[-82.0329,9.2524,0.0],[-82.0343,9.2543,2.12],[-82.0368,9.2554,5.5663]]],
[[[-82.0551,9.2662,1.8405],[-82.0585,9.2668,4.1531],[-82.0543,9.264,5.1067],[-82.051,9.2638,2.1051],[-82.0512,9.2646,2.1051],[-82.0551,9.2662,1.8405]]],
[[[-82.1318,9.2668,0.0],[-82.1324,9.2685,0.2957],[-82.1346,9.2682,0.1948],[-82.1335,9.2662,0.0],[-82.1318,9.2668,0.0]]],
[[[-82.1296,9.2704,0.0],[-82.1321,9.2712,0.0],[-82.1332,9.269,0.2311],[-82.1299,9.269,0.3777],[-82.1296,9.2704,0.0]]],
[[[-82.1571,9.2732,1.5067],[-82.1601,9.274,0.5239],[-82.1618,9.2729,2.1858],[-82.1604,9.2704,0.0],[-82.1568,9.2699,0.0],[-82.1557,9.2712,0.0],[-82.1571,9.2732,1.5067]]],
[[[-82.159,9.2751,0.5239],[-82.1573,9.2751,0.0],[-82.1573,9.2768,0.1201],[-82.1607,9.2763,0.0],[-82.1607,9.2749,0.0],[-82.159,9.2751,0.5239]]],
[[[-82.199,9.361,0.0],[-82.2004,9.3618,4.1867],[-82.2085,9.3568,0.0],[-82.2146,9.3474,0.53],[-82.2085,9.3476,0.8489],[-82.2065,9.3446,0.0],[-82.2087,9.3418,0.0],[-82.2065,9.339,3.5759],[-82.1996,9.3385,3.3258],[-82.1949,9.3351,0.0],[-82.1926,9.3365,0.6018],[-82.1899,9.3351,0.0],[-82.1893,9.3371,3.7211],[-82.1876,9.3371,3.7211],[-82.1865,9.334,0.0],[-82.1885,9.3335,0.0],[-82.1851,9.3301,0.0],[-82.1824,9.3296,0.0],[-82.1854,9.334,0.0],[-82.1826,9.3396,2.8849],[-82.1815,9.3399,2.8849],[-82.1813,9.3379,0.0],[-82.1832,9.3365,0.5665],[-82.1826,9.3346,0.0],[-82.1813,9.3368,0.1767],[-82.1793,9.3351,0.0],[-82.1787,9.3374,1.5445],[-82.1771,9.3374,1.5445],[-82.176,9.3351,0.1561],[-82.1804,9.3332,0.0],[-82.1743,9.3338,5.6213],[-82.1765,9.3304,0.0],[-82.1732,9.3315,0.0],[-82.1735,9.3288,0.0],[-82.1721,9.3279,0.0],[-82.1704,9.3296,13.7901],[-82.1687,9.3257,0.5087],[-82.1729,9.3232,0.0],[-82.1643,9.3237,5.7867],[-82.1632,9.3212,0.0],[-82.1663,9.3221,0.0],[-82.1674,9.3193,0.0],[-82.1635,9.3201,0.1578],[-82.164,9.3176,0.0],[-82.1626,9.3179,0.0],[-82.1624,9.3193,0.0558],[-82.1582,9.3179,2.244],[-82.1607,9.3146,0.1714],[-82.1635,9.3137,0.0],[-82.1618,9.3126,0.0],[-82.1571,9.3157,0.6068],[-82.1573,9.3137,0.0],[-82.151,9.3093,0.8152],[-82.1562,9.3063,1.4202],[-82.1612,9.3068,22.8585],[-82.1704,9.3118,6.6829],[-82.1726,9.3104,8.5379],[-82.1724,9.309,8.5379],[-82.1682,9.3054,2.9885],[-82.1723,9.3068,0.0],[-82.1746,9.3049,0.7254],[-82.1732,9.3074,1.1092],[-82.1754,9.3087,1.0456],[-82.1774,9.3076,0.5733],[-82.1754,9.3115,0.0],[-82.1782,9.3113,2.1806],[-82.1774,9.3143,0.0],[-82.1815,9.3154,25.2061],[-82.184,9.3188,0.0],[-82.1876,9.3182,1.7464],[-82.1871,9.3196,0.0],[-82.1851,9.319,0.0],[-82.1857,9.3204,0.0],[-82.1915,9.3199,27.4723],[-82.1971,9.3218,13.1581],[-82.1974,9.3232,0.0],[-82.2021,9.324,4.1734],[-82.2193,9.3343,0.0],[-82.2207,9.3335,0.0],[-82.2204,9.3285,0.0],[-82.2154,9.3226,0.0],[-82.2132,9.3226,6.943],[-82.2107,9.319,1.3897],[-82.211,9.3165,0.0],[-82.2068,9.3182,1.6143],[-82.2063,9.3154,0.0],[-82.2029,9.316,2.3905],[-82.2032,9.314,0.2233],[-82.2079,9.3151,0.0],[-82.2068,9.3126,0.2812],[-82.2107,9.3118,0.0],[-82.211,9.3104,0.0],[-82.2076,9.3107,1.6719],[-82.2068,9.3085,0.0],[-82.2035,9.3126,0.2873],[-82.2024,9.3099,0.0],[-82.2004,9.3096,0.1325],[-82.2001,9.3065,0.0],[-82.1968,9.3074,0.0],[-82.1976,9.3046,0.0],[-82.1926,9.2982,0.0869],[-82.191,9.299,0.0785],[-82.1882,9.2968,0.0859],[-82.1899,9.3004,0.0785],[-82.194,9.3018,0.0],[-82.1935,9.3043,0.1305],[-82.1904,9.3024,0.0],[-82.1899,9.3029,0.0],[-82.1913,9.3049,0.1158],[-82.1851,9.3029,0.0557],[-82.1837,9.3043,0.0546],[-82.1854,9.3063,1.1137],[-82.184,9.3063,1.1108],[-82.1815,9.3026,0.1708],[-82.1765,9.3013,2.2209],[-82.1751,9.2987,0.0],[-82.1704,9.2982,0.0],[-82.1704,9.3007,1.9196],[-82.169,9.3007,1.9196],[-82.1657,9.2974,0.0657],[-82.1582,9.2979,7.2103],[-82.159,9.2901,0.0],[-82.1573,9.289,3.9708],[-82.1565,9.2832,0.0],[-82.1535,9.284,7.1949],[-82.1546,9.2801,0.0],[-82.1535,9.2818,0.0],[-82.1499,9.2821,4.2777],[-82.1526,9.2771,0.0],[-82.1554,9.2768,0.0],[-82.1546,9.2751,0.0],[-82.1526,9.2751,0.0],[-82.1507,9.2768,0.0],[-82.1499,9.2746,2.3689],[-82.1513,9.2712,2.8759],[-82.1529,9.2715,0.0],[-82.1521,9.2729,0.0],[-82.1537,9.2726,0.0],[-82.1526,9.2704,2.0319],[-82.1543,9.2682,9.4231],[-82.1571,9.2676,0.0],[-82.1554,9.2638,9.9072],[-82.1599,9.2596,0.1815],[-82.1521,9.2543,9.7786],[-82.1479,9.2476,0.373],[-82.1415,9.246,1.2754],[-82.1371,9.2496,0.0],[-82.1368,9.2515,0.0],[-82.1393,9.2543,0.0],[-82.1435,9.254,0.0712],[-82.1429,9.256,0.0],[-82.1457,9.2571,0.0],[-82.1454,9.2626,0.0],[-82.1426,9.2621,0.6839],[-82.1421,9.2638,1.4923],[-82.1379,9.2651,0.0],[-82.1385,9.2685,0.9976],[-82.1415,9.2693,0.9878],[-82.1385,9.2701,0.0],[-82.1363,9.2679,0.0],[-82.1312,9.2729,0.0768],[-82.1296,9.2776,0.0],[-82.1226,9.279,0.2593],[-82.1162,9.2863,0.6347],[-82.1107,9.289,0.6206],[-82.1068,9.2882,0.0],[-82.0996,9.2924,2.7693],[-82.0924,9.2926,10.6323],[-82.0807,9.2904,0.0],[-82.0821,9.2951,0.0],[-82.0857,9.2982,9.4248],[-82.0888,9.304,9.2995],[-82.0893,9.3079,5.0618],[-82.1071,9.3174,4.9381],[-82.1096,9.3201,5.297],[-82.1149,9.3201,9.6972],[-82.1157,9.3182,11.1496],[-82.1204,9.316,8.4568],[-82.1307,9.321,4.9315],[-82.1374,9.3274,0.0],[-82.1385,9.3307,0.0],[-82.141,9.3315,5.94],[-82.1435,9.3357,0.0],[-82.1446,9.3421,0.0],[-82.1499,9.3443,0.0],[-82.1535,9.3432,8.2424],[-82.1562,9.3462,0.0],[-82.1635,9.3482,4.0176],[-82.1637,9.3496,0.0],[-82.1663,9.3465,5.9326],[-82.1723,9.3438,1.4363],[-82.1785,9.344,0.0],[-82.184,9.3468,4.2179],[-82.1857,9.3499,4.0504],[-82.1899,9.3482,12.8131],[-82.1935,9.3487,18.2494],[-82.2001,9.3538,10.8146],[-82.199,9.361,0.0]]],
[[[-82.171,9.2757,0.4566],[-82.1699,9.2774,0.0],[-82.1732,9.2754,0.0],[-82.1712,9.274,0.0],[-82.171,9.2757,0.4566]]],
[[[-82.1718,9.2793,0.0],[-82.1718,9.2815,0.0],[-82.1726,9.2815,0.0],[-82.1726,9.2782,0.0],[-82.1718,9.2793,0.0]]],
[[[-82.1676,9.3507,1.3705],[-82.1696,9.3504,0.0],[-82.1665,9.349,0.0],[-82.1663,9.3499,0.0],[-82.1676,9.3507,1.3705]]]]}}