{"type": "Feature","bbox": [-82.1895,8.8474,-82.1244,8.9263],"geometry": {"type": "MultiPolygon","coordinates": [[[[-82.161,8.9102,316.5763],[-82.1718,8.9159,111.612],[-82.1834,8.9259,22.424],[-82.1895,8.9263,20.445],[-82.1888,8.8887,51.3681],[-82.1855,8.8736,59.8961],[-82.1891,8.8683,64.3227],[-82.1894,8.8631,65.0485],[-82.1787,8.8474,107.6264],[-82.1675,8.8549,123.4601],[-82.1666,8.8624,68.4776],[-82.1686,8.8702,62.4267],[-82.1617,8.8782,141.1016],[-82.1576,8.8895,111.1996],[-82.1451,8.8978,423.4341],[-82.129,8.9012,512.6201],[-82.1244,8.906,624.1119],[-82.1305,8.9059,564.2888],[-82.1432,8.9014,521.9794],[-82.1565,8.9017,376.3698],[-82.1585,8.903,420.2338],[-82.161,8.9102,316.5763]]]]}
,"properties": {"GID_3": "PAN.1.3.3_1","GID_0": "PAN","country": "Panama","GID_1": "PAN.1_1","province": "BocasdelToro","NL_NAME_1": "NA","GID_2": "PAN.1.3_1","county": "ChiriquíGrande","NL_NAME_2": "NA","city": "PuntaPeña","VARNAME_3": "NA","NL_NAME_3": "NA","TYPE_3": "Corregimiento","ENGTYPE_3": "Municipality","CC_3": "NA","HASC_3": "NA","name": "Punta_Peña.city","area_km2": 23.54502,"hist_schema_id": "Elevation0-9000","hist_area_km2": {"25": 1.61284,"50": 4.31522,"75": 4.25249,"100": 2.68134,"125": 2.17856,"150": 1.69675,"175": 1.21497,"200": 0.96359,"225": 0.796,"250": 0.48178,"275": 0.62841,"300": 0.33515,"325": 0.3561,"350": 0.29326,"375": 0.20947,"400": 0.16758,"425": 0.20947,"450": 0.18852,"475": 0.16758,"500": 0.16758,"525": 0.12568,"550": 0.20947,"575": 0.18852,"600": 0.08379,"625": 0.02095}}}