{"type": "Feature","bbox": [-79.5061,9.0021,-79.4614,9.0275],"geometry": {"type": "MultiPolygon","coordinates": [[[[-79.4759,9.0275,10.1971],[-79.4808,9.0258,10.0095],[-79.4889,9.0177,7.2091],[-79.4951,9.0151,14.4605],[-79.5061,9.0047,20.6206],[-79.4972,9.0054,7.3673],[-79.494,9.0026,4.2126],[-79.4899,9.0043,0.7173],[-79.4857,9.0037,0.0],[-79.4851,9.0021,0.0],[-79.4796,9.0068,0.0],[-79.4656,9.0087,1.2051],[-79.4614,9.0177,9.5081],[-79.4623,9.022,9.7207],[-79.4693,9.027,7.8337],[-79.4759,9.0275,10.1971]]]]}
,"properties": {"GID_3": "PAN.12.6.11_1","GID_0": "PAN","country": "Panama","GID_1": "PAN.12_1","province": "Panamá","NL_NAME_1": "NA","GID_2": "PAN.12.6_1","county": "Panamá","NL_NAME_2": "NA","city": "ParqueLefevre","VARNAME_3": "NA","NL_NAME_3": "NA","TYPE_3": "Corregimiento","ENGTYPE_3": "Municipality","CC_3": "NA","HASC_3": "NA","name": "Parque_Lefevre.city","area_km2": 7.433819,"hist_schema_id": "Elevation0-9000","hist_area_km2": {"0": 6.679961,"25": 0.753858}}}