{"type":"Feature","properties":{"GID_3":"PAN.13.10.2_1","GID_0":"PAN","country":"Panama","GID_1":"PAN.13_1","province":"Veraguas","NL_NAME_1":"NA","GID_2":"PAN.13.10_1","county":"Santiago","NL_NAME_2":"NA","city":"LaColorada","VARNAME_3":"NA","NL_NAME_3":"NA","TYPE_3":"Corregimiento","ENGTYPE_3":"Municipality","CC_3":"NA","HASC_3":"NA","name":"La_Colorada.city"},
"geometry":{"type": "MultiPolygon","coordinates": [[[[-80.9293,8.0686,92.5944],[-80.9416,8.086,88.5802],[-80.9465,8.0887,80.3717],[-80.951,8.0863,90.5242],[-80.9653,8.0563,104.8762],[-80.9671,8.0424,71.8067],[-80.9791,8.0267,77.8752],[-80.9781,8.0191,105.0795],[-80.9929,8.0089,77.4098],[-80.9967,8.0047,49.0771],[-81.0017,7.9815,43.4772],[-81.0047,7.9749,9.7241],[-80.982,7.9658,62.6161],[-80.9645,7.9619,86.7471],[-80.9469,7.9524,156.8091],[-80.9299,7.9557,92.7],[-80.9252,7.9594,99.9591],[-80.9357,7.9703,140.627],[-80.9405,7.9872,108.5976],[-80.9471,8.0004,96.8395],[-80.9426,8.0262,137.2525],[-80.9386,8.0359,79.386],[-80.9395,8.046,77.9991],[-80.9293,8.0686,92.5944]]]]}}