{"type": "Feature","bbox": [-79.8511,8.9581,-79.7924,9.0815],"geometry": {"type": "MultiPolygon","coordinates": [[[[-79.811,9.0658,45.1538],[-79.8082,9.069,25.0],[-79.8101,9.0704,38.209],[-79.8085,9.0757,25.0],[-79.8115,9.0757,28.699],[-79.811,9.0801,25.0],[-79.8154,9.0782,34.1441],[-79.816,9.0815,29.2287],[-79.8193,9.0815,28.2921],[-79.8215,9.0782,29.4235],[-79.821,9.076,30.3624],[-79.8235,9.0771,25.0],[-79.8232,9.0732,25.0],[-79.8204,9.0715,40.2284],[-79.8204,9.0696,30.2461],[-79.824,9.0718,25.0],[-79.8229,9.0654,43.1809],[-79.8238,9.0551,30.332],[-79.8254,9.0557,34.4109],[-79.8262,9.0532,31.1847],[-79.826,9.0624,25.0],[-79.8288,9.061,40.5897],[-79.8324,9.0551,25.0],[-79.8307,9.0524,49.9924],[-79.8276,9.0513,29.1085],[-79.8274,9.0435,25.0],[-79.8249,9.0426,28.5085],[-79.8246,9.0399,28.2071],[-79.8282,9.0387,25.9874],[-79.8299,9.0363,25.972],[-79.8326,9.0371,29.1208],[-79.8324,9.0399,28.0109],[-79.8376,9.0457,27.9423],[-79.8326,9.0488,28.206],[-79.8346,9.0537,27.5743],[-79.836,9.0521,25.0],[-79.8396,9.0521,25.0],[-79.839,9.0482,31.4255],[-79.8429,9.0524,25.0],[-79.8421,9.0479,25.3231],[-79.8451,9.0482,26.8035],[-79.8437,9.0399,25.4095],[-79.8451,9.039,25.4095],[-79.8458,9.0415,26.5592],[-79.846,9.0379,29.094],[-79.8511,9.0286,43.2021],[-79.8424,9.0187,123.4624],[-79.8321,9.0158,64.1324],[-79.8274,9.0042,43.8105],[-79.8249,8.982,73.4918],[-79.8193,8.9711,97.8901],[-79.8131,8.9641,113.7529],[-79.8074,8.9605,112.2872],[-79.7925,8.9581,115.746],[-79.7924,8.9788,75.1736],[-79.7981,8.9984,40.0274],[-79.8052,9.0068,39.0932],[-79.8078,9.0136,33.376],[-79.8059,9.0165,41.6448],[-79.7965,9.0186,114.0175],[-79.7949,9.0224,166.153],[-79.7992,9.0273,100.3944],[-79.8032,9.0364,65.6134],[-79.8066,9.0508,59.4113],[-79.8115,9.06,46.4117],[-79.811,9.0658,45.1538]]],
[[[-79.826,9.0699,33.9948],[-79.8275,9.0684,63.8863],[-79.8257,9.0667,28.6718],[-79.8254,9.0693,33.9948],[-79.826,9.0699,33.9948]]]]}
,"properties": {"GID_3": "PAN.11.4.12_1","GID_0": "PAN","country": "Panama","GID_1": "PAN.11_1","province": "PanamáOeste","NL_NAME_1": "NA","GID_2": "PAN.11.4_1","county": "LaChorrera","NL_NAME_2": "NA","city": "LaRepresa","VARNAME_3": "NA","NL_NAME_3": "NA","TYPE_3": "Corregimiento","ENGTYPE_3": "Municipality","CC_3": "NA","HASC_3": "NA","name": "La_Represa.city","area_km2": 41.16846,"hist_schema_id": "Elevation0-9000","hist_area_km2": {"25": 7.09836,"50": 16.18648,"75": 8.85767,"100": 4.27202,"125": 4.16756,"150": 0.56544,"175": 0.02094}}}