{"type":"Feature","properties":{"GID_2":"PAN.10.1_1","GID_0":"PAN","country":"Panama","GID_1":"PAN.10_1","province":"NgöbeBuglé","NL_NAME_1":"NA","county":"Besiko","VARNAME_2":"NA","NL_NAME_2":"NA","TYPE_2":"Distrito","ENGTYPE_2":"District","CC_2":"NA","HASC_2":"PA.NB.BK","name":"Besiko.county"},
"geometry":{"type": "MultiPolygon","coordinates": [[[[-81.9925,8.3357,58.591],[-81.99,8.3344,61.7877],[-81.9813,8.3353,85.6661],[-81.9647,8.3451,186.139],[-81.9595,8.3555,126.4237],[-81.9454,8.3655,290.5932],[-81.9367,8.3781,324.965],[-81.937,8.3808,159.3683],[-81.9338,8.3816,270.9061],[-81.9151,8.3978,168.8717],[-81.9093,8.4054,237.0299],[-81.9072,8.4123,294.8752],[-81.8969,8.424,246.0442],[-81.9007,8.4346,360.7255],[-81.8933,8.4476,498.1663],[-81.8953,8.4683,704.3195],[-81.9067,8.4768,868.5033],[-81.9075,8.4885,1229.1846],[-81.9043,8.6547,2023.5712],[-81.918,8.6477,1536.8779],[-81.9269,8.6484,1240.6051],[-81.931,8.6504,1059.2581],[-81.937,8.6589,879.1763],[-81.9401,8.6602,895.73],[-81.9603,8.6503,1460.0509],[-81.9798,8.6527,1091.2107],[-82.0012,8.6432,1216.4531],[-82.02,8.6436,1264.4449],[-82.0333,8.6335,1313.0519],[-82.0429,8.6283,1228.5106],[-82.0595,8.6272,1333.4852],[-82.0712,8.6224,1624.6555],[-82.0747,8.6226,1583.2124],[-82.0857,8.632,1557.9757],[-82.0892,8.638,1552.8495],[-82.1133,8.6475,1935.1083],[-82.1189,8.6581,1464.9904],[-82.1177,8.6622,1590.2167],[-82.1122,8.6678,1629.2241],[-82.1085,8.6792,1433.4598],[-82.1125,8.6915,1619.3352],[-82.1114,8.6986,1618.9363],[-82.1099,8.7019,1595.3451],[-82.1016,8.7092,1133.9167],[-82.0937,8.7264,984.1379],[-82.0934,8.7352,1069.8865],[-82.1007,8.7435,918.8241],[-82.101,8.7547,1130.6688],[-82.1284,8.7595,1211.2317],[-82.147,8.7598,1139.9274],[-82.1444,8.6561,1962.3651],[-82.1494,8.617,1048.2841],[-82.1467,8.6121,875.636],[-82.1466,8.6006,728.8207],[-82.1515,8.5855,543.9456],[-82.1582,8.5842,663.8329],[-82.1614,8.5689,788.6628],[-82.1481,8.5653,438.0328],[-82.1443,8.555,337.2908],[-82.1418,8.5556,380.6918],[-82.1375,8.5607,509.3406],[-82.1301,8.5627,612.8518],[-82.1277,8.5589,708.0396],[-82.1266,8.5447,544.7215],[-82.132,8.5475,551.1768],[-82.1351,8.5517,475.4438],[-82.1381,8.5514,405.224],[-82.1411,8.5465,410.8024],[-82.145,8.5439,333.6873],[-82.1471,8.5347,302.485],[-82.1504,8.5295,268.0107],[-82.1614,8.5288,493.928],[-82.1612,8.5308,499.1903],[-82.1657,8.5313,499.6064],[-82.1661,8.53,503.6504],[-82.1566,8.5241,437.6914],[-82.1536,8.5201,293.7339],[-82.1524,8.512,272.6756],[-82.1541,8.5082,227.2154],[-82.164,8.5026,318.9653],[-82.1663,8.4946,295.3059],[-82.1776,8.4834,176.0241],[-82.1805,8.4724,176.0155],[-82.1758,8.463,282.2453],[-82.1844,8.4505,253.9528],[-82.1846,8.448,229.8694],[-82.1827,8.4443,183.9106],[-82.1729,8.4427,118.0367],[-82.1626,8.4446,116.1357],[-82.1578,8.4479,130.3886],[-82.1497,8.4474,198.8315],[-82.1445,8.4495,161.8168],[-82.1388,8.4476,216.9328],[-82.1359,8.4512,156.5088],[-82.1297,8.4496,197.1625],[-82.1235,8.4547,204.8295],[-82.1208,8.4509,231.524],[-82.1175,8.4504,281.4404],[-82.1095,8.4545,233.0288],[-82.1029,8.4558,249.6761],[-82.0983,8.4608,215.1279],[-82.0924,8.459,129.3952],[-82.089,8.4651,148.2428],[-82.0904,8.4702,153.9783],[-82.0833,8.4743,130.5915],[-82.0786,8.4805,133.3035],[-82.0696,8.4757,258.528],[-82.0656,8.4757,232.6477],[-82.0651,8.4738,194.255],[-82.0681,8.4723,190.944],[-82.0713,8.4663,124.8331],[-82.0648,8.4625,202.7056],[-82.0631,8.4566,220.5883],[-82.058,8.4537,303.4858],[-82.0561,8.4405,480.3858],[-82.0494,8.4356,321.8085],[-82.0534,8.4276,253.0656],[-82.0524,8.4241,202.7991],[-82.044,8.4218,184.2455],[-82.0429,8.4171,177.7989],[-82.0411,8.4158,136.1101],[-82.0308,8.4205,211.2727],[-82.0263,8.426,253.073],[-82.0213,8.424,131.3845],[-82.0186,8.4138,180.486],[-82.0208,8.4099,142.3376],[-82.0194,8.4056,174.3254],[-82.0239,8.3998,165.9963],[-82.031,8.3942,127.5632],[-82.0322,8.3866,162.7267],[-82.0286,8.3848,169.5877],[-82.0077,8.3894,346.2242],[-82.0181,8.3749,185.3708],[-82.023,8.3714,162.9302],[-82.0215,8.369,153.6964],[-82.0165,8.3667,181.8523],[-82.0199,8.3597,127.5567],[-82.0073,8.344,95.6308],[-81.9976,8.3357,99.9975],[-81.9925,8.3357,58.591]]]]}}