{"type":"Feature","properties":{"GID_3":"PAN.9.1.1_1","GID_0":"PAN","country":"Panama","GID_1":"PAN.9_1","province":"LosSantos","NL_NAME_1":"NA","GID_2":"PAN.9.1_1","county":"Guararé","NL_NAME_2":"NA","city":"ElEspinal","VARNAME_3":"NA","NL_NAME_3":"NA","TYPE_3":"Corregimiento","ENGTYPE_3":"Municipality","CC_3":"NA","HASC_3":"NA","name":"El_Espinal.city"},
"geometry":{"type": "MultiPolygon","coordinates": [[[[-80.2812,7.8657,0.0],[-80.286,7.8651,2.2712],[-80.3012,7.8868,4.1282],[-80.3165,7.9007,1.1867],[-80.3155,7.8835,9.1209],[-80.321,7.8767,18.5621],[-80.3217,7.869,23.0054],[-80.3257,7.8585,34.9381],[-80.3211,7.8489,30.9624],[-80.3214,7.8439,13.0355],[-80.3255,7.8369,20.312],[-80.3396,7.8318,42.1973],[-80.3477,7.8155,73.2661],[-80.3431,7.8023,31.3937],[-80.3423,7.7946,16.1986],[-80.3394,7.7908,18.3417],[-80.3336,7.7888,17.5816],[-80.3366,7.805,50.2752],[-80.3337,7.8097,39.8211],[-80.2959,7.8246,11.1409],[-80.2951,7.836,10.7938],[-80.2884,7.8437,4.8585],[-80.2847,7.851,3.1264],[-80.2812,7.8657,0.0]]]]}}