{"type": "Feature","bbox": [-82.9342,8.8283,-82.286,9.6165],"geometry": {"type": "MultiPolygon","coordinates": [[[[-82.7665,8.9979,2476.6953],[-82.7638,8.9985,2502.491],[-82.7546,8.9945,2511.5903],[-82.7485,8.9908,2439.6733],[-82.7444,8.9857,2365.5784],[-82.7414,8.9852,2340.4941],[-82.7365,8.9764,2334.1379],[-82.742,8.9664,2254.2417],[-82.7356,8.9617,2160.415],[-82.7294,8.9597,2172.6724],[-82.727,8.9551,2105.0708],[-82.7166,8.9487,2245.8977],[-82.7122,8.9225,2406.3442],[-82.7205,8.9207,2421.8389],[-82.7252,8.9171,2350.291],[-82.7175,8.9045,2021.7614],[-82.7117,8.8997,2219.6694],[-82.7089,8.8992,2248.7854],[-82.7108,8.9065,2179.4482],[-82.7094,8.9099,2285.1621],[-82.6994,8.9195,2160.6809],[-82.6937,8.9007,2383.3474],[-82.6741,8.8899,2160.1733],[-82.6699,8.8908,2081.9004],[-82.6656,8.8941,2129.1787],[-82.6538,8.8844,2426.916],[-82.6416,8.9074,2506.46],[-82.6368,8.9076,2592.2544],[-82.6301,8.901,2657.1641],[-82.6274,8.9002,2409.4863],[-82.6156,8.9022,2355.3394],[-82.599,8.9112,2309.844],[-82.5955,8.9104,2396.907],[-82.591,8.9065,2360.1729],[-82.5837,8.9088,2640.3965],[-82.5698,8.9035,2461.1091],[-82.5648,8.8924,2258.5063],[-82.5564,8.8854,2327.0962],[-82.5536,8.8793,2240.4692],[-82.5351,8.863,2673.25],[-82.5302,8.8655,2833.3237],[-82.5159,8.8808,2379.7393],[-82.5074,8.8834,2255.4866],[-82.4884,8.8839,1948.4043],[-82.4831,8.8817,1780.6539],[-82.4706,8.8722,1812.6328],[-82.4587,8.8694,2032.561],[-82.4449,8.8576,1891.9108],[-82.4319,8.8528,1695.7104],[-82.4241,8.8522,1591.7726],[-82.4102,8.8442,1542.8389],[-82.402,8.8437,1603.4771],[-82.3847,8.8382,1694.6987],[-82.3817,8.8338,1710.3333],[-82.3781,8.8322,1839.7933],[-82.3573,8.8283,2131.6414],[-82.3489,8.8413,2020.0786],[-82.3502,8.8484,2018.1183],[-82.3475,8.852,1778.3062],[-82.3495,8.8615,1876.1315],[-82.3435,8.8815,1646.3838],[-82.3435,8.8893,1612.1057],[-82.3418,8.8926,1567.7567],[-82.3274,8.9042,1328.4028],[-82.3294,8.9167,1489.8468],[-82.337,8.9239,1263.9181],[-82.3379,8.9329,1418.8468],[-82.3416,8.938,1198.9745],[-82.3437,8.9476,970.9917],[-82.3463,8.9518,755.0339],[-82.3661,8.97,407.5909],[-82.3725,8.9728,362.7479],[-82.3843,8.9726,528.8028],[-82.398,8.9785,439.8371],[-82.4124,8.9805,598.5952],[-82.4192,8.9842,688.4237],[-82.4258,8.9847,821.8045],[-82.441,8.9929,302.8741],[-82.4455,8.9981,344.5619],[-82.4427,9.0023,356.6101],[-82.4347,9.0074,279.5555],[-82.4246,9.0087,594.2673],[-82.4156,9.0121,479.5149],[-82.4106,9.0221,403.2383],[-82.4064,9.0258,453.5291],[-82.4009,9.0568,547.7665],[-82.3981,9.0608,527.5856],[-82.3983,9.0671,404.7306],[-82.4029,9.0728,418.9987],[-82.3996,9.0774,313.2336],[-82.3997,9.0843,398.3195],[-82.4046,9.0889,354.2806],[-82.4032,9.0989,346.6617],[-82.4052,9.1036,269.8521],[-82.4151,9.1114,319.1396],[-82.4217,9.1099,375.3055],[-82.422,9.1112,361.2644],[-82.414,9.1561,324.5558],[-82.4057,9.1618,295.7992],[-82.4014,9.1624,303.8679],[-82.4039,9.178,280.556],[-82.4013,9.1832,226.4237],[-82.3911,9.185,158.9255],[-82.3787,9.176,181.1749],[-82.3731,9.1973,185.5377],[-82.3604,9.1829,225.213],[-82.3555,9.1708,342.6161],[-82.3474,9.1669,435.8401],[-82.3424,9.1675,431.1646],[-82.3377,9.1635,408.3646],[-82.3307,9.1747,369.5948],[-82.3196,9.1722,315.2088],[-82.3134,9.1749,209.4441],[-82.3079,9.1744,222.9435],[-82.3036,9.1772,157.7454],[-82.2917,9.1808,246.2619],[-82.292,9.1873,135.4205],[-82.2943,9.1913,73.8183],[-82.286,9.1974,10.4848],[-82.296,9.2013,0.0],[-82.3043,9.2013,3.7603],[-82.3118,9.2054,2.9567],[-82.311,9.1996,0.0],[-82.3084,9.1985,11.2819],[-82.3068,9.1926,3.7259],[-82.3093,9.1932,0.0],[-82.3087,9.1901,8.0854],[-82.3124,9.1885,7.9887],[-82.3146,9.1896,5.1037],[-82.316,9.1929,3.9081],[-82.3176,9.1926,0.0],[-82.3179,9.1899,19.8775],[-82.3201,9.1896,11.3575],[-82.3221,9.1919,0.7237],[-82.3254,9.1913,12.2383],[-82.3318,9.194,6.2716],[-82.3337,9.1968,1.7593],[-82.3373,9.1957,0.0],[-82.3385,9.1974,0.4401],[-82.336,9.1982,0.4281],[-82.336,9.2004,0.8552],[-82.3393,9.1977,0.4401],[-82.3418,9.201,6.0783],[-82.341,9.2035,1.066],[-82.3435,9.2018,6.0783],[-82.3493,9.2065,0.5208],[-82.3554,9.2068,7.6034],[-82.3543,9.2087,1.6159],[-82.356,9.2121,0.2904],[-82.3532,9.2118,0.0],[-82.3515,9.2154,0.0],[-82.3554,9.2146,0.1168],[-82.3554,9.2163,0.0],[-82.3579,9.2151,1.5694],[-82.3582,9.2177,4.6437],[-82.3601,9.219,0.0],[-82.3618,9.2171,1.7861],[-82.364,9.2207,0.0],[-82.3629,9.2265,0.7009],[-82.3682,9.229,1.3502],[-82.3668,9.2329,1.627],[-82.3682,9.236,0.0],[-82.366,9.2382,0.0],[-82.3682,9.2399,0.0],[-82.368,9.2437,0.5616],[-82.3701,9.2424,1.0957],[-82.3707,9.2437,3.5845],[-82.3682,9.2449,6.2126],[-82.3651,9.2437,0.0],[-82.3613,9.2457,1.1065],[-82.3621,9.2488,0.0],[-82.3649,9.2485,31.7018],[-82.3688,9.2507,0.0],[-82.3718,9.2496,0.9965],[-82.3743,9.2541,0.0],[-82.3801,9.254,0.0],[-82.3807,9.2576,0.0],[-82.3865,9.2574,0.0],[-82.3913,9.2638,0.0],[-82.3974,9.2646,2.481],[-82.3946,9.2671,0.0],[-82.3971,9.2696,0.0],[-82.3976,9.2729,0.0],[-82.3926,9.2732,0.0],[-82.3976,9.279,0.7176],[-82.3976,9.2879,0.0],[-82.3996,9.2887,0.4382],[-82.3946,9.289,0.9335],[-82.3896,9.2868,0.0],[-82.3885,9.2885,0.0],[-82.3857,9.2885,0.0],[-82.3815,9.2832,0.0],[-82.3793,9.2849,0.3768],[-82.3749,9.2813,0.0],[-82.371,9.2832,0.246],[-82.3657,9.2796,0.0],[-82.3629,9.2832,1.4322],[-82.3574,9.2838,0.0],[-82.357,9.2937,0.0],[-82.351,9.2943,1.8439],[-82.349,9.2907,0.8855],[-82.3501,9.2951,1.8439],[-82.3443,9.2957,1.0883],[-82.3465,9.3001,0.1024],[-82.3457,9.3024,0.0],[-82.351,9.3105,0.0],[-82.3785,9.3274,0.0],[-82.386,9.3349,2.1463],[-82.3887,9.3438,0.0],[-82.3782,9.3701,0.0],[-82.3721,9.369,0.0],[-82.3676,9.3746,0.6239],[-82.369,9.3791,7.9029],[-82.3623,9.3751,0.0],[-82.3571,9.3821,0.3756],[-82.3526,9.384,0.0],[-82.3565,9.3974,3.1154],[-82.3537,9.3993,0.0],[-82.3521,9.4065,1.1122],[-82.3535,9.4093,1.445],[-82.3507,9.416,6.6975],[-82.3443,9.4193,0.3079],[-82.344,9.4226,2.1161],[-82.3418,9.4251,6.2875],[-82.341,9.429,0.0],[-82.3426,9.4318,9.1318],[-82.3532,9.4349,1.2653],[-82.3524,9.4326,0.0],[-82.3551,9.4274,0.0],[-82.3557,9.4224,9.0623],[-82.3637,9.416,5.067],[-82.3743,9.4157,0.0],[-82.3865,9.4193,1.2682],[-82.4426,9.4668,0.0],[-82.4574,9.4818,1.8491],[-82.4679,9.489,1.8373],[-82.5104,9.5276,1.693],[-82.5265,9.5396,11.8992],[-82.5368,9.5505,0.0],[-82.5607,9.5693,3.3101],[-82.5645,9.5639,4.8336],[-82.5617,9.5585,0.6103],[-82.5525,9.5493,3.4826],[-82.5552,9.5416,1.2971],[-82.5592,9.5395,0.8613],[-82.563,9.5403,0.0],[-82.568,9.5448,10.4056],[-82.5735,9.5533,0.5],[-82.5801,9.5572,0.5],[-82.5918,9.5597,1.5768],[-82.6005,9.5588,2.7251],[-82.6027,9.5568,15.6618],[-82.6039,9.5515,2.602],[-82.5987,9.5407,1.0],[-82.5981,9.534,3.3001],[-82.6045,9.5212,2.0],[-82.6034,9.5116,7.9791],[-82.6046,9.5064,4.5907],[-82.611,9.5003,10.3343],[-82.6178,9.4982,4.815],[-82.6346,9.5023,9.1039],[-82.6354,9.5006,8.5045],[-82.6335,9.4951,5.7703],[-82.637,9.4942,8.6972],[-82.648,9.4975,9.7695],[-82.6593,9.5101,14.5668],[-82.6614,9.5085,11.5507],[-82.6617,9.5025,16.3797],[-82.6681,9.5006,12.095],[-82.6716,9.5018,13.2694],[-82.6725,9.5094,10.4435],[-82.6752,9.5129,9.9252],[-82.6789,9.5077,7.5],[-82.6814,9.5068,11.8751],[-82.6909,9.5119,12.5216],[-82.6931,9.5213,9.7332],[-82.7003,9.5282,14.4895],[-82.6994,9.5306,9.0],[-82.6921,9.5351,16.4902],[-82.6945,9.5426,12.2123],[-82.703,9.5455,16.2563],[-82.7054,9.5522,15.0868],[-82.7076,9.5539,16.2047],[-82.7099,9.5536,15.5832],[-82.7143,9.5455,15.9136],[-82.72,9.551,17.3234],[-82.7289,9.5541,19.4048],[-82.7263,9.5599,11.8192],[-82.7292,9.5641,19.3721],[-82.7434,9.5685,13.626],[-82.7434,9.5736,12.0],[-82.7474,9.5817,16.1421],[-82.7458,9.5871,21.1819],[-82.7428,9.59,19.9833],[-82.7451,9.5926,19.4743],[-82.7475,9.593,19.711],[-82.752,9.5903,19.832],[-82.7607,9.5941,22.3057],[-82.763,9.5937,21.7152],[-82.7693,9.5878,18.8651],[-82.7764,9.5851,19.1966],[-82.7933,9.5987,62.7422],[-82.8009,9.5994,20.4569],[-82.8035,9.5966,30.5383],[-82.8066,9.5963,21.4397],[-82.816,9.5973,25.1611],[-82.8185,9.6022,30.8189],[-82.825,9.6051,29.1504],[-82.8272,9.6112,26.039],[-82.8352,9.6119,27.4841],[-82.8396,9.6152,45.6444],[-82.8469,9.6165,33.5694],[-82.8582,9.6129,33.3383],[-82.8602,9.6098,36.9715],[-82.8635,9.5955,35.6461],[-82.8595,9.5915,44.4922],[-82.8605,9.5903,46.2899],[-82.8641,9.59,37.6012],[-82.8727,9.5942,33.5],[-82.8777,9.5917,34.0],[-82.878,9.5798,41.2149],[-82.8833,9.5718,43.4832],[-82.8852,9.5655,44.1464],[-82.8844,9.5638,40.6246],[-82.8813,9.5636,43.7269],[-82.8812,9.5568,49.3752],[-82.8775,9.5533,79.0571],[-82.8712,9.5554,55.1985],[-82.8685,9.5539,53.555],[-82.8691,9.5506,47.5547],[-82.8675,9.545,71.2993],[-82.8742,9.538,62.2582],[-82.8719,9.5334,68.209],[-82.873,9.527,58.208],[-82.872,9.5236,56.6026],[-82.8648,9.5181,81.0978],[-82.8555,9.5198,72.6322],[-82.8531,9.5168,72.0707],[-82.8572,9.5128,71.588],[-82.856,9.5117,68.6897],[-82.8475,9.5142,123.788],[-82.8478,9.5086,84.1559],[-82.8425,9.5043,76.4817],[-82.8442,9.4991,99.6472],[-82.8411,9.4971,109.7553],[-82.9341,9.4751,620.204],[-82.9342,9.0787,2766.2461],[-82.9311,9.0789,2774.5461],[-82.9276,9.0744,2905.3352],[-82.9143,9.0828,3034.3579],[-82.9061,9.0821,3109.907],[-82.8928,9.089,3240.4541],[-82.8875,9.0877,3231.8477],[-82.8871,9.0798,3037.3782],[-82.8823,9.0707,3006.1489],[-82.8795,9.07,3063.4565],[-82.8784,9.0612,2902.0803],[-82.875,9.0579,2789.354],[-82.8707,9.0574,2835.5842],[-82.8705,9.0556,2846.5879],[-82.8682,9.0544,2857.1326],[-82.8639,9.0578,2828.5693],[-82.8632,9.056,2839.9695],[-82.8586,9.0564,2917.564],[-82.8588,9.0537,2896.3315],[-82.8569,9.0533,2945.3445],[-82.8577,9.0507,2957.5986],[-82.855,9.046,2959.6528],[-82.8507,9.0464,2889.5259],[-82.8465,9.042,2804.7942],[-82.8443,9.0429,2815.5452],[-82.8446,9.0404,2818.2468],[-82.8401,9.0399,2822.9521],[-82.8356,9.0338,2912.0657],[-82.83,9.0356,2915.8452],[-82.8239,9.0334,3032.5564],[-82.8233,9.0304,3100.354],[-82.8184,9.0305,3122.2483],[-82.8138,9.0234,2935.6858],[-82.815,9.0196,2951.6228],[-82.8035,9.0142,2783.4316],[-82.8053,9.0096,2756.4229],[-82.7996,9.0034,2658.0107],[-82.7852,9.0036,2578.3062],[-82.7823,9.0054,2567.6199],[-82.7777,9.0031,2539.4231],[-82.7741,9.0037,2548.1226],[-82.7708,8.9997,2589.9111],[-82.7665,8.9979,2476.6953]]],
[[[-82.3771,9.2787,0.0],[-82.3768,9.2809,0.4817],[-82.3779,9.281,0.4817],[-82.3782,9.2804,0.6588],[-82.3757,9.2749,0.0],[-82.3735,9.2743,0.0],[-82.3735,9.2765,0.0],[-82.3771,9.2787,0.0]]],
[[[-82.3235,9.2205,4.9639],[-82.324,9.2218,4.9639],[-82.3262,9.221,0.0],[-82.3246,9.2201,3.1852],[-82.3254,9.216,0.0],[-82.321,9.2124,0.0],[-82.3224,9.2146,0.0],[-82.3235,9.2205,4.9639]]],
[[[-82.3457,9.2429,3.9209],[-82.3509,9.2432,0.0],[-82.3521,9.2415,0.0],[-82.3512,9.2382,0.0],[-82.3401,9.2321,1.4281],[-82.3326,9.2326,2.6686],[-82.3265,9.224,2.2107],[-82.3249,9.2237,0.0],[-82.3279,9.2304,1.5424],[-82.3287,9.2377,0.0],[-82.339,9.239,6.647],[-82.3426,9.2429,0.0],[-82.3457,9.2429,3.9209]]],
[[[-82.3524,9.2735,0.5366],[-82.3532,9.2749,0.0],[-82.3543,9.2721,0.0],[-82.3526,9.2715,0.0],[-82.3524,9.2735,0.5366]]],
[[[-82.3449,9.2926,0.0],[-82.3465,9.2935,0.0],[-82.3437,9.2901,0.0],[-82.3446,9.2913,0.0],[-82.3449,9.2926,0.0]]],
[[[-82.3512,9.2919,0.0],[-82.3524,9.2929,0.0],[-82.3543,9.2921,0.0],[-82.3524,9.2913,0.0],[-82.3512,9.2919,0.0]]]]}
,"properties": {"GID_2": "PAN.1.2_1","GID_0": "PAN","country": "Panama","GID_1": "PAN.1_1","province": "BocasdelToro","NL_NAME_1": "NA","county": "Changuinola","VARNAME_2": "NA","NL_NAME_2": "NA","TYPE_2": "Distrito","ENGTYPE_2": "District","CC_2": "NA","HASC_2": "PA.BC.CH","name": "Changuinola.county","area_km2": 4013.104,"hist_schema_id": "Elevation0-9000","hist_area_km2": {"0": 315.282,"25": 246.11,"50": 68.11,"75": 53.345,"100": 51.38,"125": 48.767,"150": 55.884,"175": 46.298,"200": 49.415,"225": 51.173,"250": 51.048,"275": 49.061,"300": 49.397,"325": 47.431,"350": 48.27,"375": 48.166,"400": 47.268,"425": 48.692,"450": 48.401,"475": 48.36,"500": 49.218,"525": 47.944,"550": 49.158,"575": 47.82,"600": 48.49,"625": 48.324,"650": 45.98,"675": 45.897,"700": 45.102,"725": 43.952,"750": 42.905,"775": 40.709,"800": 41.63,"825": 39.35,"850": 37.989,"875": 36.188,"900": 37.214,"925": 37.298,"950": 37.235,"975": 37.904,"1000": 37.694,"1025": 36.439,"1050": 39.432,"1075": 37.213,"1100": 37.528,"1125": 36.774,"1150": 35.959,"1175": 38.408,"1200": 35.834,"1225": 38.367,"1250": 36.525,"1275": 32.716,"1300": 34.035,"1325": 32.696,"1350": 34.707,"1375": 31.4,"1400": 31.379,"1425": 30.165,"1450": 30.02,"1475": 29.727,"1500": 30.627,"1525": 29.371,"1550": 28.827,"1575": 27.968,"1600": 29.727,"1625": 28.952,"1650": 27.969,"1675": 27.425,"1700": 27.341,"1725": 27.404,"1750": 26.693,"1775": 25.227,"1800": 25.604,"1825": 24.453,"1850": 25.039,"1875": 22.464,"1900": 24.013,"1925": 22.799,"1950": 21.208,"1975": 20.098,"2000": 19.659,"2025": 18.151,"2050": 19.198,"2075": 17.209,"2100": 16.121,"2125": 15.326,"2150": 13.86,"2175": 13.106,"2200": 13.755,"2225": 13.211,"2250": 12.479,"2275": 12.206,"2300": 13.295,"2325": 12.688,"2350": 12.458,"2375": 12.583,"2400": 11.997,"2425": 12.27,"2450": 12.416,"2475": 10.825,"2500": 10.218,"2525": 10.741,"2550": 10.217,"2575": 8.773,"2600": 8.166,"2625": 7.956,"2650": 7.684,"2675": 7.809,"2700": 7.537,"2725": 7.202,"2750": 7.537,"2775": 7.181,"2800": 6.7,"2825": 7.014,"2850": 6.385,"2875": 5.611,"2900": 5.569,"2925": 5.213,"2950": 4.522,"2975": 4.48,"3000": 3.685,"3025": 3.999,"3050": 3.685,"3075": 3.454,"3100": 3.015,"3125": 2.784,"3150": 2.282,"3175": 2.198,"3200": 1.905,"3225": 1.319,"3250": 1.13,"3275": 0.984,"3300": 0.691,"3325": 0.251}}}