{"type": "Feature","bbox": [-82.5689,8.5586,-82.5335,8.6862],"geometry": {"type": "MultiPolygon","coordinates": [[[[-82.5335,8.5627,391.1141],[-82.5373,8.5775,456.7534],[-82.5366,8.5847,486.9849],[-82.543,8.6063,583.4924],[-82.5468,8.6285,693.1151],[-82.5468,8.648,799.8066],[-82.5516,8.6823,997.6552],[-82.5538,8.6862,1013.6292],[-82.5572,8.6766,940.0237],[-82.5581,8.6637,855.3627],[-82.5644,8.6507,782.0107],[-82.5689,8.63,679.103],[-82.5661,8.5943,521.5085],[-82.568,8.5602,368.4768],[-82.5555,8.5586,368.6479],[-82.5509,8.5653,395.2794],[-82.5335,8.5627,391.1141]]]]}
,"properties": {"GID_3": "PAN.2.3.4_1","GID_0": "PAN","country": "Panama","GID_1": "PAN.2_1","province": "Chiriquí","NL_NAME_1": "NA","GID_2": "PAN.2.3_1","county": "Boquerón","NL_NAME_2": "NA","city": "Guabal","VARNAME_3": "NA","NL_NAME_3": "NA","TYPE_3": "Corregimiento","ENGTYPE_3": "Municipality","CC_3": "NA","HASC_3": "NA","name": "Guabal.city","area_km2": 30.87897,"hist_schema_id": "Elevation0-9000","hist_area_km2": {"375": 0.83864,"400": 2.03367,"425": 2.39005,"450": 1.99168,"475": 1.92876,"500": 2.07548,"525": 1.69809,"550": 1.57229,"575": 1.44648,"600": 1.71899,"625": 1.46741,"650": 1.36257,"675": 1.19486,"700": 1.53023,"725": 1.19482,"750": 1.04808,"775": 1.13191,"800": 0.88036,"825": 0.83843,"850": 0.64978,"875": 0.44017,"900": 0.4192,"925": 0.39824,"950": 0.29344,"975": 0.25151,"1000": 0.08384}}}