{"type": "Feature","bbox": [-80.2007,9.059,-80.1091,9.2179],"geometry": {"type": "MultiPolygon","coordinates": [[[[-80.1166,9.1218,98.609],[-80.1174,9.1248,59.8894],[-80.1153,9.1302,117.5422],[-80.1158,9.1545,85.2866],[-80.1131,9.1603,65.917],[-80.1146,9.1638,74.1572],[-80.1202,9.1665,39.3616],[-80.1214,9.1691,32.9011],[-80.1132,9.18,59.344],[-80.1118,9.1904,35.4286],[-80.114,9.2023,34.8292],[-80.1212,9.2179,6.2662],[-80.1254,9.216,1.8028],[-80.1263,9.2126,1.3961],[-80.1304,9.2087,2.8426],[-80.1457,9.2076,1.8388],[-80.1499,9.2087,4.8722],[-80.1532,9.2074,0.0],[-80.1599,9.1993,3.9474],[-80.166,9.1979,2.7493],[-80.1732,9.1985,0.0],[-80.174,9.1954,3.5334],[-80.1771,9.1932,4.9624],[-80.1882,9.1921,0.4532],[-80.1899,9.1943,0.0],[-80.1957,9.1949,6.2398],[-80.2007,9.1935,0.0],[-80.1965,9.1866,7.9163],[-80.1905,9.1644,30.6415],[-80.1842,9.1537,65.1838],[-80.1871,9.1456,37.0741],[-80.1845,9.1334,79.3679],[-80.1893,9.1243,105.49],[-80.1876,9.1182,26.6422],[-80.1892,9.1128,67.4233],[-80.1881,9.1089,43.8044],[-80.1782,9.1012,112.1571],[-80.1666,9.0966,73.7598],[-80.1611,9.0889,10.5272],[-80.1572,9.0779,14.6643],[-80.1453,9.0692,25.4911],[-80.135,9.0655,30.0654],[-80.13,9.0605,52.7945],[-80.1263,9.059,75.642],[-80.1125,9.0608,45.7265],[-80.1091,9.0751,36.0996],[-80.1118,9.0805,71.7109],[-80.1169,9.0824,46.1424],[-80.1221,9.0992,25.4867],[-80.1269,9.1074,28.4499],[-80.1166,9.1218,98.609]]]]}
,"properties": {"GID_3": "PAN.4.1.7_1","GID_0": "PAN","country": "Panama","GID_1": "PAN.4_1","province": "Colón","NL_NAME_1": "NA","GID_2": "PAN.4.1_1","county": "Chagres","NL_NAME_2": "NA","city": "Salud","VARNAME_3": "NA","NL_NAME_3": "NA","TYPE_3": "Corregimiento","ENGTYPE_3": "Municipality","CC_3": "NA","HASC_3": "NA","name": "Salud.city","area_km2": 110.714,"hist_schema_id": "Elevation0-9000","hist_area_km2": {"0": 11.1975,"25": 30.01616,"50": 27.9673,"75": 21.68743,"100": 14.06762,"125": 4.89871,"150": 0.87928}}}