{"type":"Feature","properties":{"GID_3":"PAN.11.2.6_1","GID_0":"PAN","country":"Panama","GID_1":"PAN.11_1","province":"PanamáOeste","NL_NAME_1":"NA","GID_2":"PAN.11.2_1","county":"Capira","NL_NAME_2":"NA","city":"CiríGrande","VARNAME_3":"NA","NL_NAME_3":"NA","TYPE_3":"Corregimiento","ENGTYPE_3":"Municipality","CC_3":"NA","HASC_3":"NA","name":"Cirí_Grande.city"},
"geometry":{"type": "MultiPolygon","coordinates": [[[[-80.1091,8.6114,670.2891],[-80.0806,8.6362,1032.2505],[-80.0857,8.6479,970.3802],[-80.0874,8.6632,871.0829],[-80.0814,8.6836,767.1937],[-80.0857,8.697,774.1646],[-80.0856,8.727,815.5966],[-80.0913,8.7384,667.0131],[-80.0847,8.759,409.5463],[-80.063,8.768,244.9191],[-80.0583,8.7744,195.2634],[-80.0581,8.7799,216.8666],[-80.0684,8.7976,260.299],[-80.069,8.8027,244.3857],[-80.0639,8.8058,238.6487],[-80.0502,8.81,196.5417],[-80.0354,8.808,382.8186],[-80.03,8.8144,403.1089],[-80.0203,8.8207,393.0892],[-80.0033,8.8273,213.7988],[-80.0086,8.8334,133.5107],[-80.0073,8.8364,131.6801],[-80.0027,8.8395,174.8546],[-80.0019,8.8433,124.5441],[-80.0143,8.8594,227.8934],[-80.0421,8.8751,217.7482],[-80.0541,8.8785,127.8596],[-80.0505,8.865,160.8837],[-80.0568,8.8544,137.6829],[-80.0627,8.8285,190.754],[-80.066,8.8242,198.9657],[-80.076,8.8181,231.1589],[-80.0905,8.8035,348.9707],[-80.0944,8.8027,344.8087],[-80.1025,8.8088,296.8582],[-80.1153,8.8118,258.3449],[-80.1228,8.8175,289.7594],[-80.1349,8.8165,282.5127],[-80.1448,8.8197,232.0812],[-80.1474,8.8185,233.3914],[-80.1516,8.8108,267.9126],[-80.1591,8.8054,209.3252],[-80.1559,8.7812,310.308],[-80.151,8.7774,270.9922],[-80.1491,8.7685,333.3265],[-80.1435,8.759,401.0547],[-80.1383,8.7535,478.4915],[-80.1304,8.7504,359.4503],[-80.1264,8.7461,302.7159],[-80.1242,8.727,508.4845],[-80.1198,8.7161,397.8233],[-80.1149,8.7123,395.8785],[-80.1165,8.7029,459.1071],[-80.1138,8.697,499.2256],[-80.1148,8.6878,533.0528],[-80.1109,8.6757,693.3364],[-80.112799999999993,8.664,887.0435],[-80.1183,8.6555,650.4899],[-80.1184,8.6429,823.9301],[-80.1115,8.627,828.5816],[-80.112799999999993,8.614,653.3525],[-80.1091,8.6114,670.2891]]]]}}