{"type": "Feature","bbox": [-80.7153,8.5018,-80.3818,8.9474],"geometry": {"type": "MultiPolygon","coordinates": [[[[-80.5787,8.5744,234.0827],[-80.5731,8.5714,201.1213],[-80.5659,8.5746,142.9982],[-80.5543,8.567,110.0287],[-80.5494,8.5662,149.4345],[-80.5452,8.563,127.851],[-80.5436,8.5554,87.81],[-80.5473,8.5323,113.9011],[-80.54,8.5179,62.1721],[-80.5374,8.5086,64.7265],[-80.5375,8.5018,80.8206],[-80.4733,8.5112,479.3756],[-80.4357,8.5148,38.4191],[-80.4345,8.5172,40.4248],[-80.4364,8.5251,46.8381],[-80.4453,8.5396,50.212],[-80.4434,8.5429,42.489],[-80.4372,8.5462,53.5127],[-80.4356,8.5556,56.8749],[-80.4199,8.5613,164.9073],[-80.4112,8.5579,190.393],[-80.4068,8.5578,200.3202],[-80.3989,8.5627,254.3374],[-80.4028,8.5731,463.4237],[-80.408,8.6069,142.3699],[-80.408,8.6297,140.2013],[-80.4048,8.6408,157.6038],[-80.3975,8.6524,187.007],[-80.3922,8.6588,204.7912],[-80.3843,8.6611,209.2908],[-80.3818,8.6667,219.4473],[-80.3829,8.6773,227.0607],[-80.3877,8.6942,314.9069],[-80.3947,8.7006,432.1587],[-80.4281,8.7114,477.2966],[-80.4413,8.7309,433.5842],[-80.4406,8.735,277.8257],[-80.4229,8.7706,177.1771],[-80.4221,8.7823,111.7447],[-80.4214,8.8425,117.8169],[-80.4261,8.8714,107.0815],[-80.4339,8.8977,46.6746],[-80.4466,8.9027,41.7645],[-80.4562,8.9169,50.4414],[-80.466,8.924,99.1263],[-80.4707,8.9223,171.7259],[-80.4722,8.9238,171.292],[-80.4762,8.923,73.4926],[-80.4789,8.9249,92.2549],[-80.4841,8.9248,75.8993],[-80.487799999999993,8.9226,54.1033],[-80.4969,8.93,51.927],[-80.5045,8.9276,72.8838],[-80.5064,8.9319,57.7509],[-80.5121,8.9307,18.0731],[-80.5136,8.936,84.571],[-80.525,8.9354,52.2103],[-80.531,8.9474,40.431],[-80.5473,8.9418,73.1451],[-80.5448,8.9282,43.6574],[-80.5472,8.9192,24.8144],[-80.5523,8.9152,58.4397],[-80.5518,8.9038,18.805],[-80.5551,8.9022,19.7227],[-80.5558,8.8982,51.1931],[-80.5601,8.897,83.2022],[-80.5628,8.8943,78.6733],[-80.5598,8.8901,77.3469],[-80.5583,8.8819,33.5436],[-80.5557,8.8809,46.7717],[-80.5552,8.8828,39.1207],[-80.5526,8.884,42.6322],[-80.5521,8.8812,54.364],[-80.5544,8.8789,43.3141],[-80.5546,8.876,42.8227],[-80.5503,8.8714,27.3553],[-80.552,8.8682,61.6116],[-80.5505,8.8541,55.1407],[-80.5545,8.8476,57.3864],[-80.5521,8.8418,65.7616],[-80.5538,8.8335,75.9245],[-80.5526,8.8222,51.6927],[-80.5639,8.8081,53.1984],[-80.5618,8.807,48.2988],[-80.5575,8.7979,49.0606],[-80.5737,8.7957,50.81],[-80.6221,8.7968,83.1328],[-80.6241,8.7988,129.6808],[-80.625,8.8049,181.7269],[-80.6237,8.8055,186.1051],[-80.625,8.8089,224.8824],[-80.6336,8.8073,209.7412],[-80.6407,8.8086,246.3923],[-80.6458,8.805,180.2558],[-80.654,8.8075,183.0089],[-80.6554,8.7951,93.5],[-80.6641,8.7917,121.4399],[-80.6723,8.7847,174.5096],[-80.677,8.7834,147.1673],[-80.6825,8.7784,177.1423],[-80.6882,8.7761,175.0227],[-80.6907,8.769,128.1382],[-80.6845,8.7572,95.5054],[-80.6878,8.7543,142.9569],[-80.6874,8.748,227.7736],[-80.6934,8.7407,318.4787],[-80.6946,8.7359,354.2646],[-80.702,8.7305,250.6756],[-80.7035,8.7261,279.7535],[-80.7019,8.7215,348.2288],[-80.7023,8.7158,452.2708],[-80.705,8.7077,490.8738],[-80.6993,8.6889,653.3058],[-80.6908,8.6834,619.0082],[-80.6856,8.6633,903.155],[-80.6974,8.6644,1123.9854],[-80.7071,8.662,857.3167],[-80.7098,8.6584,886.1946],[-80.7115,8.6485,1113.9851],[-80.715,8.6414,858.8587],[-80.7153,8.6316,728.3372],[-80.6976,8.6154,812.5319],[-80.6918,8.6073,914.0767],[-80.6811,8.6002,521.7047],[-80.6699,8.5991,598.2764],[-80.6601,8.6019,497.3286],[-80.6543,8.602,557.6116],[-80.6463,8.5988,599.1102],[-80.6384,8.5923,472.6908],[-80.6266,8.6002,396.804],[-80.6182,8.601,606.2546],[-80.6129,8.5965,458.0948],[-80.6085,8.5886,241.3097],[-80.6033,8.5864,208.3795],[-80.5942,8.5882,372.0722],[-80.5787,8.5744,234.0827]]]]}
,"properties": {"GID_2": "PAN.3.3_1","GID_0": "PAN","country": "Panama","GID_1": "PAN.3_1","province": "Coclé","NL_NAME_1": "NA","county": "LaPintada","VARNAME_2": "NA","NL_NAME_2": "NA","TYPE_2": "Distrito","ENGTYPE_2": "District","CC_2": "NA","HASC_2": "PA.CC.LP","name": "La_Pintada.county","area_km2": 1042.3999,"hist_schema_id": "Elevation0-9000","hist_area_km2": {"0": 2.5763,"25": 27.316,"50": 78.1727,"75": 115.3395,"100": 105.1591,"125": 81.606,"150": 61.0086,"175": 52.8993,"200": 46.4862,"225": 40.6608,"250": 34.2686,"275": 27.5201,"300": 26.8289,"325": 24.0207,"350": 22.0924,"375": 21.1282,"400": 20.08,"425": 21.5262,"450": 18.6126,"475": 16.7262,"500": 13.7081,"525": 12.8696,"550": 10.9414,"575": 10.5431,"600": 9.8514,"625": 9.0549,"650": 7.7554,"675": 8.3212,"700": 7.6296,"725": 7.7553,"750": 7.9231,"775": 7.0008,"800": 7.3571,"825": 6.8541,"850": 6.2672,"875": 5.4079,"900": 5.5756,"925": 5.0935,"950": 5.1564,"975": 4.6114,"1000": 4.4857,"1025": 4.9258,"1050": 3.9826,"1075": 3.7101,"1100": 3.249,"1125": 3.1861,"1150": 2.7878,"1175": 1.9704,"1200": 1.5511,"1225": 1.7188,"1250": 1.4463,"1275": 1.3206,"1300": 1.5302,"1325": 1.0062,"1350": 0.6708,"1375": 0.5031,"1400": 0.4821,"1425": 0.1258,"1450": 0.0419}}}