{"type":"Feature","properties":{"GID_3":"PAN.4.5.4_1","GID_0":"PAN","country":"Panama","GID_1":"PAN.4_1","province":"Colón","NL_NAME_1":"NA","GID_2":"PAN.4.5_1","county":"Portobelo","NL_NAME_2":"NA","city":"MaríaChiquita","VARNAME_3":"NA","NL_NAME_3":"NA","TYPE_3":"Corregimiento","ENGTYPE_3":"Municipality","CC_3":"NA","HASC_3":"NA","name":"María_Chiquita.city"},
"geometry":{"type": "MultiPolygon","coordinates": [[[[-79.6747,9.3672,240.3651],[-79.6647,9.367,186.2897],[-79.6582,9.3784,280.655],[-79.657,9.3954,572.2704],[-79.6583,9.4249,577.7253],[-79.6563,9.4318,489.81],[-79.6813,9.438,413.8411],[-79.6934,9.4301,275.2638],[-79.6982,9.4203,145.5318],[-79.7103,9.4148,175.5992],[-79.7268,9.4242,20.1157],[-79.7324,9.4292,36.3693],[-79.7371,9.439,36.5056],[-79.7417,9.4429,64.9784],[-79.7421,9.4507,6.9707],[-79.744,9.4471,25.4986],[-79.7526,9.4432,4.7011],[-79.7699,9.4451,0.0],[-79.7726,9.4415,1.7897],[-79.7743,9.4432,0.2952],[-79.7776,9.4426,0.6995],[-79.7796,9.4401,2.9209],[-79.7846,9.4418,3.2811],[-79.7877,9.439,5.4995],[-79.7854,9.4354,15.9166],[-79.7893,9.4343,5.1906],[-79.7907,9.4365,0.9785],[-79.7921,9.4354,0.0],[-79.7907,9.4287,7.2166],[-79.7935,9.431,0.0],[-79.7965,9.4304,0.0],[-79.7971,9.4268,0.0],[-79.7951,9.4262,7.7858],[-79.8012,9.4229,0.6694],[-79.8012,9.4188,1.2414],[-79.8035,9.4185,6.4906],[-79.8046,9.4165,6.5339],[-79.8087,9.4174,0.0],[-79.8101,9.4162,2.2895],[-79.807,9.4115,14.5697],[-79.7971,9.4095,26.3043],[-79.7854,9.3963,36.7549],[-79.7676,9.3908,30.9772],[-79.7623,9.3837,92.2756],[-79.7557,9.3827,51.6196],[-79.7463,9.3897,145.8505],[-79.7337,9.3889,129.0502],[-79.7279,9.386,171.1676],[-79.7159,9.3719,351.3761],[-79.711,9.3689,402.7836],[-79.6747,9.3672,240.3651]]],
[[[-79.8012,9.4321,0.0],[-79.8049,9.431,0.0],[-79.806,9.4282,0.0],[-79.8012,9.4287,0.0],[-79.8012,9.4321,0.0]]],
[[[-79.7974,9.4376,3.2797],[-79.8004,9.4365,0.0],[-79.8004,9.4332,0.0],[-79.7971,9.4354,2.4433],[-79.7974,9.4376,3.2797]]]]}}