{"type":"Feature","properties":{"GID_3":"PAN.1.2.1_1","GID_0":"PAN","country":"Panama","GID_1":"PAN.1_1","province":"BocasdelToro","NL_NAME_1":"NA","GID_2":"PAN.1.2_1","county":"Changuinola","NL_NAME_2":"NA","city":"Almirante","VARNAME_3":"NA","NL_NAME_3":"NA","TYPE_3":"Corregimiento","ENGTYPE_3":"Municipality","CC_3":"NA","HASC_3":"NA","name":"Almirante.city"},
"geometry":{"type": "MultiPolygon","coordinates": [[[[-82.3238,9.2206,4.9639],[-82.324,9.2218,4.9639],[-82.3262,9.221,0.0],[-82.3246,9.2201,3.1852],[-82.3254,9.216,0.0],[-82.321,9.2124,0.0],[-82.3221,9.2182,0.0],[-82.3238,9.2206,4.9639]]],
[[[-82.3457,9.2432,3.9209],[-82.3509,9.2432,0.0],[-82.3521,9.2415,0.0],[-82.3512,9.2382,0.0],[-82.3401,9.2321,1.4281],[-82.3326,9.2326,2.6686],[-82.3265,9.224,2.2107],[-82.3249,9.2237,0.0],[-82.3279,9.2304,1.5424],[-82.3287,9.2377,0.0],[-82.339,9.239,6.647],[-82.3426,9.2429,0.0],[-82.3457,9.2432,3.9209]]],
[[[-82.3451,9.2926,0.0],[-82.3465,9.2935,0.0],[-82.3437,9.2901,0.0],[-82.3443,9.2919,0.0],[-82.3451,9.2926,0.0]]],
[[[-82.2972,9.1792,160.2101],[-82.2917,9.1808,246.2619],[-82.292,9.1873,135.4205],[-82.2943,9.1913,73.8183],[-82.286,9.1974,10.4848],[-82.296,9.2013,0.0],[-82.3043,9.2013,3.7603],[-82.3118,9.2054,2.9567],[-82.311,9.1996,0.0],[-82.3084,9.1985,11.2819],[-82.3068,9.1926,3.7259],[-82.3093,9.1932,0.0],[-82.3087,9.1901,8.0854],[-82.3124,9.1885,7.9887],[-82.3146,9.1896,5.1037],[-82.316,9.1929,3.9081],[-82.3176,9.1926,0.0],[-82.3179,9.1899,19.8775],[-82.3201,9.1896,11.3575],[-82.3221,9.1919,0.7237],[-82.3254,9.1913,12.2383],[-82.3318,9.194,6.2716],[-82.3337,9.1968,1.7593],[-82.3373,9.1957,0.0],[-82.3385,9.1974,0.4401],[-82.336,9.1982,0.4281],[-82.336,9.2004,0.8552],[-82.3393,9.1977,0.4401],[-82.3418,9.201,6.0783],[-82.341,9.2035,1.066],[-82.3435,9.2018,6.0783],[-82.3493,9.2065,0.5208],[-82.3554,9.2068,7.6034],[-82.3543,9.2087,1.6159],[-82.356,9.2121,0.2904],[-82.3532,9.2118,0.0],[-82.3515,9.2154,0.0],[-82.3554,9.2146,0.1168],[-82.3554,9.2163,0.0],[-82.3579,9.2151,1.5694],[-82.3582,9.2177,4.6437],[-82.3601,9.219,0.0],[-82.3618,9.2171,1.7861],[-82.364,9.2207,0.0],[-82.3629,9.2265,0.7009],[-82.3682,9.229,1.3502],[-82.3668,9.2329,1.627],[-82.3682,9.236,0.0],[-82.366,9.2382,0.0],[-82.3682,9.2399,0.0],[-82.368,9.2437,0.5616],[-82.3701,9.2424,1.0957],[-82.3707,9.2437,3.5845],[-82.3682,9.2449,6.2126],[-82.3651,9.2437,0.0],[-82.3613,9.2457,1.1065],[-82.3621,9.2488,0.0],[-82.3649,9.2485,31.7018],[-82.3688,9.2507,0.0],[-82.3718,9.2496,0.9965],[-82.3743,9.2541,0.0],[-82.3801,9.254,0.0],[-82.3807,9.2576,0.0],[-82.3865,9.2574,0.0],[-82.3913,9.2638,0.0],[-82.3974,9.2646,2.481],[-82.3946,9.2671,0.0],[-82.3971,9.2696,0.0],[-82.3976,9.2729,0.0],[-82.3926,9.2732,0.0],[-82.3976,9.279,0.7176],[-82.3976,9.2879,0.0],[-82.3996,9.2887,0.4382],[-82.3946,9.289,0.9335],[-82.3896,9.2868,0.0],[-82.3885,9.2885,0.0],[-82.3857,9.2885,0.0],[-82.3815,9.2832,0.0],[-82.3793,9.2849,0.3768],[-82.3749,9.2813,0.0],[-82.371,9.2832,0.246],[-82.366,9.2796,0.0],[-82.3618,9.2838,10.5868],[-82.3585,9.2826,0.3808],[-82.3571,9.2854,0.0],[-82.357,9.2937,0.0],[-82.351,9.2943,1.8439],[-82.349,9.2907,0.8855],[-82.3501,9.2951,1.8439],[-82.3443,9.2957,1.0883],[-82.3465,9.3001,0.1024],[-82.3457,9.3024,0.0],[-82.351,9.3105,0.0],[-82.3785,9.3274,0.0],[-82.386,9.3353,2.1463],[-82.3916,9.3367,13.2967],[-82.404,9.3445,16.4296],[-82.4202,9.3481,16.4187],[-82.4298,9.3417,43.6132],[-82.4464,9.3503,36.8566],[-82.4504,9.3542,36.9137],[-82.4607,9.3567,44.2125],[-82.4681,9.3561,65.8985],[-82.4694,9.3427,158.1231],[-82.4694,9.2933,483.1367],[-82.4683,9.2899,418.5162],[-82.4649,9.2857,385.6774],[-82.4602,9.2835,392.0432],[-82.4391,9.2653,222.6969],[-82.4276,9.2579,83.5685],[-82.3832,9.2181,271.2699],[-82.3775,9.2033,171.0158],[-82.3604,9.1829,225.213],[-82.3555,9.1708,342.6161],[-82.3474,9.1669,435.8401],[-82.3424,9.1675,431.1646],[-82.3377,9.1635,408.3646],[-82.3307,9.1747,369.5948],[-82.3196,9.1722,315.2088],[-82.3134,9.1749,209.4441],[-82.3074,9.1745,222.9435],[-82.2972,9.1792,160.2101]]],
[[[-82.3524,9.2746,0.0],[-82.3543,9.2726,0.0],[-82.3532,9.2715,0.0],[-82.3524,9.2721,0.5366],[-82.3524,9.2746,0.0]]],
[[[-82.3771,9.2799,0.6588],[-82.3768,9.281,0.4817],[-82.3782,9.2807,0.4817],[-82.3757,9.2749,0.0],[-82.3735,9.2743,0.0],[-82.3735,9.2765,0.0],[-82.3771,9.2799,0.6588]]],
[[[-82.3515,9.2918,0.0],[-82.3524,9.2929,0.0],[-82.3543,9.2924,0.0],[-82.3524,9.2913,0.0],[-82.3515,9.2918,0.0]]]]}}