{"type": "Feature","bbox": [-79.8659,9.3193,-79.8109,9.404],"geometry": {"type": "MultiPolygon","coordinates": [[[[-79.8129,9.3591,23.840699999999998],[-79.8109,9.3598,13.9061],[-79.822,9.3764,11.475],[-79.826,9.3769,13.9131],[-79.8252,9.388,12.6973],[-79.827,9.3899,16.9297],[-79.8296,9.3874,1.532],[-79.8329,9.3868,0.0],[-79.8299,9.3835,0.0],[-79.8304,9.3735,10.8668],[-79.8329,9.3737,9.7532],[-79.8346,9.3768,1.9629],[-79.8374,9.3735,8.2783],[-79.8385,9.3776,0.0],[-79.8343,9.3776,2.074],[-79.8337,9.3807,1.8116],[-79.8376,9.3865,1.9912],[-79.8357,9.3899,0.0],[-79.8399,9.3904,5.4606],[-79.8404,9.3921,3.9416],[-79.8343,9.3921,3.5975],[-79.8337,9.399,1.8707],[-79.8354,9.4012,0.0],[-79.8357,9.399,0.0],[-79.8401,9.3987,2.8205],[-79.8421,9.404,0.0],[-79.8476,9.4015,5.7439],[-79.8476,9.3946,2.8734],[-79.8454,9.3913,0.3573],[-79.8429,9.391,4.2553],[-79.8435,9.3869,0.0],[-79.8421,9.3868,0.0],[-79.8401,9.381,0.663],[-79.8432,9.3829,0.3615],[-79.8424,9.3787,6.8492],[-79.8443,9.379,5.1997],[-79.8435,9.3866,0.0],[-79.8449,9.3893,0.0],[-79.8504,9.3813,11.2402],[-79.851,9.386,6.562],[-79.8479,9.3874,0.6516],[-79.8532,9.3901,5.4815],[-79.8513,9.3848,9.8543],[-79.8554,9.3758,26.498],[-79.857,9.3536,19.6224],[-79.8659,9.3447,12.9713],[-79.8578,9.3314,38.2921],[-79.8551,9.3193,25.0],[-79.8485,9.3226,25.0],[-79.8479,9.3301,25.0],[-79.8465,9.3279,28.8844],[-79.8451,9.3282,25.0],[-79.8449,9.3304,25.0],[-79.8437,9.3288,25.0],[-79.8399,9.3293,34.9538],[-79.8457,9.3251,25.0],[-79.8451,9.3212,27.4619],[-79.8421,9.321,31.2432],[-79.8399,9.324,60.5921],[-79.8371,9.3232,25.0],[-79.8351,9.3262,25.0],[-79.8362,9.3307,30.0534],[-79.8346,9.3315,25.0],[-79.8324,9.3393,44.774],[-79.826,9.3435,26.7544],[-79.8249,9.3429,32.9228],[-79.8271,9.3399,25.0],[-79.8228,9.3424,25.0],[-79.8203,9.3499,71.1628],[-79.8149,9.3583,10.7525],[-79.8129,9.3591,23.840699999999998]]],
[[[-79.8512,9.3965,1.7528],[-79.854,9.3957,0.0],[-79.8521,9.3907,0.0],[-79.849,9.3885,0.6516],[-79.8465,9.3893,0.4589],[-79.8476,9.3943,2.8734],[-79.8512,9.3965,1.7528]]]]}
,"properties": {"GID_3": "PAN.4.2.4_1","GID_0": "PAN","country": "Panama","GID_1": "PAN.4_1","province": "Colón","NL_NAME_1": "NA","GID_2": "PAN.4.2_1","county": "Colón","NL_NAME_2": "NA","city": "Cativá","VARNAME_3": "NA","NL_NAME_3": "NA","TYPE_3": "Corregimiento","ENGTYPE_3": "Municipality","CC_3": "NA","HASC_3": "NA","name": "Cativá.city","area_km2": 27.73992,"hist_schema_id": "Elevation0-9000","hist_area_km2": {"0": 8.30479,"25": 11.08769,"50": 5.14652,"75": 2.7825,"100": 0.37657,"125": 0.04184}}}