{"type": "Feature","bbox": [-82.8185,8.5723,-82.6936,8.7662],"geometry": {"type": "MultiPolygon","coordinates": [[[[-82.7406,8.5776,414.3619],[-82.7409,8.5847,413.0194],[-82.744,8.5894,394.799],[-82.7447,8.5951,450.4761],[-82.7415,8.6097,506.9341],[-82.7333,8.6228,570.1176],[-82.7268,8.6471,714.9659],[-82.7291,8.6636,774.7406],[-82.7274,8.6697,812.959],[-82.7225,8.675,746.1723],[-82.7257,8.6949,949.5479],[-82.7214,8.7018,1008.4763],[-82.7215,8.7092,977.7967],[-82.7189,8.7122,933.7421],[-82.7152,8.713,1038.785],[-82.7131,8.7178,1019.7454],[-82.7058,8.7228,1067.7805],[-82.6947,8.7431,1180.964],[-82.6936,8.7466,1213.1169],[-82.6954,8.7662,1344.7825],[-82.7024,8.7621,1117.8987],[-82.7181,8.7566,1008.9357],[-82.7239,8.7609,947.3726],[-82.7304,8.7623,906.2436],[-82.7424,8.75,825.0988],[-82.762,8.7444,735.324],[-82.7614,8.7415,771.3267],[-82.7638,8.7386,725.4385],[-82.7696,8.7348,778.3123],[-82.7768,8.7331,714.2681],[-82.7877,8.7242,711.6217],[-82.7903,8.7148,684.3217],[-82.7986,8.7091,707.3588],[-82.8048,8.6958,545.6488],[-82.8077,8.6949,513.8333],[-82.8077,8.6912,568.5926],[-82.8133,8.688,522.8938],[-82.8178,8.6791,542.5338],[-82.817,8.6723,540.5314],[-82.8185,8.6689,404.2415],[-82.8169,8.6677,430.6066],[-82.8134,8.6538,345.1882],[-82.8111,8.6482,359.8195],[-82.798,8.6286,296.3091],[-82.7869,8.6008,230.9937],[-82.7854,8.5881,280.9769],[-82.7895,8.5723,291.95],[-82.7837,8.5768,313.0648],[-82.7772,8.5849,358.3436],[-82.7682,8.5882,444.2461],[-82.7644,8.592,483.1646],[-82.7578,8.5889,602.9816],[-82.755,8.5838,457.2188],[-82.7406,8.5776,414.3619]]]]}
,"properties": {"GID_3": "PAN.2.10.6_1","GID_0": "PAN","country": "Panama","GID_1": "PAN.2_1","province": "Chiriquí","NL_NAME_1": "NA","GID_2": "PAN.2.10_1","county": "Renacimiento","NL_NAME_2": "NA","city": "SantaCruz","VARNAME_3": "NA","NL_NAME_3": "NA","TYPE_3": "Corregimiento","ENGTYPE_3": "Municipality","CC_3": "NA","HASC_3": "NA","name": "Santa_Cruz.city","area_km2": 151.6846,"hist_schema_id": "Elevation0-9000","hist_area_km2": {"200": 0.0419,"225": 0.1677,"250": 0.566,"275": 0.4402,"300": 1.0063,"325": 1.4674,"350": 1.5722,"375": 1.2368,"400": 1.4674,"425": 2.6204,"450": 3.6475,"475": 4.5908,"500": 5.6179,"525": 6.4143,"550": 6.8125,"575": 7.8186,"600": 7.1477,"625": 7.0008,"650": 7.6924,"675": 7.9019,"700": 7.4406,"725": 7.8178,"750": 7.5662,"775": 5.8264,"800": 5.6587,"825": 6.2664,"850": 6.0777,"875": 5.7213,"900": 5.1345,"925": 4.38,"950": 3.353,"975": 3.3111,"1000": 2.4309,"1025": 1.1735,"1050": 0.922,"1075": 0.7963,"1100": 0.6077,"1125": 0.5448,"1150": 0.3982,"1175": 0.2305,"1200": 0.2305,"1225": 0.2515,"1250": 0.1886,"1275": 0.0419,"1300": 0.0629,"1325": 0.021}}}