{"type":"Feature","properties":{"GID_3":"PAN.2.12.3_1","GID_0":"PAN","country":"Panama","GID_1":"PAN.2_1","province":"Chiriquí","NL_NAME_1":"NA","GID_2":"PAN.2.12_1","county":"SanLorenzo","NL_NAME_2":"NA","city":"Horconcitos","VARNAME_3":"NA","NL_NAME_3":"NA","TYPE_3":"Corregimiento","ENGTYPE_3":"Municipality","CC_3":"NA","HASC_3":"NA","name":"Horconcitos.city"},
"geometry":{"type": "MultiPolygon","coordinates": [[[[-82.1988,8.2663,1.2319],[-82.1971,8.2668,0.0],[-82.1974,8.269,0.0],[-82.2012,8.2737,9.1191],[-82.2032,8.274,1.9836],[-82.2065,8.2665,3.4974],[-82.211,8.264,0.0],[-82.214,8.2593,8.7882],[-82.2185,8.2471,0.0],[-82.2135,8.2393,8.6998],[-82.2112,8.239,17.2366],[-82.2114,8.2448,4.8478],[-82.2077,8.2461,0.0],[-82.2063,8.249,6.0564],[-82.2078,8.2541,4.1392],[-82.2069,8.2567,4.6083],[-82.2026,8.2599,3.8572],[-82.2025,8.2676,3.1932],[-82.1988,8.2663,1.2319]]],
[[[-82.1434,8.2499,2.2035],[-82.1393,8.2499,0.9729],[-82.139,8.2521,0.0],[-82.1432,8.2574,2.6151],[-82.1396,8.2632,0.0],[-82.1393,8.2615,1.0672],[-82.1421,8.2582,2.6151],[-82.1374,8.2501,2.4381],[-82.1371,8.2393,1.8192],[-82.1279,8.2385,0.0],[-82.1215,8.2318,0.0],[-82.1154,8.2368,0.4346],[-82.1145,8.2446,2.8748],[-82.1208,8.259,4.5094],[-82.1129,8.2697,7.8219],[-82.1102,8.2793,29.4372],[-82.1139,8.2856,33.9116],[-82.1226,8.2918,30.2009],[-82.1306,8.302,34.7287],[-82.1374,8.3048,31.9668],[-82.1398,8.3102,45.9801],[-82.1373,8.3227,60.6919],[-82.127,8.3288,36.5726],[-82.1227,8.338,42.1434],[-82.1303,8.3444,13.5872],[-82.1448,8.3456,2.8754],[-82.1502,8.3488,7.4523],[-82.1521,8.3473,12.3795],[-82.1516,8.3427,5.149],[-82.1538,8.3404,4.5299],[-82.1581,8.3403,0.0],[-82.1623,8.3432,5.1713],[-82.1665,8.3415,9.2248],[-82.1729,8.3422,8.6925],[-82.1721,8.3393,1.1242],[-82.1746,8.3374,0.0],[-82.1715,8.3365,0.0],[-82.1701,8.3396,0.4113],[-82.1679,8.3399,0.9175],[-82.1499,8.3388,3.7444],[-82.1457,8.3435,6.0664],[-82.1474,8.3396,0.0],[-82.1504,8.3376,0.0],[-82.1649,8.3357,0.0],[-82.1637,8.3324,4.9021],[-82.1779,8.3354,31.5826],[-82.1818,8.3385,3.3337],[-82.2018,8.3413,0.0],[-82.2115,8.3407,0.0],[-82.2151,8.3349,6.8028],[-82.2121,8.3279,0.0],[-82.2071,8.3265,0.0],[-82.2043,8.3285,0.8108],[-82.206,8.3262,0.0],[-82.2054,8.324,3.9913],[-82.2093,8.3193,0.0],[-82.2076,8.3107,9.2177],[-82.2027,8.3099,0.0],[-82.1993,8.3157,0.0],[-82.1954,8.3188,8.4927],[-82.1879,8.3201,0.0],[-82.1837,8.3174,0.9142],[-82.1904,8.3182,4.1218],[-82.1924,8.3168,0.0],[-82.1904,8.3129,3.1695],[-82.1912,8.3099,8.9368],[-82.1924,8.314,1.1732],[-82.1951,8.3154,3.7015],[-82.1999,8.3085,0.0],[-82.2032,8.3079,0.0],[-82.2076,8.3088,0.0],[-82.214,8.3168,0.0],[-82.2177,8.319,0.0],[-82.2185,8.316,0.0],[-82.2168,8.309,0.0],[-82.2196,8.3065,0.0],[-82.2199,8.304,0.0],[-82.2162,8.3018,0.0],[-82.2151,8.2987,9.6318],[-82.2179,8.2907,0.0],[-82.2237,8.2874,0.0],[-82.2232,8.2804,0.0],[-82.2199,8.2726,1.0961],[-82.2112,8.2679,0.0],[-82.2085,8.2685,0.0],[-82.2063,8.2715,0.0],[-82.206,8.2765,0.0],[-82.2115,8.2821,3.3172],[-82.206,8.2878,0.0],[-82.206,8.2978,95.3132],[-82.1998,8.2993,12.4533],[-82.1784,8.2978,22.2158],[-82.1739,8.2918,15.8536],[-82.1771,8.28,12.7315],[-82.1679,8.2704,11.3339],[-82.1608,8.2679,7.7462],[-82.153,8.2719,3.6981],[-82.1469,8.2703,3.0924],[-82.1444,8.2677,5.3106],[-82.1433,8.2627,1.9395],[-82.1459,8.2544,2.0775],[-82.1434,8.2499,2.2035]]]]}}