{"type": "Feature","bbox": [-80.0806,8.599,-79.957,8.6962],"geometry": {"type": "MultiPolygon","coordinates": [[[[-80.0806,8.6362,1032.2505],[-80.0657,8.6394,755.7482],[-80.0558,8.633,792.2093],[-80.0415,8.6345,578.8568],[-80.0293,8.6324,440.1554],[-80.022,8.625,268.9893],[-80.0156,8.6094,228.8381],[-80.0007,8.599,222.0942],[-79.9968,8.603,222.6911],[-79.9904,8.6029,391.8161],[-79.9813,8.6074,155.7243],[-79.9684,8.6101,65.7889],[-79.9629,8.6201,82.3405],[-79.962,8.6306,87.5693],[-79.957,8.6443,105.4099],[-79.9586,8.6486,116.1715],[-79.962,8.6503,121.8592],[-79.9744,8.6465,177.9256],[-79.9792,8.6472,173.3786],[-79.9823,8.65,149.3551],[-79.9806,8.6607,220.3742],[-79.9848,8.6684,321.1837],[-79.9857,8.6746,366.4596],[-79.9804,8.6912,585.1514],[-79.9935,8.6962,694.1717],[-80.0088,8.6961,498.804],[-80.0246,8.6924,678.4813],[-80.041,8.6827,696.8115],[-80.055,8.665,1037.1703],[-80.0591,8.6563,845.9814],[-80.0806,8.6362,1032.2505]]]]}
,"properties": {"GID_3": "PAN.11.3.11_1","GID_0": "PAN","country": "Panama","GID_1": "PAN.11_1","province": "PanamáOeste","NL_NAME_1": "NA","GID_2": "PAN.11.3_1","county": "Chame","NL_NAME_2": "NA","city": "Sorá","VARNAME_3": "NA","NL_NAME_3": "NA","TYPE_3": "Corregimiento","ENGTYPE_3": "Municipality","CC_3": "NA","HASC_3": "NA","name": "Sorá.city","area_km2": 76.42408,"hist_schema_id": "Elevation0-9000","hist_area_km2": {"75": 0.9014,"100": 1.65601,"125": 1.5512,"150": 1.82369,"175": 2.28484,"200": 3.14425,"225": 3.08136,"250": 2.80883,"275": 3.56342,"300": 3.37477,"325": 3.20706,"350": 3.12321,"375": 4.21318,"400": 3.50044,"425": 3.6891,"450": 3.31179,"475": 3.5214,"500": 3.56333,"525": 3.29087,"550": 2.38954,"575": 2.20087,"600": 1.53011,"625": 1.80258,"650": 1.65587,"675": 1.29955,"700": 0.85938,"725": 1.04803,"750": 1.00612,"775": 0.9642,"800": 0.83843,"825": 0.71266,"850": 0.71267,"875": 0.79651,"900": 0.75459,"925": 0.4821,"950": 0.62882,"975": 0.56594,"1000": 0.23057,"1025": 0.25153,"1050": 0.08385}}}