{"type":"Feature","properties":{"GID_3":"PAN.13.10.3_1","GID_0":"PAN","country":"Panama","GID_1":"PAN.13_1","province":"Veraguas","NL_NAME_1":"NA","GID_2":"PAN.13.10_1","county":"Santiago","NL_NAME_2":"NA","city":"LaPeña","VARNAME_3":"NA","NL_NAME_3":"NA","TYPE_3":"Corregimiento","ENGTYPE_3":"Municipality","CC_3":"NA","HASC_3":"NA","name":"La_Peña.city"},
"geometry":{"type": "MultiPolygon","coordinates": [[[[-81.1362,8.2732,101.5806],[-81.124,8.2527,116.8896],[-81.1218,8.2455,112.2352],[-81.1108,8.2298,89.0537],[-81.096,8.2227,92.1138],[-81.0856,8.221,98.2741],[-81.0803,8.2185,111.3412],[-81.0657,8.2046,87.7572],[-81.0556,8.19,89.5073],[-81.045,8.1946,86.726],[-81.0408,8.1942,96.5164],[-81.0375,8.1917,124.1139],[-81.036,8.1878,124.2388],[-81.0373,8.1844,103.0085],[-81.0463,8.1807,77.204],[-81.0502,8.1761,73.7225],[-81.0495,8.164,72.9959],[-81.0442,8.1573,73.1171],[-81.0307,8.1556,98.1474],[-81.0057,8.142,117.7369],[-80.9984,8.1444,101.9163],[-80.9863,8.1529,86.8477],[-80.9532,8.1486,74.9944],[-80.9739,8.1642,124.5918],[-80.9835,8.1753,88.6783],[-80.9796,8.1968,86.3165],[-80.9728,8.209,73.0877],[-80.9701,8.2174,61.7237],[-81.055,8.2544,99.7832],[-81.0582,8.2583,186.8429],[-81.0608,8.2671,101.6142],[-81.0611,8.2819,134.8487],[-81.0798,8.2777,117.9212],[-81.0983,8.2698,93.1056],[-81.1122,8.2674,94.0765],[-81.1362,8.2732,101.5806]]]]}}