{"type":"Feature","properties":{"GID_2":"PAN.12.2_1","GID_0":"PAN","country":"Panama","GID_1":"PAN.12_1","province":"Panamá","NL_NAME_1":"NA","county":"Chepo","VARNAME_2":"NA","NL_NAME_2":"NA","TYPE_2":"ComarcaIndígena","ENGTYPE_2":"IndigenousTerritory","CC_2":"NA","HASC_2":"PA.PN.CO","name":"Chepo.county"},
"geometry":{"type": "MultiPolygon","coordinates": [[[[-78.1234,8.9342,110.2229],[-78.1176,8.9376,147.9728],[-78.109,8.9464,129.9025],[-78.1072,8.9632,151.3814],[-78.112799999999993,8.9778,192.6017],[-78.1074,8.9888,138.2388],[-78.0951,9.0015,120.1934],[-78.0939,9.0211,210.8558],[-78.0858,9.0296,299.5761],[-78.0721,9.0319,298.8693],[-78.0611,9.0384,178.4718],[-78.0559,9.0467,382.1927],[-78.0559,9.0495,343.3629],[-78.06,9.0566,240.6378],[-78.0562,9.0645,368.1019],[-78.0532,9.0847,462.0938],[-78.05,9.0886,450.1034],[-78.0581,9.0957,618.3864],[-78.0676,9.0983,588.4861],[-78.0695,9.1003,648.9276],[-78.0678,9.1153,422.7347],[-78.0656,9.1211,288.4794],[-78.066,9.1261,432.0807],[-78.0669,9.1297,510.9965],[-78.0697,9.1323,570.5142],[-78.0787,9.1327,522.8206],[-78.082,9.1371,517.791],[-78.0856,9.1507,360.9333],[-78.0826,9.1606,351.7012],[-78.092,9.1649,624.5153],[-78.0981,9.1697,526.5258],[-78.1103,9.1689,414.9617],[-78.122,9.1728,422.698],[-78.1262,9.1799,414.6921],[-78.1365,9.1831,436.6889],[-78.149,9.1835,304.2868],[-78.1565,9.1879,476.8645],[-78.1678,9.1885,357.6271],[-78.1797,9.1933,266.159],[-78.2012,9.1927,329.6563],[-78.2171,9.1961,293.918],[-78.2228,9.1959,251.1179],[-78.2276,9.1936,238.5394],[-78.233,9.1863,256.648],[-78.2442,9.1849,329.3372],[-78.2504,9.1863,267.6766],[-78.273,9.198,394.222],[-78.2823,9.2073,378.7559],[-78.2922,9.2115,327.1499],[-78.2923,9.2137,369.8546],[-78.2875,9.2181,438.3112],[-78.2881,9.2252,355.745],[-78.2953,9.2435,349.9256],[-78.3014,9.2505,441.2747],[-78.3022,9.2617,469.6121],[-78.3049,9.2637,461.0052],[-78.3099,9.2634,370.8076],[-78.3194,9.2563,340.5478],[-78.3301,9.2557,385.8467],[-78.3382,9.2455,259.6132],[-78.3404,9.2449,333.3402],[-78.3534,9.2521,343.5177],[-78.372,9.2536,393.4731],[-78.376,9.2579,371.4695],[-78.3785,9.2683,363.7469],[-78.3839,9.2735,320.6381],[-78.3883,9.2742,337.8479],[-78.3996,9.2717,326.7177],[-78.4071,9.2662,369.1022],[-78.4146,9.2567,435.5303],[-78.4164,9.2527,472.2166],[-78.4139,9.2374,549.3593],[-78.4159,9.2328,553.1498],[-78.4258,9.2375,485.4107],[-78.4338,9.245,506.248],[-78.4382,9.2447,528.1563],[-78.4459,9.2393,546.4525],[-78.4484,9.2459,373.809],[-78.463,9.2625,483.4225],[-78.4659,9.278,301.2597],[-78.4752,9.2911,419.9213],[-78.4767,9.3,573.2913],[-78.489,9.3034,581.0088],[-78.4962,9.3078,468.3533],[-78.5008,9.3127,399.4825],[-78.504,9.3235,339.3451],[-78.5036,9.3279,369.7183],[-78.4961,9.3346,281.173],[-78.5015,9.3388,302.2047],[-78.502,9.3458,382.2137],[-78.5036,9.3475,407.9063],[-78.5119,9.3468,322.2369],[-78.5229,9.3492,272.3512],[-78.5301,9.3435,310.3128],[-78.5337,9.3365,357.339],[-78.5468,9.3271,275.1557],[-78.5586,9.328,340.6153],[-78.5719,9.323,273.9323],[-78.5893,9.3267,331.1312],[-78.5924,9.3259,311.7246],[-78.5979,9.3205,326.4154],[-78.612,9.3233,384.7975],[-78.6216,9.3198,559.7048],[-78.6306,9.3279,607.6073],[-78.6365,9.3359,497.3197],[-78.6474,9.3397,531.2377],[-78.6518,9.344,550.9676],[-78.6658,9.3496,437.9168],[-78.674,9.3647,371.6388],[-78.6857,9.3692,270.1809],[-78.6918,9.3774,267.6354],[-78.7046,9.3724,331.2521],[-78.7109,9.3754,228.1026],[-78.7149,9.3841,448.5903],[-78.7205,9.3847,303.6832],[-78.726,9.3795,379.4003],[-78.732,9.367,564.4172],[-78.7376,9.3631,557.8748],[-78.7431,9.3621,566.7502],[-78.7511,9.365,471.6372],[-78.7633,9.3663,425.874],[-78.7741,9.3717,411.4142],[-78.8162,9.3836,630.9725],[-78.8212,9.3813,467.9481],[-78.8365,9.3684,446.443],[-78.8531,9.361,377.9872],[-78.863,9.3543,449.6432],[-78.8703,9.3555,439.5662],[-78.8816,9.3684,471.1157],[-78.887,9.3693,511.5541],[-78.891,9.3678,449.9055],[-78.8968,9.3621,398.6985],[-78.9007,9.3532,346.4938],[-78.9102,9.3435,343.12],[-78.9101,9.3389,292.0783],[-78.9059,9.3302,334.8138],[-78.9078,9.3255,331.0129],[-78.9244,9.3102,411.7645],[-78.9337,9.3066,373.3232],[-78.9418,9.307,433.1606],[-78.9561,9.3131,348.2859],[-78.9623,9.314,341.2154],[-78.9891,9.3022,428.529],[-79.0089,9.2998,466.7136],[-79.0231,9.2951,412.1892],[-79.0505,9.2997,462.4782],[-79.0727,9.2988,487.8494],[-79.1004,9.3063,408.9601],[-79.102,9.3081,343.8937],[-79.1014,9.3105,263.5349],[-79.0907,9.3152,412.6301],[-79.0904,9.3178,396.4002],[-79.093,9.3224,278.6923],[-79.1059,9.3347,465.3174],[-79.1158,9.339,223.9586],[-79.1253,9.3398,221.7379],[-79.1311,9.3391,169.2973],[-79.144,9.3334,221.4386],[-79.1555,9.3318,332.9321],[-79.173,9.3386,292.4222],[-79.1765,9.3386,316.4423],[-79.193,9.3314,353.8795],[-79.2021,9.3305,418.3478],[-79.2151,9.3201,544.3445],[-79.2308,9.3135,653.515],[-79.2393,9.3077,567.2812],[-79.2465,9.311,590.6763],[-79.2712,9.3107,681.3152],[-79.2828,9.3175,799.0682],[-79.2907,9.3168,816.1455],[-79.2968,9.3122,679.4798],[-79.2932,9.291,552.7294],[-79.2869,9.2786,585.6793],[-79.2815,9.2734,554.6633],[-79.2516,9.2641,500.2256],[-79.2437,9.2586,356.638],[-79.2383,9.2568,311.053],[-79.2274,9.256,409.0289],[-79.2201,9.2639,454.9564],[-79.2158,9.264,362.1418],[-79.1951,9.2563,390.9438],[-79.1759,9.2378,284.1954],[-79.1886,9.2368,390.1831],[-79.2011,9.2312,292.9598],[-79.2073,9.2274,177.6278],[-79.2116,9.2208,129.1265],[-79.2237,9.2125,113.3915],[-79.2353,9.2077,100.9976],[-79.2407,9.2011,103.1915],[-79.2434,9.191,88.9024],[-79.2502,9.1814,72.4101],[-79.2529,9.1749,133.3939],[-79.2532,9.1689,70.9279],[-79.2517,9.1615,52.795],[-79.2462,9.1506,51.3532],[-79.2436,9.1383,49.9151],[-79.2322,9.1282,38.1279],[-79.2273,9.1259,35.8914],[-79.2095,9.123,27.4683],[-79.1938,9.1089,18.2379],[-79.1752,9.1034,11.113],[-79.1646,9.1079,8.9603],[-79.1591,9.1078,6.3762],[-79.1514,9.1037,11.3755],[-79.1472,9.0988,8.7602],[-79.1451,9.0861,7.4852],[-79.139,9.0729,12.1795],[-79.1365,9.06,26.3266],[-79.129,9.0545,28.9935],[-79.1283,9.0518,30.6032],[-79.136,9.0452,29.1237],[-79.1367,9.0401,32.9775],[-79.1338,9.0346,30.7621],[-79.1405,9.0279,24.6619],[-79.1432,9.029,23.6109],[-79.1441,9.0325,23.7388],[-79.1394,9.0353,27.8804],[-79.1396,9.0393,31.5504],[-79.1536,9.0421,28.4665],[-79.1533,9.0293,29.7007],[-79.1583,9.0203,26.8327],[-79.1673,9.0206,26.6756],[-79.1645,9.0147,11.4483],[-79.1349,9.0065,0.0],[-79.1246,8.9996,0.0],[-79.1193,8.9999,0.0],[-79.1057,8.9963,2.0569],[-79.1004,8.9879,2.6069],[-79.0876,8.9915,4.7544],[-79.0754,8.9901,2.6838],[-79.0529,8.9779,0.0],[-79.044,8.9757,12.4322],[-79.0396,8.9818,0.5],[-79.0468,8.9871,21.0615],[-79.0443,8.9868,6.4295],[-79.0385,8.9829,14.6085],[-79.0368,8.979,0.0],[-79.0312,8.9776,1.9392],[-79.0271,8.9701,0.0],[-79.0235,8.9707,4.3835],[-79.0176,8.9676,2.849],[-79.0171,8.9654,0.0],[-79.0126,8.966,3.9957],[-79.0096,8.9632,0.0],[-79.0001,8.961,2.5503],[-78.9785,8.9482,8.9255],[-78.9765,8.9446,1.8791],[-78.9704,8.9465,2.2724],[-78.9638,8.9401,0.0],[-78.9596,8.9415,2.1188],[-78.9579,8.9377,0.0],[-78.9526,8.9388,5.6501],[-78.9512,8.9363,0.9661],[-78.9421,8.9335,1.0828],[-78.9421,8.9324,1.0828],[-78.9329,8.9365,1.024],[-78.9329,8.9307,0.0],[-78.9287,8.926,0.0],[-78.9262,8.9285,0.7916],[-78.9154,8.9279,8.8398],[-78.9168,8.9249,1.0985],[-78.9143,8.9237,0.0],[-78.9135,8.9251,3.8577],[-78.9107,8.9251,12.0599],[-78.9074,8.9196,0.0],[-78.9079,8.9171,6.8995],[-78.9107,8.916,5.8033],[-78.9107,8.9135,7.0058],[-78.9088,8.912,5.1137],[-78.9006,8.9143,8.5966],[-78.9002,8.9201,7.6682],[-78.8976,8.9269,11.6264],[-78.8859,8.9407,61.3812],[-78.8677,8.9417,164.2532],[-78.8365,8.9476,113.3367],[-78.8288,8.9517,222.213],[-78.8194,8.9604,155.7179],[-78.8116,8.9637,154.6384],[-78.8007,8.9759,206.515],[-78.7936,8.9777,252.0542],[-78.7917,8.9767,284.0035],[-78.7869,8.9658,325.6673],[-78.7807,8.9573,527.4761],[-78.7656,8.9265,357.1183],[-78.7633,8.9177,329.7848],[-78.7599,8.915,242.3007],[-78.7405,8.9104,90.1426],[-78.7352,8.9146,73.5769],[-78.7263,8.9154,101.1733],[-78.7212,8.9183,174.0876],[-78.6976,8.9126,184.1341],[-78.6763,8.9202,194.5768],[-78.6673,8.9209,255.1366],[-78.6572,8.9265,610.8134],[-78.6512,8.925,696.0935],[-78.6451,8.9184,366.1806],[-78.6411,8.917,440.9078],[-78.6368,8.9179,680.7421],[-78.6201,8.9271,829.7478],[-78.6099,8.926,440.7713],[-78.6102,8.9135,370.6128],[-78.6054,8.9051,341.2481],[-78.5897,8.8988,229.2527],[-78.5845,8.889,267.8732],[-78.5805,8.8863,302.3693],[-78.5654,8.8816,678.3074],[-78.5603,8.8779,679.4028],[-78.5533,8.8549,558.3486],[-78.5536,8.8299,481.0688],[-78.5497,8.8251,501.8024],[-78.5415,8.8232,504.3306],[-78.5409,8.8273,470.662],[-78.5383,8.8269,537.7151],[-78.5353,8.8235,552.2298],[-78.5263,8.8188,366.108],[-78.5198,8.8177,326.6746],[-78.5151,8.8151,331.6548],[-78.5089,8.8193,280.5529],[-78.5058,8.8191,305.3643],[-78.4947,8.81,446.4453],[-78.4828,8.8049,818.4673],[-78.4679,8.8152,1016.3873],[-78.462,8.8217,973.3676],[-78.4529,8.8263,697.6548],[-78.4401,8.8283,483.5996],[-78.43,8.8269,367.2939],[-78.404,8.8376,204.5247],[-78.3927,8.8374,144.0083],[-78.3818,8.8339,100.4536],[-78.3618,8.8321,332.2511],[-78.3537,8.8285,401.2626],[-78.3483,8.8228,440.9955],[-78.3492,8.8075,657.865],[-78.347,8.8006,568.7996],[-78.3434,8.7964,618.5797],[-78.3369,8.7953,608.0127],[-78.3317,8.7959,614.5186],[-78.313,8.8042,593.126],[-78.3033,8.8146,198.3323],[-78.3018,8.8187,128.013],[-78.3051,8.825,104.4931],[-78.3049,8.8317,142.5332],[-78.2934,8.8478,195.7562],[-78.2874,8.849,146.1559],[-78.275,8.844,119.8028],[-78.2681,8.8467,97.8497],[-78.2632,8.8508,99.4636],[-78.2538,8.8648,119.2303],[-78.2401,8.8761,111.7481],[-78.2345,8.8763,115.261],[-78.2297,8.8719,111.7246],[-78.2215,8.877,123.3889],[-78.2078,8.877,119.4631],[-78.203,8.8747,117.0936],[-78.1933,8.8656,125.4789],[-78.1825,8.8604,117.1944],[-78.1752,8.861,120.855],[-78.1687,8.8645,114.0619],[-78.1636,8.8704,120.057],[-78.1665,8.8838,117.2815],[-78.16,8.8916,103.0691],[-78.157,8.9008,101.0945],[-78.151,8.9098,89.005],[-78.1537,8.9197,88.1671],[-78.1532,8.9248,90.2395],[-78.1405,8.9305,111.415],[-78.1234,8.9342,110.2229]],
[[-78.8546,9.1918,58.1175],[-78.8526,9.1935,58.7884],[-78.8512,9.191,59.068],[-78.8518,9.1932,58.7884],[-78.8504,9.1929,65.4361],[-78.8501,9.1946,82.6488],[-78.8437,9.1924,79.6546],[-78.8476,9.1907,61.0188],[-78.8451,9.1812,55.5],[-78.844,9.1815,55.5],[-78.8451,9.179,69.2809],[-78.8437,9.1768,55.5],[-78.8388,9.1838,84.5294],[-78.8329,9.1838,55.5],[-78.8335,9.1874,101.9967],[-78.8296,9.1826,55.5],[-78.8293,9.1851,70.2491],[-78.8276,9.1824,55.5],[-78.8254,9.1835,55.5],[-78.8254,9.1854,80.0499],[-78.8274,9.186,85.4659],[-78.8274,9.1893,64.3149],[-78.8315,9.1915,120.077],[-78.8315,9.1929,110.8163],[-78.8299,9.1943,59.6131],[-78.829,9.1932,63.3102],[-78.8288,9.1946,65.5175],[-78.8262,9.1938,55.5],[-78.8274,9.196,85.708],[-78.8251,9.196,61.4878],[-78.8254,9.1935,75.3706],[-78.8282,9.1924,63.3102],[-78.8243,9.1893,62.2098],[-78.8249,9.1862,60.6104],[-78.8221,9.1835,69.5375],[-78.8249,9.1818,57.1827],[-78.8224,9.181,68.8462],[-78.8249,9.1804,59.0026],[-78.8246,9.1782,55.5],[-78.8199,9.1815,55.5],[-78.8193,9.1838,58.3625],[-78.8176,9.1838,70.7891],[-78.8163,9.1893,61.1991],[-78.8179,9.1926,60.2363],[-78.8154,9.1924,76.4711],[-78.8146,9.1938,72.8714],[-78.8171,9.1951,78.4801],[-78.8135,9.1957,60.3477],[-78.814,9.194,72.8714],[-78.8087,9.1918,70.4893],[-78.816,9.1915,61.0774],[-78.8154,9.1874,55.5],[-78.8132,9.1868,79.0647],[-78.816,9.1854,55.5],[-78.8129,9.1835,87.0367],[-78.8176,9.1821,55.5],[-78.8193,9.1801,55.5],[-78.8187,9.1779,55.5],[-78.821,9.1774,55.5],[-78.816,9.1774,62.2261],[-78.8146,9.179,67.5649],[-78.8124,9.1785,61.5158],[-78.8129,9.1768,55.5],[-78.8101,9.1768,55.5],[-78.809,9.181,82.7954],[-78.8071,9.1807,63.9056],[-78.8063,9.1824,76.5762],[-78.8057,9.1804,69.8336],[-78.8082,9.1793,61.9899],[-78.8085,9.1774,62.046],[-78.8071,9.1771,66.9617],[-78.8068,9.1749,55.5],[-78.8043,9.1763,66.341],[-78.8037,9.1718,62.8624],[-78.8015,9.1688,72.8593],[-78.8026,9.1657,57.6218],[-78.8074,9.1635,55.5],[-78.8063,9.1615,58.9363],[-78.8079,9.1604,55.5],[-78.8049,9.1604,55.5],[-78.8021,9.1612,55.5],[-78.8024,9.1637,60.7828],[-78.8004,9.1618,55.5],[-78.799,9.1643,65.5476],[-78.7979,9.1707,56.5172],[-78.8018,9.1732,62.1318],[-78.8029,9.1765,66.341],[-78.8001,9.1801,55.5],[-78.8007,9.1821,63.2177],[-78.7979,9.1796,57.4659],[-78.7962,9.1821,82.384],[-78.7993,9.1946,58.6746],[-78.7982,9.1974,98.2326],[-78.7946,9.1988,67.5978],[-78.7937,9.2007,55.5],[-78.7962,9.2004,94.2973],[-78.7951,9.2018,55.5],[-78.7968,9.2038,55.5],[-78.8021,9.2026,59.4642],[-78.7988,9.2054,59.2684],[-78.8085,9.206,63.1068],[-78.8087,9.2076,58.2462],[-78.8104,9.2063,63.1068],[-78.8126,9.2074,55.5],[-78.8199,9.2054,85.5552],[-78.8193,9.2071,55.5],[-78.8207,9.2076,55.5],[-78.8232,9.206,82.4133],[-78.8215,9.2074,55.5],[-78.8224,9.209,55.5],[-78.8199,9.2126,55.5],[-78.8196,9.2162,56.603],[-78.8151,9.2151,55.5],[-78.8129,9.2182,60.6563],[-78.8024,9.2179,58.5475],[-78.7999,9.2201,60.1371],[-78.7982,9.2188,60.1371],[-78.786,9.2196,57.1408],[-78.786,9.2221,55.5],[-78.7885,9.2251,68.9735],[-78.7857,9.2265,59.6968],[-78.7893,9.2293,77.5249],[-78.789,9.2313,76.2936],[-78.7882,9.2287,82.2298],[-78.7846,9.2271,81.8877],[-78.7862,9.2237,55.5],[-78.7854,9.2207,61.3828],[-78.7779,9.2204,55.5],[-78.7743,9.2218,57.0915],[-78.7724,9.2246,65.0673],[-78.7729,9.2193,57.9107],[-78.764,9.2185,55.5],[-78.7613,9.2201,55.5],[-78.7588,9.2188,58.6429],[-78.7565,9.2201,55.5],[-78.7593,9.2263,64.2173],[-78.7571,9.2332,63.6539],[-78.7579,9.2293,55.5],[-78.7546,9.2287,60.1731],[-78.754,9.2265,55.5],[-78.7526,9.2265,75.6003],[-78.7551,9.2224,55.5],[-78.7504,9.2218,55.5],[-78.749,9.2235,57.2954],[-78.7421,9.224,67.3658],[-78.7415,9.2224,61.2981],[-78.7393,9.2229,59.3516],[-78.739,9.2204,55.5],[-78.736,9.2235,58.2642],[-78.7343,9.2218,55.5],[-78.7293,9.2251,60.1048],[-78.7285,9.2243,60.1048],[-78.7299,9.2224,58.0903],[-78.7262,9.2229,57.8743],[-78.7187,9.2321,64.6306],[-78.7171,9.2287,97.4048],[-78.7196,9.2296,55.5],[-78.7232,9.2232,58.8841],[-78.7182,9.2199,55.5],[-78.7135,9.2201,66.2576],[-78.7138,9.2179,59.0822],[-78.7096,9.2171,73.2146],[-78.7104,9.2146,55.5],[-78.7049,9.2162,56.7647],[-78.7038,9.219,62.8392],[-78.7001,9.2165,56.3758],[-78.6996,9.219,79.3128],[-78.6904,9.2224,56.25],[-78.6899,9.2246,56.5],[-78.6921,9.2265,78.6775],[-78.6915,9.2313,90.25],[-78.6893,9.234,64.6479],[-78.6865,9.229,62.6904],[-78.6901,9.2271,62.4041],[-78.6871,9.2218,60.1116],[-78.6932,9.221,56.0],[-78.6937,9.219,55.5],[-78.6963,9.2185,57.1487],[-78.696,9.216,56.5946],[-78.6871,9.2149,55.5],[-78.6832,9.2165,64.0827],[-78.6757,9.2143,57.0688],[-78.6743,9.2157,56.4847],[-78.6757,9.2179,66.3065],[-78.6715,9.2196,63.389],[-78.669,9.2182,56.0],[-78.6682,9.2207,76.0071],[-78.6665,9.2204,56.0],[-78.664,9.2185,89.4559],[-78.6718,9.2176,56.0],[-78.6732,9.2149,60.2829],[-78.6724,9.2115,57.2417],[-78.6704,9.211,55.5],[-78.671,9.2132,61.0902],[-78.6699,9.2132,61.2875],[-78.666,9.2101,59.1819],[-78.6676,9.2082,59.5054],[-78.6707,9.2087,55.5],[-78.6712,9.2068,55.5],[-78.6674,9.2063,56.6793],[-78.664,9.209,68.3894],[-78.659,9.2082,56.5308],[-78.6546,9.2129,56.0],[-78.6549,9.2099,57.3946],[-78.6576,9.2074,55.5],[-78.6565,9.2026,55.5],[-78.6529,9.2013,56.0024],[-78.6521,9.2029,62.0103],[-78.6457,9.2035,67.0097],[-78.6451,9.1993,62.0884],[-78.6415,9.1993,63.5271],[-78.641,9.1968,55.5],[-78.6387,9.1982,63.1861],[-78.6393,9.1957,65.4519],[-78.6368,9.1949,59.086],[-78.6382,9.1929,59.0635],[-78.6385,9.1943,56.168],[-78.6421,9.1935,55.5],[-78.644,9.191,55.5],[-78.6426,9.189,57.2835],[-78.6332,9.1915,55.5],[-78.6326,9.1974,69.4255],[-78.6315,9.1962,69.8668],[-78.6326,9.1935,55.5],[-78.631,9.1932,56.9217],[-78.6249,9.1951,55.5],[-78.6229,9.1993,64.023],[-78.6096,9.201,65.6627],[-78.616,9.1976,65.8332],[-78.6221,9.1976,55.5],[-78.6229,9.194,57.7277],[-78.626,9.191,57.938],[-78.6318,9.191,55.5],[-78.6282,9.1879,56.7112],[-78.6235,9.1901,56.3663],[-78.6215,9.1876,56.9425],[-78.6221,9.1862,56.5618],[-78.6126,9.1882,62.2934],[-78.6115,9.184,60.2051],[-78.6071,9.1843,58.6863],[-78.6065,9.1821,55.5],[-78.6107,9.1812,76.8169],[-78.6149,9.1851,70.0011],[-78.619,9.1849,59.303],[-78.6201,9.1826,58.1551],[-78.6257,9.1838,55.5],[-78.6293,9.1826,55.5],[-78.6293,9.1846,55.5],[-78.6315,9.1846,55.5],[-78.6326,9.1821,56.8921],[-78.6365,9.1824,55.5],[-78.6363,9.1801,68.1304],[-78.6399,9.1749,55.5],[-78.636,9.1749,62.8718],[-78.6401,9.174,55.5],[-78.6424,9.171,55.5],[-78.6451,9.1701,60.2541],[-78.6446,9.1665,66.8164],[-78.6462,9.1621,59.5332],[-78.6443,9.161,61.1358],[-78.6479,9.1615,55.5],[-78.6535,9.159,58.824],[-78.6554,9.1565,61.8676],[-78.6537,9.154,61.7513],[-78.6515,9.1538,55.5],[-78.6501,9.146,55.5],[-78.6446,9.1499,55.5],[-78.6363,9.1485,62.1674],[-78.636,9.1429,60.9091],[-78.6376,9.139,62.6409],[-78.634,9.1376,59.6957],[-78.6321,9.134,55.5],[-78.6279,9.1332,57.5146],[-78.6312,9.1321,55.5],[-78.6299,9.1274,65.5638],[-78.6279,9.1279,55.5],[-78.6226,9.1415,68.7548],[-78.6196,9.1424,75.6284],[-78.6185,9.1413,82.3726],[-78.6185,9.1329,58.4004],[-78.6129,9.139,55.5],[-78.6132,9.1424,55.5],[-78.616,9.1424,73.8137],[-78.6146,9.1443,59.6743],[-78.6129,9.1435,71.9139],[-78.6115,9.146,59.3865],[-78.6062,9.1468,58.8495],[-78.6124,9.1421,71.9139],[-78.6104,9.1382,55.5],[-78.6026,9.136,55.5],[-78.5999,9.1396,55.5],[-78.5929,9.1432,55.5],[-78.5926,9.1415,55.5],[-78.5874,9.1385,55.5],[-78.5829,9.1382,60.9954],[-78.5813,9.1354,63.3627],[-78.5826,9.1293,55.5],[-78.5751,9.1318,55.5],[-78.5679,9.1304,55.5],[-78.5679,9.1365,55.5],[-78.571,9.1382,78.5467],[-78.5699,9.1407,64.7715],[-78.5735,9.144,55.5],[-78.5776,9.1432,55.5],[-78.5774,9.1457,73.8391],[-78.5765,9.144,63.0179],[-78.5713,9.1451,63.0591],[-78.5704,9.1432,55.5],[-78.5654,9.1432,75.7873],[-78.5693,9.1396,67.6894],[-78.5654,9.1346,75.5493],[-78.566,9.1299,55.5],[-78.559,9.1285,55.5],[-78.5532,9.1296,58.1869],[-78.5521,9.1282,55.5],[-78.5488,9.1315,65.0645],[-78.5499,9.1293,58.0876],[-78.5485,9.1276,57.4625],[-78.5421,9.1293,69.169],[-78.5407,9.1274,57.8916],[-78.5304,9.1268,57.412],[-78.5265,9.1249,55.5],[-78.529,9.1287,66.034],[-78.5279,9.1287,55.5],[-78.5274,9.1343,66.5164],[-78.526,9.134,62.6714],[-78.5237,9.1371,55.5],[-78.5257,9.139,66.8656],[-78.5224,9.1393,59.8147],[-78.521,9.1449,72.4553],[-78.5174,9.1454,56.0],[-78.5168,9.1479,78.0729],[-78.5146,9.1479,62.2124],[-78.5168,9.1463,60.9662],[-78.5151,9.146,71.5336],[-78.5151,9.1443,58.4309],[-78.5113,9.1463,56.7676],[-78.5074,9.1429,87.8347],[-78.5132,9.1451,58.3134],[-78.514,9.1432,60.172],[-78.519,9.1432,58.4417],[-78.5218,9.1385,62.4131],[-78.5204,9.1368,78.1064],[-78.5226,9.1371,55.5],[-78.5243,9.1349,57.7876],[-78.5237,9.1343,57.7876],[-78.5226,9.1349,57.7876],[-78.5215,9.1326,59.9192],[-78.5257,9.1321,55.5],[-78.5263,9.1296,56.5963],[-78.5207,9.1243,56.0824],[-78.5171,9.1254,55.5],[-78.5154,9.1224,59.2148],[-78.5126,9.1235,56.523],[-78.5129,9.1251,57.6177],[-78.5151,9.1249,58.8331],[-78.5149,9.1265,57.921],[-78.5118,9.1276,57.8284],[-78.5021,9.1257,58.0961],[-78.5068,9.1243,55.5],[-78.5065,9.1174,61.496],[-78.5104,9.121,55.5],[-78.5099,9.1188,58.762],[-78.5132,9.1165,58.6293],[-78.5129,9.1132,56.4872],[-78.5082,9.1154,58.1637],[-78.5099,9.1104,56.0682],[-78.5076,9.1096,61.4891],[-78.511,9.1101,55.5],[-78.5088,9.1082,55.5],[-78.5101,9.106,55.5],[-78.5054,9.106,57.5943],[-78.5035,9.1026,55.5],[-78.5018,9.1051,55.5],[-78.5049,9.1065,57.5943],[-78.5046,9.1085,56.1059],[-78.4999,9.1118,65.4669],[-78.4985,9.1099,57.4992],[-78.4932,9.1087,55.5],[-78.4901,9.1032,55.5],[-78.4968,9.1018,55.5],[-78.4954,9.1007,55.5],[-78.4962,9.0974,55.8105],[-78.4935,9.0976,57.3921],[-78.4962,9.0935,55.5],[-78.494,9.0918,56.1295],[-78.4921,9.0921,57.0352],[-78.4901,9.0974,58.1679],[-78.4865,9.0979,55.5],[-78.484,9.1015,59.8218],[-78.4801,9.1021,60.9357],[-78.4815,9.0996,55.8283],[-78.4804,9.099,57.9139],[-78.4785,9.1015,64.7159],[-78.4751,9.0974,55.5],[-78.4737,9.101,71.3379],[-78.4693,9.1007,58.0339],[-78.4674,9.1049,58.3278],[-78.4651,9.1029,57.4788],[-78.4654,9.1012,57.361],[-78.4615,9.1026,61.1266],[-78.4626,9.1004,59.0099],[-78.4579,9.0979,67.2026],[-78.4574,9.0929,57.8808],[-78.459,9.0935,57.9156],[-78.459,9.096,58.764],[-78.4626,9.0921,57.5562],[-78.4654,9.0918,57.3178],[-78.4657,9.0879,57.9885],[-78.4726,9.0904,56.2785],[-78.476,9.0896,55.5],[-78.471,9.0888,57.2463],[-78.4721,9.0826,57.0614],[-78.4696,9.0793,58.0406],[-78.4724,9.0785,57.5566],[-78.4707,9.0754,59.0728],[-78.4726,9.0746,58.2758],[-78.4751,9.0746,59.1391],[-78.4749,9.0771,57.2631],[-78.4765,9.0774,55.5],[-78.4735,9.0812,60.4231],[-78.4757,9.084,57.8506],[-78.4726,9.0849,56.7399],[-78.474,9.0868,57.1952],[-78.479,9.0863,57.245],[-78.4807,9.0879,55.625],[-78.4785,9.0846,57.927],[-78.4799,9.0832,57.774],[-78.4924,9.0849,55.5],[-78.4924,9.0818,55.5],[-78.4899,9.0793,55.5],[-78.489,9.0812,55.5],[-78.4851,9.079,59.2701],[-78.4871,9.0771,55.5],[-78.4854,9.074,59.268],[-78.489,9.0751,56.0571],[-78.4918,9.0718,61.545],[-78.4938,9.0743,56.6678],[-78.4979,9.074,55.5],[-78.4957,9.069,58.0027],[-78.4985,9.066,55.5],[-78.5026,9.0654,55.5],[-78.5046,9.0635,56.8134],[-78.5032,9.0571,60.716],[-78.4996,9.0524,65.2332],[-78.501,9.0471,57.323],[-78.504,9.046,57.6715],[-78.5096,9.0463,57.4581],[-78.5096,9.0501,58.0566],[-78.5137,9.0518,58.2702],[-78.5185,9.0479,58.4892],[-78.5221,9.0493,58.83],[-78.5201,9.0562,55.8466],[-78.5226,9.0596,57.4495],[-78.5221,9.064,56.184],[-78.5207,9.0635,55.5],[-78.5176,9.0663,58.0826],[-78.5201,9.0668,59.4502],[-78.5193,9.0718,56.7269],[-78.519,9.069,55.5],[-78.5176,9.0718,57.7936],[-78.5163,9.071,57.7936],[-78.5135,9.0626,55.5],[-78.5151,9.061,55.5],[-78.5176,9.0638,55.5],[-78.5185,9.0624,55.5],[-78.5143,9.0568,55.5],[-78.5129,9.0579,58.1857],[-78.5132,9.0529,58.115],[-78.5113,9.0535,56.4362],[-78.5107,9.0574,55.5],[-78.5124,9.0621,55.5],[-78.5107,9.0632,55.5],[-78.5113,9.069,55.5],[-78.5101,9.0701,55.5],[-78.5118,9.0729,55.5],[-78.5149,9.0724,55.5],[-78.5182,9.0746,55.5],[-78.5176,9.0771,55.5],[-78.5221,9.0751,69.8073],[-78.5226,9.0699,59.5958],[-78.5296,9.0651,64.8947],[-78.5329,9.0654,80.3191],[-78.5374,9.0685,73.2047],[-78.5393,9.0721,68.8324],[-78.5382,9.0779,55.5],[-78.5446,9.0793,55.9711],[-78.5451,9.0815,55.5],[-78.5465,9.079,58.1766],[-78.5488,9.0787,56.3606],[-78.5474,9.0779,56.3606],[-78.5479,9.0765,57.2041],[-78.5521,9.0724,55.5],[-78.556,9.074,55.5],[-78.5579,9.0737,55.5],[-78.5596,9.071,55.5],[-78.5626,9.071,58.7843],[-78.5624,9.0737,62.5615],[-78.5576,9.0765,60.086],[-78.5557,9.0821,55.5],[-78.5593,9.0829,59.0808],[-78.5626,9.0815,62.2276],[-78.5646,9.0829,55.5],[-78.561,9.0879,57.4559],[-78.5601,9.0943,55.5],[-78.5624,9.094,60.4176],[-78.5657,9.1001,66.238],[-78.5632,9.1021,69.9395],[-78.5596,9.1021,74.4394],[-78.5593,9.1035,55.5],[-78.5643,9.1054,80.1806],[-78.5679,9.1099,55.5],[-78.5699,9.1099,55.5],[-78.5718,9.1074,57.4745],[-78.5704,9.1118,67.0955],[-78.5663,9.1146,55.5],[-78.5699,9.1171,55.5],[-78.5743,9.1157,55.5],[-78.5749,9.1132,70.331],[-78.5788,9.1132,55.5],[-78.5793,9.1071,55.5],[-78.5774,9.1057,62.0757],[-78.579,9.104,55.5],[-78.5815,9.1049,56.4353],[-78.5799,9.1038,55.5],[-78.5796,9.1001,69.2771],[-78.5837,9.099,57.0831],[-78.584,9.1043,55.5],[-78.5885,9.1051,55.5],[-78.5874,9.0979,55.5],[-78.584,9.0932,69.7312],[-78.5868,9.091,55.5],[-78.5899,9.0812,59.7531],[-78.5918,9.0812,55.5],[-78.5912,9.0835,55.5],[-78.5943,9.081,55.5],[-78.596,9.0818,55.5],[-78.5951,9.086,76.8622],[-78.5912,9.091,55.5],[-78.5937,9.099,55.5],[-78.5951,9.0996,55.5],[-78.5971,9.0974,55.5],[-78.5987,9.0904,59.3888],[-78.6001,9.0904,59.3888],[-78.6012,9.0932,56.6432],[-78.5976,9.101,55.5],[-78.6043,9.0976,55.5],[-78.6012,9.1021,55.5],[-78.606,9.1035,59.6402],[-78.6079,9.1018,58.4026],[-78.6096,9.1093,58.0659],[-78.6054,9.1199,57.7178],[-78.6029,9.119,55.5],[-78.5996,9.124,56.2695],[-78.6012,9.1279,59.3957],[-78.5849,9.1313,55.5],[-78.584,9.1351,55.5],[-78.5885,9.1351,78.8236],[-78.5926,9.139,55.5],[-78.5963,9.139,55.5],[-78.6026,9.1337,91.8801],[-78.611,9.1362,60.1369],[-78.6179,9.131,66.8208],[-78.6204,9.1313,64.7456],[-78.6218,9.1351,60.1096],[-78.6229,9.1346,60.1096],[-78.626,9.1251,55.5],[-78.6237,9.1221,56.3583],[-78.6224,9.1224,58.6301],[-78.6218,9.1182,55.5],[-78.6185,9.1157,58.1939],[-78.621,9.1118,60.6188],[-78.6243,9.1101,56.3556],[-78.6218,9.1051,58.7254],[-78.6301,9.1012,58.1396],[-78.6318,9.1026,57.6365],[-78.6288,9.1057,55.5],[-78.6304,9.1115,71.7039],[-78.6285,9.1132,55.5],[-78.6276,9.1185,57.6185],[-78.6299,9.1193,58.9154],[-78.6285,9.1212,55.5],[-78.6326,9.1204,56.0023],[-78.6326,9.1238,59.6513],[-78.6276,9.1246,56.6987],[-78.6263,9.1268,55.5],[-78.6338,9.1274,55.5],[-78.6354,9.1232,58.6154],[-78.6376,9.1224,58.8172],[-78.639,9.1238,55.5],[-78.644,9.1238,55.5],[-78.6449,9.1162,59.1044],[-78.6438,9.1149,76.6913],[-78.6465,9.1138,56.8291],[-78.6474,9.109,63.0122],[-78.6462,9.1076,63.253],[-78.6493,9.1062,60.324],[-78.6501,9.1085,55.5],[-78.6532,9.0993,60.0784],[-78.6557,9.0999,58.4937],[-78.6582,9.0976,57.1023],[-78.6593,9.1001,63.0103],[-78.6576,9.1018,57.9224],[-78.6579,9.104,57.0794],[-78.6601,9.1074,59.1408],[-78.6568,9.114,60.3043],[-78.6599,9.1176,58.6297],[-78.6565,9.1174,68.5373],[-78.6551,9.121,55.5],[-78.6562,9.1226,57.8501],[-78.6543,9.1232,57.8501],[-78.656,9.1254,55.5],[-78.664,9.124,56.0016],[-78.6635,9.1268,57.0531],[-78.666,9.1268,63.794],[-78.6646,9.1293,60.7438],[-78.6663,9.1293,60.7438],[-78.6693,9.1343,59.6159],[-78.6671,9.1335,56.0794],[-78.6651,9.1349,58.3092],[-78.664,9.1313,59.3364],[-78.661,9.131,59.0773],[-78.6599,9.1279,56.7117],[-78.6546,9.1293,57.1591],[-78.6546,9.1313,56.391],[-78.6576,9.1321,60.6604],[-78.6546,9.1337,56.8677],[-78.656,9.1362,68.3458],[-78.6524,9.1335,55.5],[-78.6432,9.1304,55.5],[-78.6326,9.1296,62.2479],[-78.6349,9.136,55.5],[-78.6393,9.1343,67.8569],[-78.641,9.1379,55.5],[-78.6421,9.1368,67.6339],[-78.6407,9.1413,58.4784],[-78.6379,9.1435,55.5],[-78.6399,9.1463,55.5],[-78.6426,9.1471,55.5],[-78.6524,9.1438,61.9902],[-78.656,9.1499,55.5],[-78.6588,9.1507,55.5],[-78.6601,9.149,55.5],[-78.6607,9.1521,55.5],[-78.6637,9.1518,56.9836],[-78.6607,9.1571,84.988],[-78.659,9.1571,72.1073],[-78.659,9.1546,55.5],[-78.6579,9.1546,57.8517],[-78.6571,9.1593,58.8205],[-78.6476,9.1637,59.5332],[-78.6468,9.1679,55.5],[-78.649,9.1701,86.1287],[-78.6471,9.1696,55.5],[-78.6468,9.1735,55.5],[-78.6482,9.1749,100.7804],[-78.6468,9.1763,55.5],[-78.649,9.1771,97.3314],[-78.6468,9.1801,55.5],[-78.6438,9.1812,55.5],[-78.646,9.1815,56.2041],[-78.6454,9.1832,55.5],[-78.6501,9.1854,92.981],[-78.651,9.1874,55.5],[-78.6629,9.1835,73.566],[-78.6738,9.1846,64.4894],[-78.6746,9.1876,55.5],[-78.676,9.186,62.2482],[-78.679,9.1868,63.4575],[-78.6799,9.1849,65.7813],[-78.6801,9.1885,55.5],[-78.6893,9.1862,66.9759],[-78.6871,9.1887,61.277],[-78.6893,9.1893,59.0078],[-78.6907,9.1951,55.5],[-78.6929,9.1974,55.5],[-78.6954,9.1982,59.8352],[-78.7015,9.1954,99.339],[-78.7071,9.1988,55.5],[-78.7149,9.2001,93.1169],[-78.7196,9.204,55.5],[-78.7249,9.2032,70.7218],[-78.726,9.199,76.2766],[-78.7385,9.1999,85.2428],[-78.7446,9.2035,55.5],[-78.7451,9.2018,82.217],[-78.7465,9.2032,63.4249],[-78.7493,9.2024,55.5],[-78.749,9.1996,74.053],[-78.7515,9.2004,69.1634],[-78.754,9.1971,55.5],[-78.759,9.1965,87.3744],[-78.7604,9.1979,61.7164],[-78.7665,9.1946,78.383],[-78.7718,9.1951,55.5],[-78.7721,9.194,55.5],[-78.7679,9.1932,67.1718],[-78.7676,9.1901,85.3858],[-78.7693,9.1921,67.1718],[-78.771,9.1896,95.7679],[-78.7751,9.1893,64.6015],[-78.7749,9.1865,68.6609],[-78.7776,9.1871,55.5],[-78.7774,9.1887,55.5],[-78.7824,9.189,65.9991],[-78.7882,9.1921,55.5],[-78.794,9.1921,55.5],[-78.7907,9.1907,66.0544],[-78.7924,9.1899,55.5],[-78.7926,9.1865,55.5],[-78.7885,9.184,55.5],[-78.791,9.1843,55.5],[-78.7935,9.1796,65.262],[-78.7926,9.1774,59.1902],[-78.7949,9.1785,68.5436],[-78.7979,9.1749,55.5],[-78.7935,9.1685,55.5],[-78.7921,9.1715,71.748],[-78.7885,9.1679,69.5081],[-78.7849,9.171,75.7664],[-78.784,9.169,59.238],[-78.7865,9.169,55.5],[-78.7854,9.1649,65.924],[-78.7874,9.1649,59.875],[-78.7871,9.1637,55.5],[-78.7832,9.1637,55.5],[-78.7821,9.169,67.5729],[-78.7812,9.1646,56.0979],[-78.7679,9.1679,57.8442],[-78.7576,9.166,62.9204],[-78.7593,9.1607,55.5],[-78.7565,9.1624,67.9281],[-78.7565,9.1607,59.8461],[-78.7551,9.1607,59.8461],[-78.7546,9.1649,57.1469],[-78.7479,9.1618,55.5],[-78.7426,9.1626,68.107],[-78.7457,9.1557,56.5848],[-78.7443,9.1557,55.5],[-78.7429,9.1599,58.3028],[-78.7401,9.1585,55.5],[-78.7401,9.1604,56.6046],[-78.7357,9.1596,56.998],[-78.7415,9.1568,58.9113],[-78.7412,9.1557,58.9113],[-78.7368,9.1557,61.483],[-78.7326,9.1535,55.8486],[-78.7304,9.1546,57.6249],[-78.7282,9.1518,55.5],[-78.7229,9.1571,60.2596],[-78.7196,9.1554,59.6916],[-78.7171,9.1563,59.6201],[-78.7182,9.1543,59.6916],[-78.7229,9.1554,55.9646],[-78.7229,9.1543,55.9646],[-78.721,9.1526,58.0036],[-78.7218,9.1507,61.5589],[-78.7151,9.1485,63.9731],[-78.7232,9.1485,59.2265],[-78.7265,9.144,55.5],[-78.7271,9.1368,55.5],[-78.724,9.1349,55.5],[-78.7201,9.1371,61.8301],[-78.7162,9.1326,56.82],[-78.7138,9.1337,57.7051],[-78.7132,9.1326,57.7051],[-78.7118,9.1357,64.1329],[-78.7076,9.1365,64.7333],[-78.7063,9.134,60.297],[-78.7104,9.1351,55.5],[-78.7118,9.1321,57.7051],[-78.7085,9.1326,67.4808],[-78.7085,9.1307,57.874],[-78.7068,9.1315,63.1642],[-78.7063,9.1293,59.534],[-78.7087,9.1293,57.5396],[-78.7101,9.1313,58.4844],[-78.7157,9.1304,59.5504],[-78.7213,9.1343,56.0679],[-78.7254,9.1332,58.6705],[-78.7285,9.1354,55.5],[-78.7288,9.1335,55.5],[-78.7254,9.1324,58.6705],[-78.7249,9.1307,60.009],[-78.7204,9.1318,55.5],[-78.7171,9.1304,65.481],[-78.7224,9.1287,55.5],[-78.7213,9.1271,60.8751],[-78.7179,9.1282,58.7094],[-78.7193,9.1246,77.019],[-78.7224,9.1246,55.5],[-78.7199,9.1193,60.8641],[-78.704,9.1099,55.5],[-78.7029,9.1057,61.6292],[-78.7012,9.1062,56.5878],[-78.7021,9.1082,55.5],[-78.6999,9.1076,55.5],[-78.7015,9.1049,55.5],[-78.6988,9.1018,55.5],[-78.6951,9.1018,59.8112],[-78.6904,9.0979,62.0327],[-78.6943,9.0976,59.0328],[-78.696,9.1004,57.0048],[-78.6963,9.0996,57.0048],[-78.6954,9.0963,55.5],[-78.6979,9.0999,57.3913],[-78.6999,9.1001,58.2794],[-78.7007,9.0982,61.5075],[-78.7004,9.101,58.5387],[-78.7043,9.1043,55.5],[-78.7046,9.1021,57.9214],[-78.7079,9.1021,56.3442],[-78.706,9.1046,56.4177],[-78.7074,9.1099,55.5],[-78.7096,9.1107,55.5],[-78.7115,9.1085,56.779],[-78.711,9.1112,57.3617],[-78.7146,9.1135,55.5],[-78.7162,9.1132,55.5],[-78.7165,9.1087,58.2683],[-78.7182,9.109,55.5],[-78.7179,9.1126,55.5],[-78.7201,9.1124,63.8237],[-78.7174,9.1143,55.5],[-78.7207,9.1157,58.165],[-78.7221,9.1182,55.5],[-78.7224,9.1154,56.9724],[-78.7237,9.1151,56.9724],[-78.7229,9.1121,56.567],[-78.726,9.1129,55.5],[-78.7276,9.111,57.3206],[-78.7276,9.1149,56.406],[-78.7299,9.1174,56.0212],[-78.7249,9.1174,60.0369],[-78.724,9.1188,55.5],[-78.7271,9.1249,55.5],[-78.7307,9.1254,55.5],[-78.7299,9.1207,55.5],[-78.7324,9.1162,55.5],[-78.7301,9.1087,60.0817],[-78.7318,9.109,55.5],[-78.7326,9.1057,55.5],[-78.7301,9.1071,60.0817],[-78.7288,9.1057,56.3392],[-78.7307,9.1051,56.2294],[-78.7299,9.1038,58.3902],[-78.7315,9.1021,57.3039],[-78.7285,9.101,57.3278],[-78.7293,9.0974,56.0799],[-78.7251,9.0979,58.905],[-78.7254,9.0943,59.0479],[-78.7218,9.094,60.7919],[-78.7237,9.0904,55.5],[-78.7201,9.0913,59.6413],[-78.7215,9.0876,60.402],[-78.724,9.0885,62.5558],[-78.7254,9.0863,64.6564],[-78.7254,9.0826,60.604],[-78.7215,9.0821,60.7302],[-78.7235,9.0818,59.2762],[-78.7254,9.0785,64.0747],[-78.7296,9.0779,58.7579],[-78.7288,9.0815,59.2624],[-78.7332,9.081,58.2197],[-78.7346,9.0854,60.2076],[-78.7371,9.0837,69.2038],[-78.7376,9.0865,57.1568],[-78.739,9.0865,58.6221],[-78.739,9.0918,57.67],[-78.741,9.0918,56.0128],[-78.7412,9.0879,55.9678],[-78.7363,9.0771,60.6307],[-78.7404,9.0812,56.4292],[-78.7407,9.0843,55.5],[-78.7438,9.0801,65.146],[-78.7465,9.0807,56.6894],[-78.7468,9.0849,57.5507],[-78.7501,9.0824,59.1889],[-78.7535,9.0851,60.1598],[-78.7596,9.0826,57.9856],[-78.7604,9.0815,63.8448],[-78.7576,9.0793,60.2171],[-78.7568,9.0754,72.2462],[-78.7688,9.076,58.5684],[-78.7801,9.0804,56.8872],[-78.7821,9.0776,56.2611],[-78.7846,9.0771,56.3901],[-78.7854,9.0785,56.3901],[-78.7882,9.0771,60.1949],[-78.789,9.0785,60.1949],[-78.7865,9.0826,56.0679],[-78.7913,9.084,59.8084],[-78.7918,9.0865,55.5],[-78.7929,9.0863,55.5],[-78.7918,9.0829,62.3611],[-78.7949,9.0818,67.4919],[-78.796,9.0796,70.4143],[-78.8032,9.081,63.4694],[-78.8032,9.0824,55.5],[-78.8054,9.081,64.3993],[-78.8074,9.0851,61.0477],[-78.811,9.0874,55.5],[-78.814,9.0868,60.1285],[-78.8101,9.0832,64.6456],[-78.8165,9.0863,61.02],[-78.816,9.0899,59.5322],[-78.8176,9.0943,56.9764],[-78.821,9.094,55.5],[-78.8213,9.0913,61.6777],[-78.8257,9.0935,70.7855],[-78.8293,9.0988,55.5],[-78.8329,9.0954,64.3602],[-78.8337,9.0974,64.3547],[-78.8315,9.0993,59.8525],[-78.8324,9.1018,57.9104],[-78.8354,9.0996,66.6553],[-78.8351,9.101,55.5],[-78.8376,9.1018,68.596],[-78.8368,9.1038,55.5],[-78.8404,9.104,55.5],[-78.8407,9.1021,63.0462],[-78.8424,9.1021,58.5099],[-78.8446,9.109,55.5],[-78.8468,9.1093,55.5],[-78.8451,9.104,58.9462],[-78.8468,9.1043,58.6857],[-78.8482,9.1076,55.5],[-78.8538,9.1085,71.5462],[-78.8518,9.1093,61.1293],[-78.8551,9.1126,57.2219],[-78.8551,9.1149,56.7669],[-78.8562,9.1135,63.8894],[-78.8613,9.1157,55.5],[-78.8632,9.1143,55.5],[-78.8615,9.1074,60.0022],[-78.8629,9.1074,60.6996],[-78.8643,9.1104,62.4439],[-78.8674,9.1093,60.816],[-78.869,9.1104,72.9897],[-78.8676,9.111,63.3142],[-78.8662,9.1104,60.816],[-78.8649,9.1126,55.5],[-78.8665,9.119,66.9784],[-78.869,9.1193,61.5355],[-78.8737,9.116,60.8883],[-78.8693,9.1196,61.5355],[-78.8671,9.126,70.2839],[-78.8701,9.1265,78.649],[-78.8721,9.1235,117.3737],[-78.8746,9.1246,64.0797],[-78.8754,9.1226,91.4655],[-78.8774,9.1226,75.0938],[-78.8782,9.1246,58.1534],[-78.8826,9.1235,63.0247],[-78.8801,9.126,69.0419],[-78.8763,9.1249,64.0797],[-78.8746,9.1265,61.8469],[-78.8718,9.1251,68.0287],[-78.869,9.1276,78.1336],[-78.8657,9.1265,97.0034],[-78.8674,9.1212,55.5],[-78.8629,9.1165,55.5],[-78.8571,9.1163,55.5],[-78.8524,9.1199,57.3776],[-78.8507,9.1265,59.7031],[-78.8521,9.1271,55.5],[-78.8526,9.1246,59.0396],[-78.856,9.1293,60.7693],[-78.8571,9.1265,61.8772],[-78.8579,9.1282,82.2029],[-78.8568,9.1307,55.5],[-78.8604,9.1351,100.9985],[-78.8615,9.1426,59.9645],[-78.8585,9.1443,85.5479],[-78.8587,9.1463,69.3946],[-78.8621,9.1451,107.4176],[-78.8621,9.1468,71.0013],[-78.8643,9.1465,72.5303],[-78.8635,9.149,55.5],[-78.8651,9.1493,55.5],[-78.8688,9.1435,89.7848],[-78.8701,9.1468,60.4368],[-78.874,9.1468,96.3381],[-78.8715,9.1504,58.7175],[-78.8746,9.151,66.2371],[-78.8729,9.1521,56.4477],[-78.8746,9.1538,56.961],[-78.871,9.1587,55.5],[-78.8751,9.164,55.5],[-78.8749,9.1679,66.5316],[-78.8718,9.1693,55.5],[-78.8726,9.1718,60.6222],[-78.8849,9.1776,70.63],[-78.8829,9.1801,55.5],[-78.8763,9.1776,61.6645],[-78.8757,9.1799,109.2271],[-78.8732,9.1763,63.5885],[-78.8665,9.1724,60.0596],[-78.8668,9.1829,89.941],[-78.8712,9.1846,96.6051],[-78.8674,9.1851,55.5],[-78.8674,9.1896,73.129],[-78.8662,9.1896,73.129],[-78.8643,9.1774,63.2013],[-78.8657,9.1707,72.3239],[-78.8632,9.1704,55.5],[-78.8599,9.1765,55.5],[-78.8596,9.1876,74.2927],[-78.8579,9.1874,74.2927],[-78.8546,9.1918,58.1175]],
[[-78.4635,9.091,57.7159],[-78.4585,9.0921,57.8808],[-78.456,9.0896,57.2677],[-78.4563,9.0837,58.2955],[-78.459,9.0785,58.5019],[-78.4618,9.0782,58.5856],[-78.4624,9.0826,56.8886],[-78.4662,9.0854,58.3477],[-78.4635,9.091,57.7159]],
[[-78.4576,9.0754,57.8769],[-78.4563,9.079,57.3262],[-78.4546,9.0782,57.2011],[-78.4557,9.0735,57.7625],[-78.4521,9.0701,59.5665],[-78.454,9.0654,58.1934],[-78.4576,9.0699,59.8349],[-78.4576,9.0754,57.8769]],
[[-78.4971,9.064,62.173],[-78.4957,9.0643,62.173],[-78.4957,9.0615,60.5027],[-78.4971,9.0588,68.2673],[-78.4993,9.059,60.3721],[-78.4982,9.0624,55.5],[-78.4993,9.0613,58.1322],[-78.5018,9.0621,55.5],[-78.4985,9.0649,55.5],[-78.4971,9.064,62.173]]],
[[[-78.4979,9.0882,55.5],[-78.4976,9.0863,56.6509],[-78.4957,9.086,56.6509],[-78.4938,9.0887,56.9988],[-78.4965,9.0918,57.5785],[-78.496,9.0899,57.4988],[-78.4979,9.0882,55.5]]],
[[[-78.4668,9.0999,57.7759],[-78.4671,9.1015,55.9198],[-78.4674,9.0946,55.5],[-78.464,9.0929,58.0337],[-78.4649,9.0971,56.5776],[-78.4671,9.0979,56.5682],[-78.4668,9.0999,57.7759]]],
[[[-78.5129,9.1026,56.696],[-78.5115,9.1026,56.9907],[-78.5121,9.1046,55.788],[-78.5137,9.1015,56.1659],[-78.511,9.1015,56.4516],[-78.511,9.1026,56.9907],[-78.5129,9.1021,56.696],[-78.5129,9.1026,56.696]]],
[[[-78.7599,9.1046,56.4152],[-78.7626,9.1057,55.5],[-78.7624,9.1026,56.4738],[-78.7657,9.1015,55.5],[-78.7613,9.0999,55.5],[-78.7621,9.0976,55.5],[-78.7568,9.0943,57.7228],[-78.7549,9.0918,57.7017],[-78.7546,9.0899,58.461],[-78.756,9.0893,55.5],[-78.754,9.0882,56.9758],[-78.7529,9.0907,56.3444],[-78.7507,9.0904,55.5],[-78.751,9.0924,57.309],[-78.7524,9.0946,55.5],[-78.7551,9.0938,57.7228],[-78.7549,9.096,55.5],[-78.7582,9.0974,59.5425],[-78.7568,9.0993,55.5],[-78.759,9.0985,59.5425],[-78.7571,9.1035,58.392],[-78.7599,9.1046,56.4152]]],
[[[-78.7326,9.1029,57.5138],[-78.7346,9.1043,55.5],[-78.7337,9.1007,57.2452],[-78.7324,9.101,57.2452],[-78.7326,9.1029,57.5138]]],
[[[-78.7449,9.1343,55.5],[-78.7462,9.1354,55.5],[-78.7479,9.1332,55.5],[-78.7468,9.1307,55.5],[-78.7429,9.131,55.5],[-78.7454,9.1326,59.5635],[-78.7449,9.1343,55.5]]],
[[[-78.7335,9.1413,55.857],[-78.7357,9.1421,55.5],[-78.7371,9.136,55.5],[-78.7337,9.1374,55.5],[-78.7335,9.1413,55.857]]],
[[[-78.7346,9.1524,57.8313],[-78.7376,9.1526,56.5689],[-78.7376,9.1499,57.5298],[-78.7407,9.1513,55.5],[-78.741,9.149,55.8994],[-78.7457,9.1501,55.5],[-78.7482,9.1474,57.7142],[-78.7479,9.151,55.5],[-78.7524,9.1496,64.3807],[-78.7515,9.1515,55.5],[-78.754,9.1524,55.5],[-78.756,9.1488,55.5],[-78.7562,9.151,55.5],[-78.7599,9.1513,55.5],[-78.7629,9.1476,55.5],[-78.7579,9.1449,55.5],[-78.7554,9.1454,55.5],[-78.756,9.1429,55.5],[-78.751,9.1424,55.5],[-78.754,9.1374,55.5],[-78.7504,9.1365,55.5],[-78.749,9.1382,55.5],[-78.7493,9.1368,55.5],[-78.7474,9.1371,68.135],[-78.7471,9.1396,63.3634],[-78.7454,9.1396,57.886],[-78.7449,9.1413,69.967],[-78.7412,9.1376,56.643],[-78.7399,9.1415,55.5],[-78.7376,9.141,55.5],[-78.7396,9.1435,57.9544],[-78.7385,9.1476,57.4367],[-78.7374,9.1476,57.4367],[-78.7376,9.1446,55.9556],[-78.7351,9.1465,57.6806],[-78.7343,9.1424,56.9864],[-78.7324,9.1421,56.9864],[-78.7321,9.146,55.5],[-78.734,9.1485,55.5],[-78.731,9.1524,55.5],[-78.7346,9.1524,57.8313]]],
[[[-78.7812,9.1596,56.6555],[-78.7835,9.1612,56.61],[-78.7838,9.1587,59.059],[-78.7868,9.159,55.5],[-78.7868,9.1568,58.5301],[-78.7882,9.1582,55.5],[-78.7971,9.1513,55.5],[-78.7929,9.1529,58.1353],[-78.7899,9.1521,56.7276],[-78.7899,9.154,58.4783],[-78.7868,9.1532,55.5],[-78.7849,9.154,55.5],[-78.7851,9.1554,55.5],[-78.7799,9.154,55.5],[-78.7812,9.1565,55.5],[-78.7779,9.1568,55.5],[-78.7799,9.1599,56.6555],[-78.7812,9.1596,56.6555]]],
[[[-78.7732,9.1604,58.1483],[-78.7751,9.1612,56.7209],[-78.7776,9.1579,56.9927],[-78.774,9.1571,57.6404],[-78.7721,9.161,55.5],[-78.7732,9.1604,58.1483]]],
[[[-78.7485,9.159,56.6764],[-78.7507,9.1607,55.5],[-78.7507,9.1585,56.6697],[-78.7482,9.1576,57.2709],[-78.7485,9.159,56.6764]]],
[[[-78.574,9.129,56.6675],[-78.5746,9.131,55.5],[-78.5774,9.1296,58.3263],[-78.5762,9.1279,55.5],[-78.574,9.129,56.6675]]],
[[[-78.6549,9.1521,55.5],[-78.6543,9.1543,55.5],[-78.6568,9.154,57.8517],[-78.6568,9.1529,55.5],[-78.6549,9.1521,55.5]]],
[[[-78.6226,9.1871,56.9425],[-78.6232,9.1887,56.9425],[-78.6257,9.1876,55.5],[-78.6257,9.1849,55.5],[-78.6232,9.1857,56.5618],[-78.6226,9.1871,56.9425]]],
[[[-79.1304,8.9588,1.7277],[-79.1332,8.9576,0.0],[-79.1318,8.956,0.0],[-79.1335,8.9524,0.0],[-79.1326,8.9496,0.0],[-79.131,8.9493,0.0],[-79.1321,8.9485,0.0],[-79.129,8.9476,5.5792],[-79.1332,8.9429,0.0],[-79.1315,8.9418,0.0],[-79.1279,8.9426,0.0],[-79.1279,8.941,0.0],[-79.1265,8.941,0.0],[-79.1276,8.9471,5.5792],[-79.1229,8.9501,0.0],[-79.1287,8.9535,33.5158],[-79.1285,8.9576,0.0],[-79.1304,8.9588,1.7277]]],
[[[-79.1376,8.9643,0.0],[-79.1421,8.9618,0.0],[-79.1399,8.9618,0.0],[-79.1379,8.9626,0.0],[-79.1376,8.9643,0.0]]],
[[[-79.0985,8.9774,0.0],[-79.0996,8.9788,0.0],[-79.0976,8.9743,0.0],[-79.0976,8.9768,0.0],[-79.0985,8.9774,0.0]]],
[[[-79.1004,8.9801,0.0],[-79.0999,8.9785,0.0],[-79.0999,8.9813,0.0],[-79.101,8.9818,0.0],[-79.1004,8.9813,0.0],[-79.1004,8.9801,0.0]]],
[[[-78.8507,9.1582,64.634],[-78.854,9.1587,61.1678],[-78.856,9.1571,59.7144],[-78.8571,9.1582,59.7144],[-78.8587,9.1549,55.5],[-78.8587,9.1532,55.5],[-78.8512,9.154,58.3749],[-78.8535,9.1535,63.6999],[-78.8532,9.1524,63.6999],[-78.8565,9.1529,58.0074],[-78.8579,9.1501,55.5],[-78.854,9.1513,61.2987],[-78.851,9.1435,75.7151],[-78.8538,9.1449,67.0338],[-78.8599,9.1407,58.6979],[-78.8574,9.1321,71.8242],[-78.8543,9.131,62.4462],[-78.8526,9.1282,55.5],[-78.8487,9.129,55.5],[-78.8482,9.1307,59.6322],[-78.8465,9.129,56.9622],[-78.839,9.1324,61.284],[-78.816,9.1287,55.5],[-78.8093,9.1301,55.5],[-78.8074,9.1329,61.5284],[-78.8074,9.1343,59.1294],[-78.8129,9.1362,57.2582],[-78.806,9.1349,55.5],[-78.8015,9.1382,56.1487],[-78.8054,9.1404,70.5088],[-78.8068,9.146,55.5],[-78.8087,9.144,74.8172],[-78.8087,9.1457,55.5],[-78.811,9.1463,57.968],[-78.8135,9.144,55.5],[-78.8138,9.146,55.5],[-78.8193,9.1468,69.5569],[-78.8207,9.151,55.5],[-78.8215,9.1485,61.4481],[-78.8251,9.149,55.5],[-78.8257,9.1474,55.5],[-78.8299,9.1521,57.4136],[-78.8326,9.1496,57.0222],[-78.8307,9.1546,58.9297],[-78.829,9.1543,57.1637],[-78.8293,9.1521,57.4136],[-78.8243,9.1529,56.0136],[-78.8224,9.156,55.5],[-78.8249,9.1576,55.5],[-78.831,9.156,59.2756],[-78.8349,9.1579,56.4273],[-78.8379,9.1554,59.6331],[-78.841,9.1557,55.5],[-78.8429,9.1535,56.654],[-78.8421,9.1549,62.1217],[-78.8437,9.1574,55.5],[-78.846,9.1563,60.6066],[-78.8465,9.1582,56.7905],[-78.8507,9.1582,64.634]]],
[[[-78.8018,9.0951,56.077],[-78.804,9.094,55.5],[-78.8037,9.0913,55.5],[-78.8026,9.0913,55.5],[-78.8018,9.0951,56.077]]],
[[[-78.8018,9.099,59.0769],[-78.8024,9.0968,55.5],[-78.8012,9.0968,55.5],[-78.7999,9.1001,56.4649],[-78.8018,9.099,59.0769]]],
[[[-78.829,9.1046,56.6911],[-78.8276,9.1062,58.1999],[-78.8307,9.106,58.6398],[-78.8313,9.1029,55.5],[-78.8293,9.1035,56.0117],[-78.829,9.1046,56.6911]]],
[[[-78.799,9.1443,59.2183],[-78.8032,9.1451,64.1797],[-78.8026,9.1413,55.5],[-78.7996,9.1421,63.6236],[-78.799,9.1443,59.2183]]],
[[[-78.8001,9.149,55.5],[-78.8035,9.1485,55.5],[-78.8012,9.1463,55.5],[-78.7988,9.1463,55.5],[-78.8001,9.149,55.5]]],
[[[-78.8126,9.1618,55.5],[-78.8124,9.1649,55.5],[-78.8135,9.1649,55.5],[-78.8154,9.1607,55.5],[-78.8126,9.1618,55.5]]],
[[[-78.7893,9.1679,69.5081],[-78.791,9.1693,61.655],[-78.7924,9.1668,89.0331],[-78.794,9.1671,55.5],[-78.7949,9.1632,56.7775],[-78.7918,9.1618,55.5],[-78.7913,9.1635,57.2996],[-78.7879,9.1635,55.5],[-78.7893,9.1679,69.5081]]],
[[[-78.8307,9.1793,55.5],[-78.8329,9.1801,55.5],[-78.8379,9.1779,57.9464],[-78.8374,9.1765,55.5],[-78.834,9.1763,55.5],[-78.8301,9.1699,56.6145],[-78.8301,9.1679,57.935],[-78.8315,9.1701,58.3559],[-78.8332,9.169,55.5],[-78.8329,9.1629,57.669],[-78.8296,9.1618,59.5588],[-78.8318,9.1596,56.5097],[-78.8313,9.1579,55.5],[-78.8265,9.1615,55.5],[-78.8285,9.1637,55.5],[-78.8238,9.1618,55.5],[-78.8224,9.1637,57.1127],[-78.8249,9.164,58.5846],[-78.8246,9.1654,58.5846],[-78.8218,9.1649,55.5],[-78.8224,9.1682,55.5],[-78.8254,9.1696,55.9219],[-78.8251,9.1738,55.5],[-78.8301,9.1738,55.5],[-78.8293,9.1763,57.0233],[-78.8307,9.1793,55.5]]],
[[[-78.6762,9.1896,57.0403],[-78.6782,9.1901,56.74],[-78.679,9.1887,55.5],[-78.6768,9.1879,56.3625],[-78.6762,9.1896,57.0403]]],
[[[-78.6629,9.1938,55.5],[-78.664,9.1949,55.5],[-78.666,9.1935,55.5],[-78.6665,9.1912,56.6388],[-78.669,9.1907,55.5],[-78.6687,9.189,55.5],[-78.6654,9.1882,55.9541],[-78.6635,9.1893,55.5],[-78.664,9.1915,56.5287],[-78.6621,9.191,55.5],[-78.6612,9.1926,55.5],[-78.6629,9.1938,55.5]]],
[[[-78.7812,9.1985,64.3851],[-78.7838,9.1985,64.3563],[-78.7835,9.1957,58.0145],[-78.7851,9.1954,58.1275],[-78.7801,9.1951,55.5],[-78.7793,9.1974,55.5],[-78.7812,9.1985,64.3851]]],
[[[-78.754,9.198,55.5],[-78.7532,9.1996,61.6565],[-78.7546,9.1999,61.6565],[-78.7549,9.1988,61.6565],[-78.754,9.198,55.5]]],
[[[-78.7557,9.1985,55.5],[-78.7554,9.2004,63.7865],[-78.7582,9.2001,57.8357],[-78.7579,9.1988,57.8357],[-78.7557,9.1985,55.5]]],
[[[-78.7857,9.2001,61.4687],[-78.7901,9.2013,55.5],[-78.7932,9.1962,57.1545],[-78.7849,9.1965,55.5],[-78.7857,9.2001,61.4687]]],
[[[-78.7913,9.2032,55.5],[-78.789,9.2021,62.0883],[-78.7887,9.2043,55.5],[-78.7913,9.204,55.5],[-78.7913,9.2032,55.5]]],
[[[-78.8496,9.1868,55.5],[-78.8518,9.1871,55.5],[-78.8538,9.1849,55.5],[-78.8549,9.1749,78.7873],[-78.8574,9.1715,65.0767],[-78.854,9.1707,55.5],[-78.8538,9.1651,77.4489],[-78.8557,9.1654,77.4489],[-78.856,9.169,55.5],[-78.8621,9.1665,69.3894],[-78.8693,9.1682,55.5],[-78.8688,9.1646,55.5],[-78.871,9.1624,55.5],[-78.8626,9.161,60.2614],[-78.864,9.1593,65.6156],[-78.8632,9.1576,67.8877],[-78.8654,9.1576,56.8675],[-78.864,9.1551,55.5],[-78.8632,9.1568,59.3086],[-78.8615,9.1565,55.5],[-78.8607,9.1596,61.2785],[-78.859,9.1576,57.5356],[-78.8593,9.161,63.5324],[-78.8579,9.1612,63.5324],[-78.8576,9.1607,70.0048],[-78.8585,9.1593,59.7807],[-78.856,9.1601,55.5],[-78.8554,9.1587,61.1678],[-78.8538,9.1607,63.8163],[-78.8504,9.1585,64.634],[-78.8432,9.1596,61.9139],[-78.8424,9.1557,58.0677],[-78.839,9.1563,55.5],[-78.8404,9.1574,55.5],[-78.8379,9.1587,55.5],[-78.8393,9.1604,55.5],[-78.8351,9.1599,55.5],[-78.8335,9.1624,57.5935],[-78.8351,9.1632,57.5935],[-78.8349,9.1685,55.5],[-78.8376,9.1688,70.5912],[-78.8337,9.1701,55.5],[-78.8346,9.1735,55.5],[-78.8376,9.1746,59.7174],[-78.8468,9.1732,72.5325],[-78.8493,9.1746,55.5],[-78.8507,9.1779,78.6968],[-78.8496,9.1868,55.5]]]]}}