{"type":"Feature","properties":{"GID_2":"PAN.4.3_1","GID_0":"PAN","country":"Panama","GID_1":"PAN.4_1","province":"Colón","NL_NAME_1":"NA","county":"Donoso","VARNAME_2":"NA","NL_NAME_2":"NA","TYPE_2":"Distrito","ENGTYPE_2":"District","CC_2":"NA","HASC_2":"PA.CL.DN","name":"Donoso.county"},
"geometry":{"type": "MultiPolygon","coordinates": [[[[-80.6535,8.8052,140.4659],[-80.654,8.8075,183.0089],[-80.6458,8.805,180.2558],[-80.6407,8.8086,246.3923],[-80.6336,8.8073,209.7412],[-80.6272,8.8078,198.0308],[-80.6269,8.8093,224.1716],[-80.6245,8.8084,198.4812],[-80.6241,8.7988,129.6808],[-80.6221,8.7968,83.1328],[-80.5737,8.7957,50.81],[-80.5575,8.7979,49.0606],[-80.5618,8.807,48.2988],[-80.5639,8.8081,53.1984],[-80.5526,8.8222,51.6927],[-80.5538,8.8335,75.9245],[-80.5521,8.8418,65.7616],[-80.5545,8.8476,57.3864],[-80.5505,8.8541,55.1407],[-80.552,8.8682,61.6116],[-80.5503,8.8714,27.3553],[-80.5546,8.876,42.8227],[-80.5544,8.8789,43.3141],[-80.5521,8.8812,54.364],[-80.5526,8.884,42.6322],[-80.5552,8.8828,39.1207],[-80.5557,8.8809,46.7717],[-80.5583,8.8819,33.5436],[-80.5598,8.8901,77.3469],[-80.5628,8.8943,78.6733],[-80.5601,8.897,83.2022],[-80.5558,8.8982,51.1931],[-80.5551,8.9022,19.7227],[-80.5518,8.9038,18.805],[-80.5525,8.9145,58.4397],[-80.5469,8.9202,24.8144],[-80.5448,8.9282,43.6574],[-80.5473,8.9418,73.1451],[-80.5445,8.9432,112.4048],[-80.531,8.9474,40.431],[-80.525,8.9354,52.2103],[-80.5136,8.936,84.571],[-80.5121,8.9307,18.0731],[-80.5064,8.9319,57.7509],[-80.5045,8.9276,72.8838],[-80.4969,8.93,51.927],[-80.487799999999993,8.9226,54.1033],[-80.4841,8.9248,75.8993],[-80.4789,8.9249,92.2549],[-80.4762,8.923,73.4926],[-80.4722,8.9238,171.292],[-80.4707,8.9223,171.7259],[-80.466,8.924,99.1263],[-80.4562,8.9169,50.4414],[-80.445,8.9018,42.2201],[-80.4238,8.8944,97.0167],[-80.3999,8.8961,94.0653],[-80.3919,8.8944,133.4135],[-80.383,8.8888,126.6184],[-80.3763,8.8872,125.1387],[-80.3695,8.8807,69.5799],[-80.3662,8.8848,110.1612],[-80.3567,8.9086,164.0048],[-80.2387,8.9694,130.3466],[-80.2291,8.9734,123.1633],[-80.2275,8.9719,116.3579],[-80.2193,8.9708,70.8753],[-80.2135,8.9723,97.3879],[-80.2088,9.017,46.0025],[-80.2106,9.0233,68.9446],[-80.2094,9.0362,74.1751],[-80.213,9.0433,56.9456],[-80.2147,9.0535,111.1986],[-80.2101,9.064,55.5331],[-80.2008,9.0713,80.8802],[-80.199,9.0771,23.4403],[-80.2037,9.0848,112.3055],[-80.2021,9.0902,71.9172],[-80.2064,9.0923,86.9587],[-80.2064,9.1005,113.1709],[-80.2095,9.109,95.2817],[-80.2159,9.1137,50.1554],[-80.217,9.1172,76.6495],[-80.2086,9.1287,104.6878],[-80.2101,9.1367,65.1512],[-80.2037,9.1432,60.687],[-80.2083,9.1526,25.2247],[-80.2042,9.1594,36.3644],[-80.2091,9.1639,17.3679],[-80.2079,9.1781,18.5505],[-80.205,9.1896,2.8688],[-80.216,9.1887,5.8296],[-80.231,9.1835,11.5666],[-80.2382,9.1838,0.0],[-80.2415,9.1801,6.9723],[-80.2429,9.1749,8.7785],[-80.2468,9.171,4.8244],[-80.2537,9.1687,3.7493],[-80.2571,9.1699,0.0],[-80.2699,9.1671,0.0],[-80.2835,9.1685,9.3363],[-80.2849,9.1674,3.0],[-80.2846,9.1635,3.4153],[-80.2882,9.1599,3.8304],[-80.2946,9.1557,3.6021],[-80.3054,9.1557,0.0],[-80.3071,9.1518,3.9748],[-80.309,9.1571,0.0],[-80.3196,9.1582,7.3874],[-80.339,9.1551,7.5037],[-80.346,9.1504,13.5114],[-80.3551,9.1485,11.6294],[-80.3579,9.1438,12.2543],[-80.4079,9.1443,0.0],[-80.4149,9.1407,1.6346],[-80.4163,9.1393,2.2111],[-80.4154,9.1368,14.3996],[-80.4204,9.1343,0.0],[-80.4232,9.131,6.0113],[-80.4376,9.1287,1.5055],[-80.4379,9.1268,11.2451],[-80.4407,9.1254,7.6126],[-80.4529,9.1265,2.6173],[-80.4543,9.1249,14.0116],[-80.4576,9.1251,5.4698],[-80.4621,9.1235,2.3756],[-80.461,9.121,1.9704],[-80.4654,9.1165,6.0764],[-80.4746,9.1146,3.9131],[-80.4954,9.1171,0.0],[-80.4957,9.1154,12.6547],[-80.5007,9.1129,4.7014],[-80.5068,9.1115,0.0],[-80.509,9.1085,12.0187],[-80.5207,9.1051,16.6227],[-80.5265,9.1057,0.0],[-80.531,9.1043,0.0],[-80.5312,9.0993,5.9785],[-80.5343,9.0965,8.2709],[-80.5482,9.0932,5.6065],[-80.5485,9.0896,12.3241],[-80.5501,9.0882,15.6715],[-80.5624,9.086,0.0],[-80.564,9.0804,9.5221],[-80.5721,9.0779,0.0],[-80.5721,9.0749,4.7801],[-80.5704,9.0735,4.2681],[-80.559,9.0696,0.8043],[-80.5624,9.0699,6.9711],[-80.5713,9.0729,4.2681],[-80.5738,9.0757,0.0],[-80.5738,9.0799,0.0],[-80.5815,9.0785,6.0004],[-80.5862,9.0749,14.4891],[-80.596,9.0718,4.3567],[-80.6018,9.0662,12.1243],[-80.6085,9.0651,9.157],[-80.6121,9.0601,7.9507],[-80.6279,9.0554,0.9097],[-80.6268,9.0526,8.0701],[-80.6293,9.0535,4.6371],[-80.6376,9.0518,19.0419],[-80.6457,9.046,10.3031],[-80.6554,9.0418,12.1934],[-80.6599,9.0365,9.9893],[-80.6665,9.0349,2.7096],[-80.6746,9.0251,12.415],[-80.6818,9.0238,1.0225],[-80.681,9.0196,34.9114],[-80.6824,9.0096,10.0689],[-80.6832,9.0226,0.6948],[-80.6943,9.0207,0.0],[-80.6965,9.0151,8.7056],[-80.6951,9.0118,14.2178],[-80.699,9.0049,9.2071],[-80.7104,9.0001,10.6594],[-80.7249,8.9993,0.0],[-80.7254,8.9979,6.6974],[-80.7307,8.9987,0.0],[-80.7315,8.996,4.2637],[-80.7363,8.9943,0.0],[-80.7451,8.9854,28.7565],[-80.7474,8.9851,3.7813],[-80.7596,8.9754,14.2207],[-80.7621,8.9674,0.0],[-80.7613,8.9632,0.0],[-80.7668,8.9546,14.0228],[-80.7696,8.9518,2.9165],[-80.781,8.9479,0.0],[-80.7862,8.9438,0.0],[-80.7965,8.9279,0.0],[-80.7996,8.9204,1.0772],[-80.8068,8.9174,0.0],[-80.8104,8.9101,9.4418],[-80.8213,8.9049,0.0],[-80.8243,8.8949,3.0721],[-80.8307,8.8918,25.3975],[-80.8351,8.8915,5.3396],[-80.8412,8.8879,7.2451],[-80.8501,8.8874,0.0],[-80.8515,8.8854,4.4623],[-80.8604,8.8862,0.0],[-80.8704,8.8833,0.0],[-80.8688,8.8793,0.0],[-80.8729,8.8743,0.0],[-80.8732,8.8749,0.0],[-80.8729,8.8763,0.0],[-80.8724,8.8771,3.1815],[-80.8726,8.8779,3.1815],[-80.8712,8.8799,0.0],[-80.874,8.8823,0.0],[-80.8766,8.8815,11.7243],[-80.8738,8.8757,0.0],[-80.874,8.8534,0.9829],[-80.8658,8.846,2.2483],[-80.864,8.8391,17.7609],[-80.861,8.8355,30.2482],[-80.8408,8.8246,51.6436],[-80.8287,8.8225,77.817],[-80.8222,8.8166,18.2104],[-80.7993,8.8088,81.2822],[-80.7944,8.8089,64.0526],[-80.7821,8.8136,55.768],[-80.7728,8.8143,40.7169],[-80.7671,8.8127,146.6296],[-80.7624,8.8089,57.6614],[-80.7592,8.8011,93.1306],[-80.7535,8.7957,92.767],[-80.7467,8.7847,124.1778],[-80.7351,8.7726,92.8343],[-80.7297,8.7646,133.421],[-80.7253,8.7551,124.7353],[-80.726,8.7486,180.2703],[-80.7433,8.7412,317.4814],[-80.7512,8.7352,547.8597],[-80.7548,8.7271,356.576],[-80.7525,8.7141,337.6224],[-80.7462,8.6992,703.6029],[-80.737,8.6936,631.0661],[-80.7296,8.6858,424.0641],[-80.7242,8.6654,610.0169],[-80.7257,8.6566,911.1736],[-80.739,8.6452,1063.6862],[-80.7434,8.6393,1262.6602],[-80.7389,8.6402,1119.6379],[-80.7318,8.6373,981.6829],[-80.7251,8.637,906.5226],[-80.716,8.6327,740.1184],[-80.7149,8.6422,951.4545],[-80.7076,8.6615,857.3167],[-80.6974,8.6644,1123.9854],[-80.6856,8.6633,903.155],[-80.6908,8.6834,619.0082],[-80.6993,8.6889,653.3058],[-80.7048,8.7057,551.9854],[-80.7018,8.7208,348.2288],[-80.7034,8.7267,279.7535],[-80.7009,8.7321,257.9843],[-80.6946,8.7359,354.2646],[-80.6934,8.7407,318.4787],[-80.6874,8.748,227.7736],[-80.6878,8.7543,142.9569],[-80.6845,8.7572,95.5054],[-80.6907,8.769,128.1382],[-80.6887,8.7754,158.7792],[-80.677,8.7834,147.1673],[-80.6723,8.7847,174.5096],[-80.6641,8.7917,121.4399],[-80.6554,8.7951,93.5],[-80.6535,8.8052,140.4659]]]]}}