{"type": "Feature","bbox": [-80.1135,8.971,-79.5328,9.4853],"geometry": {"type": "MultiPolygon","coordinates": [[[[-80.0285,9.0207,33.1894],[-80.0296,9.0174,26.3972],[-80.0338,9.0185,25.0],[-80.0362,9.0168,32.3307],[-80.0365,9.0224,25.0],[-80.0387,9.0224,25.9867],[-80.0382,9.016,30.148],[-80.0424,9.0168,25.0],[-80.0415,9.0063,25.0],[-80.044,9.0063,39.5137],[-80.0424,9.0118,27.3617],[-80.0443,9.0151,26.2378],[-80.046,9.0149,31.5026],[-80.0443,9.0163,26.3576],[-80.0446,9.0201,29.6356],[-80.0415,9.0207,28.9075],[-80.0426,9.0254,27.8325],[-80.0404,9.0251,25.0],[-80.0385,9.0276,25.0],[-80.0396,9.0293,25.0],[-80.041,9.0285,25.6362],[-80.0401,9.0304,25.0],[-80.0426,9.0304,25.0],[-80.0435,9.0271,25.0],[-80.0482,9.0254,25.0],[-80.0479,9.0282,25.0],[-80.0465,9.0285,25.0],[-80.0471,9.0324,26.9845],[-80.046,9.0324,26.9845],[-80.046,9.0287,25.0],[-80.0443,9.0313,25.0],[-80.0468,9.0357,25.0],[-80.0485,9.0335,26.8069],[-80.0476,9.0304,33.8803],[-80.0499,9.0307,25.0],[-80.0515,9.0282,53.0857],[-80.0521,9.0304,47.4303],[-80.0493,9.034,25.0],[-80.0521,9.0351,26.3716],[-80.0526,9.0335,37.4432],[-80.054,9.0351,35.3983],[-80.0493,9.0388,25.0],[-80.0507,9.041,25.0],[-80.0499,9.0449,25.0],[-80.0515,9.0454,25.0],[-80.0518,9.0426,25.0],[-80.0549,9.0426,27.0291],[-80.054,9.0401,29.7837],[-80.056,9.0413,31.2778],[-80.0563,9.0443,25.0],[-80.0565,9.0432,26.6097],[-80.059,9.0438,25.0],[-80.0582,9.0424,25.6348],[-80.0601,9.0401,31.391],[-80.0612,9.0438,25.0],[-80.0626,9.0407,25.0],[-80.0626,9.039,25.0],[-80.0585,9.0354,30.994],[-80.0621,9.0368,25.0],[-80.0618,9.0351,25.0],[-80.0638,9.0351,25.0],[-80.0607,9.0329,25.0],[-80.061,9.0299,25.0],[-80.0576,9.0282,29.995],[-80.0638,9.0262,31.3394],[-80.0643,9.0296,27.7238],[-80.0699,9.0349,25.0],[-80.0718,9.0338,25.0],[-80.0721,9.0301,34.8513],[-80.0757,9.0307,25.0],[-80.0796,9.024,25.0],[-80.0762,9.0174,26.2151],[-80.0738,9.0157,37.184],[-80.0751,9.0129,29.9232],[-80.0762,9.0135,27.1774],[-80.0751,9.016,25.8209],[-80.0776,9.0168,32.6426],[-80.0771,9.0188,26.1831],[-80.079,9.0207,27.016],[-80.0815,9.0207,25.0],[-80.0829,9.0185,25.288],[-80.0871,9.0199,28.0141],[-80.0824,9.0204,25.0],[-80.0868,9.0246,41.7061],[-80.0849,9.0235,36.9351],[-80.0801,9.0251,25.0],[-80.0804,9.031,27.4907],[-80.0824,9.0329,26.3869],[-80.0768,9.0321,28.3592],[-80.0746,9.0349,25.0],[-80.0749,9.0374,25.0],[-80.0818,9.041,25.5932],[-80.0757,9.0418,25.0],[-80.0754,9.0479,28.3479],[-80.0726,9.0438,29.0487],[-80.069,9.0429,25.0],[-80.0724,9.0496,30.1336],[-80.0701,9.049,28.3898],[-80.0701,9.0507,32.7001],[-80.0674,9.0485,25.0],[-80.0663,9.0501,29.5945],[-80.0663,9.0479,25.0],[-80.0643,9.0474,26.0762],[-80.0651,9.0493,30.9611],[-80.0638,9.0496,30.9611],[-80.0646,9.0518,28.4639],[-80.0632,9.0515,25.0],[-80.0632,9.0529,25.0],[-80.0654,9.0543,26.6172],[-80.0621,9.0529,25.0],[-80.059,9.0546,28.2824],[-80.0549,9.054,25.0],[-80.0554,9.0557,25.0],[-80.0593,9.056,25.0],[-80.0607,9.0576,25.9134],[-80.0568,9.0582,32.2968],[-80.0529,9.0562,26.2324],[-80.0526,9.0588,25.0],[-80.0557,9.0618,26.1965],[-80.0529,9.0607,28.4565],[-80.0496,9.0554,25.0],[-80.0443,9.0543,25.0],[-80.0454,9.059,25.0],[-80.046,9.0574,25.0],[-80.0485,9.0582,29.3184],[-80.0468,9.0601,25.0],[-80.049,9.0624,25.0],[-80.0488,9.0651,25.0],[-80.0504,9.0635,27.9261],[-80.0524,9.0643,27.784],[-80.0485,9.0665,25.0],[-80.0493,9.0685,29.0882],[-80.054,9.0704,35.8794],[-80.0554,9.0743,28.206],[-80.0524,9.0732,26.3528],[-80.0512,9.0704,25.0],[-80.0451,9.0704,25.0],[-80.0507,9.0724,30.6024],[-80.0493,9.0726,30.6024],[-80.0476,9.0721,30.6038],[-80.0482,9.0746,28.7277],[-80.0454,9.074,26.4371],[-80.0499,9.0804,26.5056],[-80.0471,9.0787,25.0],[-80.0446,9.0804,27.6429],[-80.0449,9.0768,25.0],[-80.0426,9.0765,25.9492],[-80.0435,9.0793,27.6429],[-80.0418,9.0804,28.6249],[-80.0432,9.0815,29.9],[-80.041,9.0818,27.3967],[-80.0401,9.0801,25.0],[-80.0393,9.0829,27.5091],[-80.041,9.0846,27.6606],[-80.0371,9.0843,36.9095],[-80.0374,9.0865,31.9108],[-80.0415,9.089,32.2619],[-80.0421,9.091,25.6444],[-80.0407,9.0893,25.5823],[-80.0376,9.0896,25.0],[-80.034,9.0829,25.0],[-80.0332,9.0851,25.8587],[-80.0454,9.1018,25.0777],[-80.039,9.0979,25.0],[-80.0354,9.1004,25.0],[-80.0338,9.0963,25.0],[-80.0329,9.1004,29.5246],[-80.0315,9.0996,26.0336],[-80.0332,9.1051,35.6521],[-80.031,9.1065,27.3417],[-80.0312,9.1046,25.0],[-80.0271,9.0996,25.0],[-80.0285,9.1062,26.1914],[-80.0265,9.1049,25.0],[-80.0271,9.1076,32.6153],[-80.0257,9.1082,25.0],[-80.0249,9.1065,26.2991],[-80.024,9.1085,25.0],[-80.024,9.1046,25.0],[-80.0212,9.1043,26.0077],[-80.0221,9.1076,25.0],[-80.0201,9.1087,25.2499],[-80.019,9.1068,25.0],[-80.0188,9.1099,29.0011],[-80.0174,9.1104,25.0],[-80.0165,9.1071,25.0],[-80.0149,9.1065,25.0],[-80.016,9.1118,25.0],[-80.014,9.1132,31.2874],[-80.0137,9.1074,25.9937],[-80.0129,9.1062,25.0],[-80.0121,9.1079,27.2036],[-80.0121,9.1049,29.5055],[-80.0096,9.1015,25.0],[-80.0115,9.1112,27.338],[-80.0096,9.1121,28.927],[-80.0079,9.1079,25.0],[-80.0043,9.1099,25.0],[-80.0076,9.1104,28.2899],[-80.0088,9.1151,27.764],[-80.011,9.1138,26.6729],[-80.0137,9.1146,26.1043],[-80.0149,9.1168,27.4594],[-80.0101,9.1185,25.0],[-80.0074,9.1171,30.0166],[-80.0076,9.1204,28.6672],[-80.0049,9.1212,31.2621],[-80.0054,9.1146,26.9665],[-80.0038,9.1146,27.7294],[-80.004,9.1118,25.0],[-80.0021,9.1132,25.0],[-80.0004,9.1068,25.0],[-79.9987,9.1057,26.3234],[-79.9979,9.1068,26.3234],[-79.9999,9.1121,27.6161],[-79.9982,9.1115,27.055],[-79.9985,9.1129,27.6161],[-79.9971,9.1129,27.8631],[-79.9962,9.1096,25.9097],[-79.9949,9.1099,25.0],[-79.9949,9.1138,27.0711],[-79.9929,9.1115,25.0],[-79.991,9.1118,25.0],[-79.9932,9.1165,26.0188],[-79.9901,9.114,25.0],[-79.9885,9.1151,28.194],[-79.9876,9.1126,25.7424],[-79.9863,9.1132,25.0],[-79.9868,9.1165,25.0],[-79.9849,9.1168,25.0],[-79.9899,9.1238,35.8256],[-79.9874,9.1218,25.0],[-79.9843,9.1218,25.5354],[-79.9846,9.1193,25.0],[-79.9826,9.1207,26.8522],[-79.984,9.1235,32.6868],[-79.9837,9.1315,32.6147],[-79.9785,9.1318,32.1905],[-79.9824,9.1293,25.0],[-79.9815,9.1246,25.0],[-79.9788,9.1251,39.1816],[-79.9796,9.1221,30.5699],[-79.9762,9.1218,25.0],[-79.9765,9.1257,31.7198],[-79.9707,9.1282,27.4641],[-79.9726,9.1251,26.3501],[-79.9718,9.1204,25.0],[-79.9699,9.1265,28.3532],[-79.9674,9.126,25.9696],[-79.9662,9.1293,32.2101],[-79.9654,9.1274,25.0],[-79.9621,9.1282,25.0],[-79.9626,9.1335,25.0],[-79.9646,9.1321,27.1745],[-79.9662,9.1357,33.0456],[-79.9629,9.1354,25.0],[-79.9649,9.1388,28.3197],[-79.9618,9.1396,25.0],[-79.9621,9.1449,28.5056],[-79.9596,9.1435,25.0],[-79.9574,9.1551,28.0571],[-79.9582,9.1576,25.0],[-79.9596,9.1563,37.4394],[-79.9621,9.1568,32.0915],[-79.9635,9.1612,46.4039],[-79.9587,9.166,25.0],[-79.9579,9.1701,25.0],[-79.9593,9.1729,25.0],[-79.9615,9.1735,26.3458],[-79.9615,9.1771,33.2188],[-79.959,9.1763,25.0],[-79.9568,9.1812,31.9043],[-79.9574,9.1862,47.5501],[-79.9532,9.1907,25.0],[-79.9546,9.1935,25.0],[-79.9574,9.1921,36.3011],[-79.9596,9.1982,30.7362],[-79.9557,9.2038,36.045],[-79.9563,9.209,39.4669],[-79.9526,9.2162,33.6135],[-79.9465,9.2199,30.6607],[-79.9454,9.2249,25.0],[-79.9437,9.2251,25.0],[-79.9437,9.2263,25.0],[-79.946,9.2268,25.0],[-79.9382,9.2315,34.572],[-79.9413,9.2332,27.7594],[-79.9443,9.2324,25.0],[-79.9415,9.2354,25.0],[-79.9426,9.2396,27.4453],[-79.9488,9.2374,63.6637],[-79.9463,9.2446,25.0],[-79.9429,9.2471,30.8465],[-79.9413,9.2532,25.0],[-79.9418,9.2593,31.3592],[-79.9376,9.2568,25.0],[-79.9326,9.2574,27.3603],[-79.9304,9.2624,7.8426],[-79.9243,9.2676,26.307],[-79.9215,9.2676,29.1425],[-79.9151,9.2607,27.383],[-79.896,9.2643,28.2835],[-79.8899,9.271,38.4151],[-79.8863,9.2721,29.7396],[-79.8835,9.2765,35.9],[-79.879,9.2788,36.0678],[-79.8785,9.281,25.0],[-79.8826,9.2807,25.9179],[-79.8838,9.2835,25.0],[-79.8724,9.2832,25.0],[-79.8735,9.2882,25.0],[-79.876,9.2893,25.0],[-79.8771,9.2879,47.8543],[-79.8765,9.2904,36.843],[-79.8782,9.2926,31.1918],[-79.8771,9.2943,43.7133],[-79.8688,9.2904,25.0],[-79.8718,9.2924,25.0],[-79.8718,9.2946,25.0],[-79.8624,9.2946,27.6294],[-79.8643,9.2968,35.1353],[-79.8618,9.3015,25.0],[-79.8682,9.3018,27.4179],[-79.8685,9.3004,25.0],[-79.8662,9.2993,25.0],[-79.8674,9.2979,25.0],[-79.8701,9.299,25.0],[-79.871,9.2976,33.896],[-79.8726,9.301,25.0],[-79.8751,9.3013,25.0],[-79.8754,9.3035,25.0],[-79.8737,9.3029,25.0],[-79.8729,9.3043,34.1558],[-79.871,9.3015,25.0],[-79.8696,9.3024,26.4263],[-79.8721,9.306,25.0],[-79.8704,9.3085,28.7254],[-79.8732,9.3107,34.0572],[-79.8712,9.311,37.7308],[-79.8685,9.3093,26.7277],[-79.8674,9.3121,25.0],[-79.869,9.3146,35.8821],[-79.8671,9.3163,30.4973],[-79.8674,9.3143,25.0],[-79.864,9.3138,49.849],[-79.866,9.3054,25.0],[-79.8629,9.3068,25.0],[-79.8599,9.3054,25.0],[-79.8624,9.3099,41.1954],[-79.861,9.3087,25.0],[-79.8587,9.3096,27.881],[-79.8582,9.3138,62.1048],[-79.8551,9.316,25.0],[-79.8554,9.319,25.0],[-79.8485,9.3226,25.0],[-79.8485,9.3296,25.0],[-79.8471,9.3299,45.0016],[-79.8465,9.3279,28.8844],[-79.8451,9.3282,25.0],[-79.8449,9.3304,25.0],[-79.8437,9.3288,25.0],[-79.8399,9.3293,34.9538],[-79.8457,9.3251,25.0],[-79.8451,9.3212,27.4619],[-79.8421,9.321,31.2432],[-79.8399,9.324,60.5921],[-79.8371,9.3232,25.0],[-79.8351,9.3262,25.0],[-79.8362,9.3307,30.0534],[-79.8346,9.3315,25.0],[-79.8324,9.3393,44.774],[-79.826,9.3435,26.7544],[-79.8249,9.3429,32.9228],[-79.8271,9.3399,25.0],[-79.8226,9.3421,25.0],[-79.826,9.3385,44.1567],[-79.831,9.3379,39.0193],[-79.8313,9.3343,25.0],[-79.8246,9.3351,25.0],[-79.8226,9.3379,43.6431],[-79.8238,9.3346,25.0],[-79.8196,9.3351,25.0],[-79.819,9.334,25.0],[-79.8218,9.3326,29.4897],[-79.8193,9.3315,29.904],[-79.8229,9.3304,27.6629],[-79.8249,9.3318,27.090699999999998],[-79.8268,9.3304,27.9006],[-79.8274,9.3318,27.7869],[-79.8315,9.3315,25.0],[-79.8326,9.3282,25.0],[-79.829,9.3274,25.0],[-79.8265,9.3296,27.9006],[-79.824,9.3296,34.3482],[-79.8199,9.3251,25.0],[-79.8207,9.3285,25.0],[-79.8149,9.3265,25.0],[-79.8176,9.3301,31.7641],[-79.8135,9.3282,25.0],[-79.816,9.3307,31.7108],[-79.8143,9.3315,39.6343],[-79.811,9.3274,26.846],[-79.8104,9.3326,27.1948],[-79.8138,9.3346,25.0],[-79.8101,9.3338,35.5467],[-79.8085,9.3285,30.2455],[-79.8096,9.3265,36.1398],[-79.8118,9.3268,31.2415],[-79.8135,9.3246,36.2315],[-79.8168,9.3237,25.0],[-79.8146,9.3221,45.2716],[-79.816,9.3212,25.0],[-79.8146,9.319,25.0],[-79.8107,9.3201,25.0],[-79.8107,9.3185,25.0],[-79.8132,9.3168,32.7139],[-79.8187,9.3182,27.8596],[-79.8182,9.3151,33.0399],[-79.8204,9.3149,25.0],[-79.8221,9.3115,25.0],[-79.8204,9.311,25.0],[-79.8187,9.3124,39.0508],[-79.8199,9.3096,29.0401],[-79.8235,9.3093,25.0],[-79.8187,9.3076,31.1554],[-79.8174,9.3049,39.8072],[-79.8201,9.3065,28.4445],[-79.8196,9.3051,32.215],[-79.8218,9.3035,25.0],[-79.821,9.306,25.0],[-79.8235,9.3063,25.0],[-79.8224,9.304,28.0969],[-79.8251,9.3046,25.0],[-79.8274,9.2996,25.0],[-79.8279,9.289,27.708],[-79.8254,9.2907,31.4189],[-79.8254,9.2874,25.0],[-79.8204,9.2885,35.7365],[-79.8224,9.2871,25.0],[-79.821,9.2865,25.0],[-79.8213,9.2846,27.7255],[-79.8238,9.2868,30.4481],[-79.8257,9.2865,25.0],[-79.8257,9.2849,25.0],[-79.8213,9.2824,27.981],[-79.8213,9.2768,25.0],[-79.819,9.2776,30.0578],[-79.816,9.2763,25.0],[-79.8196,9.2732,27.7993],[-79.8157,9.2735,25.0],[-79.8126,9.2704,43.6692],[-79.8135,9.2687,28.4399],[-79.816,9.271,25.6323],[-79.8157,9.2682,32.4016],[-79.8179,9.2699,30.828],[-79.819,9.2665,29.454],[-79.8201,9.2679,25.0],[-79.8221,9.2674,27.9853],[-79.8224,9.2618,30.4769],[-79.8165,9.259,26.5922],[-79.8165,9.2579,31.0554],[-79.8199,9.2582,28.2391],[-79.8138,9.2521,25.0],[-79.8085,9.256,25.0],[-79.7968,9.2599,27.6948],[-79.7951,9.259,25.0],[-79.7896,9.2638,26.2916],[-79.7843,9.2615,28.6141],[-79.7865,9.2576,25.0],[-79.7829,9.2571,30.6298],[-79.7826,9.2607,31.0485],[-79.7801,9.2629,30.4321],[-79.7835,9.2649,25.0],[-79.7796,9.2643,28.4702],[-79.776,9.2624,28.7001],[-79.7757,9.2607,25.0],[-79.7774,9.256,26.7961],[-79.7799,9.2546,25.0],[-79.7785,9.2529,27.0452],[-79.7751,9.2526,26.1444],[-79.7835,9.2504,27.7878],[-79.7851,9.2549,26.5717],[-79.7874,9.2549,32.6847],[-79.7887,9.2526,25.0],[-79.7962,9.2543,25.0],[-79.7988,9.2532,33.7384],[-79.7993,9.256,27.3172],[-79.801,9.2557,25.0],[-79.8026,9.2535,25.0],[-79.8026,9.2476,28.0511],[-79.8054,9.2488,25.0],[-79.8049,9.2468,27.7301],[-79.8068,9.2471,25.0],[-79.8085,9.2443,32.5106],[-79.8063,9.2343,30.6672],[-79.8049,9.2335,35.9305],[-79.8024,9.2363,61.123],[-79.8007,9.2349,26.4809],[-79.806,9.2329,35.9305],[-79.809,9.2371,42.2004],[-79.8107,9.2457,30.9993],[-79.8126,9.2485,25.0],[-79.8174,9.2468,32.6416],[-79.816,9.2507,25.0],[-79.8182,9.2543,25.0],[-79.8238,9.2571,25.0],[-79.8246,9.2532,27.3027],[-79.8224,9.2521,41.9132],[-79.8257,9.2521,26.3442],[-79.8254,9.2499,30.7173],[-79.8274,9.2518,29.3145],[-79.8288,9.2504,30.2863],[-79.8262,9.2454,25.0],[-79.8254,9.2474,33.8114],[-79.824,9.2471,28.1998],[-79.8279,9.2324,27.7798],[-79.8299,9.231,27.0987],[-79.8313,9.2326,25.0],[-79.834,9.2321,26.6437],[-79.8371,9.2338,25.0],[-79.8337,9.2307,25.0],[-79.8362,9.2279,30.6572],[-79.8368,9.2301,25.0],[-79.839,9.2296,27.3867],[-79.839,9.2321,25.0],[-79.844,9.2313,25.0],[-79.8429,9.229,26.6247],[-79.8404,9.2304,25.0],[-79.8379,9.2265,29.0118],[-79.8401,9.2232,25.0],[-79.839,9.2196,25.0],[-79.8362,9.2193,27.6823],[-79.8343,9.224,38.1084],[-79.8332,9.2237,28.3048],[-79.8337,9.2213,25.0],[-79.8318,9.2218,28.7019],[-79.8321,9.224,32.5655],[-79.831,9.2226,25.3812],[-79.8293,9.2232,25.3812],[-79.8318,9.2268,48.7558],[-79.8285,9.2254,30.0],[-79.8262,9.2268,45.1404],[-79.8282,9.2251,30.0],[-79.8282,9.2226,31.6984],[-79.826,9.2204,25.0],[-79.8246,9.2137,43.3872],[-79.8288,9.2146,29.583],[-79.8285,9.2121,39.9233],[-79.8304,9.2104,57.6209],[-79.8321,9.2129,25.0],[-79.8318,9.2076,32.1506],[-79.8346,9.2107,25.0],[-79.8365,9.2096,29.537],[-79.8362,9.2079,34.4576],[-79.8393,9.2082,30.8314],[-79.8393,9.2063,48.2207],[-79.8435,9.2049,51.2567],[-79.8457,9.2049,37.0849],[-79.8468,9.2068,26.4526],[-79.8482,9.2051,48.0883],[-79.8515,9.2057,25.0],[-79.8476,9.2029,51.999],[-79.851,9.2026,25.0],[-79.8512,9.2007,37.7118],[-79.8532,9.2013,31.3302],[-79.8562,9.1985,26.7998],[-79.8551,9.1921,48.5392],[-79.859,9.1907,25.0],[-79.859,9.1857,27.9941],[-79.8529,9.1854,25.0],[-79.8493,9.189,25.0],[-79.8496,9.1912,25.0],[-79.8457,9.1932,38.5225],[-79.8443,9.1924,25.0],[-79.8471,9.1912,31.389],[-79.8474,9.1893,38.7009],[-79.8426,9.1882,28.2248],[-79.8421,9.1899,50.3177],[-79.8371,9.1904,25.0],[-79.8368,9.1935,25.0],[-79.8349,9.1929,25.0],[-79.8329,9.1949,29.5831],[-79.8307,9.1943,53.3108],[-79.8296,9.1918,25.0],[-79.8249,9.1926,25.0],[-79.8249,9.1962,25.0],[-79.8229,9.1938,36.0418],[-79.8204,9.1943,25.0],[-79.8204,9.1962,27.6692],[-79.8163,9.1979,25.0],[-79.8146,9.2004,25.9117],[-79.8165,9.2035,37.4415],[-79.8129,9.2032,29.1193],[-79.8149,9.2074,34.8254],[-79.8129,9.2076,27.0643],[-79.8087,9.2032,25.0],[-79.8079,9.1993,30.7651],[-79.8099,9.1962,27.9682],[-79.8176,9.1971,28.9637],[-79.8185,9.1949,27.7088],[-79.8171,9.1924,25.0],[-79.8204,9.1915,37.9023],[-79.826,9.1862,30.4572],[-79.8282,9.1876,27.3891],[-79.8285,9.1857,34.6881],[-79.8304,9.186,27.709],[-79.831,9.1832,28.4835],[-79.829,9.1838,39.4847],[-79.8299,9.1812,36.5749],[-79.8335,9.179,25.0],[-79.8285,9.1782,25.0],[-79.8276,9.1815,31.946],[-79.821,9.1818,25.0],[-79.8246,9.1851,37.3261],[-79.8235,9.1865,35.3344],[-79.8199,9.186,25.0],[-79.8168,9.189,53.7322],[-79.8138,9.1876,54.7912],[-79.8149,9.1838,25.0],[-79.8107,9.1868,29.2684],[-79.8065,9.1871,53.1502],[-79.8049,9.1832,25.0],[-79.8043,9.1843,25.5],[-79.8049,9.1862,27.0005],[-79.8037,9.1843,25.5],[-79.801,9.1851,25.5],[-79.7996,9.1818,25.5],[-79.7946,9.1793,28.0935],[-79.7921,9.1815,34.5976],[-79.7899,9.1807,29.8242],[-79.7893,9.1824,49.6881],[-79.7876,9.1824,41.7358],[-79.7904,9.1774,25.5],[-79.7874,9.1771,43.5551],[-79.7913,9.1743,28.1597],[-79.7835,9.1738,51.9851],[-79.784,9.1713,45.6292],[-79.7857,9.1726,28.5126],[-79.7868,9.1707,34.4521],[-79.7854,9.1618,54.6568],[-79.7893,9.1696,32.2682],[-79.794,9.1726,25.5],[-79.7971,9.1682,25.0],[-79.7946,9.1646,32.2464],[-79.7999,9.166,25.0],[-79.8001,9.164,31.3957],[-79.804,9.1679,28.3965],[-79.8065,9.1632,25.0],[-79.8063,9.1601,26.618],[-79.8051,9.1582,25.0],[-79.8026,9.1599,31.463],[-79.8001,9.156,29.0363],[-79.7974,9.1599,26.3159],[-79.7935,9.156,33.4735],[-79.7976,9.1538,25.0],[-79.7996,9.1504,25.0],[-79.7979,9.1493,26.4511],[-79.7954,9.1535,25.0],[-79.794,9.1532,32.4539],[-79.7962,9.1488,26.4511],[-79.796,9.1457,34.9953],[-79.7929,9.146,31.2984],[-79.7932,9.1426,34.9688],[-79.7946,9.1413,34.6238],[-79.7968,9.1424,25.0],[-79.7965,9.1368,25.0],[-79.7915,9.1382,25.0],[-79.791,9.1362,25.0],[-79.7882,9.1371,42.3942],[-79.7874,9.1354,25.0],[-79.7838,9.1413,32.5577],[-79.7801,9.1424,40.0873],[-79.7807,9.1479,35.1469],[-79.7779,9.1479,33.2318],[-79.7765,9.1443,39.0107],[-79.7787,9.1418,27.1457],[-79.7757,9.1421,39.032],[-79.7743,9.1401,27.0723],[-79.7757,9.1393,28.1873],[-79.7771,9.1407,25.0],[-79.779,9.1388,26.8615],[-79.7807,9.141,25.0],[-79.7835,9.1407,32.5577],[-79.7846,9.1313,36.6282],[-79.7862,9.1304,25.3699],[-79.7815,9.1274,30.7751],[-79.7801,9.1296,33.488],[-79.7774,9.1265,28.9347],[-79.7782,9.1243,25.6099],[-79.7763,9.1218,25.0],[-79.7757,9.1235,32.2141],[-79.7718,9.124,39.4673],[-79.7754,9.1188,31.7789],[-79.7754,9.1174,30.0068],[-79.7729,9.1168,29.8446],[-79.7751,9.1154,25.0],[-79.7707,9.1165,28.7271],[-79.7679,9.1151,25.0],[-79.7574,9.1218,27.004],[-79.7501,9.1232,27.1492],[-79.7404,9.1218,25.0],[-79.7343,9.1232,28.572],[-79.7299,9.1204,25.0],[-79.7243,9.1196,25.0],[-79.7201,9.1207,29.5197],[-79.7165,9.1179,25.0],[-79.7101,9.1182,25.0],[-79.7085,9.1165,25.0],[-79.7065,9.1179,25.9985],[-79.7071,9.1165,27.2153],[-79.6976,9.1129,25.0],[-79.6899,9.1171,25.0],[-79.6893,9.1204,26.453],[-79.6924,9.1246,36.938],[-79.6943,9.1326,30.4129],[-79.6899,9.1324,25.0],[-79.6899,9.134,27.7732],[-79.6879,9.1349,26.164],[-79.6865,9.1326,26.5641],[-79.684,9.1368,33.2903],[-79.6783,9.1385,25.5],[-79.6772,9.1451,47.1751],[-79.672,9.1522,28.0368],[-79.6609,9.155,42.9284],[-79.6584,9.1587,29.4374],[-79.6587,9.1737,46.369],[-79.6561,9.1778,27.796],[-79.6588,9.1812,35.6297],[-79.6501,9.1974,34.1029],[-79.6476,9.2085,26.0],[-79.6399,9.2068,29.1593],[-79.6363,9.2082,27.1825],[-79.6207,9.2035,64.6334],[-79.6188,9.2104,51.6764],[-79.6165,9.2118,53.625],[-79.6137,9.211,75.2076],[-79.6129,9.2168,72.5],[-79.6185,9.2162,77.5073],[-79.6193,9.2143,75.6017],[-79.619,9.2193,72.5],[-79.6215,9.2212,104.3513],[-79.6171,9.2224,72.5],[-79.6132,9.2274,121.8661],[-79.6087,9.2263,72.5],[-79.6085,9.2285,72.5],[-79.6018,9.2274,83.8191],[-79.5993,9.224,72.5],[-79.6007,9.2204,72.5],[-79.5987,9.2201,72.5],[-79.5971,9.2221,93.9691],[-79.589,9.221,78.7724],[-79.5901,9.2235,72.5],[-79.5888,9.2249,76.0201],[-79.5907,9.2271,87.3207],[-79.5885,9.229,83.6967],[-79.5901,9.231,74.8404],[-79.5868,9.234,74.7261],[-79.5888,9.2343,79.6485],[-79.5896,9.2382,75.3475],[-79.5932,9.2415,76.1387],[-79.5946,9.241,99.3768],[-79.5965,9.2443,72.5],[-79.5999,9.2457,72.5],[-79.5996,9.2474,78.9501],[-79.5971,9.2463,73.5664],[-79.5965,9.2479,86.5696],[-79.594,9.2457,72.5],[-79.5932,9.2485,72.5],[-79.5868,9.2535,80.5415],[-79.5871,9.2554,95.112],[-79.5896,9.2546,78.6714],[-79.5882,9.2565,72.5],[-79.5885,9.2615,90.9757],[-79.5971,9.2579,72.5],[-79.5987,9.2546,80.871],[-79.6004,9.2546,80.871],[-79.6007,9.2529,80.2759],[-79.5985,9.2518,82.8006],[-79.599,9.2501,88.7825],[-79.6018,9.2524,72.5],[-79.6074,9.2515,77.227],[-79.606,9.2537,74.61],[-79.6024,9.254,72.5],[-79.6029,9.2554,89.4576],[-79.6004,9.2571,72.5],[-79.6021,9.2651,72.5],[-79.6004,9.2676,90.7463],[-79.5985,9.259,86.3034],[-79.5929,9.2629,72.5],[-79.5921,9.2732,72.5],[-79.5963,9.271,85.3867],[-79.596,9.2738,88.5536],[-79.5943,9.2774,80.5054],[-79.5918,9.2779,72.5],[-79.5935,9.2821,79.5203],[-79.5915,9.2871,84.8421],[-79.5893,9.2885,72.5],[-79.5871,9.2979,121.1635],[-79.5846,9.3004,72.5],[-79.5857,9.3026,72.5],[-79.5807,9.3049,77.2491],[-79.5821,9.3068,75.3638],[-79.5843,9.3068,91.7639],[-79.5832,9.3104,72.5],[-79.584,9.316,72.5],[-79.5818,9.3168,72.5],[-79.5824,9.3199,99.0622],[-79.5801,9.3215,72.5],[-79.5824,9.3304,81.9748],[-79.5874,9.3301,85.9029],[-79.5874,9.3321,77.9439],[-79.5907,9.3324,75.9517],[-79.5926,9.334,77.097],[-79.5926,9.3376,79.1916],[-79.5862,9.3315,72.5],[-79.5824,9.3335,72.5],[-79.5807,9.3282,72.5],[-79.5771,9.3237,72.5],[-79.5738,9.3262,72.5],[-79.5724,9.3299,74.4845],[-79.5735,9.3313,72.5],[-79.5693,9.3332,73.7131],[-79.5618,9.3457,115.0816],[-79.5599,9.3449,72.5],[-79.5563,9.3468,74.7389],[-79.5593,9.3588,72.5],[-79.5585,9.3613,75.8773],[-79.5668,9.37,95.7385],[-79.5669,9.3769,117.9131],[-79.5595,9.387,151.3332],[-79.5595,9.3918,187.7932],[-79.5571,9.3976,148.7648],[-79.5529,9.401,200.9968],[-79.5552,9.4048,193.1458],[-79.5536,9.4068,140.6281],[-79.5534,9.4122,177.6344],[-79.5423,9.4226,173.3202],[-79.5434,9.4368,178.6876],[-79.5361,9.4496,181.1832],[-79.5358,9.4658,194.8115],[-79.5328,9.4711,237.106],[-79.5331,9.474,220.861],[-79.5344,9.4753,220.861],[-79.5406,9.4748,229.7413],[-79.5621,9.4853,950.1628],[-79.5827,9.4729,898.7327],[-79.5923,9.4745,761.2826],[-79.5951,9.4736,707.9832],[-79.6062,9.4609,753.8988],[-79.6156,9.4536,650.9511],[-79.6285,9.4524,660.007],[-79.639,9.4526,596.9886],[-79.6468,9.4547,574.5612],[-79.6511,9.4538,649.308],[-79.6526,9.448,573.8789],[-79.6485,9.4397,574.5741],[-79.6563,9.4318,489.81],[-79.658,9.4277,556.3453],[-79.6577,9.3811,309.8405],[-79.6599,9.3743,257.7472],[-79.6647,9.367,186.2897],[-79.711,9.3689,402.7836],[-79.7159,9.3719,351.3761],[-79.7279,9.386,171.1676],[-79.7337,9.3889,129.0502],[-79.7463,9.3897,145.8505],[-79.7557,9.3827,51.6196],[-79.7623,9.3837,92.2756],[-79.7684,9.3913,30.9772],[-79.7753,9.3923,34.6058],[-79.7868,9.3972,24.7747],[-79.7981,9.4103,26.3043],[-79.8055,9.4108,10.0464],[-79.8099,9.414,2.6321],[-79.8138,9.4121,1.6242],[-79.814,9.4099,11.0949],[-79.8157,9.4093,0.0],[-79.816,9.404,1.1562],[-79.8179,9.4032,0.0],[-79.8129,9.3971,11.6835],[-79.8126,9.3943,3.7642],[-79.8074,9.3935,0.0],[-79.8074,9.3904,4.695],[-79.8099,9.3918,2.4539],[-79.8107,9.3899,0.0],[-79.8076,9.3832,0.0],[-79.8093,9.3793,0.0],[-79.8079,9.3713,1.8026],[-79.7962,9.3632,0.0],[-79.7965,9.3612,0.0],[-79.801,9.3588,0.0],[-79.8021,9.3593,0.0],[-79.8012,9.3632,1.8088],[-79.804,9.3649,3.9721],[-79.8087,9.3579,8.6783],[-79.8093,9.3615,6.5261],[-79.806,9.3696,2.0759],[-79.8104,9.3718,2.42],[-79.8118,9.3821,0.0],[-79.8154,9.379,5.6043],[-79.8176,9.3799,2.5905],[-79.8196,9.3785,3.9712],[-79.8193,9.3821,3.0266],[-79.816,9.3829,1.1187],[-79.8165,9.3857,0.9738],[-79.8149,9.3888,2.3198],[-79.8151,9.3932,0.0],[-79.8182,9.3937,3.7934],[-79.8193,9.3963,0.7929],[-79.8232,9.396,0.0],[-79.8251,9.3912,0.0],[-79.8296,9.3874,1.532],[-79.8329,9.3868,0.0],[-79.8299,9.3835,0.0],[-79.8304,9.3735,10.8668],[-79.8329,9.3737,9.7532],[-79.8346,9.3768,1.9629],[-79.8374,9.3735,8.2783],[-79.8385,9.3776,0.0],[-79.8343,9.3776,2.074],[-79.8337,9.3807,1.8116],[-79.8376,9.3865,1.9912],[-79.8357,9.3899,0.0],[-79.8399,9.3904,5.4606],[-79.8404,9.3921,3.9416],[-79.8349,9.3918,0.0],[-79.8332,9.3937,0.0],[-79.8349,9.4012,0.0],[-79.8357,9.399,0.0],[-79.8396,9.3985,2.8205],[-79.8412,9.4004,2.5039],[-79.841,9.4032,2.6468],[-79.8429,9.404,0.0],[-79.8482,9.401,1.2527],[-79.8476,9.3946,2.8734],[-79.8454,9.3913,0.3573],[-79.8429,9.391,4.2553],[-79.8435,9.3869,0.0],[-79.8421,9.3868,0.0],[-79.8418,9.3829,0.3615],[-79.8401,9.3815,0.663],[-79.8415,9.3807,2.391],[-79.8432,9.3829,0.3615],[-79.8424,9.3787,6.8492],[-79.8437,9.3785,7.7371],[-79.8449,9.3824,3.525],[-79.8435,9.3866,0.0],[-79.8449,9.3893,0.0],[-79.8504,9.3813,11.2402],[-79.851,9.386,6.562],[-79.8479,9.3874,0.6516],[-79.8524,9.3904,5.4815],[-79.8587,9.3893,6.8159],[-79.8571,9.3918,0.0],[-79.8574,9.3965,0.0],[-79.8593,9.3976,2.2924],[-79.859,9.4004,3.9385],[-79.861,9.4029,1.4291],[-79.8688,9.4049,0.655],[-79.8732,9.4043,0.5129],[-79.876,9.4021,0.7754],[-79.8771,9.3985,1.8501],[-79.8815,9.3976,1.3618],[-79.8849,9.3935,0.0],[-79.8849,9.3924,0.0],[-79.881,9.3926,1.6668],[-79.8807,9.389,0.0],[-79.8868,9.3871,0.0],[-79.889,9.3843,0.3995],[-79.8863,9.381,0.6073],[-79.881,9.3807,3.9183],[-79.8818,9.3782,2.5809],[-79.8871,9.3776,2.474],[-79.8882,9.376,3.8575],[-79.8874,9.3721,3.4546],[-79.8835,9.371,0.2881],[-79.8846,9.3699,1.8388],[-79.8838,9.3671,2.8131],[-79.8863,9.3665,0.2255],[-79.8868,9.3649,0.0],[-79.8846,9.361,3.7763],[-79.8821,9.3604,3.2017],[-79.8815,9.3579,4.1032],[-79.8829,9.3574,1.3656],[-79.8821,9.3549,3.5893],[-79.8846,9.3571,1.3656],[-79.8851,9.3535,8.872],[-79.8879,9.3518,3.9819],[-79.8904,9.3446,9.3031],[-79.884,9.3412,21.0865],[-79.8882,9.341,8.1541],[-79.8918,9.344,1.3533],[-79.8929,9.3479,13.8466],[-79.8901,9.349,3.0625],[-79.889,9.3526,4.764],[-79.891,9.3551,7.8021],[-79.8904,9.3574,0.0],[-79.8951,9.3624,3.822],[-79.8949,9.3663,0.3005],[-79.8979,9.3654,4.03],[-79.9029,9.3671,0.0],[-79.9088,9.3643,0.7661],[-79.9054,9.3551,1.9263],[-79.9088,9.3538,2.4218],[-79.9118,9.3551,1.3548],[-79.9143,9.3521,0.0],[-79.9046,9.3507,2.5361],[-79.9004,9.3449,2.7528],[-79.9021,9.3388,0.0],[-79.9037,9.3379,7.6774],[-79.9021,9.3454,6.2105],[-79.9068,9.3499,0.4546],[-79.9046,9.3451,2.5319],[-79.9115,9.3354,2.4192],[-79.9165,9.3321,0.0],[-79.9171,9.3243,2.2254],[-79.9157,9.3185,1.908],[-79.9171,9.3104,2.5187],[-79.9218,9.3104,3.3],[-79.9221,9.3118,2.6765],[-79.926,9.3126,0.5651],[-79.9287,9.3099,6.083],[-79.9476,9.3132,10.3098],[-79.9518,9.3196,0.0],[-79.9504,9.324,7.2907],[-79.944,9.3268,0.0],[-79.9485,9.3288,11.3495],[-79.9465,9.3332,8.2425],[-79.9488,9.3412,13.621],[-79.9474,9.3457,3.5072],[-79.9482,9.3471,0.0],[-79.951,9.3465,7.6005],[-79.9465,9.3504,1.3534],[-79.9451,9.3538,0.0],[-79.9463,9.3582,0.0],[-79.949,9.3596,3.021],[-79.9493,9.3635,0.5847],[-79.9465,9.3676,5.5724],[-79.9474,9.3699,2.0613],[-79.9501,9.3665,1.316],[-79.9518,9.3671,0.5735],[-79.949,9.3724,1.1595],[-79.959,9.3701,2.3738],[-79.9638,9.3646,4.0642],[-79.9654,9.3663,2.9686],[-79.971,9.366,0.1922],[-79.979,9.3626,0.0],[-79.9849,9.3565,7.9433],[-79.9837,9.3538,0.0],[-79.9907,9.3435,0.0],[-79.991,9.3404,35.8529],[-79.9938,9.339,0.0],[-79.9985,9.331,0.0],[-80.0035,9.3271,5.9316],[-80.0037,9.3246,16.102],[-79.999,9.3207,4.1476],[-79.9987,9.316,0.0],[-80.0021,9.3182,2.1077],[-80.0076,9.3146,6.4468],[-80.014,9.3143,2.4276],[-80.0199,9.3118,8.0708],[-80.0193,9.3074,13.7865],[-80.0212,9.3029,27.0797],[-80.0396,9.2915,5.688],[-80.0482,9.281,3.1403],[-80.0479,9.2782,8.4148],[-80.0532,9.2743,3.9706],[-80.0491,9.272,24.2637],[-80.0444,9.2735,7.0096],[-80.0417,9.277,11.6047],[-80.0358,9.2753,18.6793],[-80.0296,9.2816,22.8264],[-80.0265,9.2829,17.7875],[-80.0177,9.2784,58.1607],[-80.0129,9.2716,40.5904],[-80.0142,9.229,86.727],[-80.0106,9.2172,30.9038],[-80.0094,9.2003,15.0332],[-80.0001,9.1736,25.366],[-79.9998,9.1669,21.089],[-80.0144,9.1636,88.4416],[-80.0219,9.1647,29.4868],[-80.0261,9.1698,48.308],[-80.0255,9.1823,15.8007],[-80.0332,9.1868,9.8345],[-80.0379,9.1854,7.9521],[-80.0438,9.1801,43.3557],[-80.0454,9.1753,128.5624],[-80.0358,9.1656,58.748],[-80.0349,9.1627,91.2229],[-80.0431,9.1444,101.6756],[-80.0519,9.107,26.3254],[-80.0577,9.101,64.0887],[-80.0572,9.095,26.0807],[-80.0609,9.0925,61.4391],[-80.0629,9.0836,50.5719],[-80.0685,9.0827,51.818],[-80.0775,9.0736,68.4587],[-80.1125,9.0608,45.7265],[-80.1135,9.0586,65.0236],[-80.1045,9.0412,50.8966],[-80.109,9.0348,66.6751],[-80.1108,9.0283,82.1583],[-80.1104,9.0251,106.0097],[-80.1067,9.0197,170.4901],[-80.1084,9.0152,145.2051],[-80.0639,8.9805,100.3297],[-80.0555,8.9751,64.9579],[-80.0513,8.9764,27.5598],[-79.9915,8.971,59.6067],[-79.9874,8.9779,45.4244],[-79.9833,8.9788,36.6009],[-79.982,8.982,33.5082],[-79.9767,8.9834,40.2065],[-79.9749,8.9895,28.1276],[-79.9694,8.9887,27.2984],[-79.9645,8.984,58.374],[-79.9617,8.9968,25.2677],[-79.9561,9.005,35.7891],[-79.9554,9.0096,25.3242],[-79.9599,9.0046,25.6179],[-79.959,9.0015,25.7775],[-79.9604,9.0012,25.7775],[-79.9607,9.004,25.6179],[-79.9593,9.0063,25.2508],[-79.9624,9.0076,25.0],[-79.9624,9.0107,27.5918],[-79.961,9.011,27.5918],[-79.9624,9.0138,25.0],[-79.9612,9.0212,26.1147],[-79.9654,9.0179,25.0],[-79.966,9.0121,25.0],[-79.9676,9.0135,28.838],[-79.9682,9.0176,25.531],[-79.9721,9.0174,29.1485],[-79.9721,9.0188,30.6768],[-79.9693,9.0193,27.1446],[-79.9707,9.021,26.0215],[-79.9693,9.0212,26.0215],[-79.9693,9.0238,28.5773],[-79.9668,9.0218,25.0],[-79.9654,9.0229,26.1337],[-79.966,9.0262,25.35],[-79.9682,9.0276,25.7561],[-79.9649,9.0299,27.8593],[-79.9646,9.0279,25.5771],[-79.9618,9.0285,26.7509],[-79.9601,9.0265,25.0],[-79.9612,9.0296,25.9106],[-79.9596,9.0324,25.6619],[-79.9612,9.0335,27.2994],[-79.9626,9.0318,30.0651],[-79.9638,9.0338,37.7547],[-79.9629,9.0399,26.3019],[-79.9657,9.039,26.4015],[-79.9674,9.0432,25.0],[-79.9662,9.0351,28.5781],[-79.969,9.0365,26.0946],[-79.9696,9.0388,25.0],[-79.971,9.0385,26.5725],[-79.9704,9.0357,27.9773],[-79.9729,9.0376,25.0],[-79.9735,9.0301,26.324],[-79.9749,9.0296,26.324],[-79.9765,9.0326,26.6907],[-79.9746,9.039,25.0],[-79.9754,9.0415,34.8621],[-79.9704,9.0463,25.0],[-79.9715,9.0488,25.0],[-79.974,9.0468,33.5706],[-79.976,9.0501,31.2407],[-79.9762,9.0524,27.4825],[-79.9743,9.0549,25.7667],[-79.9765,9.054,27.2261],[-79.9776,9.051,29.0544],[-79.9804,9.0504,27.1103],[-79.9801,9.0485,31.5669],[-79.9837,9.0474,25.0],[-79.9832,9.0446,27.0703],[-79.9868,9.044,25.0],[-79.9854,9.0382,28.4719],[-79.9837,9.0374,28.4719],[-79.9874,9.0313,30.195],[-79.9824,9.0296,28.5518],[-79.9829,9.0282,27.9721],[-79.9868,9.029,25.751],[-79.9835,9.0254,25.0],[-79.9851,9.0226,25.861],[-79.9815,9.024,26.5313],[-79.9801,9.0224,28.4142],[-79.9804,9.0193,29.88],[-79.9857,9.0207,25.0],[-79.9854,9.0176,30.4375],[-79.9824,9.0138,26.9726],[-79.9821,9.0074,29.5695],[-79.9854,9.0085,30.9277],[-79.984,9.0104,25.0],[-79.9854,9.0138,28.9365],[-79.984,9.0157,25.8895],[-79.9865,9.0163,26.1605],[-79.9863,9.0182,25.9562],[-79.9887,9.0165,27.8828],[-79.9926,9.0171,29.7995],[-79.9887,9.019,25.0],[-79.9879,9.024,26.5007],[-79.9887,9.0287,25.0],[-79.9901,9.0287,26.6064],[-79.9901,9.0243,25.0],[-79.9929,9.0235,30.9588],[-79.991,9.026,28.3131],[-79.9926,9.0299,30.9203],[-79.9904,9.0307,25.0],[-79.9935,9.0313,26.2265],[-79.991,9.0324,28.4291],[-79.9915,9.0343,29.2832],[-79.9882,9.0349,25.0],[-79.9874,9.0365,25.0],[-79.9904,9.0374,33.0076],[-79.9899,9.039,26.0601],[-79.9926,9.0415,26.7805],[-79.9929,9.0485,26.5116],[-79.9946,9.0479,26.4122],[-79.9946,9.0449,28.2167],[-79.9974,9.0468,25.0],[-79.9976,9.0404,40.3309],[-79.9999,9.0432,27.2715],[-80.0018,9.041,26.7997],[-80.0004,9.0365,25.9441],[-80.0024,9.0301,25.0],[-80.001,9.0279,25.9688],[-80.0046,9.031,26.4218],[-80.0018,9.036,25.9441],[-80.0026,9.0388,25.0],[-80.0057,9.0388,28.2966],[-80.0035,9.0418,25.0],[-80.0054,9.044,28.5148],[-80.0026,9.0421,26.5321],[-80.0024,9.0438,26.3294],[-80.0046,9.0457,28.8667],[-80.0018,9.0443,26.2777],[-79.9996,9.0457,25.0],[-80.0035,9.0479,26.277],[-80.0024,9.0496,26.7586],[-80.004,9.0504,26.7586],[-80.004,9.0529,25.6095],[-80.0013,9.0571,29.1657],[-79.9987,9.0571,27.3023],[-80.0018,9.0604,25.7038],[-79.9971,9.0632,25.0],[-79.9999,9.0635,29.499],[-79.9999,9.0649,27.6518],[-79.9974,9.0701,26.6088],[-79.9949,9.0699,26.1336],[-79.9954,9.0724,28.0017],[-79.9996,9.0721,26.1839],[-80.0018,9.074,25.0],[-80.0021,9.0696,25.8916],[-80.0043,9.0715,25.0],[-80.0046,9.0688,25.0],[-80.0013,9.0674,27.9962],[-80.001,9.0649,30.1193],[-80.0057,9.0679,25.0],[-80.0029,9.0626,27.8025],[-80.004,9.0624,27.8025],[-80.0049,9.0649,27.0832],[-80.0068,9.0635,25.0],[-80.0074,9.0599,25.0],[-80.0049,9.0593,28.4838],[-80.0062,9.0571,25.0],[-80.0046,9.0549,26.2524],[-80.0062,9.0501,33.7097],[-80.0079,9.0554,29.0014],[-80.0129,9.0562,26.3859],[-80.0101,9.0582,25.0],[-80.0118,9.0593,25.0],[-80.0104,9.0615,25.6399],[-80.0121,9.0621,30.1825],[-80.0082,9.0632,28.1417],[-80.0082,9.0649,29.3397],[-80.0121,9.0649,27.8212],[-80.0165,9.0613,29.0762],[-80.016,9.0635,26.5184],[-80.0124,9.0657,28.3104],[-80.0126,9.0682,28.2821],[-80.0113,9.066,26.0111],[-80.0082,9.0665,27.8626],[-80.0096,9.0704,27.0175],[-80.0071,9.0688,28.3008],[-80.0065,9.071,28.9873],[-80.0085,9.0726,35.0655],[-80.0082,9.0749,29.122],[-80.0046,9.0749,25.0],[-80.011,9.0785,29.9266],[-80.0068,9.0779,27.2497],[-80.0068,9.0812,28.0624],[-80.0054,9.079,30.5916],[-80.0029,9.0785,25.0],[-80.0051,9.0824,27.263],[-80.0018,9.0812,25.0],[-80.0024,9.0835,30.4069],[-80.0007,9.0832,25.0],[-80.0004,9.0812,25.0],[-79.9982,9.0821,27.8692],[-79.9971,9.0787,25.0],[-79.9957,9.0832,25.0],[-79.9921,9.0804,25.0],[-79.9926,9.0849,25.9925],[-79.9896,9.0826,25.0],[-79.9918,9.0874,30.3391],[-79.9871,9.0865,25.0],[-79.9863,9.0882,25.0],[-79.9882,9.0896,25.0],[-79.9871,9.0918,25.0],[-79.9907,9.0885,26.6055],[-79.9932,9.0901,25.0],[-79.9932,9.0885,30.3391],[-79.9949,9.0882,25.8217],[-79.9935,9.0863,27.1764],[-79.9951,9.0851,28.1942],[-79.9974,9.0865,25.0],[-79.9968,9.0888,25.0],[-79.9993,9.0882,25.0],[-79.9976,9.0846,29.9403],[-80.001,9.086,25.0],[-80.0057,9.0849,27.4426],[-80.0049,9.0868,25.0],[-80.0065,9.0885,25.0],[-80.0065,9.084,25.0],[-80.0079,9.0832,28.4347],[-80.0115,9.0849,25.0],[-80.0107,9.0832,27.0965],[-80.0121,9.0835,27.0965],[-80.0121,9.0815,30.1052],[-80.0163,9.0832,25.0],[-80.0151,9.0849,25.0],[-80.0163,9.086,25.0],[-80.0185,9.0815,25.0],[-80.0151,9.0801,30.4348],[-80.0188,9.081,25.0],[-80.019,9.0785,25.0],[-80.0165,9.0782,25.0],[-80.0154,9.0757,27.644],[-80.0132,9.0774,29.4888],[-80.0124,9.0757,25.5092],[-80.0151,9.0751,27.6908],[-80.0149,9.0724,25.866],[-80.0163,9.0732,25.866],[-80.0182,9.0693,26.8521],[-80.0199,9.0713,25.0],[-80.0243,9.069,25.0],[-80.021,9.071,27.3973],[-80.0204,9.0732,25.0],[-80.0174,9.0735,25.0],[-80.0185,9.0771,25.0],[-80.0196,9.0776,25.0],[-80.021,9.0746,27.8456],[-80.0246,9.0737,37.7704],[-80.0271,9.0774,25.0],[-80.0293,9.0771,26.2882],[-80.0254,9.0807,25.0],[-80.0257,9.0824,25.0],[-80.0296,9.0832,25.6952],[-80.0299,9.0796,27.0074],[-80.0326,9.0774,28.3377],[-80.0326,9.0754,36.9461],[-80.0338,9.0754,26.9358],[-80.0335,9.0774,25.0],[-80.0354,9.0768,25.0],[-80.0362,9.0782,25.0],[-80.0357,9.0746,25.0],[-80.0312,9.0726,30.267],[-80.0338,9.0732,25.0],[-80.0343,9.0688,26.495],[-80.0349,9.0718,25.0],[-80.0362,9.0721,25.0],[-80.0349,9.0649,31.1051],[-80.0368,9.0657,25.0],[-80.0371,9.0635,30.9839],[-80.0396,9.0635,25.0],[-80.0371,9.0599,25.0],[-80.0393,9.0579,25.0],[-80.0393,9.0546,26.4283],[-80.0362,9.0507,27.4531],[-80.0335,9.0526,29.9677],[-80.0335,9.0499,25.0],[-80.031,9.0513,25.0],[-80.0301,9.0493,26.4886],[-80.0287,9.0496,25.0],[-80.0307,9.0468,26.2116],[-80.0274,9.044,28.2481],[-80.0229,9.0432,27.6235],[-80.0229,9.0407,26.9444],[-80.0204,9.0399,28.7261],[-80.0196,9.0424,33.0993],[-80.0182,9.0424,27.4186],[-80.0199,9.0393,28.7261],[-80.0132,9.0265,30.284],[-80.0151,9.016,27.4785],[-80.0163,9.0165,27.4785],[-80.0157,9.0207,25.0],[-80.0204,9.0176,25.0],[-80.0218,9.0193,30.7215],[-80.0151,9.0226,25.0],[-80.016,9.0307,28.344],[-80.0176,9.031,30.3734],[-80.0188,9.036,26.572],[-80.0249,9.041,28.5049],[-80.0263,9.0404,27.7898],[-80.026,9.0429,27.0409],[-80.029,9.0432,25.0],[-80.0307,9.041,28.1295],[-80.0321,9.0488,25.0],[-80.0368,9.0488,25.0],[-80.0376,9.0463,29.8772],[-80.0385,9.049,25.0],[-80.0413,9.049,25.0],[-80.0418,9.0451,25.0],[-80.0399,9.0421,34.5325],[-80.0418,9.0401,25.0],[-80.0376,9.0388,34.4046],[-80.0376,9.0362,25.0],[-80.0343,9.0324,25.0],[-80.0307,9.0307,42.9838],[-80.029,9.0279,26.3491],[-80.0285,9.0207,33.1894]],
[[-80.0924,9.0365,31.7774],[-80.0915,9.0379,26.6136],[-80.0849,9.0346,27.0202],[-80.0832,9.0354,26.0792],[-80.0826,9.0338,26.0792],[-80.0888,9.0338,25.0],[-80.091,9.0293,30.7578],[-80.0915,9.0343,25.5392],[-80.0888,9.0351,25.0],[-80.0924,9.0365,31.7774]],
[[-79.7718,9.2726,29.3906],[-79.7704,9.2749,27.7084],[-79.7707,9.2724,25.0],[-79.7685,9.2724,27.9351],[-79.7682,9.271,26.9505],[-79.7749,9.2679,27.4256],[-79.7826,9.2687,28.1178],[-79.7776,9.2696,27.2598],[-79.7768,9.2687,26.1469],[-79.7743,9.274,29.6399],[-79.7732,9.2724,29.3906],[-79.7749,9.2693,27.0878],[-79.7737,9.2693,27.0878],[-79.7718,9.2726,29.3906]]],
[[[-79.9885,9.0565,25.0],[-79.9901,9.0599,25.0],[-79.9932,9.0493,26.3293],[-79.9899,9.0488,28.2241],[-79.9879,9.051,26.6797],[-79.9893,9.0526,25.0],[-79.9885,9.0565,25.0]]],
[[[-79.9713,9.059,26.0541],[-79.9704,9.061,25.0],[-79.9735,9.0601,25.0],[-79.9729,9.0582,25.0],[-79.9713,9.059,26.0541]]],
[[[-79.9551,9.0363,28.1715],[-79.9546,9.0374,25.0],[-79.9565,9.0376,25.0],[-79.9582,9.0357,25.0],[-79.9568,9.0357,25.0],[-79.9551,9.0363,28.1715]]],
[[[-79.9604,9.0404,25.0],[-79.9604,9.0424,25.0],[-79.9621,9.0426,25.0],[-79.9621,9.0393,27.2577],[-79.9604,9.0404,25.0]]],
[[[-79.9654,9.051,28.0447],[-79.966,9.0529,28.9522],[-79.9638,9.0557,25.0],[-79.9679,9.0537,26.287],[-79.9662,9.0465,25.0],[-79.9621,9.054,25.0],[-79.9654,9.051,28.0447]]],
[[[-79.9682,9.0635,25.0],[-79.9679,9.0646,25.0],[-79.971,9.0646,26.4287],[-79.9704,9.0626,26.8779],[-79.9682,9.0635,25.0]]],
[[[-80.0232,9.0774,25.0],[-80.0226,9.0774,25.0],[-80.0226,9.079,25.0],[-80.0237,9.0763,25.0],[-80.0232,9.0774,25.0]]],
[[[-80.0229,9.0804,25.0],[-80.0226,9.0807,25.0],[-80.0235,9.0821,25.0],[-80.0235,9.0793,25.0],[-80.0229,9.0804,25.0]]],
[[[-80.0215,9.0876,25.6624],[-80.0235,9.0885,25.8541],[-80.0204,9.086,25.0],[-80.0204,9.0876,25.0],[-80.0215,9.0876,25.6624]]],
[[[-80.0251,9.0899,25.0],[-80.0249,9.0921,25.0],[-80.0271,9.0918,25.0],[-80.026,9.0888,25.0],[-80.0251,9.0899,25.0]]],
[[[-80.0135,9.0976,25.0],[-80.016,9.0988,25.0],[-80.0165,9.0965,25.0],[-80.0151,9.0938,25.0],[-80.0137,9.096,25.0],[-80.014,9.0924,25.0],[-80.0126,9.0918,25.0],[-80.0121,9.0943,25.0],[-80.0135,9.0976,25.0]]],
[[[-80.0257,9.0957,25.0],[-80.0274,9.0971,25.0],[-80.0282,9.0946,25.0],[-80.026,9.0946,25.0],[-80.0257,9.0957,25.0]]],
[[[-80.0154,9.1035,25.0],[-80.0176,9.1046,25.0],[-80.0168,9.1012,25.0],[-80.0137,9.1024,25.0],[-80.0154,9.1035,25.0]]],
[[[-79.8607,9.1971,30.0828],[-79.8585,9.1976,47.3897],[-79.8576,9.201,25.0],[-79.8604,9.2004,35.327],[-79.8607,9.1971,30.0828]]],
[[[-79.8871,9.2076,25.0],[-79.8868,9.2099,29.2355],[-79.8879,9.2107,25.0],[-79.8887,9.2082,25.0],[-79.8871,9.2076,25.0]]],
[[[-79.8838,9.209,25.0],[-79.884,9.2104,25.0],[-79.8851,9.2093,25.0],[-79.8851,9.211,26.5722],[-79.8868,9.211,25.0],[-79.8857,9.2085,25.0],[-79.8838,9.209,25.0]]],
[[[-79.8965,9.2121,28.2148],[-79.8962,9.214,25.0],[-79.8976,9.2121,25.0],[-79.8993,9.2124,25.0],[-79.8999,9.211,25.0],[-79.8971,9.2113,27.2011],[-79.899,9.2082,25.0],[-79.8943,9.2082,25.0],[-79.8938,9.2099,33.4963],[-79.8965,9.2121,28.2148]]],
[[[-79.9054,9.2101,29.8005],[-79.9062,9.2118,33.5941],[-79.9068,9.2096,29.8005],[-79.9099,9.2076,29.6816],[-79.9057,9.2068,28.5367],[-79.9054,9.2101,29.8005]]],
[[[-79.9143,9.2107,29.6576],[-79.9171,9.2118,32.7879],[-79.9146,9.2079,25.0],[-79.9112,9.2085,29.6816],[-79.9124,9.211,25.0],[-79.9143,9.2107,29.6576]]],
[[[-79.9135,9.2146,43.7413],[-79.9174,9.2143,38.3385],[-79.9149,9.2124,34.5263],[-79.9126,9.2132,25.0],[-79.9135,9.2146,43.7413]]],
[[[-79.914,9.219,28.957],[-79.9154,9.2213,25.0],[-79.9182,9.2196,30.9101],[-79.9115,9.2149,25.0],[-79.9112,9.2132,25.0],[-79.9079,9.2149,26.5469],[-79.9082,9.2174,25.0],[-79.9121,9.2182,58.8004],[-79.9126,9.2199,27.461],[-79.914,9.219,28.957]]],
[[[-79.8901,9.2115,25.0],[-79.8932,9.2137,25.0],[-79.894,9.2104,33.4963],[-79.8918,9.209,25.0],[-79.8918,9.2113,39.5805],[-79.8899,9.2101,25.0],[-79.8901,9.2115,25.0]]],
[[[-79.9001,9.2224,25.0],[-79.8999,9.2243,25.0],[-79.9018,9.2232,25.0],[-79.9018,9.2213,25.0],[-79.9004,9.2215,25.0],[-79.9001,9.2224,25.0]]],
[[[-79.8526,9.2463,34.13],[-79.8535,9.2482,25.5748],[-79.8574,9.2471,26.1058],[-79.8546,9.2429,38.837],[-79.8557,9.241,64.3589],[-79.8576,9.2418,34.8219],[-79.859,9.239,28.0227],[-79.8562,9.2357,44.6215],[-79.8576,9.2346,47.9125],[-79.8574,9.2315,43.6709],[-79.8596,9.2332,43.4677],[-79.8593,9.236,25.0],[-79.8654,9.2332,28.3672],[-79.8635,9.2379,25.0],[-79.8665,9.2374,44.7482],[-79.8668,9.239,28.508],[-79.869,9.239,25.0],[-79.8665,9.2357,26.0273],[-79.8693,9.2346,38.9897],[-79.8721,9.2393,25.0],[-79.8737,9.2379,34.7388],[-79.8737,9.2343,41.9613],[-79.8712,9.2313,34.0493],[-79.8729,9.2282,34.6646],[-79.8724,9.2243,25.0],[-79.8676,9.2226,37.9373],[-79.8696,9.219,26.8411],[-79.8693,9.2154,25.0],[-79.8674,9.2135,25.0],[-79.8696,9.2054,25.0],[-79.8671,9.2018,25.0],[-79.8637,9.2049,25.0],[-79.8651,9.2074,50.9615],[-79.8635,9.2074,31.4981],[-79.8604,9.211,45.306399999999996],[-79.8599,9.2093,43.1806],[-79.861,9.2065,25.0],[-79.8579,9.209,29.7744],[-79.8551,9.2071,25.0],[-79.8549,9.209,36.6828],[-79.8529,9.2082,25.0],[-79.8512,9.2104,25.0],[-79.8479,9.2232,26.4538],[-79.851,9.2235,31.2637],[-79.8515,9.2265,25.0],[-79.854,9.226,44.0727],[-79.8538,9.2282,25.0],[-79.8562,9.2287,33.0876],[-79.8538,9.2293,27.0763],[-79.8501,9.234,61.1539],[-79.8485,9.2326,25.5201],[-79.8485,9.2351,25.0],[-79.8463,9.2349,26.5382],[-79.846,9.2326,26.1219],[-79.8432,9.2335,25.0],[-79.8465,9.2393,25.0],[-79.8468,9.2374,26.0709],[-79.8493,9.2376,26.3193],[-79.8493,9.2429,25.0],[-79.8526,9.2463,34.13]]],
[[[-79.8857,9.2318,25.0],[-79.8865,9.2343,28.5204],[-79.8876,9.2318,37.7463],[-79.8932,9.2315,25.0],[-79.8929,9.229,56.1576],[-79.8962,9.2313,28.0455],[-79.8974,9.2299,25.0],[-79.8954,9.2257,25.0],[-79.8915,9.2237,25.0],[-79.8879,9.2307,37.7463],[-79.8857,9.2318,25.0]]],
[[[-79.9085,9.2379,25.0],[-79.9093,9.2396,25.0],[-79.9093,9.2382,25.0],[-79.9118,9.239,25.0],[-79.9132,9.2376,31.6693],[-79.9101,9.2343,35.6786],[-79.9149,9.2326,25.0],[-79.9135,9.229,25.0],[-79.9165,9.2307,25.0],[-79.9168,9.2276,29.8767],[-79.9185,9.2285,25.0],[-79.9174,9.2257,25.0],[-79.9165,9.2279,29.8767],[-79.9118,9.2276,29.4421],[-79.9079,9.2301,25.0],[-79.9085,9.2379,25.0]]],
[[[-79.901,9.2421,25.0],[-79.9024,9.2437,29.5286],[-79.9051,9.2432,26.5826],[-79.9037,9.2415,29.1399],[-79.9068,9.2385,49.7201],[-79.906,9.2296,25.0],[-79.8985,9.2349,25.0],[-79.8962,9.239,29.3025],[-79.8982,9.241,32.0875],[-79.9013,9.2379,45.6599],[-79.901,9.2421,25.0]]],
[[[-79.9349,9.2388,29.18],[-79.934,9.2415,25.0],[-79.9362,9.239,34.6013],[-79.9385,9.2412,25.0],[-79.9404,9.2376,25.0],[-79.9362,9.2368,25.0],[-79.9349,9.2388,29.18]]],
[[[-79.9262,9.2554,25.0],[-79.9279,9.2585,25.0],[-79.9285,9.2549,25.0],[-79.9318,9.2538,25.0],[-79.9296,9.2532,25.0],[-79.9307,9.2513,25.0],[-79.9285,9.2507,36.7235],[-79.9279,9.2471,25.0],[-79.926,9.2479,29.013],[-79.9262,9.2554,25.0]]],
[[[-79.9924,9.1051,25.0],[-79.9912,9.1049,25.0],[-79.9912,9.1071,25.5064],[-79.9932,9.1076,25.9816],[-79.9938,9.1057,25.0],[-79.9924,9.1051,25.0]]],
[[[-79.9887,9.1099,25.0],[-79.9893,9.1118,25.0],[-79.9915,9.1085,25.5064],[-79.9896,9.1065,25.0],[-79.9887,9.1076,25.0],[-79.9896,9.1096,25.0],[-79.9887,9.1099,25.0]]],
[[[-79.9768,9.119,25.0],[-79.9785,9.121,25.0],[-79.9796,9.1185,25.0],[-79.9768,9.1179,25.0],[-79.9768,9.119,25.0]]],
[[[-79.939,9.1807,34.2334],[-79.941,9.1821,25.0],[-79.939,9.179,25.0],[-79.941,9.1785,28.626],[-79.9407,9.1765,25.0],[-79.9388,9.1757,34.722],[-79.9374,9.179,28.7306],[-79.939,9.1807,34.2334]]],
[[[-79.9299,9.1912,25.0],[-79.931,9.1929,26.0459],[-79.9337,9.1929,26.2831],[-79.9313,9.1915,26.7098],[-79.9349,9.1918,26.8963],[-79.9351,9.1907,26.8963],[-79.9318,9.1896,25.0],[-79.9299,9.1912,25.0]]],
[[[-79.9299,9.1951,32.6435],[-79.9318,9.194,33.7053],[-79.9293,9.1943,32.6435],[-79.9282,9.1965,28.3453],[-79.9299,9.1951,32.6435]]],
[[[-79.9301,9.1979,30.0112],[-79.9346,9.1988,26.4667],[-79.9335,9.1968,25.0],[-79.9301,9.1965,28.6327],[-79.9301,9.1979,30.0112]]],
[[[-79.7899,9.1329,25.9324],[-79.7962,9.1332,25.0],[-79.7971,9.1293,29.9651],[-79.7996,9.1307,25.0],[-79.8007,9.1276,25.0],[-79.8007,9.1254,25.0],[-79.7946,9.1199,25.0],[-79.7865,9.1196,25.0],[-79.7851,9.1229,25.0],[-79.7804,9.1243,40.22],[-79.7832,9.1276,29.0989],[-79.7874,9.124,47.4768],[-79.7885,9.1265,28.9837],[-79.7918,9.1265,38.4064],[-79.7885,9.1313,45.3234],[-79.7899,9.1329,25.9324]]],
[[[-79.7871,9.1276,25.0],[-79.7868,9.1301,25.3699],[-79.7885,9.1301,27.7419],[-79.7882,9.1276,25.0],[-79.7871,9.1276,25.0]]],
[[[-79.7785,9.1457,25.0],[-79.7796,9.1465,25.0],[-79.7787,9.1435,28.3957],[-79.7782,9.1438,26.9358],[-79.7785,9.1457,25.0]]],
[[[-79.8026,9.1815,25.9507],[-79.804,9.1824,25.5],[-79.8029,9.1785,30.5655],[-79.8063,9.1774,25.0],[-79.8063,9.176,29.9109],[-79.8035,9.1701,25.0],[-79.7985,9.1685,25.0],[-79.7924,9.1763,29.7171],[-79.7943,9.1763,35.6013],[-79.7943,9.1779,31.6135],[-79.7971,9.1793,27.152],[-79.7982,9.1757,26.8085],[-79.8026,9.1815,25.9507]]],
[[[-79.8407,9.1868,33.9034],[-79.8415,9.1876,28.2248],[-79.8435,9.1876,28.2248],[-79.8421,9.1854,25.0],[-79.8407,9.1868,33.9034]]],
[[[-79.8354,9.1868,25.0],[-79.8374,9.1882,38.5449],[-79.839,9.186,39.0069],[-79.8371,9.1857,25.0],[-79.8354,9.1868,25.0]]],
[[[-79.8101,9.2021,25.0],[-79.8124,9.2035,29.4485],[-79.8138,9.2001,25.9117],[-79.811,9.1996,25.979],[-79.8101,9.2021,25.0]]],
[[[-79.609,9.2232,72.5],[-79.6085,9.2251,72.5],[-79.6104,9.2251,72.8353],[-79.6096,9.2226,72.5],[-79.609,9.2232,72.5]]],
[[[-79.7771,9.2604,25.7226],[-79.7793,9.2607,25.0],[-79.7796,9.2599,25.0],[-79.7776,9.2596,25.7226],[-79.7771,9.2604,25.7226]]],
[[[-79.8449,9.224,27.4526],[-79.846,9.2251,26.4114],[-79.8463,9.2221,29.9881],[-79.8429,9.2162,25.0],[-79.8424,9.2193,33.2232],[-79.8449,9.224,27.4526]]],
[[[-79.8374,9.246,31.744],[-79.839,9.2465,31.744],[-79.839,9.2426,30.6561],[-79.8371,9.2432,25.0],[-79.8374,9.246,31.744]]],
[[[-79.8271,9.2601,34.3031],[-79.8296,9.2607,28.0049],[-79.8279,9.259,34.3031],[-79.829,9.2579,35.0907],[-79.8282,9.2554,25.0],[-79.8251,9.2576,35.4281],[-79.8271,9.2601,34.3031]]],
[[[-79.8233,9.2588,28.7307],[-79.8221,9.2593,25.0],[-79.8257,9.261,25.0],[-79.8243,9.259,28.7307],[-79.8233,9.2588,28.7307]]],
[[[-79.8574,9.2565,25.0],[-79.8562,9.261,29.6267],[-79.8593,9.2607,26.3499],[-79.8624,9.2582,25.0],[-79.8615,9.2568,26.8715],[-79.8587,9.2576,34.6837],[-79.8574,9.2565,25.0]]],
[[[-79.8604,9.2665,33.176],[-79.8613,9.2687,36.1208],[-79.8629,9.266,32.5358],[-79.8562,9.2643,27.8465],[-79.8571,9.2668,25.0],[-79.8604,9.2665,33.176]]],
[[[-79.8682,9.2799,26.0464],[-79.8701,9.281,25.0],[-79.8712,9.2779,25.0],[-79.8676,9.2774,33.8358],[-79.8682,9.2799,26.0464]]],
[[[-79.866,9.2843,25.0],[-79.8676,9.2863,25.0],[-79.869,9.2829,25.0],[-79.8651,9.2779,29.1179],[-79.8637,9.2788,25.0],[-79.8637,9.2818,25.0],[-79.866,9.2843,25.0]]],
[[[-79.8668,9.3071,28.542],[-79.869,9.3087,27.9787],[-79.8696,9.3065,25.0],[-79.869,9.3063,25.0],[-79.8668,9.3071,28.542]]],
[[[-79.8518,9.3082,25.0],[-79.8521,9.3063,25.0],[-79.8504,9.3054,25.0],[-79.849,9.3076,42.0778],[-79.8432,9.3085,25.0],[-79.839,9.3138,44.5433],[-79.8385,9.3093,29.8176],[-79.836,9.3093,25.0],[-79.8346,9.3143,38.6491],[-79.8324,9.3149,25.0],[-79.8313,9.3174,33.2639],[-79.829,9.3174,25.0],[-79.8296,9.3224,39.4155],[-79.8262,9.3204,25.0],[-79.826,9.3249,31.2184],[-79.8235,9.3285,34.6105],[-79.8262,9.329,27.9006],[-79.8274,9.3254,35.4541],[-79.8326,9.3262,27.7372],[-79.8343,9.3251,27.3536],[-79.8343,9.3235,25.0],[-79.8318,9.3229,25.0],[-79.834,9.3218,25.0],[-79.8337,9.3176,25.0],[-79.836,9.3174,41.6616],[-79.8354,9.3212,25.0],[-79.8374,9.3212,25.0],[-79.8415,9.3171,25.0],[-79.8487,9.3188,25.0],[-79.8521,9.3176,25.0],[-79.8529,9.3146,25.0],[-79.8507,9.314,29.5777],[-79.8507,9.3126,25.0],[-79.8532,9.3138,25.0],[-79.8574,9.3076,31.2237],[-79.8549,9.3065,25.0],[-79.8518,9.3082,25.0]]],
[[[-79.8504,9.3954,7.2345],[-79.8512,9.3968,1.7528],[-79.854,9.3957,0.0],[-79.8521,9.3907,0.0],[-79.849,9.3885,0.6516],[-79.8465,9.3893,0.4589],[-79.8476,9.3943,2.8734],[-79.8504,9.3954,7.2345]]],
[[[-79.8421,9.3029,38.0615],[-79.8435,9.3046,27.5196],[-79.8465,9.304,25.3021],[-79.8435,9.3015,40.7688],[-79.8496,9.2999,46.3615],[-79.8479,9.3018,25.0],[-79.8487,9.3029,25.0],[-79.8596,9.3035,25.0],[-79.8582,9.3013,25.0],[-79.8596,9.2982,25.0],[-79.8574,9.2971,51.0837],[-79.8607,9.2974,25.0],[-79.8587,9.296,29.1374],[-79.8604,9.2949,25.0],[-79.8593,9.2929,29.1997],[-79.8604,9.2913,30.4629],[-79.8657,9.2924,25.0],[-79.8649,9.2874,29.373],[-79.8596,9.2896,30.212],[-79.8621,9.2865,25.0],[-79.8585,9.2865,25.0],[-79.8543,9.289,38.4355],[-79.8535,9.2929,27.8994],[-79.8507,9.2935,25.0],[-79.8501,9.2924,25.0],[-79.8524,9.2918,25.0],[-79.8518,9.2896,25.0],[-79.8538,9.2868,43.1866],[-79.8576,9.2843,40.9376],[-79.861,9.2846,25.0],[-79.8621,9.2796,25.0],[-79.8565,9.2793,45.9641],[-79.8554,9.2776,27.9181],[-79.8529,9.2793,63.3927],[-79.8474,9.279,25.0],[-79.8465,9.2846,33.8644],[-79.8418,9.2838,54.6835],[-79.839,9.2851,25.0],[-79.8396,9.2946,76.893],[-79.836,9.2962,30.4874],[-79.8365,9.2935,25.0],[-79.8343,9.294,37.9407],[-79.8337,9.2924,25.0],[-79.831,9.2979,25.0],[-79.8346,9.2987,48.8448],[-79.8368,9.3021,25.0],[-79.8399,9.3013,47.8092],[-79.8421,9.3029,38.0615]]],
[[[-79.5576,9.3588,72.5],[-79.5575,9.3588,72.5],[-79.5576,9.3592,72.5],[-79.5576,9.3588,72.5]]],
[[[-79.8246,9.3326,29.4536],[-79.8243,9.3343,25.0],[-79.8271,9.334,27.9107],[-79.826,9.3318,25.0],[-79.8246,9.3326,29.4536]]]]}
,"properties": {"GID_2": "PAN.4.2_1","GID_0": "PAN","country": "Panama","GID_1": "PAN.4_1","province": "Colón","NL_NAME_1": "NA","county": "Colón","VARNAME_2": "NA","NL_NAME_2": "NA","TYPE_2": "Distrito","ENGTYPE_2": "District","CC_2": "NA","HASC_2": "PA.CL.CL","name": "Colón.county","area_km2": 1253.9135,"hist_schema_id": "Elevation0-9000","hist_area_km2": {"-25": 0.0837,"0": 71.0691,"25": 205.0643,"50": 222.6354,"75": 161.2515,"100": 128.5555,"125": 83.7478,"150": 66.438,"175": 52.3745,"200": 41.3451,"225": 32.9325,"250": 27.8475,"275": 23.579,"300": 20.3769,"325": 15.083,"350": 11.8818,"375": 10.2708,"400": 10.0616,"425": 8.5135,"450": 6.4008,"475": 5.3757,"500": 4.5598,"525": 4.2041,"550": 4.2251,"575": 4.0577,"600": 4.5178,"625": 4.2877,"650": 4.1412,"675": 3.451,"700": 3.0536,"725": 2.5516,"750": 2.4261,"775": 2.0287,"800": 2.0705,"825": 1.1293,"850": 0.8365,"875": 0.4183,"900": 0.2928,"925": 0.2719,"950": 0.4392,"975": 0.0627}}}