{"type":"Feature","properties":{"GID_3":"PAN.2.10.5_1","GID_0":"PAN","country":"Panama","GID_1":"PAN.2_1","province":"Chiriquí","NL_NAME_1":"NA","GID_2":"PAN.2.10_1","county":"Renacimiento","NL_NAME_2":"NA","city":"RíoSereno","VARNAME_3":"NA","NL_NAME_3":"NA","TYPE_3":"Corregimiento","ENGTYPE_3":"Municipality","CC_3":"NA","HASC_3":"NA","name":"Río_Sereno.city"},
"geometry":{"type": "MultiPolygon","coordinates": [[[[-82.889,8.7915,968.5253],[-82.8775,8.7778,1039.9852],[-82.8723,8.7737,1032.0675],[-82.8748,8.7654,1032.0144],[-82.868,8.7543,876.6339],[-82.847,8.7544,889.4106],[-82.8356,8.759,742.7912],[-82.8319,8.7591,624.1022],[-82.8315,8.7621,636.2885],[-82.8423,8.7649,781.4835],[-82.8476,8.7689,730.4199],[-82.8499,8.7749,719.9267],[-82.8484,8.7822,782.7748],[-82.8529,8.7866,864.2193],[-82.8522,8.7972,908.9193],[-82.8493,8.8085,857.9566],[-82.8428,8.8148,875.6332],[-82.842,8.8197,877.7505],[-82.8448,8.8212,887.5917],[-82.8581,8.8184,934.6579],[-82.8716,8.8239,940.1959],[-82.8733,8.8276,925.5768],[-82.8693,8.8339,969.9758],[-82.8601,8.8367,972.2614],[-82.8559,8.8408,1015.1386],[-82.8452,8.8405,1007.3661],[-82.8379,8.8453,1038.9851],[-82.8191,8.8508,1119.5891],[-82.8112,8.8554,1134.7937],[-82.8038,8.8681,1191.8361],[-82.8018,8.8754,1200.5475],[-82.8093,8.8724,1227.1652],[-82.8129,8.8651,1191.254],[-82.8218,8.8596,1141.1056],[-82.834,8.8558,1097.5391],[-82.8391,8.8563,1099.7954],[-82.8495,8.8539,1064.5328],[-82.8548,8.8561,1084.1437],[-82.8566,8.8527,1043.9291],[-82.8622,8.8523,1043.376],[-82.8625,8.8494,1036.0411],[-82.8674,8.8469,1043.0488],[-82.8692,8.8436,1015.1235],[-82.8829,8.832,987.3571],[-82.8837,8.8295,1002.9636],[-82.8834,8.8265,987.6738],[-82.8818,8.826,995.0587],[-82.8807,8.8226,989.9832],[-82.8764,8.8229,1002.2936],[-82.8778,8.82,1017.0197],[-82.8713,8.8184,945.8517],[-82.8706,8.816,941.2824],[-82.8623,8.8181,986.094],[-82.8656,8.8048,983.5416],[-82.8713,8.8028,997.2274],[-82.8746,8.7993,997.6082],[-82.8855,8.7952,981.1241],[-82.889,8.7915,968.5253]]]]}}