{"type":"Feature","properties":{"GID_3":"PAN.12.6.9_1","GID_0":"PAN","country":"Panama","GID_1":"PAN.12_1","province":"Panamá","NL_NAME_1":"NA","GID_2":"PAN.12.6_1","county":"Panamá","NL_NAME_2":"NA","city":"LasCumbres","VARNAME_3":"NA","NL_NAME_3":"NA","TYPE_3":"Corregimiento","ENGTYPE_3":"Municipality","CC_3":"NA","HASC_3":"NA","name":"Las_Cumbres.city"},
"geometry":{"type": "MultiPolygon","coordinates": [[[[-79.5425,9.0583,155.804],[-79.5238,9.0642,92.203],[-79.52,9.0712,93.9873],[-79.512,9.0798,76.0757],[-79.5031,9.0811,87.8153],[-79.5008,9.0767,69.2216],[-79.495,9.08,64.0693],[-79.4893,9.0871,58.9356],[-79.4741,9.0919,47.4565],[-79.4667,9.0927,65.5436],[-79.4485,9.0873,51.3233],[-79.4566,9.0977,74.8842],[-79.4569,9.1069,75.2867],[-79.4598,9.1154,99.5324],[-79.4596,9.1215,153.5373],[-79.4537,9.1388,290.7051],[-79.4609,9.1443,164.2997],[-79.4645,9.1503,179.1912],[-79.464,9.1574,181.8787],[-79.4614,9.1645,223.146],[-79.4626,9.1845,518.0195],[-79.4727,9.1753,360.9367],[-79.472,9.1692,346.8607],[-79.4792,9.1575,331.3533],[-79.4852,9.158,261.4557],[-79.4933,9.163,267.6265],[-79.5044,9.1589,224.2502],[-79.509,9.1547,225.6143],[-79.5169,9.1419,138.7352],[-79.5234,9.1386,126.8535],[-79.5301,9.1391,136.0076],[-79.5339,9.1268,172.3478],[-79.5415,9.13,146.677],[-79.5499,9.1374,122.362],[-79.5615,9.1375,147.9544],[-79.5672,9.1353,154.3783],[-79.5734,9.1252,116.5316],[-79.5816,9.1252,119.0449],[-79.5864,9.1232,102.3856],[-79.5838,9.1143,109.5043],[-79.5734,9.104,123.078],[-79.5759,9.0903,177.5085],[-79.5751,9.0821,213.2266],[-79.5625,9.071,202.4122],[-79.5425,9.0583,155.804]]]]}}