{"type":"Feature","properties":{"GID_3":"PAN.12.2.6_1","GID_0":"PAN","country":"Panama","GID_1":"PAN.12_1","province":"Panamá","NL_NAME_1":"NA","GID_2":"PAN.12.2_1","county":"Chepo","NL_NAME_2":"NA","city":"LasMargaritas","VARNAME_3":"NA","NL_NAME_3":"NA","TYPE_3":"Corregimiento","ENGTYPE_3":"Municipality","CC_3":"NA","HASC_3":"NA","name":"Las_Margaritas.city"},
"geometry":{"type": "MultiPolygon","coordinates": [[[[-79.2828,9.3175,799.0682],[-79.2907,9.3168,816.1455],[-79.2969,9.3115,631.2133],[-79.2915,9.2867,499.2932],[-79.2869,9.2786,585.6793],[-79.2815,9.2734,554.6633],[-79.2516,9.2641,500.2256],[-79.2437,9.2586,356.638],[-79.2383,9.2568,311.053],[-79.2274,9.256,409.0289],[-79.2201,9.2639,454.9564],[-79.2158,9.264,362.1418],[-79.1951,9.2563,390.9438],[-79.1759,9.2378,284.1954],[-79.1535,9.2405,249.5879],[-79.1234,9.2331,325.9487],[-79.1162,9.2252,334.5019],[-79.104,9.2036,40.0122],[-79.1001,9.1932,33.7011],[-79.0877,9.1804,25.0808],[-79.084,9.1814,16.4325],[-79.0799,9.1934,18.6227],[-79.0662,9.2082,40.4039],[-79.0488,9.2147,36.9509],[-79.0306,9.2162,38.6657],[-79.0207,9.2152,29.3094],[-79.0256,9.2284,56.2318],[-79.0292,9.2454,135.6673],[-79.0343,9.2565,259.0928],[-79.0341,9.266,380.457],[-79.0389,9.2769,329.9042],[-79.0395,9.2975,433.131],[-79.0505,9.2997,462.4782],[-79.0727,9.2988,487.8494],[-79.0991,9.3053,461.428],[-79.102,9.3081,343.8937],[-79.1014,9.3105,263.5349],[-79.0916,9.314,412.6301],[-79.0904,9.3178,396.4002],[-79.0943,9.3238,317.9233],[-79.1059,9.3347,465.3174],[-79.1144,9.3385,268.789],[-79.1301,9.3394,169.2973],[-79.144,9.3334,221.4386],[-79.1555,9.3318,332.9321],[-79.173,9.3386,292.4222],[-79.1765,9.3386,316.4423],[-79.193,9.3314,353.8795],[-79.2021,9.3305,418.3478],[-79.2151,9.3201,544.3445],[-79.2308,9.3135,653.515],[-79.2393,9.3077,567.2812],[-79.2465,9.311,590.6763],[-79.2712,9.3107,681.3152],[-79.2828,9.3175,799.0682]]]]}}