{"type": "Feature","bbox": [-79.8321,8.7777,-79.7435,8.8646],"geometry": {"type": "MultiPolygon","coordinates": [[[[-79.7727,8.7777,4.9075],[-79.7701,8.7826,3.5021],[-79.7718,8.7835,6.5852],[-79.7721,8.7862,13.389099999999999],[-79.7671,8.7918,0.0],[-79.769,8.7957,0.0],[-79.7657,8.7996,1.3001],[-79.7668,8.804,2.4084],[-79.7635,8.809,12.3163],[-79.7568,8.8132,0.0],[-79.759,8.8176,3.4235],[-79.7546,8.8165,0.0],[-79.7513,8.8185,0.0],[-79.7507,8.8215,0.0],[-79.754,8.8257,4.2628],[-79.7524,8.8274,0.0],[-79.7529,8.829,5.9652],[-79.7515,8.8299,5.9652],[-79.7485,8.8263,0.0],[-79.7465,8.8263,0.0],[-79.7476,8.8304,6.8259],[-79.7454,8.8318,4.5991],[-79.7487,8.8382,0.0],[-79.7435,8.8429,0.0],[-79.7511,8.8439,16.4401],[-79.7612,8.8427,26.1115],[-79.7637,8.8442,56.2049],[-79.7648,8.8489,59.4],[-79.7617,8.8578,48.5722],[-79.7613,8.8646,67.5489],[-79.7777,8.8609,79.0512],[-79.7852,8.8487,85.1076],[-79.798,8.8439,67.9019],[-79.8024,8.8392,71.4123],[-79.8075,8.8289,63.6334],[-79.815,8.8268,80.0689],[-79.8276,8.8305,130.3182],[-79.8321,8.8163,125.9779],[-79.8313,8.8115,81.1496],[-79.8263,8.805,31.9517],[-79.8168,8.798,35.3902],[-79.8082,8.8,12.1361],[-79.8036,8.7998,69.5419],[-79.8014,8.7982,81.1623],[-79.7966,8.8018,7.8458],[-79.7922,8.8018,17.7214],[-79.7856,8.7837,49.2282],[-79.7727,8.7777,4.9075]]]]}
,"properties": {"GID_3": "PAN.11.4.16_1","GID_0": "PAN","country": "Panama","GID_1": "PAN.11_1","province": "PanamáOeste","NL_NAME_1": "NA","GID_2": "PAN.11.4_1","county": "LaChorrera","NL_NAME_2": "NA","city": "PlayaLeona","VARNAME_3": "NA","NL_NAME_3": "NA","TYPE_3": "Corregimiento","ENGTYPE_3": "Municipality","CC_3": "NA","HASC_3": "NA","name": "Playa_Leona.city","area_km2": 44.54267,"hist_schema_id": "Elevation0-9000","hist_area_km2": {"0": 4.58842,"25": 8.21309,"50": 9.55387,"75": 12.63333,"100": 4.52548,"125": 2.09518,"150": 1.15237,"175": 0.98475,"200": 0.73332,"225": 0.06286}}}