{"type": "Feature","bbox": [-82.422,9.0258,-81.9157,9.214],"geometry": {"type": "MultiPolygon","coordinates": [[[[-82.2871,9.1815,213.4863],[-82.3002,9.1784,213.754],[-82.3079,9.1744,222.9435],[-82.3134,9.1749,209.4441],[-82.3196,9.1722,315.2088],[-82.3307,9.1747,369.5948],[-82.3378,9.1635,408.3646],[-82.3424,9.1675,431.1646],[-82.3474,9.1669,435.8401],[-82.3555,9.1708,342.6161],[-82.3604,9.1829,225.213],[-82.3731,9.1973,185.5377],[-82.3787,9.176,181.1749],[-82.3911,9.185,158.9255],[-82.4013,9.1832,226.4237],[-82.4039,9.178,280.556],[-82.4014,9.1624,303.8679],[-82.4057,9.1618,295.7992],[-82.414,9.1561,324.5558],[-82.422,9.1112,361.2644],[-82.4217,9.1099,375.3055],[-82.4151,9.1114,319.1396],[-82.4052,9.1036,269.8521],[-82.4032,9.0989,346.6617],[-82.4046,9.0889,354.2806],[-82.3997,9.0843,398.3195],[-82.3996,9.0774,313.2336],[-82.4029,9.0728,418.9987],[-82.3983,9.0671,404.7306],[-82.3981,9.0608,527.5856],[-82.4009,9.0568,547.7665],[-82.4064,9.0258,453.5291],[-82.3837,9.026,437.9503],[-82.3792,9.0293,391.3396],[-82.3795,9.0321,429.6029],[-82.3847,9.0386,468.145],[-82.3768,9.0396,405.8649],[-82.3727,9.0419,371.1804],[-82.3708,9.0473,286.6739],[-82.3652,9.0509,216.0085],[-82.365,9.0541,230.209],[-82.3569,9.065,133.105],[-82.3561,9.0705,112.9827],[-82.3485,9.0732,170.4348],[-82.3496,9.0767,137.0806],[-82.3584,9.0837,110.9939],[-82.3454,9.0924,190.7062],[-82.3437,9.1018,104.1387],[-82.3407,9.1057,131.711],[-82.342,9.1095,140.9375],[-82.341,9.1149,171.3104],[-82.3361,9.1196,315.0033],[-82.3294,9.1209,365.4571],[-82.3234,9.1241,202.3086],[-82.3179,9.1355,215.1855],[-82.3138,9.1254,121.4428],[-82.3105,9.142,48.5568],[-82.304,9.138,9.4908],[-82.3007,9.1311,4.2495],[-82.3012,9.1263,47.4049],[-82.2986,9.1232,59.743],[-82.2942,9.1223,5.7745],[-82.2887,9.1116,74.8805],[-82.2858,9.1109,18.8249],[-82.2724,9.1151,0.0],[-82.2671,9.1129,5.2078],[-82.264,9.1096,0.0],[-82.2532,9.1099,0.9763],[-82.2546,9.1126,3.7269],[-82.2588,9.1129,5.758],[-82.2696,9.1196,11.5815],[-82.2696,9.1224,5.6395],[-82.2671,9.1257,0.0],[-82.2674,9.1318,0.0],[-82.2629,9.1351,0.0],[-82.2665,9.1376,0.0],[-82.2688,9.1351,6.7452],[-82.2707,9.1365,6.0855],[-82.2721,9.1413,5.7138],[-82.2701,9.1507,29.0279],[-82.2618,9.1543,31.0626],[-82.2549,9.1535,0.0],[-82.254,9.1621,2.712],[-82.2579,9.1649,10.8756],[-82.2593,9.1701,17.1686],[-82.2622,9.1727,170.5636],[-82.2871,9.1815,213.4863]]],
[[[-82.246,9.1632,0.0],[-82.2515,9.1624,0.0],[-82.2524,9.1612,0.0],[-82.2493,9.1607,11.4948],[-82.246,9.1632,0.0]]],
[[[-81.9157,9.2118,0.0],[-81.919,9.2124,0.0],[-81.9201,9.2115,0.0],[-81.9163,9.2107,0.0],[-81.9157,9.2118,0.0]]],
[[[-81.9257,9.2137,0.0],[-81.9271,9.214,0.0],[-81.9268,9.2126,2.2642],[-81.9218,9.2124,0.0],[-81.9226,9.2135,0.0],[-81.9257,9.2137,0.0]]]]}
,"properties": {"GID_3": "PAN.1.1.3_1","GID_0": "PAN","country": "Panama","GID_1": "PAN.1_1","province": "BocasdelToro","NL_NAME_1": "NA","GID_2": "PAN.1.1_1","county": "BocasdelToro","NL_NAME_2": "NA","city": "Cauchero","VARNAME_3": "NA","NL_NAME_3": "NA","TYPE_3": "Corregimiento","ENGTYPE_3": "Municipality","CC_3": "NA","HASC_3": "NA","name": "Cauchero.city","area_km2": 156.9199,"hist_schema_id": "Elevation0-9000","hist_area_km2": {"0": 14.1717,"25": 16.7881,"50": 10.4248,"75": 9.6922,"100": 10.0062,"125": 10.4248,"150": 8.8758,"175": 8.2268,"200": 7.2639,"225": 7.578,"250": 7.4314,"275": 7.0337,"300": 6.8873,"325": 5.8825,"350": 5.2127,"375": 4.0194,"400": 3.4543,"425": 2.7007,"450": 2.0726,"475": 1.6749,"500": 1.2144,"525": 1.1935,"550": 1.8007,"575": 1.5076,"600": 0.9632,"625": 0.2722,"650": 0.1466}}}