{"type":"Feature","properties":{"GID_3":"PAN.2.13.8_1","GID_0":"PAN","country":"Panama","GID_1":"PAN.2_1","province":"Chiriquí","NL_NAME_1":"NA","GID_2":"PAN.2.13_1","county":"Tolé","NL_NAME_2":"NA","city":"Tolé","VARNAME_3":"NA","NL_NAME_3":"NA","TYPE_3":"Corregimiento","ENGTYPE_3":"Municipality","CC_3":"NA","HASC_3":"NA","name":"Tolé.city"},
"geometry":{"type": "MultiPolygon","coordinates": [[[[-81.7567,8.2167,21.3424],[-81.7588,8.2052,4.085],[-81.762,8.2022,5.031],[-81.7623,8.1985,0.0],[-81.7579,8.1957,1.9861],[-81.754,8.1896,0.0],[-81.7521,8.1901,0.0],[-81.7526,8.1979,16.6597],[-81.7507,8.1907,16.5669],[-81.7501,8.1771,9.8648],[-81.7454,8.1682,0.0],[-81.7421,8.1662,0.0],[-81.7326,8.1768,0.0],[-81.7374,8.169,0.0],[-81.7396,8.1679,0.4998],[-81.7365,8.1604,0.0],[-81.7341,8.1595,3.9352],[-81.7288,8.1638,8.1264],[-81.7198,8.1663,44.2255],[-81.7097,8.1739,151.2779],[-81.71,8.1792,148.8745],[-81.7053,8.1859,75.6946],[-81.6965,8.187,183.5373],[-81.6918,8.186,197.1694],[-81.6867,8.1896,351.8893],[-81.679,8.1919,332.3893],[-81.6744,8.196,279.7429],[-81.6723,8.2015,334.2777],[-81.6636,8.2061,329.6007],[-81.6665,8.2112,302.087],[-81.674,8.2124,228.8214],[-81.67,8.2208,213.6039],[-81.6695,8.2275,258.122],[-81.666,8.2309,263.2552],[-81.6634,8.2404,272.7368],[-81.655,8.2537,335.014],[-81.6578,8.2584,321.0686],[-81.6603,8.269,411.1481],[-81.6648,8.273,448.7905],[-81.692,8.2638,236.8007],[-81.705,8.2678,410.1379],[-81.7106,8.2604,374.4384],[-81.729,8.2577,68.991],[-81.7294,8.2503,114.4953],[-81.7257,8.2396,145.1629],[-81.7246,8.2307,182.271],[-81.7248,8.2238,118.1481],[-81.7274,8.218,16.816],[-81.7326,8.2162,42.5104],[-81.7367,8.2099,6.8355],[-81.7393,8.2085,54.1737],[-81.744,8.216,30.6685],[-81.7499,8.2152,12.9659],[-81.7538,8.2177,29.987],[-81.7567,8.2167,21.3424]]]]}}