{"type": "Feature","bbox": [-80.3609,7.7452,-80.3042,7.7972],"geometry": {"type": "MultiPolygon","coordinates": [[[[-80.3585,7.7509,175.5689],[-80.3526,7.7516,128.2296],[-80.3418,7.7464,156.3928],[-80.3334,7.7452,156.6152],[-80.3302,7.7471,86.9348],[-80.3281,7.7533,66.9376],[-80.3168,7.758,29.5324],[-80.3182,7.7655,31.3849],[-80.3104,7.7709,60.4777],[-80.3091,7.7767,31.9866],[-80.3042,7.7813,20.9069],[-80.314,7.7884,15.2283],[-80.3153,7.7972,21.3201],[-80.3227,7.7962,21.9239],[-80.3336,7.7888,17.5816],[-80.3354,7.7816,28.061],[-80.3575,7.7634,159.6481],[-80.3609,7.7589,147.4846],[-80.3585,7.7509,175.5689]]]]}
,"properties": {"GID_3": "PAN.9.1.10_1","GID_0": "PAN","country": "Panama","GID_1": "PAN.9_1","province": "LosSantos","NL_NAME_1": "NA","GID_2": "PAN.9.1_1","county": "Guararé","NL_NAME_2": "NA","city": "Perales","VARNAME_3": "NA","NL_NAME_3": "NA","TYPE_3": "Corregimiento","ENGTYPE_3": "Municipality","CC_3": "NA","HASC_3": "NA","name": "Perales.city","area_km2": 18.02451,"hist_schema_id": "Elevation0-9000","hist_area_km2": {"25": 9.07509,"50": 2.41591,"75": 1.72266,"100": 1.51258,"125": 1.74367,"150": 1.23947,"175": 0.29411,"200": 0.02101}}}