{"type": "Feature","bbox": [-80.3182,7.7448,-80.2757,7.7813],"geometry": {"type": "MultiPolygon","coordinates": [[[[-80.3168,7.758,29.5324],[-80.3148,7.7549,28.3764],[-80.3096,7.753,32.6641],[-80.3073,7.7448,35.4372],[-80.2988,7.7488,64.0857],[-80.2926,7.7488,70.4278],[-80.2825,7.7585,38.724],[-80.2757,7.7561,45.2696],[-80.277,7.7638,40.2651],[-80.2822,7.7708,31.7471],[-80.2914,7.774,30.6155],[-80.3042,7.7813,20.9069],[-80.3091,7.7767,31.9866],[-80.3104,7.7709,60.4777],[-80.3182,7.7655,31.3849],[-80.3168,7.758,29.5324]]]]}
,"properties": {"GID_3": "PAN.9.2.12_1","GID_0": "PAN","country": "Panama","GID_1": "PAN.9_1","province": "LosSantos","NL_NAME_1": "NA","GID_2": "PAN.9.2_1","county": "LasTablas","NL_NAME_2": "NA","city": "LasPalmitas","VARNAME_3": "NA","NL_NAME_3": "NA","TYPE_3": "Corregimiento","ENGTYPE_3": "Municipality","CC_3": "NA","HASC_3": "NA","name": "Las_Palmitas.city","area_km2": 10.777054,"hist_schema_id": "Elevation0-9000","hist_area_km2": {"25": 3.130157,"50": 6.638507,"75": 0.756293,"100": 0.21008,"125": 0.042017}}}