{"type":"Feature","properties":{"GID_3":"PAN.1.2.3_1","GID_0":"PAN","country":"Panama","GID_1":"PAN.1_1","province":"BocasdelToro","NL_NAME_1":"NA","GID_2":"PAN.1.2_1","county":"Changuinola","NL_NAME_2":"NA","city":"Guabito","VARNAME_3":"NA","NL_NAME_3":"NA","TYPE_3":"Corregimiento","ENGTYPE_3":"Municipality","CC_3":"NA","HASC_3":"NA","name":"Guabito.city"},
"geometry":{"type": "MultiPolygon","coordinates": [[[[-82.8851,9.5644,45.0474],[-82.8813,9.5636,43.7269],[-82.8812,9.5568,49.3752],[-82.8775,9.5533,79.0571],[-82.8712,9.5554,55.1985],[-82.8685,9.5539,53.555],[-82.8691,9.5506,47.5547],[-82.8675,9.545,71.2993],[-82.8742,9.538,62.2582],[-82.8719,9.5334,68.209],[-82.873,9.527,58.208],[-82.872,9.5236,56.6026],[-82.8648,9.5181,81.0978],[-82.8555,9.5198,72.6322],[-82.8531,9.5168,72.0707],[-82.8572,9.5128,71.588],[-82.856,9.5117,68.6897],[-82.8475,9.5142,123.788],[-82.8478,9.5086,84.1559],[-82.8425,9.5043,76.4817],[-82.8442,9.4991,99.6472],[-82.8411,9.4971,109.7553],[-82.9341,9.4751,620.204],[-82.9343,9.1646,2015.4163],[-82.9272,9.1784,1811.6924],[-82.9257,9.1907,1643.0166],[-82.9232,9.1947,1675.2283],[-82.9185,9.1981,1543.9005],[-82.9201,9.2089,1482.2179],[-82.9125,9.2121,1378.4862],[-82.9101,9.2173,1300.3773],[-82.9046,9.2213,1177.0857],[-82.8942,9.2366,879.8027],[-82.8936,9.2431,913.074],[-82.8906,9.2481,801.2567],[-82.891,9.2626,753.4327],[-82.8823,9.2731,723.9289],[-82.8813,9.2851,746.9761],[-82.8779,9.2938,834.3066],[-82.8725,9.2981,727.4976],[-82.8675,9.299,828.1018],[-82.853,9.3138,826.2742],[-82.8409,9.3177,591.7111],[-82.8322,9.3134,546.0749],[-82.827,9.3136,563.9185],[-82.8133,9.324,606.9757],[-82.8062,9.3254,484.2971],[-82.8025,9.329,442.606],[-82.8033,9.3374,427.6704],[-82.7943,9.3502,308.8134],[-82.7958,9.3553,285.6723],[-82.789,9.3596,303.5095],[-82.7896,9.3691,345.8599],[-82.7881,9.3733,424.861],[-82.7784,9.386,397.606],[-82.7716,9.3895,357.5116],[-82.768,9.4104,974.375],[-82.7613,9.4189,702.1407],[-82.7516,9.4225,523.0264],[-82.7461,9.4303,536.8708],[-82.7459,9.4665,622.1349],[-82.7491,9.4874,617.6267],[-82.7318,9.4769,247.1511],[-82.7192,9.4729,187.2829],[-82.7015,9.4583,54.879],[-82.6952,9.4577,46.3415],[-82.6741,9.4509,25.7849],[-82.6678,9.4471,18.2464],[-82.6609,9.4485,13.1073],[-82.6562,9.4477,16.1716],[-82.6485,9.4524,14.2101],[-82.634,9.4527,13.4131],[-82.6236,9.4557,22.0868],[-82.6194,9.4549,25.7604],[-82.619,9.4535,29.0018],[-82.6254,9.4505,19.0311],[-82.6296,9.4449,22.1107],[-82.6356,9.4292,20.5197],[-82.6406,9.4238,27.4835],[-82.6169,9.405,35.286],[-82.6064,9.3999,76.0252],[-82.6162,9.4095,21.6695],[-82.6174,9.4125,10.9202],[-82.6161,9.4151,7.5046],[-82.6108,9.4183,23.8645],[-82.6121,9.4239,10.8105],[-82.6078,9.4319,24.5453],[-82.6004,9.4317,16.819],[-82.5962,9.4359,17.9015],[-82.5919,9.4331,10.5258],[-82.5886,9.4329,11.1011],[-82.5866,9.4373,12.9184],[-82.5819,9.4377,11.9814],[-82.5774,9.4445,17.9831],[-82.5644,9.4501,2.3111],[-82.5578,9.4617,7.0505],[-82.5519,9.4639,5.7232],[-82.5498,9.4675,2.0533],[-82.542,9.4703,5.7139],[-82.5387,9.4817,0.8432],[-82.5356,9.4871,16.194],[-82.5309,9.4909,6.694],[-82.5281,9.4973,0.0834],[-82.5234,9.5019,0.3649],[-82.5106,9.5097,0.0],[-82.5067,9.524,1.7412],[-82.5607,9.5693,3.3101],[-82.5642,9.5627,5.1849],[-82.5524,9.5484,6.5685],[-82.5536,9.544,12.2755],[-82.5575,9.5399,0.0],[-82.5647,9.5414,3.0275],[-82.5735,9.5533,0.5],[-82.5801,9.5572,0.5],[-82.5918,9.5597,1.5768],[-82.5989,9.5593,2.7251],[-82.6027,9.5568,15.6618],[-82.6036,9.5502,5.233],[-82.5987,9.5407,1.0],[-82.5981,9.5332,4.6909],[-82.6045,9.5212,2.0],[-82.6041,9.5074,5.1725],[-82.611,9.5003,10.3343],[-82.6196,9.4981,6.907],[-82.6336,9.5026,8.0049],[-82.6354,9.5006,8.5045],[-82.6335,9.4951,5.7703],[-82.637,9.4942,8.6972],[-82.648,9.4975,9.7695],[-82.6593,9.5101,14.5668],[-82.6614,9.5085,11.5507],[-82.6608,9.5039,7.8555],[-82.6627,9.5015,12.7443],[-82.6705,9.5012,7.8003],[-82.6743,9.5124,11.0875],[-82.6761,9.5128,9.9252],[-82.6789,9.5077,7.5],[-82.6814,9.5068,11.8751],[-82.6916,9.5126,22.3796],[-82.6931,9.5213,9.7332],[-82.7004,9.5287,14.4895],[-82.6921,9.5351,16.4902],[-82.695,9.5431,12.2123],[-82.703,9.5455,16.2563],[-82.7054,9.5522,15.0868],[-82.7076,9.5539,16.2047],[-82.7106,9.5527,15.4358],[-82.7129,9.5462,16.6579],[-82.716,9.546,15.9136],[-82.72,9.551,17.3234],[-82.7289,9.5541,19.4048],[-82.7263,9.5599,11.8192],[-82.7303,9.5651,19.3721],[-82.7434,9.5685,13.626],[-82.7434,9.5736,12.0],[-82.7474,9.5817,16.1421],[-82.7458,9.5871,21.1819],[-82.7428,9.59,19.9833],[-82.7451,9.5926,19.4743],[-82.7475,9.593,19.711],[-82.752,9.5903,19.832],[-82.7607,9.5941,22.3057],[-82.763,9.5937,21.7152],[-82.7693,9.5878,18.8651],[-82.7764,9.5851,19.1966],[-82.7933,9.5987,62.7422],[-82.8009,9.5994,20.4569],[-82.8035,9.5966,30.5383],[-82.8066,9.5963,21.4397],[-82.816,9.5973,25.1611],[-82.8185,9.6022,30.8189],[-82.825,9.6051,29.1504],[-82.8272,9.6112,26.039],[-82.8352,9.6119,27.4841],[-82.8396,9.6152,45.6444],[-82.8469,9.6165,33.5694],[-82.8582,9.6129,33.3383],[-82.8602,9.6098,36.9715],[-82.8635,9.5955,35.6461],[-82.8595,9.5915,44.4922],[-82.8605,9.5903,46.2899],[-82.8641,9.59,37.6012],[-82.8727,9.5942,33.5],[-82.8777,9.5917,34.0],[-82.878,9.5798,41.2149],[-82.8833,9.5718,43.4832],[-82.8851,9.5644,45.0474]]]]}}