{"type":"Feature","properties":{"GID_3":"PAN.9.5.3_1","GID_0":"PAN","country":"Panama","GID_1":"PAN.9_1","province":"LosSantos","NL_NAME_1":"NA","GID_2":"PAN.9.5_1","county":"Pedasí","NL_NAME_2":"NA","city":"OriaArriba","VARNAME_3":"NA","NL_NAME_3":"NA","TYPE_3":"Corregimiento","ENGTYPE_3":"Municipality","CC_3":"NA","HASC_3":"NA","name":"Oria_Arriba.city"},
"geometry":{"type": "MultiPolygon","coordinates": [[[[-80.1874,7.424,0.0],[-80.1899,7.4238,0.0],[-80.1904,7.4221,9.0034],[-80.1876,7.4215,0.0],[-80.1874,7.424,0.0]]],
[[[-80.2533,7.4803,92.2405],[-80.2571,7.4802,119.0758],[-80.2498,7.4747,123.6107],[-80.206,7.4526,129.7301],[-80.207,7.4498,121.1329],[-80.2308,7.4264,6.937],[-80.2288,7.4257,1.8143],[-80.229,7.4232,0.0],[-80.2271,7.4207,0.0],[-80.2207,7.4185,0.0],[-80.2193,7.4165,0.0],[-80.2157,7.4188,0.0],[-80.2135,7.4249,0.0],[-80.2049,7.4221,0.0],[-80.2043,7.4249,4.252],[-80.2065,7.429,4.9849],[-80.2046,7.4313,2.3257],[-80.1952,7.4329,3.1869],[-80.1899,7.431,3.8105],[-80.1862,7.4276,3.0703],[-80.186,7.4232,6.1874],[-80.1882,7.4196,3.7662],[-80.1874,7.4179,0.0],[-80.1818,7.4151,0.0],[-80.1815,7.4188,13.6568],[-80.179,7.4188,13.7291],[-80.1738,7.4157,4.3055],[-80.174,7.4143,0.0],[-80.1762,7.4143,0.0],[-80.1749,7.4115,0.0],[-80.1715,7.4121,7.5653],[-80.1696,7.4104,0.0],[-80.164,7.4121,21.32],[-80.161,7.4107,1.2967],[-80.1615,7.4129,2.8015],[-80.1599,7.4146,0.0],[-80.161,7.4168,9.8709],[-80.1565,7.4154,0.0],[-80.1551,7.4182,0.0],[-80.1451,7.4168,0.0],[-80.1465,7.4199,0.0],[-80.1446,7.424,10.4362],[-80.1338,7.4249,0.0],[-80.1296,7.4321,12.6598],[-80.1256,7.4313,1.0226],[-80.1301,7.4396,5.6891],[-80.1366,7.4401,4.5749],[-80.1487,7.4546,6.0638],[-80.1672,7.4649,56.9353],[-80.169,7.475,36.4431],[-80.1661,7.4783,88.4607],[-80.1599,7.4806,112.1346],[-80.1568,7.4849,128.3009],[-80.156,7.4918,196.6578],[-80.1516,7.5012,227.3891],[-80.1525,7.5089,193.5361],[-80.1487,7.5175,151.0264],[-80.1555,7.5209,164.8455],[-80.1655,7.5231,186.6376],[-80.1687,7.5263,178.8505],[-80.1697,7.5359,197.4034],[-80.1825,7.5607,306.3618],[-80.1862,7.5532,226.8999],[-80.2155,7.5183,43.808],[-80.2366,7.4784,129.0922],[-80.247,7.4784,136.2116],[-80.2533,7.4803,92.2405]]]]}}