{"type": "Feature","bbox": [-80.2676,7.7731,-80.2204,7.834],"geometry": {"type": "MultiPolygon","coordinates": [[[[-80.2645,7.7882,44.7436],[-80.2676,7.7832,44.4686],[-80.2672,7.7753,39.9397],[-80.2655,7.7731,35.5747],[-80.2289,7.7922,17.9874],[-80.2273,7.8006,21.7184],[-80.2309,7.8108,10.8697],[-80.2204,7.8204,6.4554],[-80.224,7.8243,0.0],[-80.2243,7.8271,0.0],[-80.2285,7.8304,5.2265],[-80.2388,7.834,0.0],[-80.241,7.8295,11.4346],[-80.2503,7.8194,6.7342],[-80.2576,7.8166,10.171],[-80.2542,7.8047,24.937],[-80.2588,7.7994,33.4073],[-80.2597,7.7919,31.4523],[-80.2645,7.7882,44.7436]]]]}
,"properties": {"GID_3": "PAN.9.2.14_1","GID_0": "PAN","country": "Panama","GID_1": "PAN.9_1","province": "LosSantos","NL_NAME_1": "NA","GID_2": "PAN.9.2_1","county": "LasTablas","NL_NAME_2": "NA","city": "LasTablasAbajo","VARNAME_3": "NA","NL_NAME_3": "NA","TYPE_3": "Corregimiento","ENGTYPE_3": "Municipality","CC_3": "NA","HASC_3": "NA","name": "Las_Tablas_Abajo.city","area_km2": 17.05674,"hist_schema_id": "Elevation0-9000","hist_area_km2": {"0": 3.67588,"25": 11.53225,"50": 1.8486}}}