{"type":"Feature","properties":{"GID_2":"PAN.6.1_1","GID_0":"PAN","country":"Panama","GID_1":"PAN.6_1","province":"Emberá","NL_NAME_1":"NA","county":"Cémaco","VARNAME_2":"NA","NL_NAME_2":"NA","TYPE_2":"Distrito","ENGTYPE_2":"District","CC_2":"NA","HASC_2":"PA.EM.CE","name":"Cémaco.county"},
"geometry":{"type": "MultiPolygon","coordinates": [[[[-77.2976,8.2426,1145.3446],[-77.300299999999993,8.2519,1016.8743],[-77.3072,8.2615,1092.8608],[-77.3208,8.2732,1385.6785],[-77.3227,8.2967,774.0582],[-77.3342,8.3126,906.4138],[-77.334,8.3399,629.2379],[-77.3383,8.3539,818.9597],[-77.333,8.3669,471.8129],[-77.3355,8.3739,580.8551],[-77.3432,8.3833,821.0448],[-77.3426,8.4027,580.8685],[-77.3473,8.4116,359.8636],[-77.3699,8.4396,564.9187],[-77.3872,8.4677,773.1855],[-77.3927,8.4736,773.8618],[-77.4029,8.4782,769.1298],[-77.4294,8.4799,728.8417],[-77.436,8.4782,833.952],[-77.4408,8.4831,1062.7169],[-77.444,8.4981,755.7604],[-77.4497,8.5071,883.4598],[-77.459,8.5178,923.6931],[-77.4625,8.5254,920.0383],[-77.4728,8.533,627.0654],[-77.4816,8.5425,461.7634],[-77.4879,8.5608,393.8753],[-77.4946,8.5724,533.6172],[-77.4993,8.5888,599.8087],[-77.5026,8.5945,492.2281],[-77.5079,8.5983,463.1469],[-77.5195,8.6014,502.8346],[-77.5396,8.5932,527.1891],[-77.5428,8.5931,486.7269],[-77.5542,8.5999,536.0823],[-77.5585,8.6043,450.566],[-77.581,8.6401,745.406],[-77.5782,8.6515,605.3451],[-77.5685,8.6671,513.3169],[-77.5718,8.6796,295.4171],[-77.5735,8.6814,255.914],[-77.5812,8.6833,460.5984],[-77.5955,8.6935,417.3071],[-77.6115,8.6942,576.6138],[-77.6159,8.7017,506.0876],[-77.6182,8.7105,380.3969],[-77.625,8.7193,341.2877],[-77.6245,8.7262,297.7004],[-77.6277,8.733,279.8064],[-77.6399,8.7377,262.9024],[-77.6433,8.7466,267.7761],[-77.6607,8.7542,437.2485],[-77.6678,8.7494,323.8799],[-77.6727,8.7492,350.7144],[-77.676,8.7518,497.2774],[-77.6811,8.7617,604.6016],[-77.7014,8.7634,552.7675],[-77.7198,8.7776,436.6651],[-77.7377,8.7761,307.7279],[-77.7514,8.7704,355.0743],[-77.7581,8.7702,449.6324],[-77.7735,8.7591,199.6508],[-77.7803,8.7456,153.5116],[-77.7845,8.7417,144.6524],[-77.7945,8.7395,155.1012],[-77.8037,8.7351,138.3405],[-77.817,8.7349,205.3938],[-77.8322,8.729,109.3454],[-77.8369,8.706,93.5164],[-77.8403,8.7002,77.531],[-77.8635,8.6794,53.9182],[-77.8667,8.6716,65.3309],[-77.8691,8.6585,59.0615],[-77.8775,8.6528,58.8967],[-77.8821,8.6471,57.2267],[-77.8954,8.6454,54.3306],[-77.9007,8.642,55.923],[-77.9084,8.6265,38.992],[-77.9087,8.613,27.5868],[-77.9062,8.6068,46.0526],[-77.9058,8.6009,35.3642],[-77.8968,8.5935,39.6607],[-77.8985,8.5839,35.6432],[-77.8959,8.5716,32.6656],[-77.8878,8.5668,51.5599],[-77.8822,8.5591,51.2084],[-77.8727,8.5566,63.3821],[-77.8706,8.5435,46.3913],[-77.8647,8.5396,38.6771],[-77.8658,8.534,55.5211],[-77.8713,8.5309,56.6534],[-77.8728,8.5259,60.0229],[-77.876,8.5258,58.5906],[-77.8809,8.5214,32.1818],[-77.8809,8.5188,40.8573],[-77.8724,8.5175,58.6694],[-77.8655,8.5132,55.8014],[-77.8631,8.5097,53.3015],[-77.8644,8.5029,50.1325],[-77.8542,8.4976,63.9377],[-77.8453,8.499,45.2915],[-77.8388,8.5023,40.4951],[-77.8343,8.5004,43.1543],[-77.8347,8.4931,46.7966],[-77.84,8.4831,52.5075],[-77.84,8.4806,50.9574],[-77.8348,8.4733,33.9272],[-77.8249,8.4703,31.4676],[-77.8217,8.4634,32.3542],[-77.8158,8.463,40.1167],[-77.8148,8.4535,26.4219],[-77.8099,8.4471,31.2357],[-77.8071,8.4237,25.5058],[-77.8103,8.419,25.3373],[-77.818,8.4159,26.0881],[-77.8199,8.4079,23.6185],[-77.8165,8.4055,12.6408],[-77.8173,8.3962,17.9687],[-77.8125,8.3959,36.2002],[-77.811,8.3988,14.9443],[-77.8061,8.401,27.7608],[-77.805,8.3922,18.2172],[-77.8012,8.3863,19.9759],[-77.8018,8.3775,26.6299],[-77.7967,8.3686,36.261],[-77.7978,8.3593,27.79],[-77.7948,8.3495,13.3877],[-77.788,8.3488,28.5936],[-77.782,8.3435,26.9722],[-77.7805,8.327,32.8661],[-77.7655,8.3228,11.0228],[-77.7656,8.3199,21.6063],[-77.7703,8.3144,29.7924],[-77.7701,8.3115,20.4947],[-77.7617,8.3087,8.5576],[-77.7533,8.29,26.8911],[-77.7473,8.2866,12.0422],[-77.7334,8.2892,15.9005],[-77.7313,8.2882,29.3166],[-77.7309,8.285,18.6274],[-77.7347,8.2785,20.8526],[-77.735,8.2739,31.978],[-77.7308,8.2649,20.8948],[-77.7324,8.2593,20.1915],[-77.7285,8.2524,8.8516],[-77.7144,8.2509,19.9707],[-77.6941,8.2416,48.1252],[-77.6604,8.2293,22.1049],[-77.6225,8.1997,39.5743],[-77.6164,8.1858,19.5691],[-77.6094,8.157,60.231],[-77.6062,8.1562,49.0189],[-77.6059,8.1517,36.0047],[-77.6101,8.15,42.8018],[-77.6093,8.1416,22.6445],[-77.6133,8.1372,18.0084],[-77.6084,8.1286,25.2442],[-77.6034,8.1286,26.9306],[-77.6083,8.1186,34.3413],[-77.5878,8.1232,50.4322],[-77.58,8.1206,53.3106],[-77.5738,8.1099,43.1522],[-77.5658,8.1045,67.8465],[-77.5508,8.0783,43.9206],[-77.5401,8.0779,66.9221],[-77.5365,8.0816,59.7822],[-77.5254,8.0856,97.9051],[-77.5214,8.0933,86.9942],[-77.5135,8.0907,80.8102],[-77.4993,8.0989,99.183],[-77.4963,8.0978,99.5545],[-77.4938,8.091,93.3023],[-77.4915,8.0897,89.9468],[-77.4884,8.0903,96.0703],[-77.4849,8.0963,118.8041],[-77.4768,8.097,97.8887],[-77.4695,8.095,153.2823],[-77.4593,8.0869,317.3399],[-77.4539,8.096,453.9519],[-77.4463,8.1007,463.5086],[-77.4458,8.107,329.61],[-77.448,8.1147,309.0701],[-77.4467,8.1179,391.634],[-77.4415,8.1221,475.9824],[-77.4327,8.1229,498.6699],[-77.4245,8.1283,537.5211],[-77.4206,8.1343,541.8931],[-77.4082,8.1321,725.2946],[-77.4019,8.1393,457.009],[-77.3921,8.1332,759.3579],[-77.3819,8.1372,1002.8939],[-77.3708,8.1373,1000.1852],[-77.3623,8.1463,1037.6318],[-77.3559,8.1491,870.2161],[-77.2802,8.168,1562.2555],[-77.2491,8.1746,1282.3506],[-77.246,8.174,1245.4819],[-77.2402,8.1765,949.074],[-77.2395,8.181,946.772],[-77.2446,8.178,1211.7263],[-77.2472,8.1886,1223.2224],[-77.2547,8.2066,1150.4695],[-77.2619,8.2151,1094.1713],[-77.2701,8.2217,1316.8838],[-77.2855,8.226,1358.7755],[-77.294,8.2266,1280.3357],[-77.2982,8.2324,1215.2927],[-77.2976,8.2426,1145.3446]]]]}}