{"type":"Feature","properties":{"GID_3":"PAN.5.2.7_1","GID_0":"PAN","country":"Panama","GID_1":"PAN.5_1","province":"Darién","NL_NAME_1":"NA","GID_2":"PAN.5.2_1","county":"Pinogana","NL_NAME_2":"NA","city":"Púcuro","VARNAME_3":"NA","NL_NAME_3":"NA","TYPE_3":"Corregimiento","ENGTYPE_3":"Municipality","CC_3":"NA","HASC_3":"NA","name":"Púcuro.city"},
"geometry":{"type": "MultiPolygon","coordinates": [[[[-77.5073,7.942,111.7401],[-77.4943,7.9757999999999996,64.2691],[-77.4634,7.9898,84.5213],[-77.4533,7.9919,113.2588],[-77.4641,8.069,211.8759],[-77.5078,8.0577,88.0875],[-77.5209,8.0418,77.3603],[-77.5301,8.041,95.07],[-77.5351,8.0363,158.8917],[-77.5433,8.0365,102.1591],[-77.5566,8.0281,92.5903],[-77.5682,8.0084,70.1764],[-77.5721,7.9918,86.3461],[-77.5706,7.9819,83.1044],[-77.5644,7.9802,79.9234],[-77.5359,7.9795,97.8032],[-77.5273,7.9756,135.7014],[-77.5208,7.9697,197.8937],[-77.5183,7.9651,113.3736],[-77.5188,7.9616,127.5387],[-77.5238,7.9554,103.2253],[-77.523,7.9509,74.7582],[-77.5073,7.942,111.7401]]]]}}