{"type":"Feature","properties":{"GID_3":"PAN.2.11.2_1","GID_0":"PAN","country":"Panama","GID_1":"PAN.2_1","province":"Chiriquí","NL_NAME_1":"NA","GID_2":"PAN.2.11_1","county":"SanFélix","NL_NAME_2":"NA","city":"LaLajas","VARNAME_3":"NA","NL_NAME_3":"NA","TYPE_3":"Corregimiento","ENGTYPE_3":"Municipality","CC_3":"NA","HASC_3":"NA","name":"La_Lajas.city"},
"geometry":{"type": "MultiPolygon","coordinates": [[[[-81.8455,8.2458,32.67],[-81.8544,8.2492,36.3932],[-81.8633,8.2492,35.5365],[-81.8684,8.2327,59.1943],[-81.8783,8.2231,34.2886],[-81.883,8.2152,27.0205],[-81.8902,8.1991,19.834],[-81.8947,8.1813,3.6625],[-81.8915,8.1771,2.5551],[-81.851,8.1629,1.5635],[-81.8457,8.1629,0.3158],[-81.8401,8.1599,0.0],[-81.8293,8.1574,2.692],[-81.8264,8.1604,13.6792],[-81.8284,8.1677,3.2824],[-81.8277,8.1719,3.6505],[-81.8227,8.1786,3.5724],[-81.8137,8.18,6.4251],[-81.809,8.1867,12.9019],[-81.8086,8.1906,14.2804],[-81.8155,8.1977,14.6189],[-81.8157,8.2016,16.7724],[-81.8209,8.2142,27.1526],[-81.8305,8.2253,41.2328],[-81.8306,8.2269,42.46],[-81.8247,8.2337,35.3983],[-81.827,8.2398,23.4692],[-81.8322,8.2384,48.439],[-81.8419,8.2418,31.131],[-81.8425,8.245,33.1629],[-81.8455,8.2458,32.67]]]]}}