{"type": "Feature","bbox": [-80.7795,8.1612,-80.6843,8.2958],"geometry": {"type": "MultiPolygon","coordinates": [[[[-80.6891,8.2574,102.2644],[-80.6977,8.2822,108.0247],[-80.7006,8.2864,101.6832],[-80.707,8.2906,81.8359],[-80.7374,8.2958,119.7603],[-80.7477,8.2919,108.674],[-80.7544,8.2858,123.4028],[-80.7568,8.2826,118.5144],[-80.7537,8.2601,84.1572],[-80.7424,8.2411,70.8873],[-80.7469,8.2304,49.2967],[-80.7488,8.2207,42.0093],[-80.7516,8.217,29.8237],[-80.7582,8.2181,76.3492],[-80.7723,8.2281,26.8968],[-80.7749,8.2283,25.1866],[-80.7785,8.2258,61.8924],[-80.7795,8.2213,49.8996],[-80.7763,8.1996,24.303],[-80.7682,8.1827,20.7342],[-80.7719,8.1618,41.2878],[-80.7547,8.1612,29.3717],[-80.7424,8.1643,28.4372],[-80.7308,8.1614,29.0188],[-80.7178,8.1631,15.9717],[-80.7095,8.1661,14.9223],[-80.6958,8.1991,53.0237],[-80.687,8.2258,56.2664],[-80.6843,8.24,42.5947],[-80.6891,8.2574,102.2644]]]]}
,"properties": {"GID_3": "PAN.13.2.10_1","GID_0": "PAN","country": "Panama","GID_1": "PAN.13_1","province": "Veraguas","NL_NAME_1": "NA","GID_2": "PAN.13.2_1","county": "Calobre","NL_NAME_2": "NA","city": "LasGuías","VARNAME_3": "NA","NL_NAME_3": "NA","TYPE_3": "Corregimiento","ENGTYPE_3": "Municipality","CC_3": "NA","HASC_3": "NA","name": "Las_Guías.city","area_km2": 105.96981,"hist_schema_id": "Elevation0-9000","hist_area_km2": {"0": 1.02836,"25": 32.52827,"50": 33.1764,"75": 21.46526,"100": 10.30191,"125": 3.06333,"150": 2.26607,"175": 1.11207,"200": 0.71341,"225": 0.23081,"250": 0.08393}}}