{"type": "Feature","bbox": [-80.976,7.385,-80.7084,7.5575],"geometry": {"type": "MultiPolygon","coordinates": [[[[-80.9396,7.4029,0.0],[-80.9412,7.4029,0.0],[-80.9435,7.3985,6.1828],[-80.9454,7.3985,0.0],[-80.9463,7.3957,0.0],[-80.9432,7.3957,2.0887],[-80.9407,7.4007,0.0],[-80.9379,7.4007,0.0],[-80.9396,7.4029,0.0]]],
[[[-80.9315,7.4026,0.0],[-80.9343,7.4024,0.0],[-80.9351,7.3993,1.2695],[-80.9315,7.401,0.0],[-80.9315,7.4026,0.0]]],
[[[-80.8124,7.5504,242.0549],[-80.8227,7.5575,330.9416],[-80.8342,7.5555,419.6325],[-80.8441,7.5503,757.6672],[-80.8573,7.5405,580.6938],[-80.8614,7.5335,471.937],[-80.864,7.5213,273.8051],[-80.8724,7.5151,336.2125],[-80.8753,7.5105,362.1134],[-80.8768,7.5039,246.0363],[-80.8756,7.4838,173.5913],[-80.8777,7.479,151.1409],[-80.8811,7.4768,155.9576],[-80.8891,7.4765,189.3798],[-80.8943,7.4791,214.8165],[-80.9076,7.4919,52.2865],[-80.9231,7.4979,25.5604],[-80.9289,7.5082,47.6744],[-80.9362,7.5122,68.2329],[-80.9436,7.5122,53.2858],[-80.9559,7.5081,30.0562],[-80.971,7.5058,16.5336],[-80.9726,7.5015,3.8517],[-80.976,7.5015,0.105],[-80.9757,7.4996,0.0],[-80.9707,7.499,15.9822],[-80.9671,7.4937,0.0],[-80.9615,7.4946,4.104],[-80.9473,7.4865,0.0],[-80.9457,7.4826,0.0],[-80.9407,7.4788,1.5346],[-80.9435,7.476,1.5007],[-80.9412,7.471,0.0],[-80.9379,7.4701,0.0],[-80.9285,7.461,1.5492],[-80.921,7.4507,2.841],[-80.9171,7.4399,0.0],[-80.916,7.4418,0.0],[-80.9154,7.4379,7.1311],[-80.9171,7.4346,14.0707],[-80.9229,7.4357,0.0],[-80.9224,7.4324,0.0],[-80.9265,7.4304,11.3942],[-80.926,7.4268,20.4879],[-80.9282,7.424,4.5773],[-80.9324,7.4232,0.0],[-80.9315,7.4193,9.4687],[-80.9335,7.4149,3.6594],[-80.931,7.4135,0.0],[-80.9296,7.4082,1.0731],[-80.9265,7.4085,14.2359],[-80.9254,7.4101,2.7535],[-80.9265,7.4121,1.0983],[-80.924,7.4124,1.0397],[-80.924,7.4099,2.7535],[-80.9276,7.4068,43.1543],[-80.9282,7.4029,0.0],[-80.9301,7.4015,0.0],[-80.9296,7.3993,0.9284],[-80.9271,7.4001,4.271],[-80.9158,7.3909,7.3958],[-80.8918,7.3886,10.6454],[-80.8808,7.3931,16.8629],[-80.8676,7.3903,12.418],[-80.8494,7.392,21.5363],[-80.834,7.3893,28.5237],[-80.8223,7.385,33.5627],[-80.8148,7.385,34.5959],[-80.8073,7.3894,38.2743],[-80.7973,7.4055,153.9087],[-80.7852,7.419,121.0559],[-80.7818,7.4217,190.2632],[-80.7758,7.4225,228.7346],[-80.7683,7.4196,227.2315],[-80.7609,7.4123,405.7927],[-80.7429,7.3995,375.9788],[-80.7263,7.3957,451.361],[-80.7176,7.3916,363.8619],[-80.7145,7.4006,640.244],[-80.7084,7.4099,848.9796],[-80.7084,7.4128,856.2882],[-80.7195,7.4327,370.0031],[-80.7325,7.4429,291.4618],[-80.735,7.4473,218.1669],[-80.7343,7.453,319.326],[-80.7245,7.4667,743.4656],[-80.7235,7.4707,812.3446],[-80.735,7.4886,514.5442],[-80.7382,7.4969,476.3464],[-80.7348,7.511,902.5409],[-80.7481,7.5201,637.0875],[-80.7562,7.5343,450.4529],[-80.7652,7.5412,477.7045],[-80.7707,7.5427,254.4516],[-80.7815,7.5422,561.5132],[-80.8124,7.5504,242.0549]]],
[[[-80.9485,7.4818,3.4222],[-80.9501,7.4813,5.195],[-80.9507,7.4788,0.0],[-80.9496,7.476,0.0],[-80.9474,7.4771,10.6557],[-80.9485,7.4818,3.4222]]]]}
,"properties": {"GID_3": "PAN.13.6.8_1","GID_0": "PAN","country": "Panama","GID_1": "PAN.13_1","province": "Veraguas","NL_NAME_1": "NA","GID_2": "PAN.13.6_1","county": "Montijo","NL_NAME_2": "NA","city": "Quebro","VARNAME_3": "NA","NL_NAME_3": "NA","TYPE_3": "Corregimiento","ENGTYPE_3": "Municipality","CC_3": "NA","HASC_3": "NA","name": "Quebro.city","area_km2": 329.4657,"hist_schema_id": "Elevation0-9000","hist_area_km2": {"0": 25.1444,"25": 47.9975,"50": 27.8771,"75": 21.9065,"100": 17.7226,"125": 14.5057,"150": 13.2653,"175": 12.4452,"200": 12.8024,"225": 11.6461,"250": 10.7841,"275": 9.7749,"300": 8.5977,"325": 8.4505,"350": 8.4925,"375": 7.4835,"400": 7.0001,"425": 6.7898,"450": 6.4956,"475": 5.3815,"500": 5.4445,"525": 5.0872,"550": 4.5827,"575": 4.3304,"600": 3.2583,"625": 3.5316,"650": 2.922,"675": 2.6487,"700": 2.1023,"725": 2.0812,"750": 1.5557,"775": 1.3455,"800": 0.9881,"825": 1.0722,"850": 0.841,"875": 0.7148,"900": 0.4835,"925": 0.4836,"950": 0.5046,"975": 0.3574,"1000": 0.1892,"1025": 0.1261,"1050": 0.1472,"1075": 0.0841,"1100": 0.021}}}