{"type":"Feature","properties":{"GID_3":"PAN.3.6.7_1","GID_0":"PAN","country":"Panama","GID_1":"PAN.3_1","province":"Coclé","NL_NAME_1":"NA","GID_2":"PAN.3.6_1","county":"Penonomé","NL_NAME_2":"NA","city":"RíoGrande","VARNAME_3":"NA","NL_NAME_3":"NA","TYPE_3":"Corregimiento","ENGTYPE_3":"Municipality","CC_3":"NA","HASC_3":"NA","name":"Río_Grande.city"},
"geometry":{"type": "MultiPolygon","coordinates": [[[[-80.5375,8.5018,80.8206],[-80.5306,8.4841,89.1806],[-80.5195,8.4703,77.1974],[-80.5157,8.4627,43.3287],[-80.5132,8.4492,30.4042],[-80.5135,8.4406,25.6097],[-80.5047,8.4217,22.1736],[-80.507,8.4138,17.9171],[-80.506,8.406,15.6762],[-80.4999,8.3964,11.5757],[-80.5,8.3889,10.5369],[-80.4952,8.3887,10.4336],[-80.4908,8.381,10.1422],[-80.4919,8.3709,9.2702],[-80.4857,8.3641,9.6628],[-80.4711,8.3837,9.1726],[-80.4681,8.3906,14.4513],[-80.4537,8.4011,12.3926],[-80.4486,8.417,16.4573],[-80.4519,8.4246,16.5299],[-80.4458,8.4291,19.3285],[-80.4503,8.437,24.6354],[-80.4482,8.4391,21.1425],[-80.442,8.4401,20.383],[-80.4358,8.4475,19.2677],[-80.4399,8.4636,24.9365],[-80.4382,8.4658,26.5412],[-80.4312,8.4677,27.2783],[-80.4326,8.4775,22.6292],[-80.4395,8.4833,99.8233],[-80.4517,8.4832,63.3774],[-80.4565,8.4853,62.031],[-80.4689,8.5016,208.9904],[-80.4733,8.5112,479.3756],[-80.5375,8.5018,80.8206]]]]}}