{"type": "Feature","bbox": [-79.7991,9.0227,-79.7108,9.1135],"geometry": {"type": "MultiPolygon","coordinates": [[[[-79.7461,9.0968,116.9594],[-79.7526,9.0981,50.4646],[-79.7521,9.0957,31.9801],[-79.754,9.0954,55.9732],[-79.7599,9.1018,28.1484],[-79.7596,9.0988,35.9684],[-79.7626,9.0963,38.1466],[-79.7607,9.0988,35.9684],[-79.7613,9.1021,33.2607],[-79.7668,9.1012,30.2335],[-79.7663,9.1051,33.444],[-79.7688,9.1062,27.8332],[-79.771,9.1051,36.0935],[-79.7746,9.0988,28.248],[-79.7732,9.1051,25.0],[-79.7751,9.1065,25.0],[-79.7754,9.1126,25.0],[-79.7801,9.1126,25.0],[-79.7821,9.111,32.8907],[-79.7846,9.1135,35.5429],[-79.7862,9.111,41.6508],[-79.7887,9.1104,25.0],[-79.7851,9.1007,29.8213],[-79.7882,9.1007,26.9834],[-79.7921,9.0985,25.0],[-79.7924,9.0965,34.609],[-79.7943,9.0965,28.4554],[-79.7937,9.0915,35.2366],[-79.7924,9.0907,35.2366],[-79.7935,9.0888,39.3724],[-79.7949,9.0915,25.0],[-79.7991,9.0893,67.5451],[-79.7978,9.0821,42.0796],[-79.7924,9.0843,25.0],[-79.7926,9.0829,30.7781],[-79.7976,9.0815,40.6557],[-79.7944,9.077,118.7244],[-79.7913,9.0654,74.092],[-79.7837,9.0575,65.302],[-79.7701,9.0512,75.5524],[-79.7688,9.0477,53.6058],[-79.7692,9.0348,75.6931],[-79.7564,9.0227,102.6328],[-79.7507,9.0247,157.7987],[-79.738,9.0233,182.1606],[-79.7355,9.0247,173.1272],[-79.7294,9.0361,104.6598],[-79.7291,9.0456,188.2768],[-79.7158,9.0543,181.1793],[-79.7108,9.0593,255.6387],[-79.711,9.0615,215.3499],[-79.7138,9.0633,175.283],[-79.7157,9.0615,175.8357],[-79.7183,9.0617,182.2027],[-79.725,9.0651,214.3162],[-79.7268,9.0738,213.9064],[-79.7318,9.0841,219.1262],[-79.7411,9.0942,139.4714],[-79.7461,9.0968,116.9594]]],
[[[-79.7618,9.1054,30.2047],[-79.7629,9.106,25.0],[-79.7632,9.1021,33.2607],[-79.7613,9.1026,33.2607],[-79.7618,9.1054,30.2047]]],
[[[-79.7643,9.1112,25.0],[-79.7646,9.1099,25.0],[-79.7629,9.1079,25.0],[-79.7615,9.1126,25.0],[-79.7643,9.1112,25.0]]]]}
,"properties": {"GID_3": "PAN.11.1.4_1","GID_0": "PAN","country": "Panama","GID_1": "PAN.11_1","province": "PanamáOeste","NL_NAME_1": "NA","GID_2": "PAN.11.1_1","county": "Arraiján","NL_NAME_2": "NA","city": "SantaClara","VARNAME_3": "NA","NL_NAME_3": "NA","TYPE_3": "Corregimiento","ENGTYPE_3": "Municipality","CC_3": "NA","HASC_3": "NA","name": "Santa_Clara.city","area_km2": 51.90347,"hist_schema_id": "Elevation0-9000","hist_area_km2": {"25": 1.5283,"50": 6.93003,"75": 14.25795,"100": 11.39,"125": 7.93545,"150": 4.27135,"175": 3.05693,"200": 1.38189,"225": 0.56532,"250": 0.31406,"275": 0.23031,"300": 0.04187}}}