{"type":"Feature","properties":{"GID_3":"PAN.9.1.8_1","GID_0":"PAN","country":"Panama","GID_1":"PAN.9_1","province":"LosSantos","NL_NAME_1":"NA","GID_2":"PAN.9.1_1","county":"Guararé","NL_NAME_2":"NA","city":"LasTrancas","VARNAME_3":"NA","NL_NAME_3":"NA","TYPE_3":"Corregimiento","ENGTYPE_3":"Municipality","CC_3":"NA","HASC_3":"NA","name":"Las_Trancas.city"},
"geometry":{"type": "MultiPolygon","coordinates": [[[[-80.3989,7.7363,231.2041],[-80.4058,7.7384,183.8426],[-80.41,7.7355,209.9342],[-80.4224,7.7326,203.3504],[-80.423,7.7288,145.6833],[-80.4183,7.7221,138.7204],[-80.4173,7.7113,174.9141],[-80.4134,7.707,216.4563],[-80.4021,7.705,214.2391],[-80.3859,7.7072,207.5705],[-80.3827,7.6917,239.7035],[-80.3745,7.7036,214.169],[-80.3692,7.7067,210.7584],[-80.3653,7.7137,168.8824],[-80.3615,7.7166,158.7936],[-80.3599,7.7246,137.1538],[-80.3541,7.732,133.6528],[-80.3469,7.7374,75.2097],[-80.3418,7.7464,156.3928],[-80.3526,7.7516,128.2296],[-80.3585,7.7509,175.5689],[-80.374,7.7529,196.9399],[-80.3761,7.7517,157.3504],[-80.3821,7.7401,152.3461],[-80.3989,7.7363,231.2041]]]]}}