{"type":"Feature","properties":{"GID_3":"PAN.11.4.14_1","GID_0":"PAN","country":"Panama","GID_1":"PAN.11_1","province":"PanamáOeste","NL_NAME_1":"NA","GID_2":"PAN.11.4_1","county":"LaChorrera","NL_NAME_2":"NA","city":"Mendoza","VARNAME_3":"NA","NL_NAME_3":"NA","TYPE_3":"Corregimiento","ENGTYPE_3":"Municipality","CC_3":"NA","HASC_3":"NA","name":"Mendoza.city"},
"geometry":{"type": "MultiPolygon","coordinates": [[[[-79.8833,8.9912,102.1034],[-79.862799999999993,8.9874,104.7941],[-79.8426,8.9867,84.6315],[-79.8371,8.9896,87.1998],[-79.8274,9.0033,40.0727],[-79.8321,9.0158,64.1324],[-79.8424,9.0187,123.4624],[-79.8511,9.0286,43.2021],[-79.8457,9.0391,27.625],[-79.8463,9.0421,25.0],[-79.8471,9.0374,29.094],[-79.8496,9.0368,26.8207],[-79.8501,9.0401,30.2451],[-79.8535,9.041,25.6328],[-79.8535,9.0424,28.0209],[-79.8504,9.0426,26.7054],[-79.8507,9.0446,26.53],[-79.8532,9.0451,26.4568],[-79.8501,9.0465,25.9042],[-79.8524,9.0488,29.5435],[-79.8496,9.051,25.0],[-79.8518,9.0518,26.3205],[-79.8554,9.0504,30.9397],[-79.8535,9.0529,25.2197],[-79.8565,9.0568,27.2183],[-79.8582,9.0546,25.0],[-79.8568,9.0526,29.784],[-79.8579,9.0496,29.5118],[-79.8615,9.0499,27.3203],[-79.8599,9.0529,25.548],[-79.8615,9.0554,30.014],[-79.8649,9.0513,26.414],[-79.8618,9.0476,27.2899],[-79.8668,9.0463,26.8731],[-79.8668,9.0482,27.132],[-79.8696,9.0488,25.6637],[-79.8696,9.0501,25.6637],[-79.8671,9.0521,25.9705],[-79.8682,9.0546,25.6489],[-79.8649,9.0562,25.3853],[-79.8702,9.0646,25.4785],[-79.8791,9.0511,46.6495],[-79.8871,9.0495,40.4912],[-79.8926,9.042,50.6499],[-79.892,9.0312,45.7226],[-79.8964,9.0117,87.253],[-79.887,8.9938,102.2304],[-79.8833,8.9912,102.1034]]],
[[[-79.8662,9.0699,25.0],[-79.864,9.0676,35.2428],[-79.8649,9.0651,25.5427],[-79.8626,9.064,26.3209],[-79.8635,9.059,26.151],[-79.861,9.0612,29.1378],[-79.8562,9.0604,25.0],[-79.8568,9.0632,25.0],[-79.861,9.0651,26.6325],[-79.8574,9.0657,25.3265],[-79.8562,9.0679,27.1041],[-79.8549,9.0651,25.2366],[-79.8524,9.0718,28.2592],[-79.8512,9.0696,25.9695],[-79.8479,9.0713,26.2555],[-79.849,9.0682,26.2726],[-79.8474,9.0679,34.0522],[-79.8471,9.0649,25.0],[-79.8451,9.0674,30.4907],[-79.8435,9.0671,38.2506],[-79.8418,9.0607,25.0],[-79.8407,9.0632,27.8676],[-79.8385,9.061,27.4982],[-79.8368,9.0626,25.0],[-79.841,9.0657,27.705],[-79.8407,9.0671,31.6767],[-79.8385,9.0674,25.0],[-79.8432,9.0696,28.6796],[-79.8426,9.0707,30.8723],[-79.8368,9.0696,31.5965],[-79.8368,9.0679,25.8373],[-79.8346,9.0682,26.0178],[-79.8326,9.0654,25.0],[-79.8304,9.0685,36.746],[-79.831,9.0626,33.9376],[-79.8268,9.0635,25.0],[-79.826,9.0779,27.3208],[-79.8187,9.084,25.0],[-79.8196,9.0871,32.6094],[-79.8185,9.0887,25.8571],[-79.8243,9.091,30.045],[-79.8215,9.0929,25.0],[-79.8229,9.0946,25.0],[-79.8213,9.0957,26.8907],[-79.8224,9.0974,38.5896],[-79.8179,9.094,27.3373],[-79.8165,9.0954,25.0],[-79.8146,9.0946,32.5026],[-79.8104,9.099,34.7071],[-79.804,9.101,25.0],[-79.8068,9.1074,34.126],[-79.8085,9.1079,34.126],[-79.8054,9.1107,31.3995],[-79.809,9.1129,46.5608],[-79.8087,9.1199,39.406],[-79.8143,9.1218,43.7902],[-79.814,9.1201,55.063],[-79.8171,9.1187,29.7677],[-79.8195,9.1145,32.1756],[-79.8262,9.1122,75.368],[-79.8263,9.1087,35.6074],[-79.8306,9.1,37.3077],[-79.8354,9.0965,47.7493],[-79.8605,9.0918,52.9837],[-79.8635,9.0855,46.3882],[-79.864,9.0751,44.0021],[-79.8662,9.0699,25.0]]]]}}