{"type": "Feature","bbox": [-82.1746,9.129,-82.0074,9.2376],"geometry": {"type": "MultiPolygon","coordinates": [[[[-82.0951,9.1526,0.1713],[-82.0965,9.1532,0.1713],[-82.0974,9.1521,0.0],[-82.0957,9.1515,0.0],[-82.0951,9.1526,0.1713]]],
[[[-82.0507,9.1818,11.4287],[-82.0537,9.181,0.0],[-82.0537,9.1685,0.2442],[-82.0568,9.1635,6.64],[-82.0563,9.1587,3.2342],[-82.0601,9.1518,0.0],[-82.0529,9.1468,0.0],[-82.0493,9.1463,11.3238],[-82.0326,9.131,3.3767],[-82.0268,9.1304,0.0],[-82.0218,9.1321,4.0351],[-82.0188,9.134,6.4851],[-82.0143,9.1424,7.1501],[-82.0118,9.1438,11.8313],[-82.0074,9.1432,0.0],[-82.0079,9.1449,3.1048],[-82.0118,9.146,0.0],[-82.0135,9.149,0.0],[-82.0193,9.1471,0.0],[-82.0221,9.1485,4.5957],[-82.0235,9.1499,1.4019],[-82.0224,9.1554,0.0],[-82.0282,9.1565,7.8058],[-82.031,9.1607,3.2388],[-82.0299,9.1688,0.0],[-82.0332,9.169,12.5823],[-82.0338,9.1704,12.5823],[-82.0385,9.1699,10.5333],[-82.046,9.1788,0.0],[-82.0507,9.1818,11.4287]]],
[[[-82.0896,9.1621,0.6886],[-82.0888,9.1632,0.6886],[-82.0904,9.1626,0.6886],[-82.0913,9.1596,0.0],[-82.0885,9.1596,0.0],[-82.0882,9.1607,0.0],[-82.0899,9.1601,0.0],[-82.0896,9.1621,0.6886]]],
[[[-82.0912,9.1871,0.0],[-82.0935,9.1874,0.3721],[-82.0924,9.1849,0.2536],[-82.0901,9.1843,0.2534],[-82.0899,9.1849,0.2534],[-82.0912,9.1871,0.0]]],
[[[-82.1635,9.1629,0.0],[-82.1649,9.1637,0.0],[-82.1654,9.1621,0.0],[-82.1651,9.1582,0.0],[-82.1632,9.1576,0.3778],[-82.1632,9.1557,0.2981],[-82.1668,9.1526,0.0],[-82.1649,9.1479,18.7032],[-82.169,9.1521,0.0],[-82.1729,9.1515,0.0],[-82.1746,9.1468,2.2313],[-82.1657,9.136,1.8901],[-82.1579,9.1321,4.8345],[-82.159,9.1393,0.0],[-82.1607,9.1401,7.2606],[-82.1596,9.1424,1.6459],[-82.1571,9.1418,0.0],[-82.1529,9.1451,0.6504],[-82.1562,9.1496,0.0],[-82.1546,9.1513,0.3902],[-82.1551,9.1549,0.0871],[-82.1607,9.1587,0.4513],[-82.1635,9.1629,0.0]]],
[[[-82.1663,9.1579,0.0],[-82.1682,9.1582,0.1357],[-82.1676,9.1546,0.0],[-82.1654,9.156,0.1173],[-82.1663,9.1579,0.0]]],
[[[-82.1582,9.1724,0.0],[-82.1607,9.1729,0.0],[-82.1596,9.1699,0.1811],[-82.1588,9.1701,0.1811],[-82.1582,9.1724,0.0]]],
[[[-82.1243,9.2371,0.0],[-82.1268,9.2376,0.0],[-82.1338,9.2335,6.6706],[-82.1365,9.2354,1.7011],[-82.1387,9.2324,0.0],[-82.1413,9.2329,0.0],[-82.1429,9.2313,0.0],[-82.1415,9.2287,1.188],[-82.1449,9.229,0.0],[-82.144,9.2279,0.2466],[-82.1454,9.2257,0.0425],[-82.1479,9.2257,0.0],[-82.1493,9.2201,0.0],[-82.1465,9.2204,0.0],[-82.1462,9.2218,0.0],[-82.1451,9.2207,0.0],[-82.1443,9.2224,0.0],[-82.1435,9.219,0.1509],[-82.1454,9.219,0.0],[-82.1446,9.2176,0.1653],[-82.1462,9.2174,0.0],[-82.1462,9.2151,0.2245],[-82.1474,9.2176,0.0],[-82.1507,9.2154,0.0],[-82.1487,9.2157,0.0],[-82.1482,9.2121,0.0],[-82.1457,9.2121,0.0],[-82.1446,9.2137,0.0],[-82.1435,9.2113,1.2911],[-82.1449,9.2093,0.2127],[-82.1474,9.2104,0.0],[-82.1499,9.2076,0.0],[-82.1496,9.2051,0.4555],[-82.1557,9.2035,0.3467],[-82.1529,9.2013,0.0],[-82.1474,9.201,1.2332],[-82.1446,9.2024,0.249],[-82.144,9.2065,3.9469],[-82.1438,9.2051,0.0],[-82.1413,9.2054,1.8602],[-82.1432,9.2007,0.0998],[-82.1382,9.2015,0.0951],[-82.1338,9.1996,0.0842],[-82.1415,9.1976,0.0],[-82.1404,9.1951,0.0],[-82.1379,9.1982,0.0457],[-82.1357,9.1979,0.634],[-82.1387,9.1954,0.0],[-82.1396,9.191,2.2544],[-82.1421,9.1912,8.785],[-82.1471,9.1965,1.9223],[-82.151,9.1976,0.0],[-82.1532,9.1965,0.1077],[-82.1532,9.1938,0.0],[-82.1513,9.1951,0.3161],[-82.1515,9.1901,1.4523],[-82.1526,9.1904,0.1616],[-82.154,9.1871,1.1043],[-82.1543,9.1882,1.1043],[-82.1532,9.1918,0.0743],[-82.1557,9.1896,0.3785],[-82.1593,9.191,0.0],[-82.1588,9.1876,0.0],[-82.1568,9.1865,0.0],[-82.1579,9.1835,0.0],[-82.1554,9.1799,1.3574],[-82.1579,9.1785,0.0],[-82.1562,9.1774,0.9595],[-82.1571,9.1751,0.0],[-82.1537,9.1749,3.0545],[-82.1568,9.1726,0.0],[-82.1554,9.1715,0.222],[-82.156,9.1696,0.3507],[-82.154,9.1688,1.9049],[-82.1532,9.1629,0.0],[-82.1573,9.1615,0.4145],[-82.1554,9.1635,0.0],[-82.1571,9.1662,0.1229],[-82.1565,9.1685,0.3079],[-82.1615,9.1693,0.1276],[-82.1618,9.1682,0.1125],[-82.1576,9.1668,0.1229],[-82.1601,9.1646,0.0622],[-82.1607,9.1615,0.0],[-82.1543,9.1549,1.6477],[-82.1535,9.1479,0.0],[-82.1507,9.151,0.4772],[-82.1501,9.1504,0.386],[-82.1513,9.149,0.0761],[-82.1496,9.1485,0.0],[-82.1476,9.1521,1.8408],[-82.1432,9.154,2.4424],[-82.1429,9.1515,0.0],[-82.1379,9.1507,9.0396],[-82.139,9.146,0.0],[-82.136,9.1457,1.2037],[-82.1365,9.1474,3.031],[-82.1351,9.1479,5.5471],[-82.1307,9.1443,1.4978],[-82.1293,9.1404,0.0],[-82.1276,9.141,12.4182],[-82.119,9.1365,0.0],[-82.116,9.1413,3.4949],[-82.1121,9.1413,3.3704],[-82.1107,9.139,14.034],[-82.1137,9.1357,0.0],[-82.0982,9.129,0.0],[-82.1001,9.1332,0.0],[-82.099,9.1351,0.8465],[-82.0954,9.1349,0.9435],[-82.0965,9.1357,1.2792],[-82.0957,9.1388,0.0],[-82.0979,9.141,1.7699],[-82.0963,9.1457,0.0],[-82.0971,9.1471,0.0],[-82.1004,9.1463,0.7701],[-82.0974,9.1496,0.1583],[-82.1007,9.1532,0.0],[-82.099,9.1543,0.177],[-82.0957,9.1535,0.1713],[-82.0949,9.1576,0.2228],[-82.0924,9.1579,0.0],[-82.0921,9.1604,0.0],[-82.0937,9.161,0.0],[-82.0935,9.1596,0.1622],[-82.0974,9.1585,0.0],[-82.0974,9.1549,0.0503],[-82.1001,9.1549,0.177],[-82.1007,9.1574,0.5101],[-82.0982,9.1607,1.4603],[-82.0949,9.1618,1.1614],[-82.0943,9.1643,0.2595],[-82.0921,9.1632,0.0],[-82.0912,9.1663,0.285],[-82.0899,9.1651,0.0],[-82.0899,9.1674,0.0931],[-82.094,9.1674,0.0],[-82.0929,9.1693,0.65],[-82.0907,9.1696,0.0461],[-82.091,9.1726,3.4344],[-82.0885,9.1679,0.0],[-82.0876,9.1704,0.2246],[-82.0835,9.1721,0.898],[-82.0821,9.1746,1.4071],[-82.0718,9.1738,0.0],[-82.0721,9.1774,3.9246],[-82.0874,9.1804,0.3335],[-82.0896,9.1788,0.0],[-82.0974,9.1788,0.0912],[-82.0996,9.1768,3.7001],[-82.0999,9.1782,0.0495],[-82.0957,9.1824,0.0],[-82.0996,9.1838,0.0761],[-82.101,9.1829,0.0559],[-82.1004,9.1804,0.3774],[-82.1032,9.181,1.7384],[-82.1029,9.1826,0.0559],[-82.1085,9.1812,0.3659],[-82.1071,9.1843,0.2654],[-82.1099,9.1865,1.8914],[-82.1124,9.186,9.4444],[-82.1118,9.1871,1.1586],[-82.1101,9.1874,0.1435],[-82.111,9.1887,0.1435],[-82.1076,9.1887,0.0929],[-82.1046,9.1865,0.0],[-82.1024,9.1893,0.0],[-82.1096,9.1899,0.2455],[-82.1115,9.1918,0.0],[-82.1132,9.189,0.0683],[-82.1149,9.1904,0.8638],[-82.1151,9.1951,0.0],[-82.1087,9.1949,2.6173],[-82.1038,9.1912,0.0],[-82.1024,9.1918,0.0],[-82.1029,9.1932,0.1021],[-82.0982,9.1935,0.0],[-82.0979,9.1962,0.4944],[-82.1029,9.2015,0.0],[-82.1035,9.2051,2.9658],[-82.1079,9.2104,1.1207],[-82.106,9.2162,0.84],[-82.1071,9.2218,5.3992],[-82.1104,9.2235,1.4297],[-82.1137,9.229,4.324],[-82.1185,9.2315,1.8489],[-82.1226,9.2276,1.3163],[-82.1274,9.2274,0.0],[-82.1279,9.2293,2.1557],[-82.1221,9.229,5.7301],[-82.1176,9.2329,0.0],[-82.1201,9.2338,0.0],[-82.1224,9.2321,2.955],[-82.1218,9.234,3.9953],[-82.1243,9.2371,0.0]]],
[[[-82.0963,9.1879,0.0],[-82.0987,9.1885,0.5364],[-82.1001,9.1851,0.0761],[-82.0979,9.1843,0.1902],[-82.0976,9.1876,0.5364],[-82.0963,9.1879,0.0]]],
[[[-82.0893,9.1871,0.3594],[-82.091,9.1879,0.0],[-82.0882,9.1851,0.0],[-82.0885,9.1865,0.0],[-82.0893,9.1871,0.3594]]],
[[[-82.1621,9.2104,0.0],[-82.1637,9.211,0.2003],[-82.1635,9.2063,0.0],[-82.1615,9.2062,0.0],[-82.1621,9.2104,0.0]]],
[[[-82.1524,9.2201,0.2356],[-82.1543,9.2204,0.2356],[-82.1526,9.2171,0.0786],[-82.1507,9.2165,0.0],[-82.1501,9.2182,0.0],[-82.1524,9.2201,0.2356]]],
[[[-82.1596,9.2296,0.2232],[-82.161,9.2301,0.0],[-82.1604,9.2232,0.0],[-82.1582,9.2235,0.0],[-82.1571,9.2257,0.2268],[-82.1579,9.229,0.0],[-82.1596,9.2296,0.2232]]]]}
,"properties": {"GID_3": "PAN.1.1.4_1","GID_0": "PAN","country": "Panama","GID_1": "PAN.1_1","province": "BocasdelToro","NL_NAME_1": "NA","GID_2": "PAN.1.1_1","county": "BocasdelToro","NL_NAME_2": "NA","city": "PuntaLaurel","VARNAME_3": "NA","NL_NAME_3": "NA","TYPE_3": "Corregimiento","ENGTYPE_3": "Municipality","CC_3": "NA","HASC_3": "NA","name": "Punta_Laurel.city","area_km2": 76.00028,"hist_schema_id": "Elevation0-9000","hist_area_km2": {"0": 26.72872,"25": 34.87108,"50": 12.28642,"75": 1.90474,"100": 0.20933}}}