{"type": "Feature","bbox": [-80.5177,7.8342,-80.3782,7.9635],"geometry": {"type": "MultiPolygon","coordinates": [[[[-80.454,7.9362,16.0677],[-80.4555,7.9349,28.3971],[-80.4553,7.9226,17.7353],[-80.464,7.9174,20.0847],[-80.49,7.8824,44.235],[-80.4966,7.8765,55.8816],[-80.5097,7.8707,63.5205],[-80.5177,7.8548,82.7036],[-80.5028,7.8426,54.7958],[-80.487,7.8342,56.288],[-80.4733,7.8414,67.5346],[-80.466,7.8426,73.2732],[-80.4455,7.851,143.3215],[-80.4231,7.842,87.8651],[-80.4245,7.8536,175.3262],[-80.4263,7.8551,149.744],[-80.4273,7.8714,133.4578],[-80.4252,7.8778,129.7815],[-80.4204,7.8837,103.7021],[-80.4342,7.892,105.2504],[-80.4386,7.8961,64.0357],[-80.4389,7.8989,54.8779],[-80.4304,7.9062,57.9082],[-80.428,7.9155,72.8942],[-80.4175,7.9289,19.854],[-80.4136,7.9192,43.4447],[-80.3957,7.9088,74.5059],[-80.393,7.9168,44.0799],[-80.3934,7.9261,24.5494],[-80.3827,7.9214,28.7325],[-80.3798,7.9223,22.7008],[-80.3782,7.9257,24.2909],[-80.3786,7.931,19.7804],[-80.383,7.9432,14.7541],[-80.3864,7.9454,9.3809],[-80.3932,7.9462,8.2984],[-80.3905,7.9533,3.2078],[-80.391,7.9635,5.3],[-80.3972,7.9584,7.7471],[-80.3974,7.953,6.7952],[-80.4104,7.9475,6.5],[-80.4158,7.9388,14.0823],[-80.4201,7.9408,9.1926],[-80.4314,7.9344,15.1053],[-80.4371,7.9349,19.2541],[-80.4404,7.931,37.6988],[-80.4445,7.9297,45.417],[-80.454,7.9362,16.0677]]]]}
,"properties": {"GID_3": "PAN.9.3.5_1","GID_0": "PAN","country": "Panama","GID_1": "PAN.9_1","province": "LosSantos","NL_NAME_1": "NA","GID_2": "PAN.9.3_1","county": "LosSantos","NL_NAME_2": "NA","city": "LaVilladeLosSantos","VARNAME_3": "NA","NL_NAME_3": "NA","TYPE_3": "Corregimiento","ENGTYPE_3": "Municipality","CC_3": "NA","HASC_3": "NA","name": "La_Villade_Los_Santos.city","area_km2": 81.23393,"hist_schema_id": "Elevation0-9000","hist_area_km2": {"0": 4.36773,"25": 16.31676,"50": 16.67514,"75": 15.24769,"100": 11.19435,"125": 7.3509,"150": 4.80962,"175": 3.75953,"200": 1.4282,"225": 0.08401}}}