{"type": "Feature","bbox": [-80.6149,7.9645,-80.5549,8.0334],"geometry": {"type": "MultiPolygon","coordinates": [[[[-80.6025,7.992,28.8716],[-80.5956,7.9861,32.7465],[-80.5984,7.9777,41.114],[-80.598,7.9744,42.6872],[-80.5886,7.97,25.0819],[-80.5857,7.966,36.5946],[-80.5799,7.9646,32.4137],[-80.574,7.9657,38.9949],[-80.5591,7.9645,51.5011],[-80.5549,7.9706,26.0405],[-80.555,7.9722,25.1241],[-80.5575,7.9732,27.6924],[-80.5587,7.9777,24.7352],[-80.5572,7.9891,26.0774],[-80.555,7.9941,41.5186],[-80.556,7.9971,40.7341],[-80.5753,8.0082,42.0535],[-80.5789,8.0149,111.2954],[-80.588,8.0222,80.2298],[-80.6115,8.0334,76.0309],[-80.6149,8.0292,72.0303],[-80.6119,8.0144,61.4897],[-80.6121,8.0078,64.1466],[-80.6093,8.0046,60.3056],[-80.6086,7.9985,50.147],[-80.601,7.9935,34.955],[-80.6025,7.992,28.8716]]]]}
,"properties": {"GID_3": "PAN.7.5.6_1","GID_0": "PAN","country": "Panama","GID_1": "PAN.7_1","province": "Herrera","NL_NAME_1": "NA","GID_2": "PAN.7.5_1","county": "Parita","NL_NAME_2": "NA","city": "Portobelillo","VARNAME_3": "NA","NL_NAME_3": "NA","TYPE_3": "Corregimiento","ENGTYPE_3": "Municipality","CC_3": "NA","HASC_3": "NA","name": "Portobelillo.city","area_km2": 28.84864,"hist_schema_id": "Elevation0-9000","hist_area_km2": {"25": 13.22789,"50": 11.46373,"75": 4.09404,"100": 0.021,"125": 0.04199}}}