{"type": "Feature","bbox": [-81.2344,8.2644,-81.0585,8.4361],"geometry": {"type": "MultiPolygon","coordinates": [[[[-81.2344,8.2751,124.4716],[-81.201,8.2769,379.1392],[-81.1856,8.2657,279.0352],[-81.178,8.2644,240.0643],[-81.144,8.2663,113.015],[-81.1362,8.2732,101.5806],[-81.1163,8.2674,127.0728],[-81.1025,8.2687,92.2012],[-81.0798,8.2777,117.9212],[-81.0611,8.2819,134.8487],[-81.0585,8.2981,190.6924],[-81.0636,8.3013,192.3898],[-81.0696,8.3099,222.4415],[-81.0822,8.313,258.1987],[-81.0892,8.3213,258.7463],[-81.09,8.3299,217.7278],[-81.0931,8.335,143.334],[-81.0933,8.3442,148.2313],[-81.098,8.3601,240.7135],[-81.1031,8.4084,235.4671],[-81.1198,8.4299,274.9766],[-81.1327,8.4361,444.6423],[-81.1466,8.4059,369.417],[-81.1489,8.4039,320.8189],[-81.1565,8.4037,325.2299],[-81.1581,8.4024,325.2299],[-81.1587,8.3915,588.9845],[-81.1631,8.391,610.5325],[-81.1726,8.396,584.4171],[-81.1771,8.3963,439.3588],[-81.1959,8.3799,309.3791],[-81.1859,8.3752,378.3898],[-81.1747,8.3647,334.3149],[-81.1659,8.3507,335.9611],[-81.1626,8.335,354.6992],[-81.1537,8.3302,346.6995],[-81.1528,8.3264,292.8645],[-81.1464,8.3191,187.3944],[-81.1459,8.3166,174.2971],[-81.1522,8.3128,207.7637],[-81.181,8.3048,153.6039],[-81.1843,8.302,190.6934],[-81.1895,8.2929,272.2954],[-81.1947,8.289,282.1008],[-81.2186,8.2864,187.5816],[-81.2344,8.2751,124.4716]]]]}
,"properties": {"GID_3": "PAN.13.3.6_1","GID_0": "PAN","country": "Panama","GID_1": "PAN.13_1","province": "Veraguas","NL_NAME_1": "NA","GID_2": "PAN.13.3_1","county": "Cañazas","NL_NAME_2": "NA","city": "SanMarcelo","VARNAME_3": "NA","NL_NAME_3": "NA","TYPE_3": "Corregimiento","ENGTYPE_3": "Municipality","CC_3": "NA","HASC_3": "NA","name": "San_Marcelo.city","area_km2": 160.4004,"hist_schema_id": "Elevation0-9000","hist_area_km2": {"75": 0.3147,"100": 11.4137,"125": 18.4836,"150": 16.2383,"175": 13.6158,"200": 11.7485,"225": 9.9231,"250": 7.8669,"275": 6.9228,"300": 8.307,"325": 8.4746,"350": 8.7683,"375": 6.8383,"400": 6.0411,"425": 6.0201,"450": 4.6567,"475": 3.6708,"500": 2.5801,"525": 2.5381,"550": 1.5942,"575": 1.0698,"600": 0.9439,"625": 0.6502,"650": 0.5663,"675": 0.5663,"700": 0.2937,"725": 0.1888,"750": 0.0629,"775": 0.021,"800": 0.021}}}