{"type": "Feature","bbox": [-80.5065,7.761,-80.4446,7.851],"geometry": {"type": "MultiPolygon","coordinates": [[[[-80.4733,7.8414,67.5346],[-80.4739,7.8289,59.6413],[-80.4792,7.8201,91.7147],[-80.4733,7.8145,77.5683],[-80.4724,7.8017,99.4227],[-80.4806,7.7995,88.6836],[-80.4834,7.7881,102.5691],[-80.4926,7.7845,125.2542],[-80.5065,7.7707,149.2443],[-80.4978,7.7695,134.4699],[-80.485,7.761,173.4896],[-80.4715,7.7649,167.4755],[-80.466,7.7687,162.468],[-80.461,7.7693,183.6388],[-80.4526,7.7733,143.6848],[-80.4462,7.7767,161.534],[-80.4446,7.7808,124.379],[-80.4464,7.7858,99.8356],[-80.4464,7.8057,71.418],[-80.4586,7.8139,79.3132],[-80.4623,7.8199,79.8996],[-80.4589,7.8274,70.5955],[-80.4525,7.8331,76.8692],[-80.4455,7.851,143.3215],[-80.466,7.8426,73.2732],[-80.4733,7.8414,67.5346]]]]}
,"properties": {"GID_3": "PAN.9.3.14_1","GID_0": "PAN","country": "Panama","GID_1": "PAN.9_1","province": "LosSantos","NL_NAME_1": "NA","GID_2": "PAN.9.3_1","county": "LosSantos","NL_NAME_2": "NA","city": "VillaLourdes","VARNAME_3": "NA","NL_NAME_3": "NA","TYPE_3": "Corregimiento","ENGTYPE_3": "Municipality","CC_3": "NA","HASC_3": "NA","name": "Villa_Lourdes.city","area_km2": 29.66071,"hist_schema_id": "Elevation0-9000","hist_area_km2": {"50": 0.44109,"75": 8.75909,"100": 6.95298,"125": 7.20536,"150": 4.74765,"175": 1.32346,"200": 0.18907,"225": 0.04202}}}