{"type": "Feature","bbox": [-80.5551,8.5018,-80.4684,8.6088],"geometry": {"type": "MultiPolygon","coordinates": [[[[-80.5543,8.567,110.0287],[-80.5459,8.5641,141.7416],[-80.5437,8.5578,91.5106],[-80.5473,8.5323,113.9011],[-80.54,8.5179,62.1721],[-80.5374,8.5086,64.7265],[-80.5375,8.5018,80.8206],[-80.4733,8.5112,479.3756],[-80.4768,8.517,410.338],[-80.4769,8.5203,365.9179],[-80.4684,8.5441,101.4674],[-80.4767,8.55,200.3633],[-80.4892,8.5534,310.0641],[-80.4928,8.5612,272.048],[-80.4915,8.5702,302.8346],[-80.4935,8.575,305.9783],[-80.4996,8.5805,433.5784],[-80.506,8.5827,363.7556],[-80.5104,8.5917,161.4725],[-80.5252,8.5975,254.8536],[-80.5292,8.6036,255.5043],[-80.5471,8.6088,480.9455],[-80.5484,8.5995,190.5737],[-80.553,8.5961,192.5892],[-80.5524,8.5886,134.0874],[-80.5551,8.5801,124.7324],[-80.5543,8.567,110.0287]]]]}
,"properties": {"GID_3": "PAN.3.3.2_1","GID_0": "PAN","country": "Panama","GID_1": "PAN.3_1","province": "Coclé","NL_NAME_1": "NA","GID_2": "PAN.3.3_1","county": "LaPintada","NL_NAME_2": "NA","city": "ElPotrero","VARNAME_3": "NA","NL_NAME_3": "NA","TYPE_3": "Corregimiento","ENGTYPE_3": "Municipality","CC_3": "NA","HASC_3": "NA","name": "El_Potrero.city","area_km2": 69.88157,"hist_schema_id": "Elevation0-9000","hist_area_km2": {"50": 1.42588,"75": 14.38388,"100": 14.59287,"125": 8.99442,"150": 6.68805,"175": 5.32526,"200": 3.64806,"225": 3.50131,"250": 2.28527,"275": 1.80306,"300": 1.63533,"325": 1.13217,"350": 0.8806,"375": 0.85967,"400": 0.77579,"425": 0.81772,"450": 0.48223,"475": 0.33547,"500": 0.20967,"525": 0.08387,"550": 0.02097}}}