{"type":"Feature","properties":{"GID_3":"PAN.4.5.5_1","GID_0":"PAN","country":"Panama","GID_1":"PAN.4_1","province":"Colón","NL_NAME_1":"NA","GID_2":"PAN.4.5_1","county":"Portobelo","NL_NAME_2":"NA","city":"Portobelo","VARNAME_3":"NA","NL_NAME_3":"NA","TYPE_3":"Corregimiento","ENGTYPE_3":"Municipality","CC_3":"NA","HASC_3":"NA","name":"Portobelo.city"},
"geometry":{"type": "MultiPolygon","coordinates": [[[[-79.5362,9.4752,196.1774],[-79.5344,9.4753,220.861],[-79.5339,9.4789,218.5102],[-79.5315,9.4813,302.8654],[-79.5234,9.482,260.4301],[-79.5164,9.4862,251.8427],[-79.5118,9.4853,252.4346],[-79.5067,9.4908,341.7767],[-79.4909,9.4911,174.4851],[-79.5094,9.5024,147.4713],[-79.516,9.5001,162.6358],[-79.5217,9.4948,254.8169],[-79.5251,9.4939,226.5411],[-79.5281,9.495,282.4783],[-79.5293,9.4978,332.1322],[-79.5247,9.5051,314.906],[-79.523,9.514,158.7368],[-79.5248,9.5298,242.9835],[-79.5324,9.5406,177.3642],[-79.5359,9.5435,205.7798],[-79.5437,9.546,84.8276],[-79.5528,9.5457,72.5648],[-79.5697,9.5506,80.3973],[-79.5748,9.5537,99.8148],[-79.5843,9.5542,81.8105],[-79.5888,9.5566,33.6533],[-79.5984,9.573,10.942],[-79.5921,9.5852,25.8],[-79.5921,9.5914,78.2323],[-79.6032,9.594,133.2185],[-79.6146,9.5993,81.6576],[-79.6247,9.5931,68.0394],[-79.6375,9.59,83.5648],[-79.6473,9.584,3.7795],[-79.6556,9.5877,3.4807],[-79.6576,9.5832,7.0699],[-79.6615,9.5826,1.1436],[-79.6646,9.584,0.0],[-79.6643,9.5804,7.0058],[-79.6685,9.5821,0.0],[-79.669,9.5751,0.0],[-79.6676,9.5724,0.0],[-79.6726,9.5713,27.9957],[-79.6779,9.564,3.1079],[-79.6804,9.5662,6.3808],[-79.6829,9.5649,45.2264],[-79.6787,9.5579,2.1992],[-79.6724,9.5568,0.0],[-79.669,9.5599,6.7632],[-79.6635,9.5601,0.0],[-79.659,9.5624,5.3386],[-79.6588,9.5685,2.4769],[-79.6571,9.5643,0.0],[-79.6535,9.5638,9.1546],[-79.6537,9.5624,4.586],[-79.6576,9.5615,0.3919],[-79.6543,9.5571,0.0],[-79.656,9.5543,2.6929],[-79.666,9.5521,0.0],[-79.6721,9.5474,17.0075],[-79.676,9.5476,0.0],[-79.6793,9.5449,0.0],[-79.6751,9.541,0.0],[-79.6738,9.5368,0.0],[-79.669,9.5349,0.0],[-79.6693,9.5326,0.5882],[-79.6746,9.5326,0.0],[-79.6771,9.5299,1.4348],[-79.681,9.5288,0.0],[-79.6829,9.5249,15.199],[-79.6879,9.5213,0.8095],[-79.6871,9.5174,9.5929],[-79.6921,9.5118,0.0],[-79.6893,9.5012,2.4323],[-79.6918,9.5018,0.9551],[-79.699,9.4957,2.7191],[-79.7038,9.4954,0.0],[-79.7046,9.4932,5.062],[-79.7087,9.4915,10.2981],[-79.7099,9.4874,0.0],[-79.7121,9.4854,3.397],[-79.7143,9.4868,1.4427],[-79.7187,9.4854,0.5486],[-79.7201,9.4812,6.2711],[-79.7226,9.4838,0.0],[-79.7251,9.4835,14.2359],[-79.7274,9.476,0.0],[-79.7249,9.4693,4.1719],[-79.7293,9.4685,1.972],[-79.7349,9.4704,0.5788],[-79.7368,9.4685,0.0],[-79.7354,9.4599,0.4977],[-79.7396,9.4551,2.0337],[-79.7382,9.4521,4.5394],[-79.7404,9.454,2.0337],[-79.7418,9.4532,4.3601],[-79.7423,9.4444,64.5537],[-79.7371,9.439,36.5056],[-79.7312,9.4279,23.1434],[-79.7259,9.4236,57.5867],[-79.7084,9.4147,92.845],[-79.697,9.4215,178.7259],[-79.6934,9.4301,275.2638],[-79.6829,9.4375,413.8411],[-79.6787,9.438,404.9028],[-79.6563,9.4318,489.81],[-79.6485,9.4397,574.5741],[-79.6526,9.448,573.8789],[-79.6511,9.4538,649.308],[-79.6468,9.4547,574.5612],[-79.639,9.4526,596.9886],[-79.6285,9.4524,660.007],[-79.6156,9.4536,650.9511],[-79.6062,9.4609,753.8988],[-79.5933,9.4744,729.149],[-79.5827,9.4729,898.7327],[-79.5609,9.4853,901.7575],[-79.5406,9.4748,229.7413],[-79.5362,9.4752,196.1774]]],
[[[-79.6804,9.5415,0.0],[-79.6821,9.5415,0.4514],[-79.6829,9.5399,0.0],[-79.6815,9.5393,0.0],[-79.6804,9.5415,0.0]]],
[[[-79.6635,9.5904,0.0],[-79.666,9.5904,3.2956],[-79.6665,9.5893,3.2956],[-79.6651,9.5885,0.0],[-79.6635,9.5904,0.0]]],
[[[-79.6663,9.5979,0.0],[-79.6682,9.5968,2.9552],[-79.6668,9.5946,0.0],[-79.6649,9.5946,1.7681],[-79.6643,9.596,0.0],[-79.6663,9.5979,0.0]]]]}}