{"type":"Feature","properties":{"GID_3":"PAN.10.5.3_1","GID_0":"PAN","country":"Panama","GID_1":"PAN.10_1","province":"NgöbeBuglé","NL_NAME_1":"NA","GID_2":"PAN.10.5_1","county":"Müna","NL_NAME_2":"NA","city":"CerroCaña","VARNAME_3":"NA","NL_NAME_3":"NA","TYPE_3":"Corregimiento","ENGTYPE_3":"Municipality","CC_3":"NA","HASC_3":"NA","name":"Cerro_Caña.city"},
"geometry":{"type": "MultiPolygon","coordinates": [[[[-81.5917,8.3818,323.7232],[-81.5985,8.3811,372.5323],[-81.6103,8.3754,334.0703],[-81.618,8.3755,338.2448],[-81.6253,8.3779,285.5963],[-81.6333,8.3617,438.1621],[-81.6327,8.3582,520.8476],[-81.627,8.3499,397.3865],[-81.6276,8.3451,333.5547],[-81.6309,8.3445,349.1373],[-81.6421,8.3481,620.5376],[-81.65,8.3445,639.2848],[-81.655,8.3402,433.7698],[-81.6555,8.3379,421.3104],[-81.6509,8.3257,261.4295],[-81.6527,8.3174,299.5722],[-81.6475,8.3017,293.6779],[-81.6477,8.292,233.692],[-81.643,8.3011,415.732],[-81.6344,8.3011,379.9922],[-81.6291,8.3051,368.1846],[-81.6291,8.2954,372.9631],[-81.627,8.2936,416.70119999999997],[-81.6283,8.2892,273.1793],[-81.6223,8.2908,396.9057],[-81.6205,8.303,359.6104],[-81.6249,8.3042,353.8463],[-81.625,8.3113,355.2776],[-81.6214,8.3136,236.9692],[-81.6221,8.3167,335.0734],[-81.6183,8.3218,181.6745],[-81.6203,8.3289,275.3517],[-81.6166,8.3332,316.7155],[-81.6161,8.3368,335.0246],[-81.6178,8.3392,347.91],[-81.6157,8.3421,397.4099],[-81.6155,8.3494,500.0812],[-81.6125,8.3546,389.6902],[-81.6025,8.3582,402.3824],[-81.5991,8.3654,247.6559],[-81.6015,8.3695,271.923],[-81.6001,8.3717,262.3851],[-81.5968,8.3729,275.6204],[-81.5961,8.3768,348.5975],[-81.5917,8.3818,323.7232]]]]}}