{"type":"Feature","properties":{"GID_3":"PAN.13.10.6_1","GID_0":"PAN","country":"Panama","GID_1":"PAN.13_1","province":"Veraguas","NL_NAME_1":"NA","GID_2":"PAN.13.10_1","county":"Santiago","NL_NAME_2":"NA","city":"Ponuga","VARNAME_3":"NA","NL_NAME_3":"NA","TYPE_3":"Corregimiento","ENGTYPE_3":"Municipality","CC_3":"NA","HASC_3":"NA","name":"Ponuga.city"},
"geometry":{"type": "MultiPolygon","coordinates": [[[[-80.9229,7.8862,83.6067],[-80.9206,7.9018,106.5743],[-80.9143,7.9093,101.5965],[-80.9226,7.916,99.9794],[-80.9282,7.9174,121.7052],[-80.93,7.9198,136.0711],[-80.9299,7.9232,128.6244],[-80.9235,7.923,170.7984],[-80.9195,7.9202,221.0334],[-80.9157,7.923,234.1256],[-80.912,7.9229,220.8939],[-80.9027,7.9268,204.6996],[-80.8918,7.9213,188.3687],[-80.8797,7.9247,179.3855],[-80.8708,7.9231,175.5373],[-80.8663,7.9422,180.3199],[-80.8617,7.948,160.7965],[-80.8854,7.9523,188.9826],[-80.8972,7.9676,137.5049],[-80.9102,7.9612,106.7009],[-80.9252,7.9594,99.9591],[-80.9299,7.9557,92.7],[-80.9383,7.9549,146.9697],[-80.9448,7.9521,162.7466],[-80.9645,7.9619,86.7471],[-80.982,7.9658,62.6161],[-80.9785,7.9537,67.8942],[-80.9814,7.9464,59.6952],[-80.9785,7.9367,81.8327],[-80.9808,7.932,105.7014],[-80.999,7.9246,144.5703],[-81.0421,7.8989,91.8064],[-81.0577,7.8851,0.0],[-81.0537,7.8843,7.6755],[-81.0485,7.8779,0.0],[-81.0443,7.8776,12.6083],[-81.039,7.8818,2.6483],[-81.0365,7.8776,6.9754],[-81.0401,7.8807,0.0],[-81.0437,7.8765,12.6109],[-81.0485,7.8768,15.1336],[-81.0524,7.8787,12.6742],[-81.0554,7.8835,0.0],[-81.0593,7.8818,11.6756],[-81.0635,7.8824,0.0],[-81.0665,7.8787,1.2721],[-81.0621,7.8665,0.0],[-81.0629,7.8624,2.2377],[-81.061,7.8601,0.0],[-81.0618,7.8579,22.2837],[-81.0621,7.8607,7.1244],[-81.0646,7.8607,0.0],[-81.066,7.8488,0.0],[-81.0615,7.8326,11.6836],[-81.0624,7.8251,0.0],[-81.0557,7.8221,5.8855],[-81.0304,7.8221,0.0],[-81.0279,7.8257,12.3499],[-81.0212,7.8302,2.9453],[-81.0215,7.8404,0.0],[-81.0251,7.8418,10.7265],[-81.026,7.8437,3.2947],[-81.0207,7.8421,2.2934],[-81.0193,7.8349,2.5773],[-81.0204,7.8282,4.8739],[-81.0168,7.8254,20.4783],[-81.0224,7.8274,0.0],[-81.0288,7.8207,0.0],[-81.0343,7.819,0.0],[-81.0687,7.8176,0.0],[-81.0785,7.8099,0.0],[-81.0863,7.7965,23.6612],[-81.0907,7.7785,0.0],[-81.0901,7.7729,5.3097],[-81.0799,7.7657,2.342],[-81.0751,7.7562,0.0],[-81.0654,7.7568,0.0],[-81.0607,7.7637,5.0352],[-81.0526,7.7587,11.9648],[-81.0535,7.7585,13.909],[-81.0571,7.7607,0.6431],[-81.0604,7.7607,1.9474],[-81.0649,7.7549,0.0],[-81.0646,7.7468,0.0],[-81.0557,7.7507,3.8331],[-81.0401,7.7499,0.0],[-81.0332,7.7529,1.0274],[-81.0285,7.7432,5.0379],[-81.0196,7.7446,2.8872],[-81.0246,7.7421,7.7172],[-81.0287,7.7421,5.0379],[-81.0349,7.7513,1.6838],[-81.0376,7.7457,0.0],[-81.0242,7.7305,9.0921],[-81.0055,7.7316,16.3659],[-80.9907,7.7247,18.7974],[-80.985,7.7303,11.6132],[-80.9748,7.7329,31.1589],[-80.9695,7.738,13.8506],[-80.9614,7.7528,36.6933],[-80.9602,7.7595,95.0526],[-80.9633,7.765,81.0759],[-80.9622,7.7696,49.8083],[-80.9585,7.7725,104.1103],[-80.9524,7.772,90.3105],[-80.949,7.7785,165.247],[-80.9481,7.7993,151.8006],[-80.9373,7.8203,347.5767],[-80.9389,7.8297,395.7805],[-80.9322,7.8537,394.2226],[-80.9304,7.8736,141.2704],[-80.9257,7.8839,109.3089],[-80.9229,7.8862,83.6067]]]]}}