{"type":"Feature","properties":{"GID_3":"PAN.12.5.1_1","GID_0":"PAN","country":"Panama","GID_1":"PAN.12_1","province":"Panamá","NL_NAME_1":"NA","GID_2":"PAN.12.5_1","county":"LagoBayano","NL_NAME_2":"NA","city":"Waterbody","VARNAME_3":"NA","NL_NAME_3":"NA","TYPE_3":"Waterbody","ENGTYPE_3":"Waterbody","CC_3":"NA","HASC_3":"NA","name":"Waterbody.city"},
"geometry":{"type": "MultiPolygon","coordinates": [[[[-78.4957,9.0638,62.173],[-78.4985,9.0649,55.5],[-78.5018,9.0615,55.5],[-78.4982,9.0624,55.5],[-78.4993,9.059,60.3721],[-78.4971,9.0588,68.2673],[-78.4957,9.0638,62.173]]],
[[[-78.4563,9.0787,57.2011],[-78.4579,9.0713,57.4865],[-78.454,9.0654,58.1934],[-78.4521,9.0701,59.5665],[-78.4557,9.0735,57.7625],[-78.4543,9.0776,60.0221],[-78.4563,9.0787,57.2011]]],
[[[-78.4604,9.0921,57.9156],[-78.4646,9.0901,57.509],[-78.4638,9.0882,56.4858],[-78.4662,9.0857,57.5541],[-78.4624,9.0826,56.8886],[-78.4618,9.0782,58.5856],[-78.4582,9.079,58.1392],[-78.4563,9.0837,58.2955],[-78.456,9.0896,57.2677],[-78.4604,9.0921,57.9156]]],
[[[-78.8224,9.209,55.5],[-78.8215,9.2074,55.5],[-78.8232,9.206,82.4133],[-78.8207,9.2076,55.5],[-78.819,9.2054,85.5552],[-78.8126,9.2074,55.5],[-78.8104,9.2063,63.1068],[-78.8087,9.2076,58.2462],[-78.8085,9.206,63.1068],[-78.7988,9.2054,59.2684],[-78.8021,9.2026,59.4642],[-78.7968,9.2038,55.5],[-78.7951,9.2018,55.5],[-78.7962,9.2004,94.2973],[-78.7937,9.2007,55.5],[-78.7946,9.1988,67.5978],[-78.7982,9.1974,98.2326],[-78.7993,9.1946,58.6746],[-78.7962,9.1821,82.384],[-78.7988,9.1796,55.5],[-78.7985,9.1812,55.5],[-78.8007,9.1821,63.2177],[-78.8001,9.1801,55.5],[-78.8029,9.1765,66.341],[-78.8018,9.1732,62.1318],[-78.7979,9.1707,56.5172],[-78.8004,9.1618,55.5],[-78.8024,9.1637,60.7828],[-78.8021,9.1612,55.5],[-78.8079,9.1604,55.5],[-78.8063,9.1615,58.9363],[-78.8068,9.1646,55.5],[-78.8037,9.1649,60.6832],[-78.8015,9.1676,70.6374],[-78.8043,9.1763,66.341],[-78.8068,9.1749,55.5],[-78.8071,9.1771,66.9617],[-78.8085,9.1774,62.046],[-78.8082,9.1793,61.9899],[-78.8057,9.1804,69.8336],[-78.8063,9.1824,76.5762],[-78.8071,9.1807,63.9056],[-78.809,9.181,82.7954],[-78.8101,9.1768,55.5],[-78.8129,9.1768,55.5],[-78.8124,9.1785,61.5158],[-78.8146,9.179,67.5649],[-78.816,9.1774,62.2261],[-78.821,9.1774,55.5],[-78.8187,9.1779,55.5],[-78.8193,9.1801,55.5],[-78.8176,9.1821,55.5],[-78.8129,9.1835,87.0367],[-78.816,9.1854,55.5],[-78.8132,9.1871,65.5354],[-78.8154,9.1874,55.5],[-78.816,9.1915,61.0774],[-78.8087,9.1918,70.4893],[-78.814,9.194,72.8714],[-78.8135,9.1957,60.3477],[-78.8171,9.1951,78.4801],[-78.8146,9.194,72.8714],[-78.8154,9.1924,76.4711],[-78.8179,9.1926,60.2363],[-78.8165,9.1862,57.7071],[-78.8226,9.179,55.5],[-78.8251,9.1785,55.5],[-78.8249,9.1804,59.0026],[-78.8224,9.1804,55.5],[-78.8249,9.1812,57.1827],[-78.8246,9.1824,55.5],[-78.8221,9.1835,69.5375],[-78.8249,9.1862,60.6104],[-78.8243,9.1893,62.2098],[-78.8282,9.1924,63.3102],[-78.8257,9.1932,75.3706],[-78.8246,9.1957,74.1739],[-78.8274,9.196,85.708],[-78.8262,9.1938,55.5],[-78.8288,9.1946,65.5175],[-78.8296,9.1932,55.5],[-78.8299,9.1943,59.6131],[-78.8315,9.1915,120.077],[-78.8274,9.1893,64.3149],[-78.8274,9.186,85.4659],[-78.8254,9.1854,80.0499],[-78.8254,9.1835,55.5],[-78.8276,9.1824,55.5],[-78.8293,9.1851,70.2491],[-78.8296,9.1826,55.5],[-78.8335,9.1874,101.9967],[-78.8329,9.1838,55.5],[-78.8388,9.1838,84.5294],[-78.8437,9.1768,55.5],[-78.8476,9.1915,61.0188],[-78.8437,9.1924,79.6546],[-78.8501,9.1946,82.6488],[-78.8521,9.191,56.9614],[-78.8526,9.1935,58.7884],[-78.854,9.1935,60.7424],[-78.8543,9.191,58.1175],[-78.856,9.1915,62.9288],[-78.8576,9.1876,55.5],[-78.8596,9.1876,74.2927],[-78.8599,9.1765,55.5],[-78.8632,9.1704,55.5],[-78.8657,9.1707,72.3239],[-78.8643,9.1732,74.7812],[-78.866,9.184,104.5471],[-78.8651,9.1887,73.0758],[-78.8665,9.1879,76.6395],[-78.8674,9.1896,73.129],[-78.8674,9.1851,55.5],[-78.8712,9.1843,96.6051],[-78.8668,9.1829,89.941],[-78.8665,9.1724,60.0596],[-78.8732,9.1763,63.5885],[-78.8757,9.1799,109.2271],[-78.8763,9.1776,61.6645],[-78.8829,9.1801,55.5],[-78.8849,9.1776,70.63],[-78.8726,9.1718,60.6222],[-78.8718,9.1696,55.5],[-78.8751,9.1663,57.2819],[-78.8749,9.1626,55.5],[-78.871,9.1599,58.8447],[-78.8746,9.1538,56.961],[-78.8729,9.1518,55.5],[-78.8746,9.151,66.2371],[-78.8715,9.1504,58.7175],[-78.874,9.1468,96.3381],[-78.8701,9.1468,60.4368],[-78.8688,9.1435,89.7848],[-78.8651,9.1493,55.5],[-78.8635,9.149,55.5],[-78.8643,9.1465,72.5303],[-78.8621,9.1468,71.0013],[-78.8621,9.1451,107.4176],[-78.8587,9.1463,69.3946],[-78.8585,9.1443,85.5479],[-78.8615,9.1426,59.9645],[-78.8615,9.141,66.0074],[-78.8604,9.1351,100.9985],[-78.8568,9.1307,55.5],[-78.8579,9.1274,82.2029],[-78.8565,9.1265,61.8772],[-78.8571,9.1279,73.0807],[-78.8551,9.1293,55.5],[-78.8526,9.1246,59.0396],[-78.8521,9.1271,55.5],[-78.8507,9.1257,59.7031],[-78.854,9.1176,55.5],[-78.8587,9.116,58.6695],[-78.8629,9.1165,55.5],[-78.8674,9.1212,55.5],[-78.8662,9.1271,89.2659],[-78.8701,9.1276,78.1336],[-78.8718,9.1251,68.0287],[-78.8746,9.1265,61.8469],[-78.8763,9.1249,64.0797],[-78.8801,9.126,69.0419],[-78.8826,9.1235,63.0247],[-78.8782,9.1246,58.1534],[-78.8774,9.1226,75.0938],[-78.8754,9.1226,91.4655],[-78.8746,9.1246,64.0797],[-78.8721,9.1235,117.3737],[-78.8701,9.1265,78.649],[-78.8671,9.126,70.2839],[-78.8693,9.1196,61.5355],[-78.8737,9.116,60.8883],[-78.8729,9.1154,78.7491],[-78.869,9.1193,61.5355],[-78.8665,9.119,66.9784],[-78.8649,9.1126,55.5],[-78.8662,9.1104,60.816],[-78.869,9.1104,72.9897],[-78.8657,9.1093,62.4439],[-78.8643,9.1104,62.4439],[-78.8629,9.1074,60.6996],[-78.8615,9.1074,60.0022],[-78.8632,9.1143,55.5],[-78.8613,9.1157,55.5],[-78.8562,9.1135,63.8894],[-78.8551,9.1149,56.7669],[-78.8551,9.1126,57.2219],[-78.8518,9.1093,61.1293],[-78.8538,9.1085,71.5462],[-78.8482,9.1076,55.5],[-78.8468,9.1043,58.6857],[-78.8451,9.104,58.9462],[-78.8468,9.1093,55.5],[-78.8446,9.109,55.5],[-78.8424,9.1021,58.5099],[-78.8407,9.1021,63.0462],[-78.8404,9.104,55.5],[-78.8368,9.1038,55.5],[-78.8376,9.1018,68.596],[-78.8351,9.101,55.5],[-78.8354,9.0996,66.6553],[-78.8324,9.1018,57.9104],[-78.8315,9.0993,59.8525],[-78.8337,9.0974,64.3547],[-78.8329,9.0954,64.3602],[-78.8293,9.0988,55.5],[-78.8257,9.0935,70.7855],[-78.8213,9.0913,61.6777],[-78.821,9.094,55.5],[-78.8176,9.0943,56.9764],[-78.816,9.0899,59.5322],[-78.8165,9.0863,61.02],[-78.8101,9.0832,64.6456],[-78.814,9.0868,60.1285],[-78.811,9.0874,55.5],[-78.8074,9.0851,61.0477],[-78.8054,9.081,64.3993],[-78.8032,9.0824,55.5],[-78.8032,9.081,63.4694],[-78.796,9.0796,70.4143],[-78.7949,9.0818,67.4919],[-78.7918,9.0829,62.3611],[-78.7929,9.0863,55.5],[-78.7918,9.0865,55.5],[-78.7913,9.084,59.8084],[-78.7865,9.0826,56.0679],[-78.789,9.0785,60.1949],[-78.7882,9.0771,60.1949],[-78.7854,9.0785,56.3901],[-78.7846,9.0771,56.3901],[-78.7821,9.0776,56.2611],[-78.7801,9.0804,56.8872],[-78.7688,9.076,58.5684],[-78.7568,9.0754,72.2462],[-78.7576,9.0793,60.2171],[-78.7604,9.0815,63.8448],[-78.7596,9.0826,57.9856],[-78.7535,9.0851,60.1598],[-78.7501,9.0824,59.1889],[-78.7468,9.0849,57.5507],[-78.7465,9.0807,56.6894],[-78.7438,9.0801,65.146],[-78.7407,9.0843,55.5],[-78.7404,9.0812,56.4292],[-78.7363,9.0771,60.6307],[-78.7412,9.0879,55.9678],[-78.741,9.0918,56.0128],[-78.739,9.0918,57.67],[-78.739,9.0865,58.6221],[-78.7376,9.0865,57.1568],[-78.7371,9.0837,69.2038],[-78.7346,9.0854,60.2076],[-78.7332,9.081,58.2197],[-78.7288,9.0815,59.2624],[-78.7296,9.0779,58.7579],[-78.7254,9.0785,64.0747],[-78.7215,9.0826,60.7302],[-78.7254,9.0826,60.604],[-78.7254,9.0863,64.6564],[-78.724,9.0885,62.5558],[-78.7215,9.0876,60.402],[-78.7201,9.0913,59.6413],[-78.7237,9.0904,55.5],[-78.7218,9.094,60.7919],[-78.7254,9.0943,59.0479],[-78.7251,9.0979,58.905],[-78.7293,9.0974,56.0799],[-78.7285,9.101,57.3278],[-78.7315,9.1021,57.3039],[-78.7299,9.1038,58.3902],[-78.7307,9.1051,56.2294],[-78.7288,9.1057,56.3392],[-78.7307,9.1071,59.4716],[-78.7326,9.1057,55.5],[-78.7318,9.109,55.5],[-78.7301,9.1087,60.0817],[-78.7324,9.1162,55.5],[-78.7299,9.1207,55.5],[-78.7307,9.1254,55.5],[-78.7271,9.1249,55.5],[-78.724,9.1188,55.5],[-78.7249,9.1174,60.0369],[-78.7299,9.1174,56.0212],[-78.7276,9.1149,56.406],[-78.7276,9.111,57.3206],[-78.726,9.1129,55.5],[-78.7229,9.1121,56.567],[-78.7237,9.1151,56.9724],[-78.7224,9.1154,56.9724],[-78.7221,9.1182,55.5],[-78.7207,9.1157,58.165],[-78.7174,9.1143,55.5],[-78.7201,9.1124,63.8237],[-78.7193,9.1115,55.9207],[-78.7179,9.1126,55.5],[-78.7182,9.109,55.5],[-78.7165,9.1087,58.2683],[-78.7162,9.1132,55.5],[-78.7146,9.1135,55.5],[-78.711,9.1112,57.3617],[-78.7115,9.1085,56.779],[-78.7096,9.1107,55.5],[-78.7074,9.1099,55.5],[-78.706,9.1046,56.4177],[-78.7079,9.1021,56.3442],[-78.7046,9.1021,57.9214],[-78.7043,9.1043,55.5],[-78.7004,9.101,58.5387],[-78.7007,9.0982,61.5075],[-78.6999,9.1001,58.2794],[-78.6979,9.0999,57.3913],[-78.6954,9.0963,55.5],[-78.696,9.1004,57.0048],[-78.6943,9.0976,59.0328],[-78.6904,9.0979,62.0327],[-78.6951,9.1018,59.8112],[-78.6988,9.1018,55.5],[-78.7015,9.1049,55.5],[-78.6999,9.1076,55.5],[-78.7021,9.1082,55.5],[-78.7012,9.1062,56.5878],[-78.7029,9.1057,61.6292],[-78.704,9.1099,55.5],[-78.7199,9.1193,60.8641],[-78.7224,9.1246,55.5],[-78.7193,9.1246,77.019],[-78.7179,9.1282,58.7094],[-78.7213,9.1271,60.8751],[-78.7224,9.1287,55.5],[-78.7171,9.1304,65.481],[-78.7204,9.1318,55.5],[-78.7249,9.1307,60.009],[-78.7254,9.1324,58.6705],[-78.7288,9.1335,55.5],[-78.7285,9.1354,55.5],[-78.7254,9.1332,58.6705],[-78.7213,9.1343,56.0679],[-78.7157,9.1304,59.5504],[-78.7101,9.1313,58.4844],[-78.7087,9.1293,57.5396],[-78.7063,9.1293,59.534],[-78.7068,9.1315,63.1642],[-78.7085,9.1307,57.874],[-78.7085,9.1326,67.4808],[-78.7118,9.1321,57.7051],[-78.7104,9.1351,55.5],[-78.7063,9.134,60.297],[-78.7076,9.1365,64.7333],[-78.7118,9.1357,64.1329],[-78.7132,9.1326,57.7051],[-78.7146,9.1337,56.4203],[-78.7162,9.1326,56.82],[-78.7201,9.1371,61.8301],[-78.724,9.1349,55.5],[-78.7271,9.1368,55.5],[-78.7265,9.144,55.5],[-78.7232,9.1485,59.2265],[-78.7151,9.1485,63.9731],[-78.7218,9.1507,61.5589],[-78.721,9.1526,58.0036],[-78.7229,9.1543,55.9646],[-78.7226,9.1554,55.9646],[-78.7182,9.1543,59.6916],[-78.7171,9.1563,59.6201],[-78.7196,9.1554,59.6916],[-78.7229,9.1571,60.2596],[-78.7282,9.1518,55.5],[-78.7304,9.1546,57.6249],[-78.7326,9.1535,55.8486],[-78.7368,9.1557,61.483],[-78.7412,9.1557,58.9113],[-78.7415,9.1568,58.9113],[-78.7357,9.1596,56.998],[-78.7401,9.1604,56.6046],[-78.7401,9.1585,55.5],[-78.7429,9.1599,58.3028],[-78.7443,9.1557,55.5],[-78.7457,9.1557,56.5848],[-78.7426,9.1626,68.107],[-78.7479,9.1618,55.5],[-78.7546,9.1649,57.1469],[-78.7551,9.1607,59.8461],[-78.7574,9.1624,64.1881],[-78.7593,9.1607,55.5],[-78.7576,9.166,62.9204],[-78.7679,9.1679,57.8442],[-78.7812,9.1646,56.0979],[-78.7821,9.169,67.5729],[-78.7832,9.1637,55.5],[-78.7871,9.1637,55.5],[-78.7874,9.1649,59.875],[-78.7854,9.1649,65.924],[-78.7865,9.169,55.5],[-78.784,9.169,59.238],[-78.7849,9.171,75.7664],[-78.7885,9.1679,69.5081],[-78.7921,9.1715,71.748],[-78.7935,9.1685,55.5],[-78.7979,9.1749,55.5],[-78.7949,9.1785,68.5436],[-78.7926,9.1774,59.1902],[-78.7935,9.1796,65.262],[-78.791,9.1843,55.5],[-78.7885,9.184,55.5],[-78.7926,9.1865,55.5],[-78.7924,9.1899,55.5],[-78.7907,9.1907,66.0544],[-78.794,9.1921,55.5],[-78.7882,9.1921,55.5],[-78.7824,9.189,65.9991],[-78.7774,9.1887,55.5],[-78.7776,9.1871,55.5],[-78.7749,9.1865,68.6609],[-78.7751,9.1893,64.6015],[-78.771,9.1896,95.7679],[-78.7693,9.1921,67.1718],[-78.7676,9.1901,85.3858],[-78.7679,9.1932,67.1718],[-78.7721,9.194,55.5],[-78.7718,9.1951,55.5],[-78.7665,9.1946,78.383],[-78.7604,9.1979,61.7164],[-78.759,9.1965,87.3744],[-78.754,9.1971,55.5],[-78.7515,9.2004,69.1634],[-78.749,9.1996,74.053],[-78.7493,9.2024,55.5],[-78.7465,9.2032,63.4249],[-78.7451,9.2018,82.217],[-78.7446,9.2035,55.5],[-78.7385,9.1999,85.2428],[-78.726,9.199,76.2766],[-78.7249,9.2032,70.7218],[-78.7196,9.204,55.5],[-78.7149,9.2001,93.1169],[-78.7071,9.1988,55.5],[-78.7015,9.1954,99.339],[-78.6954,9.1982,59.8352],[-78.6929,9.1974,55.5],[-78.6907,9.1951,55.5],[-78.6893,9.1893,59.0078],[-78.6871,9.1887,61.277],[-78.6893,9.1862,66.9759],[-78.6801,9.1885,55.5],[-78.6799,9.1849,65.7813],[-78.6787,9.1854,122.4171],[-78.679,9.1868,63.4575],[-78.676,9.186,62.2482],[-78.6746,9.1876,55.5],[-78.6738,9.1846,64.4894],[-78.6629,9.1835,73.566],[-78.651,9.1874,55.5],[-78.6501,9.1854,92.981],[-78.6454,9.1832,55.5],[-78.646,9.1815,56.2041],[-78.6438,9.1812,55.5],[-78.6468,9.1801,55.5],[-78.649,9.1771,97.3314],[-78.6468,9.1763,55.5],[-78.6482,9.1749,100.7804],[-78.6468,9.1735,55.5],[-78.6471,9.1696,55.5],[-78.649,9.1701,86.1287],[-78.6468,9.1679,55.5],[-78.6476,9.1637,59.5332],[-78.6571,9.1593,58.8205],[-78.6579,9.1546,57.8517],[-78.659,9.1546,55.5],[-78.659,9.1571,72.1073],[-78.6607,9.1571,84.988],[-78.6637,9.1518,56.9836],[-78.6607,9.1521,55.5],[-78.6601,9.149,55.5],[-78.6588,9.1507,55.5],[-78.656,9.1499,55.5],[-78.6524,9.1438,61.9902],[-78.6426,9.1471,55.5],[-78.6399,9.1463,55.5],[-78.6379,9.1435,55.5],[-78.6407,9.1413,58.4784],[-78.6421,9.1368,67.6339],[-78.641,9.1379,55.5],[-78.6393,9.1343,67.8569],[-78.6349,9.136,55.5],[-78.6326,9.1296,62.2479],[-78.6432,9.1304,55.5],[-78.6524,9.1335,55.5],[-78.656,9.1362,68.3458],[-78.6546,9.1337,56.8677],[-78.6576,9.1321,60.6604],[-78.6546,9.1313,56.391],[-78.6546,9.1293,57.1591],[-78.6599,9.1279,56.7117],[-78.661,9.131,59.0773],[-78.664,9.1313,59.3364],[-78.6651,9.1349,58.3092],[-78.6671,9.1335,56.0794],[-78.6693,9.1343,59.6159],[-78.6663,9.1293,60.7438],[-78.6646,9.1293,60.7438],[-78.666,9.1268,63.794],[-78.6635,9.1268,57.0531],[-78.664,9.124,56.0016],[-78.656,9.1254,55.5],[-78.6543,9.1232,57.8501],[-78.6562,9.1226,57.8501],[-78.6551,9.121,55.5],[-78.6565,9.1174,68.5373],[-78.6599,9.1176,58.6297],[-78.6568,9.114,60.3043],[-78.6601,9.1074,59.1408],[-78.6579,9.104,57.0794],[-78.6576,9.1018,57.9224],[-78.6593,9.1001,63.0103],[-78.6582,9.0976,57.1023],[-78.6557,9.0999,58.4937],[-78.6532,9.0993,60.0784],[-78.6501,9.1085,55.5],[-78.6493,9.1062,60.324],[-78.6462,9.1076,63.253],[-78.6474,9.109,63.0122],[-78.6465,9.1138,56.8291],[-78.6438,9.1149,76.6913],[-78.6449,9.1162,59.1044],[-78.644,9.1238,55.5],[-78.639,9.1238,55.5],[-78.6376,9.1224,58.8172],[-78.6354,9.1232,58.6154],[-78.6338,9.1274,55.5],[-78.6263,9.1268,55.5],[-78.6276,9.1246,56.6987],[-78.6326,9.1238,59.6513],[-78.6326,9.1204,56.0023],[-78.6285,9.1212,55.5],[-78.6299,9.1193,58.9154],[-78.6276,9.1185,57.6185],[-78.6285,9.1132,55.5],[-78.6304,9.1115,71.7039],[-78.6288,9.1057,55.5],[-78.6318,9.1026,57.6365],[-78.6301,9.1012,58.1396],[-78.6218,9.1051,58.7254],[-78.6243,9.1101,56.3556],[-78.621,9.1118,60.6188],[-78.6185,9.1157,58.1939],[-78.6218,9.1182,55.5],[-78.6224,9.1224,58.6301],[-78.6237,9.1221,56.3583],[-78.626,9.1251,55.5],[-78.6229,9.1346,60.1096],[-78.6218,9.1351,60.1096],[-78.6204,9.1313,64.7456],[-78.6179,9.131,66.8208],[-78.611,9.1362,60.1369],[-78.6026,9.1337,91.8801],[-78.5963,9.139,55.5],[-78.5926,9.139,55.5],[-78.5885,9.1351,78.8236],[-78.584,9.1351,55.5],[-78.5849,9.1313,55.5],[-78.6012,9.1279,59.3957],[-78.5996,9.124,56.2695],[-78.6029,9.119,55.5],[-78.6054,9.1199,57.7178],[-78.6096,9.1093,58.0659],[-78.6079,9.1018,58.4026],[-78.606,9.1035,59.6402],[-78.6012,9.1021,55.5],[-78.6043,9.0976,55.5],[-78.6021,9.0976,60.3517],[-78.5976,9.101,55.5],[-78.6012,9.0932,56.6432],[-78.6001,9.0904,59.3888],[-78.5987,9.0904,59.3888],[-78.5971,9.0974,55.5],[-78.5951,9.0996,55.5],[-78.5937,9.099,55.5],[-78.5912,9.091,55.5],[-78.5951,9.086,76.8622],[-78.596,9.0818,55.5],[-78.5943,9.081,55.5],[-78.5912,9.0835,55.5],[-78.5918,9.0812,55.5],[-78.5899,9.0812,59.7531],[-78.5868,9.091,55.5],[-78.584,9.0932,69.7312],[-78.5874,9.0979,55.5],[-78.5885,9.1051,55.5],[-78.584,9.1043,55.5],[-78.5837,9.099,57.0831],[-78.5796,9.1001,69.2771],[-78.5799,9.1038,55.5],[-78.5815,9.1049,56.4353],[-78.579,9.104,55.5],[-78.5774,9.1057,62.0757],[-78.5793,9.1071,55.5],[-78.5788,9.1132,55.5],[-78.5749,9.1132,70.331],[-78.5743,9.1157,55.5],[-78.5699,9.1171,55.5],[-78.5663,9.1146,55.5],[-78.5704,9.1118,67.0955],[-78.5718,9.1074,57.4745],[-78.571,9.1076,57.4745],[-78.5699,9.1099,55.5],[-78.5679,9.1099,55.5],[-78.5643,9.1054,80.1806],[-78.5593,9.1035,55.5],[-78.5596,9.1021,74.4394],[-78.5632,9.1021,69.9395],[-78.5657,9.1001,66.238],[-78.5624,9.094,60.4176],[-78.5601,9.0943,55.5],[-78.561,9.0879,57.4559],[-78.5646,9.0829,55.5],[-78.5626,9.0815,62.2276],[-78.5593,9.0829,59.0808],[-78.5557,9.0821,55.5],[-78.5576,9.0765,60.086],[-78.5624,9.0737,62.5615],[-78.5626,9.071,58.7843],[-78.5596,9.071,55.5],[-78.5579,9.0737,55.5],[-78.556,9.074,55.5],[-78.5521,9.0724,55.5],[-78.5479,9.0765,57.2041],[-78.5474,9.0779,56.3606],[-78.5488,9.0787,56.3606],[-78.5465,9.079,58.1766],[-78.5451,9.0815,55.5],[-78.5446,9.0793,55.9711],[-78.5382,9.0779,55.5],[-78.5393,9.0721,68.8324],[-78.5374,9.0685,73.2047],[-78.5329,9.0654,80.3191],[-78.5296,9.0651,64.8947],[-78.5226,9.0699,59.5958],[-78.5221,9.0751,69.8073],[-78.5176,9.0771,55.5],[-78.5182,9.0746,55.5],[-78.5149,9.0724,55.5],[-78.5118,9.0729,55.5],[-78.5101,9.0701,55.5],[-78.5113,9.069,55.5],[-78.5107,9.0632,55.5],[-78.5124,9.0621,55.5],[-78.5107,9.0574,55.5],[-78.5113,9.0535,56.4362],[-78.5132,9.0529,58.115],[-78.5129,9.0579,58.1857],[-78.5143,9.0568,55.5],[-78.5185,9.0624,55.5],[-78.5176,9.0638,55.5],[-78.5151,9.061,55.5],[-78.5135,9.0626,55.5],[-78.5163,9.071,57.7936],[-78.5176,9.0718,57.7936],[-78.519,9.069,55.5],[-78.5193,9.0718,56.7269],[-78.5201,9.0668,59.4502],[-78.5176,9.0663,58.0826],[-78.5207,9.0635,55.5],[-78.5221,9.064,56.184],[-78.5226,9.0596,57.4495],[-78.5201,9.0549,57.3533],[-78.5221,9.0493,58.83],[-78.5185,9.0479,58.4892],[-78.5137,9.0518,58.2702],[-78.5096,9.0501,58.0566],[-78.5096,9.0463,57.4581],[-78.504,9.046,57.6715],[-78.501,9.0471,57.323],[-78.4996,9.0524,65.2332],[-78.5032,9.0571,60.716],[-78.5046,9.0635,56.8134],[-78.5026,9.0654,55.5],[-78.4985,9.066,55.5],[-78.4957,9.069,58.0027],[-78.4979,9.074,55.5],[-78.4938,9.0743,56.6678],[-78.4912,9.0718,55.5],[-78.489,9.0751,56.0571],[-78.4854,9.074,59.268],[-78.4871,9.0771,55.5],[-78.4851,9.079,59.2701],[-78.489,9.0812,55.5],[-78.4899,9.0793,55.5],[-78.4924,9.0818,55.5],[-78.4924,9.0849,55.5],[-78.4799,9.0832,57.774],[-78.4785,9.0846,57.927],[-78.4807,9.0879,55.625],[-78.479,9.0863,57.245],[-78.474,9.0868,57.1952],[-78.4726,9.0849,56.7399],[-78.4757,9.084,57.8506],[-78.4735,9.0812,60.4231],[-78.4765,9.0774,55.5],[-78.4749,9.0771,57.2631],[-78.4751,9.0746,59.1391],[-78.4726,9.0746,58.2758],[-78.4707,9.0754,59.0728],[-78.4724,9.0785,57.5566],[-78.4696,9.0793,58.0406],[-78.4721,9.0826,57.0614],[-78.471,9.0888,57.2463],[-78.476,9.0896,55.5],[-78.4726,9.0904,56.2785],[-78.4657,9.0879,57.9885],[-78.4654,9.0918,57.3178],[-78.4626,9.0921,57.5562],[-78.459,9.096,58.764],[-78.4587,9.0949,58.4628],[-78.459,9.0935,57.9156],[-78.4574,9.0929,57.8808],[-78.4579,9.0979,67.2026],[-78.4626,9.1004,59.0099],[-78.4615,9.1026,61.1266],[-78.4654,9.1012,57.361],[-78.4651,9.1029,57.4788],[-78.4674,9.1049,58.3278],[-78.4693,9.1007,58.0339],[-78.4737,9.101,71.3379],[-78.4751,9.0974,55.5],[-78.4785,9.1015,64.7159],[-78.4815,9.099,55.8283],[-78.4801,9.1021,60.9357],[-78.484,9.1015,59.8218],[-78.4865,9.0979,55.5],[-78.4901,9.0974,58.1679],[-78.4921,9.0921,57.0352],[-78.494,9.0918,56.1295],[-78.4962,9.0935,55.5],[-78.4935,9.0976,57.3921],[-78.4962,9.0974,55.8105],[-78.4954,9.1007,55.5],[-78.4968,9.1018,55.5],[-78.4901,9.1032,55.5],[-78.4932,9.1087,55.5],[-78.4985,9.1099,57.4992],[-78.4999,9.1118,65.4669],[-78.5046,9.1085,56.1059],[-78.5049,9.1065,57.5943],[-78.5018,9.1051,55.5],[-78.5035,9.1026,55.5],[-78.5054,9.106,57.5943],[-78.5101,9.106,55.5],[-78.5088,9.1082,55.5],[-78.511,9.1101,55.5],[-78.5076,9.1096,61.4891],[-78.5099,9.1104,56.0682],[-78.5082,9.1154,58.1637],[-78.5129,9.1132,56.4872],[-78.5132,9.1165,58.6293],[-78.5099,9.1188,58.762],[-78.5104,9.121,55.5],[-78.5065,9.1174,61.496],[-78.5068,9.1243,55.5],[-78.5021,9.1257,58.0961],[-78.5118,9.1276,57.8284],[-78.5149,9.1265,57.921],[-78.5151,9.1249,58.8331],[-78.5129,9.1251,57.6177],[-78.5126,9.1235,56.523],[-78.5154,9.1224,59.2148],[-78.5171,9.1254,55.5],[-78.5207,9.1243,56.0824],[-78.5263,9.1296,56.5963],[-78.5257,9.1321,55.5],[-78.5215,9.1326,59.9192],[-78.5226,9.1349,57.7876],[-78.5243,9.1349,57.7876],[-78.5226,9.1371,55.5],[-78.5204,9.1368,78.1064],[-78.5218,9.1385,62.4131],[-78.519,9.1432,58.4417],[-78.514,9.1432,60.172],[-78.5132,9.1451,58.3134],[-78.5074,9.1429,87.8347],[-78.5113,9.1463,56.7676],[-78.5143,9.1457,71.5336],[-78.5151,9.1443,58.4309],[-78.5151,9.146,71.5336],[-78.5168,9.1463,60.9662],[-78.5146,9.1479,62.2124],[-78.5168,9.1479,78.0729],[-78.5174,9.1454,56.0],[-78.521,9.1449,72.4553],[-78.5224,9.1393,59.8147],[-78.5257,9.139,66.8656],[-78.5237,9.1371,55.5],[-78.526,9.134,62.6714],[-78.5274,9.1343,66.5164],[-78.5279,9.1287,55.5],[-78.529,9.1287,66.034],[-78.5265,9.1249,55.5],[-78.5304,9.1268,57.412],[-78.5407,9.1274,57.8916],[-78.5421,9.1293,69.169],[-78.5485,9.1276,57.4625],[-78.5499,9.1293,58.0876],[-78.5488,9.1315,65.0645],[-78.5504,9.1307,57.2973],[-78.551,9.1285,55.5],[-78.5521,9.1282,55.5],[-78.5532,9.1296,58.1869],[-78.559,9.1285,55.5],[-78.566,9.1299,55.5],[-78.5654,9.1346,75.5493],[-78.5693,9.1396,67.6894],[-78.5654,9.1432,75.7873],[-78.5704,9.1432,55.5],[-78.5713,9.1451,63.0591],[-78.5765,9.144,63.0179],[-78.5774,9.1457,73.8391],[-78.5776,9.1432,55.5],[-78.5735,9.144,55.5],[-78.5699,9.1407,64.7715],[-78.571,9.1382,78.5467],[-78.5679,9.1365,55.5],[-78.5679,9.1304,55.5],[-78.5751,9.1318,55.5],[-78.5826,9.1293,55.5],[-78.5813,9.1354,63.3627],[-78.5829,9.1382,60.9954],[-78.5874,9.1385,55.5],[-78.5926,9.1415,55.5],[-78.5929,9.1432,55.5],[-78.5999,9.1396,55.5],[-78.6026,9.136,55.5],[-78.6104,9.1382,55.5],[-78.6124,9.1421,71.9139],[-78.6062,9.1468,58.8495],[-78.6115,9.146,59.3865],[-78.6129,9.1435,71.9139],[-78.6146,9.1443,59.6743],[-78.616,9.1424,73.8137],[-78.6132,9.1424,55.5],[-78.6129,9.139,55.5],[-78.6185,9.1329,58.4004],[-78.6193,9.1349,58.3126],[-78.6179,9.1365,63.1727],[-78.6185,9.1413,82.3726],[-78.6196,9.1424,75.6284],[-78.6226,9.1415,68.7548],[-78.6279,9.1279,55.5],[-78.6299,9.1274,65.5638],[-78.6312,9.1321,55.5],[-78.6279,9.1332,57.5146],[-78.6321,9.134,55.5],[-78.634,9.1376,59.6957],[-78.6376,9.139,62.6409],[-78.636,9.1429,60.9091],[-78.6363,9.1485,62.1674],[-78.6446,9.1499,55.5],[-78.6501,9.146,55.5],[-78.6515,9.1538,55.5],[-78.6537,9.154,61.7513],[-78.6554,9.1565,61.8676],[-78.6535,9.159,58.824],[-78.6479,9.1615,55.5],[-78.6443,9.161,61.1358],[-78.6462,9.1621,59.5332],[-78.6446,9.1665,66.8164],[-78.6451,9.1701,60.2541],[-78.6424,9.171,55.5],[-78.6401,9.174,55.5],[-78.636,9.1749,62.8718],[-78.6379,9.1757,80.9096],[-78.6399,9.1749,55.5],[-78.6363,9.1801,68.1304],[-78.6365,9.1824,55.5],[-78.6326,9.1821,56.8921],[-78.6315,9.1846,55.5],[-78.6293,9.1846,55.5],[-78.6293,9.1826,55.5],[-78.6246,9.1838,55.9523],[-78.6201,9.1826,58.1551],[-78.619,9.1849,59.303],[-78.6149,9.1851,70.0011],[-78.6107,9.1812,76.8169],[-78.6065,9.1821,55.5],[-78.6071,9.1843,58.6863],[-78.6115,9.184,60.2051],[-78.6126,9.1882,62.2934],[-78.6221,9.1862,56.5618],[-78.6215,9.1876,56.9425],[-78.6235,9.1901,56.3663],[-78.6282,9.1879,56.7112],[-78.6318,9.191,55.5],[-78.629,9.1918,56.1705],[-78.626,9.191,57.938],[-78.6229,9.194,57.7277],[-78.6221,9.1976,55.5],[-78.616,9.1976,65.8332],[-78.6096,9.201,65.6627],[-78.6229,9.1993,64.023],[-78.6249,9.1951,55.5],[-78.631,9.1932,56.9217],[-78.6326,9.1935,55.5],[-78.6315,9.1968,69.8668],[-78.6326,9.1974,69.4255],[-78.6332,9.1915,55.5],[-78.6426,9.189,57.2835],[-78.644,9.191,55.5],[-78.6421,9.1935,55.5],[-78.6385,9.1943,56.168],[-78.6382,9.1929,59.0635],[-78.6368,9.1949,59.086],[-78.6393,9.1957,65.4519],[-78.6387,9.1982,63.1861],[-78.641,9.1968,55.5],[-78.6415,9.1993,63.5271],[-78.6451,9.1993,62.0884],[-78.6457,9.2035,67.0097],[-78.6521,9.2029,62.0103],[-78.6529,9.2013,56.0024],[-78.6565,9.2026,55.5],[-78.6576,9.2074,55.5],[-78.6549,9.2099,57.3946],[-78.6546,9.2129,56.0],[-78.659,9.2082,56.5308],[-78.664,9.209,68.3894],[-78.6674,9.2063,56.6793],[-78.6712,9.2068,55.5],[-78.6707,9.2087,55.5],[-78.6676,9.2082,59.5054],[-78.666,9.2101,59.1819],[-78.6699,9.2132,61.2875],[-78.671,9.2132,61.0902],[-78.6704,9.211,55.5],[-78.6724,9.2115,57.2417],[-78.6732,9.2149,60.2829],[-78.6718,9.2176,56.0],[-78.664,9.2185,89.4559],[-78.6665,9.2204,56.0],[-78.6682,9.2207,76.0071],[-78.669,9.2182,56.0],[-78.6715,9.2196,63.389],[-78.6757,9.2179,66.3065],[-78.6743,9.2151,60.2829],[-78.6757,9.2143,57.0688],[-78.6832,9.2165,64.0827],[-78.6871,9.2149,55.5],[-78.696,9.216,56.5946],[-78.6963,9.2185,57.1487],[-78.6937,9.219,55.5],[-78.6932,9.221,56.0],[-78.6871,9.2218,60.1116],[-78.6901,9.2271,62.4041],[-78.6865,9.229,62.6904],[-78.6893,9.234,64.6479],[-78.6915,9.2313,90.25],[-78.6921,9.2265,78.6775],[-78.6899,9.2246,56.5],[-78.6904,9.2224,56.25],[-78.6996,9.219,79.3128],[-78.7001,9.2165,56.3758],[-78.7038,9.219,62.8392],[-78.7049,9.2162,56.7647],[-78.7104,9.2146,55.5],[-78.711,9.2151,55.5],[-78.7096,9.2171,73.2146],[-78.7138,9.2179,59.0822],[-78.7135,9.2201,66.2576],[-78.7182,9.2199,55.5],[-78.7232,9.2232,58.8841],[-78.7196,9.2296,55.5],[-78.7171,9.2287,97.4048],[-78.7187,9.2321,64.6306],[-78.7262,9.2229,57.8743],[-78.7299,9.2224,58.0903],[-78.7293,9.2251,60.1048],[-78.7343,9.2218,55.5],[-78.736,9.2235,58.2642],[-78.739,9.2204,55.5],[-78.7393,9.2229,59.3516],[-78.7415,9.2224,61.2981],[-78.7421,9.224,67.3658],[-78.749,9.2235,57.2954],[-78.7504,9.2218,55.5],[-78.7551,9.2224,55.5],[-78.7526,9.2265,75.6003],[-78.754,9.2265,55.5],[-78.7546,9.2287,60.1731],[-78.7579,9.2293,55.5],[-78.7579,9.2332,63.6539],[-78.7593,9.2263,64.2173],[-78.7565,9.2201,55.5],[-78.7604,9.2188,65.4707],[-78.7621,9.2201,55.5],[-78.764,9.2185,55.5],[-78.7729,9.2193,57.9107],[-78.7724,9.2246,65.0673],[-78.7743,9.2218,57.0915],[-78.7779,9.2204,55.5],[-78.7854,9.2207,61.3828],[-78.7862,9.2237,55.5],[-78.7846,9.2271,81.8877],[-78.7882,9.2287,82.2298],[-78.789,9.2313,76.2936],[-78.7893,9.2293,77.5249],[-78.7857,9.2265,59.6968],[-78.7885,9.2251,68.9735],[-78.786,9.2221,55.5],[-78.786,9.2196,57.1408],[-78.7982,9.2188,60.1371],[-78.7999,9.2201,60.1371],[-78.8024,9.2179,58.5475],[-78.8129,9.2182,60.6563],[-78.8151,9.2151,55.5],[-78.8196,9.2162,56.603],[-78.8199,9.2126,55.5],[-78.8224,9.209,55.5]],
[[-78.804,9.094,55.5],[-78.8026,9.0954,55.5],[-78.8012,9.0946,56.077],[-78.8026,9.0913,55.5],[-78.804,9.0918,55.5],[-78.804,9.094,55.5]],
[[-78.8007,9.0971,61.4348],[-78.8024,9.0976,55.5],[-78.7999,9.1001,56.4649],[-78.8001,9.0979,55.5],[-78.8007,9.0971,61.4348]],
[[-78.829,9.106,58.1999],[-78.8276,9.1051,56.6911],[-78.8313,9.1029,55.5],[-78.8313,9.1054,55.5],[-78.829,9.106,58.1999]],
[[-78.801,9.1449,66.3192],[-78.7988,9.144,59.2183],[-78.799,9.1426,63.6236],[-78.8026,9.1413,55.5],[-78.8032,9.1451,64.1797],[-78.801,9.1449,66.3192]],
[[-78.8032,9.149,55.5],[-78.8001,9.149,55.5],[-78.7988,9.1463,55.5],[-78.8012,9.1463,55.5],[-78.8032,9.149,55.5]],
[[-78.854,9.1576,61.1678],[-78.854,9.1587,61.1678],[-78.8499,9.1576,64.634],[-78.8465,9.1582,56.7905],[-78.846,9.1563,60.6066],[-78.8437,9.1574,55.5],[-78.8421,9.1535,56.654],[-78.841,9.1557,55.5],[-78.8379,9.1554,59.6331],[-78.8349,9.1579,56.4273],[-78.831,9.156,59.2756],[-78.8249,9.1576,55.5],[-78.8224,9.156,55.5],[-78.8243,9.1529,56.0136],[-78.8293,9.1521,57.4136],[-78.829,9.1543,57.1637],[-78.8307,9.1546,58.9297],[-78.8326,9.1496,57.0222],[-78.8299,9.1521,57.4136],[-78.8257,9.1474,55.5],[-78.8251,9.149,55.5],[-78.8215,9.1485,61.4481],[-78.8207,9.151,55.5],[-78.8193,9.1468,69.5569],[-78.8138,9.146,55.5],[-78.8135,9.144,55.5],[-78.811,9.1463,57.968],[-78.8087,9.1457,55.5],[-78.8087,9.144,74.8172],[-78.8068,9.146,55.5],[-78.8054,9.1404,70.5088],[-78.8015,9.1382,56.1487],[-78.806,9.1349,55.5],[-78.8129,9.1362,57.2582],[-78.8074,9.1343,59.1294],[-78.8074,9.1329,61.5284],[-78.8093,9.1301,55.5],[-78.816,9.1287,55.5],[-78.839,9.1324,61.284],[-78.8465,9.129,56.9622],[-78.8482,9.1307,59.6322],[-78.8487,9.129,55.5],[-78.8526,9.1282,55.5],[-78.8543,9.131,62.4462],[-78.8574,9.1321,71.8242],[-78.8599,9.1401,63.9465],[-78.8538,9.1449,67.0338],[-78.851,9.1435,75.7151],[-78.854,9.1513,61.2987],[-78.8579,9.1501,55.5],[-78.8565,9.1529,58.0074],[-78.8532,9.1524,63.6999],[-78.8535,9.1535,63.6999],[-78.8512,9.154,58.3749],[-78.8587,9.1532,55.5],[-78.8571,9.1582,59.7144],[-78.854,9.1576,61.1678]],
[[-78.8135,9.1646,55.5],[-78.8121,9.1637,55.5],[-78.8126,9.1612,55.5],[-78.8154,9.1607,55.5],[-78.8138,9.1626,56.8092],[-78.8135,9.1646,55.5]],
[[-78.8329,9.1799,55.5],[-78.8296,9.1779,55.5],[-78.8307,9.1776,55.5],[-78.8293,9.1763,57.0233],[-78.8301,9.1738,55.5],[-78.8254,9.174,55.5],[-78.8251,9.169,55.9219],[-78.8218,9.1671,55.5],[-78.8218,9.1649,55.5],[-78.8246,9.1654,58.5846],[-78.8249,9.164,58.5846],[-78.8224,9.1637,57.1127],[-78.8238,9.1618,55.5],[-78.8285,9.1637,55.5],[-78.8265,9.1615,55.5],[-78.8301,9.1579,55.5],[-78.8318,9.1596,56.5097],[-78.8296,9.1618,59.5588],[-78.8329,9.1629,57.669],[-78.8335,9.166,59.8979],[-78.8326,9.1699,58.3559],[-78.8301,9.1679,57.935],[-78.8301,9.1699,56.6145],[-78.8343,9.1765,55.5],[-78.8379,9.1776,57.9464],[-78.8329,9.1799,55.5]],
[[-78.8504,9.1874,55.5],[-78.8507,9.1779,78.6968],[-78.8493,9.1746,55.5],[-78.8468,9.1732,72.5325],[-78.8376,9.1746,59.7174],[-78.8346,9.1735,55.5],[-78.8337,9.1701,55.5],[-78.8376,9.1688,70.5912],[-78.8349,9.1685,55.5],[-78.8351,9.1632,57.5935],[-78.8335,9.1624,57.5935],[-78.8351,9.1599,55.5],[-78.8393,9.1604,55.5],[-78.8379,9.1587,55.5],[-78.8404,9.1574,55.5],[-78.839,9.1563,55.5],[-78.8424,9.1557,58.0677],[-78.8432,9.1596,61.9139],[-78.8504,9.1585,64.634],[-78.8538,9.1607,63.8163],[-78.8554,9.1587,61.1678],[-78.856,9.1601,55.5],[-78.8585,9.1593,59.7807],[-78.8579,9.1612,63.5324],[-78.8593,9.161,63.5324],[-78.859,9.1576,57.5356],[-78.8607,9.1596,61.2785],[-78.8615,9.1565,55.5],[-78.8632,9.1568,59.3086],[-78.864,9.1551,55.5],[-78.8654,9.1576,56.8675],[-78.8632,9.1576,67.8877],[-78.864,9.1593,65.6156],[-78.8626,9.161,60.2614],[-78.871,9.1624,55.5],[-78.8688,9.1646,55.5],[-78.8693,9.1682,55.5],[-78.8621,9.1665,69.3894],[-78.856,9.169,55.5],[-78.8557,9.1654,77.4489],[-78.8535,9.1654,72.1238],[-78.854,9.1707,55.5],[-78.8574,9.1715,65.0767],[-78.8549,9.1749,78.7873],[-78.8538,9.1849,55.5],[-78.8504,9.1874,55.5]],
[[-78.4974,9.0863,56.6509],[-78.4982,9.0876,55.5],[-78.496,9.0918,57.5785],[-78.4938,9.0885,56.9988],[-78.4957,9.086,56.6509],[-78.4974,9.0863,56.6509]],
[[-78.4671,9.1012,55.9198],[-78.4671,9.0979,56.5682],[-78.4649,9.0971,56.5776],[-78.464,9.0929,58.0337],[-78.4674,9.0946,55.5],[-78.4682,9.0988,56.583],[-78.4671,9.1012,55.9198]],
[[-78.5124,9.1043,56.3998],[-78.5115,9.1026,56.9907],[-78.5129,9.1021,56.696],[-78.511,9.1026,56.9907],[-78.511,9.1015,56.4516],[-78.5126,9.101,56.1659],[-78.5137,9.1021,56.696],[-78.5124,9.1043,56.3998]],
[[-78.5754,9.1307,55.5],[-78.5738,9.129,55.5],[-78.5771,9.1282,55.5],[-78.5774,9.1296,58.3263],[-78.5754,9.1307,55.5]],
[[-78.7462,9.1343,55.5],[-78.7451,9.1354,55.5],[-78.7454,9.1326,59.5635],[-78.7432,9.1307,55.5],[-78.7476,9.1315,55.5],[-78.7462,9.1343,55.5]],
[[-78.7357,9.1413,55.5],[-78.7335,9.1413,55.857],[-78.7335,9.1382,55.5],[-78.7371,9.136,55.5],[-78.7368,9.1399,57.4413],[-78.7357,9.1413,55.5]],
[[-78.7365,9.1529,56.5689],[-78.7335,9.1515,58.2847],[-78.731,9.1524,55.5],[-78.734,9.1485,55.5],[-78.7321,9.146,55.5],[-78.7324,9.1421,56.9864],[-78.7343,9.1424,56.9864],[-78.7351,9.1465,57.6806],[-78.7376,9.1446,55.9556],[-78.7374,9.1476,57.4367],[-78.7385,9.1476,57.4367],[-78.7396,9.1435,57.9544],[-78.7376,9.141,55.5],[-78.7399,9.1415,55.5],[-78.7412,9.1376,56.643],[-78.7449,9.1413,69.967],[-78.7454,9.1396,57.886],[-78.7471,9.1396,63.3634],[-78.7474,9.1371,68.135],[-78.7493,9.1368,55.5],[-78.749,9.1382,55.5],[-78.7504,9.1365,55.5],[-78.754,9.1374,55.5],[-78.751,9.1424,55.5],[-78.756,9.1429,55.5],[-78.7554,9.1454,55.5],[-78.7579,9.1449,55.5],[-78.7629,9.1476,55.5],[-78.7599,9.1513,55.5],[-78.7562,9.151,55.5],[-78.756,9.1488,55.5],[-78.7532,9.1524,55.5],[-78.7515,9.1515,55.5],[-78.7524,9.1496,64.3807],[-78.7479,9.151,55.5],[-78.7479,9.1474,57.7142],[-78.7457,9.1501,55.5],[-78.741,9.149,55.8994],[-78.741,9.151,55.5],[-78.7387,9.1513,56.7696],[-78.7376,9.1499,57.5298],[-78.7379,9.1521,56.5689],[-78.7365,9.1529,56.5689]],
[[-78.6549,9.1543,55.5],[-78.654,9.1521,55.5],[-78.6571,9.1532,55.5],[-78.6568,9.154,57.8517],[-78.6549,9.1543,55.5]],
[[-78.7507,9.1601,58.8201],[-78.7493,9.1607,55.5],[-78.7482,9.1576,57.2709],[-78.7507,9.1585,56.6697],[-78.7507,9.1601,58.8201]],
[[-78.7835,9.161,56.61],[-78.7799,9.1599,56.6555],[-78.7779,9.1568,55.5],[-78.7812,9.1565,55.5],[-78.7799,9.154,55.5],[-78.7851,9.1554,55.5],[-78.7849,9.154,55.5],[-78.7868,9.1532,55.5],[-78.7899,9.154,58.4783],[-78.7899,9.1521,56.7276],[-78.7929,9.1529,58.1353],[-78.7971,9.1513,55.5],[-78.7882,9.1582,55.5],[-78.7868,9.1568,58.5301],[-78.7868,9.159,55.5],[-78.7838,9.1587,59.059],[-78.7835,9.161,56.61]],
[[-78.7751,9.161,56.7209],[-78.7721,9.1604,58.1483],[-78.7757,9.1565,55.5],[-78.7751,9.1582,57.6404],[-78.7776,9.1579,56.9927],[-78.7776,9.1593,55.5],[-78.7763,9.1587,56.9927],[-78.7751,9.161,56.7209]],
[[-78.791,9.1685,77.6615],[-78.7899,9.169,57.5423],[-78.7879,9.1635,55.5],[-78.7913,9.1635,57.2996],[-78.7926,9.1618,55.5],[-78.7929,9.1632,58.6824],[-78.7949,9.1632,56.7775],[-78.7946,9.1657,63.6075],[-78.791,9.1685,77.6615]],
[[-78.6237,9.1885,55.9604],[-78.6226,9.1862,56.5618],[-78.6254,9.1846,55.5],[-78.6263,9.1868,55.5],[-78.6237,9.1885,55.9604]],
[[-78.6782,9.1896,56.74],[-78.6765,9.1899,57.0403],[-78.676,9.1885,55.5],[-78.6779,9.1879,56.3625],[-78.6782,9.1896,56.74]],
[[-78.664,9.1946,55.5],[-78.6612,9.1929,55.5],[-78.6621,9.191,55.5],[-78.664,9.1915,56.5287],[-78.6635,9.1893,55.5],[-78.6654,9.1882,55.9541],[-78.6687,9.189,55.5],[-78.669,9.1907,55.5],[-78.6665,9.1912,56.6388],[-78.664,9.1946,55.5]],
[[-78.7824,9.1988,55.5],[-78.7793,9.1974,55.5],[-78.7796,9.1957,55.5],[-78.7843,9.1946,58.1275],[-78.7851,9.1957,55.5],[-78.7835,9.1957,58.0145],[-78.784,9.1979,64.3563],[-78.7824,9.1988,55.5]],
[[-78.7546,9.1996,61.6565],[-78.7532,9.1996,61.6565],[-78.7535,9.1979,55.5],[-78.7549,9.1988,61.6565],[-78.7546,9.1996,61.6565]],
[[-78.7576,9.2001,57.8357],[-78.7554,9.2004,63.7865],[-78.7551,9.1993,63.7865],[-78.7579,9.1988,57.8357],[-78.7576,9.2001,57.8357]],
[[-78.7876,9.201,59.8598],[-78.7851,9.1999,61.4687],[-78.7849,9.1965,55.5],[-78.7932,9.1962,57.1545],[-78.7918,9.2001,62.2046],[-78.7876,9.201,59.8598]],
[[-78.7887,9.2043,55.5],[-78.789,9.2021,62.0883],[-78.7915,9.2032,55.5],[-78.7913,9.204,55.5],[-78.7887,9.2043,55.5]],
[[-78.7343,9.1043,55.5],[-78.7326,9.1029,57.5138],[-78.7326,9.1007,57.2452],[-78.734,9.101,57.2452],[-78.7343,9.1043,55.5]],
[[-78.7621,9.1057,55.5],[-78.7571,9.1035,58.392],[-78.759,9.0985,59.5425],[-78.7568,9.0993,55.5],[-78.7582,9.0974,59.5425],[-78.7549,9.096,55.5],[-78.7551,9.0938,57.7228],[-78.7524,9.0946,55.5],[-78.751,9.0924,57.309],[-78.7507,9.0904,55.5],[-78.7529,9.0907,56.3444],[-78.754,9.0882,56.9758],[-78.756,9.0893,55.5],[-78.7546,9.0899,58.461],[-78.7549,9.0918,57.7017],[-78.7568,9.0943,57.7228],[-78.7621,9.0976,55.5],[-78.7613,9.0999,55.5],[-78.7657,9.1015,55.5],[-78.7624,9.1026,56.4738],[-78.7621,9.1057,55.5]]]]}}