{"type":"Feature","properties":{"GID_3":"PAN.10.7.4_1","GID_0":"PAN","country":"Panama","GID_1":"PAN.10_1","province":"NgöbeBuglé","NL_NAME_1":"NA","GID_2":"PAN.10.7_1","county":"Ñürüm","NL_NAME_2":"NA","city":"CerroPelado","VARNAME_3":"NA","NL_NAME_3":"NA","TYPE_3":"Corregimiento","ENGTYPE_3":"Municipality","CC_3":"NA","HASC_3":"NA","name":"Cerro_Pelado.city"},
"geometry":{"type": "MultiPolygon","coordinates": [[[[-81.5805,8.1864,131.316],[-81.5791,8.1833,50.4879],[-81.5784,8.1702,218.0482],[-81.5729,8.1666,315.2415],[-81.5733,8.1606,400.2485],[-81.5685,8.1551,611.262],[-81.537,8.1564,214.3533],[-81.5297,8.1523,210.5077],[-81.5283,8.1459,224.4239],[-81.5179,8.1482,284.5602],[-81.5079,8.1551,174.3241],[-81.4987,8.1591,173.0665],[-81.4958,8.1628,210.5052],[-81.4961,8.1768,305.9904],[-81.5051,8.1885,338.7679],[-81.5153,8.1963,333.0985],[-81.5236,8.1975,313.0309],[-81.5253,8.1877,315.3803],[-81.535,8.1805,283.6254],[-81.5406,8.1896,162.3895],[-81.5583,8.1859,119.1463],[-81.5684,8.1963,80.0812],[-81.5762,8.1943,110.9156],[-81.5805,8.1864,131.316]]]]}}