{"type": "Feature","bbox": [-80.2679,8.2968,-80.1626,8.454],"geometry": {"type": "MultiPolygon","coordinates": [[[[-80.2518,8.3015,4.9946],[-80.2474,8.3021,9.9602],[-80.2499,8.2996,0.0],[-80.2532,8.3004,7.2911],[-80.2607,8.2985,2.4772],[-80.2649,8.2999,1.5401],[-80.2679,8.2985,3.8047],[-80.2651,8.2968,0.0],[-80.2538,8.2979,0.0],[-80.2321,8.3043,0.0],[-80.1874,8.3243,0.0],[-80.1832,8.3279,5.7398],[-80.179,8.329,3.3009],[-80.1687,8.3376,5.2302],[-80.1626,8.339,2.0731],[-80.1692,8.3474,15.9238],[-80.1702,8.3557,14.7385],[-80.1751,8.3703,17.2273],[-80.1698,8.3787,28.7896],[-80.171,8.3849,26.012],[-80.1738,8.3866,23.7449],[-80.1779,8.3997,38.3931],[-80.1757,8.4062,49.5499],[-80.1775,8.4118,34.3591],[-80.1869,8.4211,65.7702],[-80.1931,8.4224,63.8726],[-80.1978,8.4024,43.5174],[-80.2043,8.3979,39.6015],[-80.207,8.3905,35.3518],[-80.2095,8.3899,30.8553],[-80.2134,8.4018,29.3574],[-80.2134,8.4119,37.5727],[-80.2198,8.4214,40.6672],[-80.2201,8.4273,50.6185],[-80.2177,8.438,57.671],[-80.2294,8.45,74.7746],[-80.2368,8.454,74.4849],[-80.237799999999993,8.4512,67.9875],[-80.2353,8.4498,68.8547],[-80.2342,8.4347,62.1729],[-80.2347,8.4288,52.7372],[-80.2386,8.4246,49.8564],[-80.2347,8.4156,49.332],[-80.2395,8.4128,49.2974],[-80.2381,8.408,42.1564],[-80.2392,8.4064,42.0165],[-80.2482,8.4047,31.9001],[-80.2496,8.3999,31.198],[-80.2471,8.3909,24.3898],[-80.2353,8.3803,16.4928],[-80.2342,8.3744,21.159],[-80.2367,8.3615,13.7648],[-80.2417,8.3609,12.9645],[-80.2414,8.3565,11.2029],[-80.2437,8.3556,11.0485],[-80.2412,8.3517,10.3652],[-80.2414,8.3489,10.4186],[-80.2518,8.3495,10.5575],[-80.2557,8.3481,10.0804],[-80.2535,8.3453,9.2574],[-80.2541,8.3391,7.6622],[-80.2521,8.336,9.7554],[-80.2535,8.3343,6.1967],[-80.2549,8.3231,3.2349],[-80.2518,8.3197,2.666],[-80.2521,8.3167,5.8703],[-80.2566,8.3122,7.0953],[-80.256,8.3077,8.9131],[-80.2518,8.3015,4.9946]]]]}
,"properties": {"GID_3": "PAN.3.2.4_1","GID_0": "PAN","country": "Panama","GID_1": "PAN.3_1","province": "Coclé","NL_NAME_1": "NA","GID_2": "PAN.3.2_1","county": "Antón","NL_NAME_2": "NA","city": "ElChirú","VARNAME_3": "NA","NL_NAME_3": "NA","TYPE_3": "Corregimiento","ENGTYPE_3": "Municipality","CC_3": "NA","HASC_3": "NA","name": "El_Chirú.city","area_km2": 94.08039,"hist_schema_id": "Elevation0-9000","hist_area_km2": {"0": 38.39028,"25": 41.32302,"50": 12.91999,"75": 1.4471}}}