{"type":"Feature","properties":{"GID_3":"PAN.10.2.1_1","GID_0":"PAN","country":"Panama","GID_1":"PAN.10_1","province":"NgöbeBuglé","NL_NAME_1":"NA","GID_2":"PAN.10.2_1","county":"Kankintú","NL_NAME_2":"NA","city":"Bisira","VARNAME_3":"NA","NL_NAME_3":"NA","TYPE_3":"Corregimiento","ENGTYPE_3":"Municipality","CC_3":"NA","HASC_3":"NA","name":"Bisira.city"},
"geometry":{"type": "MultiPolygon","coordinates": [[[[-81.7664,8.9777,14.5778],[-81.7696,8.9784,0.0],[-81.7732,8.9615,0.9988],[-81.7843,8.9454,1.098],[-81.7913,8.9404,1.8722],[-81.8054,8.936,3.8415],[-81.8087,8.9418,4.1966],[-81.8115,8.941,2.7002],[-81.811,8.9374,1.6941],[-81.8154,8.941,1.4161],[-81.821,8.9415,2.9488],[-81.8221,8.9451,0.0],[-81.8135,8.9432,0.0],[-81.8115,8.9443,0.0],[-81.8265,8.9576,0.0],[-81.8357,8.9618,4.4195],[-81.8512,8.9607,0.0],[-81.8554,8.9629,1.8086],[-81.8538,8.9643,0.0],[-81.8576,8.9657,0.0],[-81.861,8.9693,0.0],[-81.8632,8.9682,3.2749],[-81.8624,8.9657,0.0],[-81.8674,8.9651,0.2557],[-81.8757,8.9604,2.1713],[-81.8918,8.9601,2.08],[-81.894,8.9563,2.3941],[-81.8999,8.956,0.0],[-81.9007,8.9576,0.0],[-81.8971,8.9624,0.0],[-81.8962,8.9674,0.0],[-81.8999,8.9712,2.5992],[-81.8993,8.9765,3.202],[-81.8968,8.9754,0.6425],[-81.896,8.9721,0.0],[-81.8938,8.9729,0.0],[-81.8907,8.969,0.0],[-81.8924,8.9732,0.0],[-81.9013,8.9813,1.099],[-81.914,8.9829,2.7455],[-81.9207,8.991,0.0],[-81.921,8.9887,1.9984],[-81.9243,8.9888,0.7241],[-81.9251,8.9854,4.0977],[-81.929,8.9824,0.0],[-81.9307,8.9788,0.0],[-81.9296,8.976,0.5138],[-81.9221,8.9718,0.0],[-81.9221,8.964,0.0],[-81.9262,8.9538,2.1242],[-81.9335,8.9471,1.2016],[-81.943,8.943,4.7067],[-81.9554,8.934,12.4065],[-81.9527,8.9108,15.9506],[-81.9449,8.9081,16.9989],[-81.9431,8.9046,18.1812],[-81.9454,8.8987,10.1845],[-81.9453,8.8938,19.9262],[-81.9491,8.8888,14.2636],[-81.9504,8.8826,7.7882999999999996],[-81.9425,8.877,1.2779],[-81.9318,8.874,3.8538],[-81.9175,8.8727,5.1963],[-81.8974,8.8757,7.6333],[-81.8783,8.8742,11.597],[-81.8709,8.8779,11.3435],[-81.8593,8.8807,20.4122],[-81.844,8.8921,28.4862],[-81.8396,8.8925,55.3498],[-81.8277,8.8858,66.904],[-81.8165,8.8726,91.8034],[-81.805,8.8663,109.1918],[-81.7902,8.862,122.1717],[-81.7863,8.857,121.8119],[-81.7842,8.8484,133.8715],[-81.7797,8.8441,137.1161],[-81.7747,8.8433,108.3921],[-81.7706,8.8489,80.1361],[-81.7654,8.8715,102.6296],[-81.7618,8.8747,108.6634],[-81.7538,8.8781,108.7648],[-81.7514,8.8986,52.8818],[-81.754,8.9114,47.0204],[-81.7428,8.9241,32.3958],[-81.7544,8.9414,38.9609],[-81.7553,8.9559,24.7221],[-81.7507,8.9692,30.3219],[-81.7554,8.9813,13.7665],[-81.7608,8.9783,20.8137],[-81.7664,8.9777,14.5778]]],
[[[-81.8951,8.9668,0.0],[-81.8943,8.9635,0.0],[-81.8921,8.961,0.0],[-81.8921,8.9646,0.0],[-81.8951,8.9668,0.0]]]]}}