{"type":"Feature","properties":{"GID_3":"PAN.2.8.3_1","GID_0":"PAN","country":"Panama","GID_1":"PAN.2_1","province":"Chiriquí","NL_NAME_1":"NA","GID_2":"PAN.2.8_1","county":"Gualaca","NL_NAME_2":"NA","city":"LosAngeles","VARNAME_3":"NA","NL_NAME_3":"NA","TYPE_3":"Corregimiento","ENGTYPE_3":"Municipality","CC_3":"NA","HASC_3":"NA","name":"Los_Angeles.city"},
"geometry":{"type": "MultiPolygon","coordinates": [[[[-82.2249,8.4963,202.2029],[-82.219,8.5004,224.8687],[-82.2117,8.4985,351.6645],[-82.2099,8.4958,381.8164],[-82.2082,8.4843,349.3795],[-82.1883,8.4642,204.9083],[-82.1854,8.4643,224.5901],[-82.1798,8.4714,153.2525],[-82.1776,8.4834,176.0241],[-82.1663,8.4946,295.3059],[-82.1646,8.502,317.5092],[-82.153,8.5098,241.4492],[-82.1523,8.5168,293.3209],[-82.1536,8.5201,293.7339],[-82.1566,8.5241,437.6914],[-82.1661,8.53,503.6504],[-82.1657,8.5313,499.6064],[-82.1612,8.5308,499.1903],[-82.1614,8.5288,493.928],[-82.1504,8.5295,268.0107],[-82.1471,8.5347,302.485],[-82.145,8.5439,333.6873],[-82.1411,8.5465,410.8024],[-82.1381,8.5514,405.224],[-82.1351,8.5517,475.4438],[-82.132,8.5475,551.1768],[-82.1266,8.5447,544.7215],[-82.1284,8.5605,696.5375],[-82.1306,8.5629,612.8518],[-82.1342,8.5623,549.1858],[-82.1379,8.5604,484.2223],[-82.1418,8.5556,380.6918],[-82.1443,8.555,337.2908],[-82.1487,8.5657,501.3206],[-82.1614,8.5689,788.6628],[-82.1775,8.5683,522.6708],[-82.186,8.5719,422.7332],[-82.2156,8.5641,330.4331],[-82.2196,8.5595,416.1098],[-82.2256,8.5462,330.3292],[-82.2337,8.5353,261.551],[-82.2299,8.5238,221.4769],[-82.2313,8.5139,157.3773],[-82.2278,8.5086,129.3621],[-82.2249,8.4963,202.2029]]]]}}