{"type":"Feature","properties":{"GID_3":"PAN.13.3.2_1","GID_0":"PAN","country":"Panama","GID_1":"PAN.13_1","province":"Veraguas","NL_NAME_1":"NA","GID_2":"PAN.13.3_1","county":"Cañazas","NL_NAME_2":"NA","city":"CerrodePlata","VARNAME_3":"NA","NL_NAME_3":"NA","TYPE_3":"Corregimiento","ENGTYPE_3":"Municipality","CC_3":"NA","HASC_3":"NA","name":"Cerrode_Plata.city"},
"geometry":{"type": "MultiPolygon","coordinates": [[[[-81.448,8.2579,141.2825],[-81.4238,8.2697,122.9236],[-81.4156,8.2811,173.7056],[-81.4069,8.2858,113.1408],[-81.3881,8.2816,162.3699],[-81.3858,8.2613,152.0629],[-81.366,8.2643,121.8829],[-81.2682,8.2704,90.661],[-81.2659,8.2853,81.1633],[-81.2691,8.2931,115.9694],[-81.2796,8.2937,100.5164],[-81.2835,8.2954,116.7429],[-81.2968,8.3122,123.2176],[-81.3045,8.3192,180.2125],[-81.3242,8.3241,283.7143],[-81.3476,8.3337,288.2802],[-81.3506,8.3372,261.8102],[-81.3586,8.3322,256.2122],[-81.3739,8.3493,306.7269],[-81.3736,8.3285,278.4156],[-81.3797,8.3285,275.8],[-81.3845,8.3348,353.1822],[-81.3884,8.3362,324.9905],[-81.3923,8.3405,268.726],[-81.3961,8.3189,293.9764],[-81.404,8.3146,132.7479],[-81.416,8.319,165.4875],[-81.4239,8.3081,148.1657],[-81.4315,8.2844,251.6373],[-81.4371,8.2797,257.4366],[-81.4374,8.2734,197.4865],[-81.448,8.2579,141.2825]]]]}}