{"type":"Feature","properties":{"GID_3":"PAN.2.5.7_1","GID_0":"PAN","country":"Panama","GID_1":"PAN.2_1","province":"Chiriquí","NL_NAME_1":"NA","GID_2":"PAN.2.5_1","county":"Bugaba","NL_NAME_2":"NA","city":"LaEstrella","VARNAME_3":"NA","NL_NAME_3":"NA","TYPE_3":"Corregimiento","ENGTYPE_3":"Municipality","CC_3":"NA","HASC_3":"NA","name":"La_Estrella.city"},
"geometry":{"type": "MultiPolygon","coordinates": [[[[-82.6414,8.4531,88.7676],[-82.6355,8.4545,90.7229],[-82.6287,8.451,84.6438],[-82.6276,8.461,95.5585],[-82.6301,8.4658,104.1528],[-82.6284,8.473,123.9019],[-82.6343,8.4785,126.5326],[-82.6365,8.487,143.927],[-82.6437,8.4924,151.7466],[-82.6529,8.5065,177.8441],[-82.6642,8.5176,215.0755],[-82.6643,8.5213,226.5382],[-82.6606,8.529,250.1432],[-82.6659,8.5334,273.9155],[-82.6679,8.5434,287.3488],[-82.6663,8.5461,299.5045],[-82.6748,8.5549,358.6499],[-82.6816,8.5578,373.6309],[-82.6893,8.5588,373.1616],[-82.6964,8.548,312.0013],[-82.6897,8.5327,273.3875],[-82.6907,8.5241,250.9863],[-82.6861,8.5121,223.259],[-82.6867,8.5026,191.3965],[-82.6926,8.4886,174.1801],[-82.692,8.4788,140.5716],[-82.6891,8.4722,146.974],[-82.6862,8.4564,120.5159],[-82.6796,8.4525,117.2455],[-82.6732,8.4602,130.4458],[-82.6694,8.4617,130.8047],[-82.6618,8.4554,114.1821],[-82.6541,8.456,108.7926],[-82.6481,8.4529,97.9344],[-82.6414,8.4531,88.7676]]]]}}