{"type": "Feature","bbox": [-80.2959,7.7863,-80.254,7.8437],"geometry": {"type": "MultiPolygon","coordinates": [[[[-80.2959,7.8246,11.1409],[-80.2952,7.8115,18.8499],[-80.2808,7.7994,34.0342],[-80.2848,7.7863,37.2857],[-80.272,7.7888,37.6957],[-80.2645,7.7882,44.7436],[-80.261,7.7904,35.0301],[-80.2587,7.794,36.4006],[-80.2588,7.7994,33.4073],[-80.254,7.8057,24.9154],[-80.2588,7.8183,9.5993],[-80.2633,7.82,15.3199],[-80.275,7.8201,37.3684],[-80.2773,7.828,29.9617],[-80.2884,7.8437,4.8585],[-80.2951,7.836,10.7938],[-80.2959,7.8246,11.1409]]]]}
,"properties": {"GID_3": "PAN.9.1.4_1","GID_0": "PAN","country": "Panama","GID_1": "PAN.9_1","province": "LosSantos","NL_NAME_1": "NA","GID_2": "PAN.9.1_1","county": "Guararé","NL_NAME_2": "NA","city": "Guararé","VARNAME_3": "NA","NL_NAME_3": "NA","TYPE_3": "Corregimiento","ENGTYPE_3": "Municipality","CC_3": "NA","HASC_3": "NA","name": "Guararé.city","area_km2": 16.00615,"hist_schema_id": "Elevation0-9000","hist_area_km2": {"0": 1.02922,"25": 11.91006,"50": 2.60472,"75": 0.46214}}}