{"type": "Feature","bbox": [-80.2898,7.6997,-80.2527,7.7247],"geometry": {"type": "MultiPolygon","coordinates": [[[[-80.283,7.7024,41.2485],[-80.2739,7.6997,35.7313],[-80.2668,7.7004,41.8507],[-80.2599,7.7067,34.7084],[-80.2567,7.7043,27.2442],[-80.2527,7.713,19.4464],[-80.2569,7.7179,61.4355],[-80.2638,7.7209,75.0754],[-80.2712,7.7218,82.1691],[-80.2756,7.7171,86.3835],[-80.278,7.7247,82.4641],[-80.2898,7.7171,79.5953],[-80.2876,7.7089,97.6805],[-80.283,7.7024,41.2485]]]]}
,"properties": {"GID_3": "PAN.9.2.17_1","GID_0": "PAN","country": "Panama","GID_1": "PAN.9_1","province": "LosSantos","NL_NAME_1": "NA","GID_2": "PAN.9.2_1","county": "LasTablas","NL_NAME_2": "NA","city": "PeñaBlanca","VARNAME_3": "NA","NL_NAME_3": "NA","TYPE_3": "Corregimiento","ENGTYPE_3": "Municipality","CC_3": "NA","HASC_3": "NA","name": "Peña_Blanca.city","area_km2": 7.353659,"hist_schema_id": "Elevation0-9000","hist_area_km2": {"25": 2.83644,"50": 1.575786,"75": 2.248096,"100": 0.651316,"125": 0.042021}}}