{"type":"Feature","properties":{"GID_3":"PAN.13.8.5_1","GID_0":"PAN","country":"Panama","GID_1":"PAN.13_1","province":"Veraguas","NL_NAME_1":"NA","GID_2":"PAN.13.8_1","county":"SanFrancisco","NL_NAME_2":"NA","city":"SanJuan","VARNAME_3":"NA","NL_NAME_3":"NA","TYPE_3":"Corregimiento","ENGTYPE_3":"Municipality","CC_3":"NA","HASC_3":"NA","name":"San_Juan.city"},
"geometry":{"type": "MultiPolygon","coordinates": [[[[-80.9844,8.4151,591.4591],[-81.0028,8.4151,401.4458],[-81.0366,8.4228,236.915],[-81.0455,8.4223,212.9316],[-81.073,8.4268,356.1392],[-81.0797,8.4253,592.2562],[-81.0907,8.4187,287.0018],[-81.1031,8.4084,235.4671],[-81.0994,8.3955,193.8482],[-81.0914,8.3782,171.2616],[-81.0921,8.3649,196.503],[-81.0887,8.3579,155.2358],[-81.0822,8.3524,185.2219],[-81.0728,8.3522,319.3272],[-81.0684,8.3495,255.4119],[-81.072,8.338,228.5948],[-81.0716,8.3343,254.3216],[-81.0545,8.3256,481.452],[-81.0382,8.3235,229.6847],[-81.0285,8.3136,146.1114],[-81.0265,8.2941,118.2977],[-81.0316,8.2878,142.0353],[-81.0312,8.2853,188.5076],[-81.0094,8.2824,136.1682],[-80.9852,8.2713,137.0423],[-80.9691,8.2673,125.9333],[-80.9687,8.2714,160.0254],[-80.9743,8.2759,146.2586],[-80.9744,8.2779,138.3206],[-80.9726,8.2797,140.2816],[-80.9652,8.2813,167.9263],[-80.9608,8.285,180.0017],[-80.9588,8.2887,191.1687],[-80.9575,8.299,217.1303],[-80.9717,8.3238,303.9206],[-80.9824,8.3307,158.9386],[-80.9822,8.333,135.5011],[-80.9691,8.338,187.0322],[-80.9668,8.3435,129.0368],[-80.9731,8.3602,350.6616],[-80.9802,8.3671,366.5069],[-80.9835,8.3731,249.4686],[-80.9848,8.3876,238.8039],[-80.9831,8.405,347.8399],[-80.9844,8.4151,591.4591]]]]}}