{"type": "Feature","bbox": [-80.6836,7.8762,-80.6064,7.9389],"geometry": {"type": "MultiPolygon","coordinates": [[[[-80.6781,7.9137,71.7639],[-80.6833,7.9077,75.2099],[-80.6836,7.8995,99.0642],[-80.682,7.8987,123.4268],[-80.6723,7.9007,88.5386],[-80.6647,7.8971,77.2952],[-80.6639,7.8948,68.0702],[-80.6686,7.8833,112.5577],[-80.6516,7.8912,77.7917],[-80.646,7.8855,117.1688],[-80.6399,7.8831,121.4088],[-80.6331,7.8762,121.9631],[-80.6281,7.8862,116.6816],[-80.6271,7.9039,131.2623],[-80.6105,7.9158,85.431],[-80.6064,7.9268,66.7635],[-80.6099,7.9343,47.0715],[-80.6176,7.9389,66.0587],[-80.6248,7.9369,72.8191],[-80.6309,7.9375,47.9049],[-80.6447,7.9292,57.837],[-80.6517,7.9295,51.5496],[-80.6593,7.9246,72.4408],[-80.6655,7.9248,74.5032],[-80.6697,7.9218,76.184],[-80.6743,7.924,81.697],[-80.6749,7.9194,73.6945],[-80.6781,7.9137,71.7639]]]]}
,"properties": {"GID_3": "PAN.7.6.4_1","GID_0": "PAN","country": "Panama","GID_1": "PAN.7_1","province": "Herrera","NL_NAME_1": "NA","GID_2": "PAN.7.6_1","county": "Pesé","NL_NAME_2": "NA","city": "ElPedregoso","VARNAME_3": "NA","NL_NAME_3": "NA","TYPE_3": "Corregimiento","ENGTYPE_3": "Municipality","CC_3": "NA","HASC_3": "NA","name": "El_Pedregoso.city","area_km2": 31.43763,"hist_schema_id": "Elevation0-9000","hist_area_km2": {"50": 4.97697,"75": 18.3543,"100": 5.48119,"125": 1.97412,"150": 0.63005,"175": 0.021}}}