{"type": "Feature","bbox": [-81.463,7.7484,-81.3103,7.9518],"geometry": {"type": "MultiPolygon","coordinates": [[[[-81.4245,7.7484,343.5486],[-81.423,7.7614,302.225],[-81.418,7.7699,123.2474],[-81.4022,7.7913,137.8259],[-81.3911,7.8009,135.5942],[-81.387,7.83,172.3456],[-81.3818,7.8315,281.4675],[-81.3688,7.8281,198.8597],[-81.3584,7.8187,70.5531],[-81.3531,7.8194,233.6755],[-81.3489,7.824,281.0733],[-81.347,7.8324,390.6468],[-81.3558,7.8491,400.7569],[-81.3562,7.8576,355.2516],[-81.3516,7.8679,378.0758],[-81.3359,7.8852,149.1485],[-81.3361,7.8892,78.3643],[-81.3407,7.9008,103.4071],[-81.3399,7.9074,117.4839],[-81.3356,7.9182,110.4786],[-81.3282,7.9233,200.4209],[-81.3184,7.9209,218.3785],[-81.3103,7.9278,137.8434],[-81.3209,7.9369,179.8944],[-81.3562,7.9518,167.1776],[-81.3699,7.9435,259.9444],[-81.3905,7.9171,209.0094],[-81.4032,7.9131,211.9815],[-81.4059,7.9104,279.7532],[-81.4096,7.8728,284.0552],[-81.4129,7.8663,268.8707],[-81.4229,7.859,353.0139],[-81.425,7.8458,232.5731],[-81.4308,7.8434,327.7074],[-81.4596,7.8391,134.5852],[-81.463,7.837,153.6646],[-81.463,7.8102,421.5182],[-81.4552,7.7993,400.1585],[-81.4541,7.7853,377.6824],[-81.4473,7.7691,435.1606],[-81.4448,7.7666,455.9127],[-81.4337,7.7628,409.603],[-81.4245,7.7484,343.5486]]]]}
,"properties": {"GID_3": "PAN.13.11.3_1","GID_0": "PAN","country": "Panama","GID_1": "PAN.13_1","province": "Veraguas","NL_NAME_1": "NA","GID_2": "PAN.13.11_1","county": "Soná","NL_NAME_2": "NA","city": "Cativé","VARNAME_3": "NA","NL_NAME_3": "NA","TYPE_3": "Corregimiento","ENGTYPE_3": "Municipality","CC_3": "NA","HASC_3": "NA","name": "Cativé.city","area_km2": 147.3374,"hist_schema_id": "Elevation0-9000","hist_area_km2": {"50": 1.5544,"75": 6.6793,"100": 10.4174,"125": 12.5173,"150": 11.5511,"175": 11.7402,"200": 10.9425,"225": 10.5016,"250": 9.8925,"275": 10.6067,"300": 9.8296,"325": 10.3967,"350": 8.4225,"375": 6.3222,"400": 5.3561,"425": 4.768,"450": 2.7936,"475": 1.5753,"500": 0.9242,"525": 0.3361,"550": 0.2101}}}