{"type": "Feature","bbox": [-81.7432,8.4897,-81.6604,8.6431],"geometry": {"type": "MultiPolygon","coordinates": [[[[-81.7379,8.6409,378.3828],[-81.7353,8.6193,1056.0457],[-81.7412,8.6065,938.6402],[-81.7369,8.5864,883.8656],[-81.73,8.5744,1195.6577],[-81.7355,8.5412,1232.167],[-81.731,8.5293,1507.887],[-81.7366,8.5266,1663.9207],[-81.7377,8.5245,1665.8997],[-81.7382,8.4964,1699.9304],[-81.7432,8.4897,1311.2371],[-81.7285,8.4933,1471.0962],[-81.7197,8.5008,1569.0249],[-81.7169,8.5067,1596.6248],[-81.7118,8.5037,1632.1226],[-81.7074,8.5081,1744.9976],[-81.6994,8.509,1771.3126],[-81.6877,8.5069,1607.7604],[-81.6751,8.5117,1611.8577],[-81.6709,8.5194,1525.7349],[-81.6695,8.5285,1418.5696],[-81.6626,8.5403,1704.2231],[-81.6604,8.5605,1862.4854],[-81.6649,8.57,1677.282],[-81.6692,8.5745,1368.6965],[-81.6873,8.5786,1683.5903],[-81.6921,8.5812,1636.9198],[-81.6889,8.5968,1094.4672],[-81.6929,8.6045,851.3805],[-81.6933,8.6162,728.9111],[-81.6968,8.6227,822.6772],[-81.724,8.642,664.9935],[-81.7291,8.6431,640.4528],[-81.7379,8.6409,378.3828]]]]}
,"properties": {"GID_3": "PAN.10.2.6_1","GID_0": "PAN","country": "Panama","GID_1": "PAN.10_1","province": "NgöbeBuglé","NL_NAME_1": "NA","GID_2": "PAN.10.2_1","county": "Kankintú","NL_NAME_2": "NA","city": "Mününi","VARNAME_3": "NA","NL_NAME_3": "NA","TYPE_3": "Corregimiento","ENGTYPE_3": "Municipality","CC_3": "NA","HASC_3": "NA","name": "Mününi.city","area_km2": 92.66913,"hist_schema_id": "Elevation0-9000","hist_area_km2": {"375": 0.06288,"400": 0.10481,"425": 0.20962,"450": 0.18866,"475": 0.2725,"500": 0.25154,"525": 0.29347,"550": 0.50309,"575": 0.23058,"600": 0.56597,"625": 0.52405,"650": 0.62886,"675": 0.67079,"700": 0.46117,"725": 0.41925,"750": 0.44021,"775": 0.62888,"800": 0.67081,"825": 0.7337,"850": 0.48215,"875": 1.09009,"900": 1.09011,"925": 1.09012,"950": 1.27881,"975": 1.2369,"1000": 1.40464,"1025": 1.55138,"1050": 1.44656,"1075": 1.5095,"1100": 1.38369,"1125": 1.65626,"1150": 1.78204,"1175": 1.84495,"1200": 1.65627,"1225": 1.59337,"1250": 1.82401,"1275": 1.86594,"1300": 2.01269,"1325": 1.97081,"1350": 1.92886,"1375": 1.866,"1400": 2.30628,"1425": 2.18054,"1450": 1.9289,"1475": 2.51598,"1500": 2.53696,"1525": 2.55791,"1550": 2.59991,"1575": 2.20151,"1600": 2.4741,"1625": 2.74667,"1650": 2.68381,"1675": 2.66282,"1700": 2.95638,"1725": 2.57895,"1750": 2.3064,"1775": 2.22255,"1800": 2.36931,"1825": 1.97091,"1850": 1.97093,"1875": 1.53061,"1900": 1.06932,"1925": 0.8806,"1950": 0.67093,"1975": 0.48222,"2000": 0.27256,"2025": 0.23063,"2050": 0.16773,"2075": 0.10483,"2100": 0.0629}}}