{"type":"Feature","properties":{"GID_3":"PAN.3.5.3_1","GID_0":"PAN","country":"Panama","GID_1":"PAN.3_1","province":"Coclé","NL_NAME_1":"NA","GID_2":"PAN.3.5_1","county":"Olá","NL_NAME_2":"NA","city":"ElPicacho","VARNAME_3":"NA","NL_NAME_3":"NA","TYPE_3":"Corregimiento","ENGTYPE_3":"Municipality","CC_3":"NA","HASC_3":"NA","name":"El_Picacho.city"},
"geometry":{"type": "MultiPolygon","coordinates": [[[[-80.5761,8.4119,41.891],[-80.5782,8.41,34.5139],[-80.5791,8.4051,43.5758],[-80.5914,8.4037,89.8524],[-80.5979,8.3986,68.776],[-80.6042,8.3906,65.214],[-80.6112,8.4045,69.1584],[-80.6227,8.4046,141.6715],[-80.63,8.412,132.7978],[-80.6322,8.4192,110.8242],[-80.6344,8.4209,97.0009],[-80.6361,8.4192,108.0717],[-80.6352,8.4167,122.6694],[-80.6375,8.4074,128.2575],[-80.6513,8.3995,153.7336],[-80.662,8.404,262.7657],[-80.6647,8.4013,400.9012],[-80.6691,8.3916,348.1603],[-80.6615,8.3836,216.7987],[-80.5998,8.3637,148.4181],[-80.5952,8.3635,120.6535],[-80.5914,8.367,66.8103],[-80.5735,8.4,35.2188],[-80.5761,8.4119,41.891]]]]}}