{"type":"Feature","properties":{"GID_3":"PAN.9.3.13_1","GID_0":"PAN","country":"Panama","GID_1":"PAN.9_1","province":"LosSantos","NL_NAME_1":"NA","GID_2":"PAN.9.3_1","county":"LosSantos","NL_NAME_2":"NA","city":"TresQuebradas","VARNAME_3":"NA","NL_NAME_3":"NA","TYPE_3":"Corregimiento","ENGTYPE_3":"Municipality","CC_3":"NA","HASC_3":"NA","name":"Tres_Quebradas.city"},
"geometry":{"type": "MultiPolygon","coordinates": [[[[-80.3806,7.8371,51.1128],[-80.3895,7.8428,47.359],[-80.3886,7.8451,46.609],[-80.3817,7.8475,48.2188],[-80.395,7.8647,97.5748],[-80.3978,7.8642,87.687],[-80.4124,7.8527,75.9124],[-80.4245,7.8536,175.3262],[-80.4232,7.8347,93.039],[-80.4151,7.8289,105.3458],[-80.4076,7.8151,113.7016],[-80.4037,7.82,98.5835],[-80.401,7.8294,79.1306],[-80.3806,7.8371,51.1128]]]]}}