{"type": "Feature","bbox": [-81.7202,8.2588,-81.6603,8.3131],"geometry": {"type": "MultiPolygon","coordinates": [[[[-81.6648,8.273,448.7905],[-81.6651,8.287,414.7485],[-81.6603,8.2942,372.8764],[-81.6658,8.2947,378.2704],[-81.675,8.2873,382.8618],[-81.6787,8.2892,409.0223],[-81.687,8.2876,310.2861],[-81.6886,8.2848,296.1539],[-81.6927,8.2848,356.32],[-81.6913,8.2876,328.6066],[-81.6899,8.2876,328.6066],[-81.6885,8.2971,370.6581],[-81.6912,8.298,399.6548],[-81.6935,8.297,461.3307],[-81.6927,8.2948,456.4682],[-81.6952,8.2956,461.3307],[-81.6927,8.3083,575.8038],[-81.6947,8.3107,505.3839],[-81.7012,8.3131,416.131],[-81.7061,8.2946,456.9767],[-81.7083,8.2942,375.5112],[-81.7107,8.2906,348.0159],[-81.7164,8.2892,318.2866],[-81.7164,8.2829,229.5396],[-81.7202,8.2757,150.6848],[-81.7192,8.2719,124.0525],[-81.7151,8.2675,206.4628],[-81.7155,8.2611,235.4916],[-81.7194,8.2588,141.183],[-81.71,8.2608,376.1717],[-81.705,8.2678,410.1379],[-81.6907,8.2638,226.7336],[-81.6648,8.273,448.7905]]]]}
,"properties": {"GID_3": "PAN.2.13.6_1","GID_0": "PAN","country": "Panama","GID_1": "PAN.2_1","province": "Chiriquí","NL_NAME_1": "NA","GID_2": "PAN.2.13_1","county": "Tolé","NL_NAME_2": "NA","city": "PotrerodeCaña","VARNAME_3": "NA","NL_NAME_3": "NA","TYPE_3": "Corregimiento","ENGTYPE_3": "Municipality","CC_3": "NA","HASC_3": "NA","name": "Potrerode_Caña.city","area_km2": 18.58926,"hist_schema_id": "Elevation0-9000","hist_area_km2": {"125": 0.02098,"150": 0.18883,"175": 0.31473,"200": 0.25178,"225": 0.79731,"250": 1.17497,"275": 1.27987,"300": 1.74145,"325": 2.20302,"350": 1.61555,"375": 1.84634,"400": 1.40573,"425": 1.51062,"450": 1.9512,"475": 1.32179,"500": 0.67139,"525": 0.2098,"550": 0.04196,"575": 0.04196}}}