{"type": "Feature","bbox": [-82.6404,8.3082,-82.5809,8.3918],"geometry": {"type": "MultiPolygon","coordinates": [[[[-82.6404,8.3226,1.8378],[-82.5938,8.3082,3.8242],[-82.5909,8.3153,4.0173],[-82.5914,8.3248,6.6065],[-82.5854,8.3373,8.9581],[-82.5809,8.354,14.9735],[-82.5831,8.3679,22.4755],[-82.5828,8.3759,23.911],[-82.5905,8.3912,34.485],[-82.5963,8.3918,33.2344],[-82.6051,8.3895,30.8363],[-82.6066,8.3817,32.8127],[-82.6127,8.3675,18.7991],[-82.6191,8.3597,13.6653],[-82.6238,8.3468,8.8729],[-82.6304,8.3409,6.5758],[-82.6373,8.326,7.4427],[-82.6404,8.3226,1.8378]]]]}
,"properties": {"GID_3": "PAN.2.1.5_1","GID_0": "PAN","country": "Panama","GID_1": "PAN.2_1","province": "Chiriquí","NL_NAME_1": "NA","GID_2": "PAN.2.1_1","county": "Alanje","NL_NAME_2": "NA","city": "PaloGrande","VARNAME_3": "NA","NL_NAME_3": "NA","TYPE_3": "Corregimiento","ENGTYPE_3": "Municipality","CC_3": "NA","HASC_3": "NA","name": "Palo_Grande.city","area_km2": 34.25646,"hist_schema_id": "Elevation0-9000","hist_area_km2": {"0": 18.83865,"25": 15.31293,"50": 0.10488}}}