{"type":"Feature","properties":{"GID_3":"PAN.10.1.2_1","GID_0":"PAN","country":"Panama","GID_1":"PAN.10_1","province":"NgöbeBuglé","NL_NAME_1":"NA","GID_2":"PAN.10.1_1","county":"Besiko","NL_NAME_2":"NA","city":"CamarónArriba","VARNAME_3":"NA","NL_NAME_3":"NA","TYPE_3":"Corregimiento","ENGTYPE_3":"Municipality","CC_3":"NA","HASC_3":"NA","name":"Camarón_Arriba.city"},
"geometry":{"type": "MultiPolygon","coordinates": [[[[-82.02,8.4169,177.2937],[-82.0186,8.4138,180.486],[-82.0208,8.4092,142.3376],[-82.0194,8.4056,174.3254],[-82.0239,8.3998,165.9963],[-82.031,8.3942,127.5632],[-82.0322,8.3866,162.7267],[-82.0286,8.3848,169.5877],[-82.0077,8.3894,346.2242],[-82.0181,8.3749,185.3708],[-82.023,8.3714,162.9302],[-82.0215,8.369,153.6964],[-82.0165,8.3667,181.8523],[-82.0199,8.3612,146.4899],[-82.0195,8.359,127.5567],[-82.0106,8.3472,109.7424],[-82.0022,8.3407,68.9551],[-81.9982,8.3554,144.3195],[-81.9945,8.3577,198.5552],[-81.9842,8.358,151.5745],[-81.9817,8.3595,183.2069],[-81.9673,8.39,356.2107],[-81.9562,8.3999,460.127],[-81.9569,8.415,405.9755],[-81.9463,8.4232,510.219],[-81.9456,8.4338,597.7122],[-81.9493,8.4373,427.718],[-81.9699,8.4333,331.1317],[-81.9818,8.4228,215.4275],[-81.9892,8.4195,256.1221],[-82.0187,8.4189,145.682],[-82.02,8.4169,177.2937]]]]}}