{"type": "Feature","bbox": [-80.6854,7.6791,-80.6288,7.7334],"geometry": {"type": "MultiPolygon","coordinates": [[[[-80.6412,7.7097,206.9406],[-80.6416,7.7121,242.8461],[-80.6465,7.7107,219.2568],[-80.6507,7.7153,231.3652],[-80.6494,7.7196,281.0647],[-80.6529,7.7241,274.6195],[-80.6592,7.7283,249.3869],[-80.6647,7.7295,258.386],[-80.6688,7.7334,301.1335],[-80.6831,7.7305,276.032],[-80.6854,7.7188,366.484],[-80.6837,7.711,349.4396],[-80.6699,7.7027,337.4847],[-80.6572,7.6904,333.7773],[-80.6552,7.682,314.7068],[-80.6482,7.6791,238.5162],[-80.6327,7.6818,151.3713],[-80.6288,7.6919,167.1526],[-80.6304,7.6968,229.4607],[-80.6341,7.6948,214.6198],[-80.6372,7.6976,220.9132],[-80.6368,7.7022,236.0598],[-80.6411,7.7063,208.9223],[-80.6412,7.7097,206.9406]]]]}
,"properties": {"GID_3": "PAN.7.3.1_1","GID_0": "PAN","country": "Panama","GID_1": "PAN.7_1","province": "Herrera","NL_NAME_1": "NA","GID_2": "PAN.7.3_1","county": "LosPozos","NL_NAME_2": "NA","city": "Capurí","VARNAME_3": "NA","NL_NAME_3": "NA","TYPE_3": "Corregimiento","ENGTYPE_3": "Municipality","CC_3": "NA","HASC_3": "NA","name": "Capurí.city","area_km2": 18.99367,"hist_schema_id": "Elevation0-9000","hist_area_km2": {"150": 0.14708,"175": 0.7144,"200": 1.17662,"225": 1.84896,"250": 2.1431,"275": 1.99601,"300": 2.94151,"325": 3.04654,"350": 3.17257,"375": 1.57577,"400": 0.23111}}}