{"type": "Feature","bbox": [-80.0033,8.7682,-79.9226,8.8397],"geometry": {"type": "MultiPolygon","coordinates": [[[[-79.9782,8.7682,400.3774],[-79.9557,8.7732,236.2055],[-79.9391,8.7799,216.7331],[-79.931,8.7807,209.5275],[-79.9305,8.7912,202.8365],[-79.9253,8.7981,229.9573],[-79.9226,8.8208,226.0531],[-79.9315,8.8186,236.4338],[-79.9387,8.8199,178.8039],[-79.9383,8.835,169.3682],[-79.9509,8.83,183.1313],[-79.9565,8.8321,181.65],[-79.9603,8.8364,182.9237],[-79.9687,8.8397,252.7001],[-79.9796,8.8343,199.4168],[-80.0033,8.8273,213.7988],[-79.9979,8.8188,355.8777],[-79.9956,8.8023,342.1678],[-79.9842,8.7944,426.6292],[-79.9782,8.7682,400.3774]]]]}
,"properties": {"GID_3": "PAN.11.2.1_1","GID_0": "PAN","country": "Panama","GID_1": "PAN.11_1","province": "PanamáOeste","NL_NAME_1": "NA","GID_2": "PAN.11.2_1","county": "Capira","NL_NAME_2": "NA","city": "Caimito","VARNAME_3": "NA","NL_NAME_3": "NA","TYPE_3": "Corregimiento","ENGTYPE_3": "Municipality","CC_3": "NA","HASC_3": "NA","name": "Caimito.city","area_km2": 44.98461,"hist_schema_id": "Elevation0-9000","hist_area_km2": {"175": 6.74643,"200": 7.29137,"225": 6.28568,"250": 5.19617,"275": 4.77718,"300": 3.58289,"325": 3.37339,"350": 1.88573,"375": 1.17335,"400": 1.23621,"425": 1.02667,"450": 1.04763,"475": 0.60762,"500": 0.41905,"525": 0.23048,"550": 0.06286,"575": 0.04191}}}