{"type": "Feature","bbox": [-77.9087,8.2503,-77.4417,8.7776],"geometry": {"type": "MultiPolygon","coordinates": [[[[-77.4459,8.5012,733.0989],[-77.459,8.5178,923.6931],[-77.4625,8.5254,920.0383],[-77.4728,8.533,627.0654],[-77.4816,8.5425,461.7634],[-77.4879,8.5608,393.8753],[-77.4946,8.5724,533.6172],[-77.4993,8.5888,599.8087],[-77.5026,8.5945,492.2281],[-77.5079,8.5983,463.1469],[-77.5195,8.6014,502.8346],[-77.5396,8.5932,527.1891],[-77.5428,8.5931,486.7269],[-77.5542,8.5999,536.0823],[-77.5599,8.6062,471.6754],[-77.581,8.6401,745.406],[-77.5782,8.6515,605.3451],[-77.5685,8.6671,513.3169],[-77.5735,8.6814,255.914],[-77.5812,8.6833,460.5984],[-77.5955,8.6935,417.3071],[-77.6115,8.6942,576.6138],[-77.6159,8.7017,506.0876],[-77.6182,8.7105,380.3969],[-77.625,8.7193,341.2877],[-77.6245,8.7262,297.7004],[-77.6277,8.733,279.8064],[-77.6399,8.7377,262.9024],[-77.6433,8.7466,267.7761],[-77.6607,8.7542,437.2485],[-77.6678,8.7494,323.8799],[-77.6727,8.7492,350.7144],[-77.676,8.7518,497.2774],[-77.6811,8.7617,604.6016],[-77.7014,8.7634,552.7675],[-77.7198,8.7776,436.6651],[-77.7377,8.7761,307.7279],[-77.7514,8.7704,355.0743],[-77.7581,8.7702,449.6324],[-77.7735,8.7591,199.6508],[-77.7803,8.7456,153.5116],[-77.7845,8.7417,144.6524],[-77.7945,8.7395,155.1012],[-77.8037,8.7351,138.3405],[-77.817,8.7349,205.3938],[-77.8322,8.729,109.3454],[-77.8369,8.706,93.5164],[-77.8403,8.7002,77.531],[-77.8635,8.6794,53.9182],[-77.8667,8.6716,65.3309],[-77.8691,8.6585,59.0615],[-77.8775,8.6528,58.8967],[-77.8821,8.6471,57.2267],[-77.899,8.6437,61.6343],[-77.9084,8.6265,38.992],[-77.9087,8.613,27.5868],[-77.9062,8.6068,46.0526],[-77.9058,8.6009,35.3642],[-77.8968,8.5935,39.6607],[-77.8985,8.5839,35.6432],[-77.8954,8.5706,32.6656],[-77.8878,8.5668,51.5599],[-77.8822,8.5591,51.2084],[-77.8727,8.5566,63.3821],[-77.8706,8.5435,46.3913],[-77.8647,8.5396,38.6771],[-77.8658,8.534,55.5211],[-77.8713,8.5309,56.6534],[-77.8728,8.5259,60.0229],[-77.876,8.5258,58.5906],[-77.8809,8.5214,32.1818],[-77.8809,8.5188,40.8573],[-77.8724,8.5175,58.6694],[-77.8655,8.5132,55.8014],[-77.8631,8.5097,53.3015],[-77.8644,8.5029,50.1325],[-77.8542,8.4976,63.9377],[-77.8453,8.499,45.2915],[-77.8388,8.5023,40.4951],[-77.8343,8.5004,43.1543],[-77.8347,8.4931,46.7966],[-77.84,8.4831,52.5075],[-77.84,8.4806,50.9574],[-77.8348,8.4733,33.9272],[-77.8249,8.4703,31.4676],[-77.8217,8.4634,32.3542],[-77.8158,8.463,40.1167],[-77.8148,8.4535,26.4219],[-77.8111,8.4495,38.7341],[-77.8092,8.4442,21.9134],[-77.8068,8.4251,27.0549],[-77.8092,8.4198,25.3373],[-77.8168,8.417,26.0881],[-77.8191,8.4144,28.0506],[-77.8199,8.4079,23.6185],[-77.8165,8.4055,12.6408],[-77.8174,8.3964,17.9687],[-77.8125,8.3959,36.2002],[-77.811,8.3988,14.9443],[-77.809,8.3986,23.3759],[-77.8064,8.4016,27.4848],[-77.805,8.3922,18.2172],[-77.8012,8.3863,19.9759],[-77.8018,8.3775,26.6299],[-77.7967,8.3686,36.261],[-77.7978,8.3593,27.79],[-77.7951,8.35,13.3877],[-77.7933,8.3484,26.8746],[-77.788,8.3488,28.5936],[-77.782,8.3435,26.9722],[-77.7805,8.327,32.8661],[-77.7655,8.3228,11.0228],[-77.7656,8.3199,21.6063],[-77.7703,8.3144,29.7924],[-77.7701,8.3115,20.4947],[-77.7617,8.3087,8.5576],[-77.755,8.2919,31.0006],[-77.7473,8.2866,12.0422],[-77.7334,8.2892,15.9005],[-77.7313,8.2882,29.3166],[-77.7309,8.285,18.6274],[-77.7347,8.2785,20.8526],[-77.735,8.2739,31.978],[-77.7308,8.2649,20.8948],[-77.7321,8.2583,19.6409],[-77.7292,8.253,8.8516],[-77.7266,8.2514,12.4015],[-77.7128,8.2503,22.2646],[-77.7068,8.257,32.8841],[-77.5636,8.4492,537.4287],[-77.5628,8.4557,609.8752],[-77.5661,8.4885,125.0109],[-77.5652,8.4915,163.9036],[-77.550299999999993,8.4932,334.3355],[-77.5429,8.4991,426.8409],[-77.5286,8.5041,530.0343],[-77.5232,8.5079,524.7653],[-77.5137,8.5094,468.2011],[-77.4882,8.5055,547.5943],[-77.4774,8.5024,582.2094],[-77.4713,8.4985,704.7068],[-77.4599,8.4977,778.0657],[-77.4417,8.4874,758.0751],[-77.4459,8.5012,733.0989]]]]}
,"properties": {"GID_3": "PAN.6.1.2_1","GID_0": "PAN","country": "Panama","GID_1": "PAN.6_1","province": "Emberá","NL_NAME_1": "NA","GID_2": "PAN.6.1_1","county": "Cémaco","NL_NAME_2": "NA","city": "LajasBlancas","VARNAME_3": "NA","NL_NAME_3": "NA","TYPE_3": "Corregimiento","ENGTYPE_3": "Municipality","CC_3": "NA","HASC_3": "NA","name": "Lajas_Blancas.city","area_km2": 1514.357,"hist_schema_id": "Elevation0-9000","hist_area_km2": {"0": 6.545,"25": 159.085,"50": 413.343,"75": 231.229,"100": 91.806,"125": 66.768,"150": 42.931,"175": 28.153,"200": 25.03,"225": 26.371,"250": 28.509,"275": 30.71,"300": 32.743,"325": 33.708,"350": 31.947,"375": 31.025,"400": 26.874,"425": 26.833,"450": 24.338,"475": 21.844,"500": 19.517,"525": 16.666,"550": 15.576,"575": 12.683,"600": 10.691,"625": 11.048,"650": 8.092,"675": 6.813,"700": 5.933,"725": 5.304,"750": 4.067,"775": 3.103,"800": 2.725,"825": 2.306,"850": 2.243,"875": 1.845,"900": 1.677,"925": 1.048,"950": 0.964,"975": 0.65,"1000": 0.545,"1025": 0.419,"1050": 0.273,"1075": 0.084,"1100": 0.126,"1125": 0.147,"1150": 0.021}}}