{"type":"Feature","properties":{"GID_3":"PAN.3.4.4_1","GID_0":"PAN","country":"Panama","GID_1":"PAN.3_1","province":"Coclé","NL_NAME_1":"NA","GID_2":"PAN.3.4_1","county":"Natá","NL_NAME_2":"NA","city":"LasHuacas","VARNAME_3":"NA","NL_NAME_3":"NA","TYPE_3":"Corregimiento","ENGTYPE_3":"Municipality","CC_3":"NA","HASC_3":"NA","name":"Las_Huacas.city"},
"geometry":{"type": "MultiPolygon","coordinates": [[[[-80.6938,8.3788,170.9112],[-80.6862,8.3857,149.9266],[-80.6854,8.3885,142.3654],[-80.6908,8.3906,166.3749],[-80.692,8.3877,145.7394],[-80.6955,8.3866,166.9687],[-80.6975,8.3891,170.743],[-80.6943,8.3923,146.984],[-80.6906,8.3922,186.1929],[-80.6892,8.3986,179.8044],[-80.6831,8.4053,195.1365],[-80.6859,8.4127,245.5439],[-80.6951,8.4178,210.238],[-80.6989,8.4221,235.9527],[-80.7187,8.452,258.5426],[-80.7281,8.4885,532.1605],[-80.729,8.5132,717.9062],[-80.7268,8.5434,1335.6084],[-80.7273,8.5473,1360.7804],[-80.7315,8.5545,1247.7736],[-80.7351,8.557,1289.1346],[-80.7479,8.5537,1291.6965],[-80.7593,8.5566,1148.2529],[-80.7819,8.5497,1522.2678],[-80.79,8.5518,1332.9382],[-80.8057,8.5659,1350.1628],[-80.8116,8.5659,1543.4884],[-80.8214,8.5618,1467.0879],[-80.8229,8.5468,945.4868],[-80.803,8.5318,639.9194],[-80.7931,8.5222,691.9437],[-80.7855,8.5131,666.6365],[-80.7753,8.4964,407.765],[-80.7744,8.4752,430.9919],[-80.7596,8.4649,441.0833],[-80.7448,8.4507,325.1846],[-80.7359,8.4126,193.2811],[-80.7129,8.3876,149.8187],[-80.7104,8.3757,181.0436],[-80.7113,8.366,119.7219],[-80.6987,8.3766,157.6687],[-80.6938,8.3788,170.9112]]]]}}