{"type":"Feature","properties":{"GID_3":"PAN.9.3.8_1","GID_0":"PAN","country":"Panama","GID_1":"PAN.9_1","province":"LosSantos","NL_NAME_1":"NA","GID_2":"PAN.9.3_1","county":"LosSantos","NL_NAME_2":"NA","city":"LlanoLargo","VARNAME_3":"NA","NL_NAME_3":"NA","TYPE_3":"Corregimiento","ENGTYPE_3":"Municipality","CC_3":"NA","HASC_3":"NA","name":"Llano_Largo.city"},
"geometry":{"type": "MultiPolygon","coordinates": [[[[-80.3957,7.9088,74.5059],[-80.4136,7.9192,43.4447],[-80.4175,7.9289,19.854],[-80.428,7.9155,72.8942],[-80.4304,7.9062,57.9082],[-80.4384,7.8995,54.8779],[-80.4391,7.897,64.0357],[-80.4326,7.8907,125.8958],[-80.4204,7.8837,103.7021],[-80.4138,7.8872,84.784],[-80.4059,7.8962,76.3887],[-80.4035,7.9026,81.2622],[-80.3957,7.9088,74.5059]]]]}}