{"type": "Feature","bbox": [-78.5555,8.4249,-78.4563,8.7175],"geometry": {"type": "MultiPolygon","coordinates": [[[[-78.469,8.4424,0.0],[-78.469,8.4421,0.0],[-78.4688,8.4424,0.0],[-78.469,8.4424,0.0]]],
[[[-78.5374,8.5343,4.5771],[-78.5387,8.5346,4.5771],[-78.5393,8.5318,0.0],[-78.5382,8.5299,0.0],[-78.5365,8.5301,0.0],[-78.5374,8.5343,4.5771]]],
[[[-78.544,8.5451,10.5386],[-78.5471,8.5449,17.2372],[-78.5462,8.5421,0.0],[-78.5451,8.5426,0.0],[-78.546,8.5443,17.2372],[-78.544,8.5451,10.5386]]],
[[[-78.5086,8.7089,243.4634],[-78.5073,8.7116,276.6006],[-78.5209,8.7175,151.0415],[-78.5391,8.7171,28.1365],[-78.541,8.7119,20.0269],[-78.5405,8.7047,15.8666],[-78.5477,8.6946,22.6822],[-78.5463,8.6875,3.6007],[-78.5489,8.6847,4.8217],[-78.549,8.6793,21.7792],[-78.5534,8.6733,24.1224],[-78.5555,8.6613,25.2231],[-78.5518,8.6574,7.422],[-78.5415,8.6522,0.0],[-78.5426,8.6446,0.0],[-78.5393,8.6415,0.0],[-78.5379,8.6446,5.7715],[-78.5346,8.6443,11.3239],[-78.5326,8.6421,9.0846],[-78.5304,8.6424,0.0],[-78.5299,8.644,5.5481],[-78.5254,8.644,7.473],[-78.5235,8.6401,0.0],[-78.5201,8.6382,4.2446],[-78.5204,8.6368,4.8628],[-78.5246,8.6396,0.0],[-78.5307,8.6407,0.0],[-78.5237,8.6313,18.1749],[-78.5251,8.6287,0.0],[-78.5207,8.6232,0.0],[-78.521,8.6185,0.0],[-78.5188,8.6179,0.7746],[-78.5165,8.6149,4.4762],[-78.5176,8.6124,11.429],[-78.5196,8.6179,0.7746],[-78.5249,8.6151,0.0],[-78.5235,8.6107,8.5583],[-78.526,8.6093,0.0],[-78.5246,8.6079,0.0],[-78.5243,8.6029,15.0947],[-78.5265,8.6032,0.7991],[-78.5268,8.6013,0.0],[-78.524,8.6001,0.0],[-78.5182,8.6024,16.7211],[-78.5157,8.6007,15.1092],[-78.5174,8.5985,0.0],[-78.516,8.5971,16.4479],[-78.5099,8.5965,1.1025],[-78.5121,8.5921,1.0368],[-78.506,8.5865,0.0],[-78.5043,8.5815,0.0],[-78.5015,8.5807,15.1535],[-78.5057,8.5746,0.8444],[-78.5051,8.569,0.7255],[-78.5021,8.5671,2.1004],[-78.4999,8.5712,0.6192],[-78.4968,8.5712,5.1195],[-78.5007,8.5662,0.0],[-78.4976,8.564,6.611],[-78.4965,8.5607,3.8587],[-78.4943,8.5601,1.6367],[-78.4954,8.556,4.269],[-78.4971,8.5607,3.8587],[-78.5021,8.5651,2.8144],[-78.504,8.5651,0.8597],[-78.5051,8.5607,15.6936],[-78.5065,8.5607,0.6332],[-78.5057,8.5676,0.0],[-78.5088,8.5771,0.9752],[-78.5149,8.5807,0.0],[-78.5151,8.5796,0.8587],[-78.5121,8.5763,0.0],[-78.5151,8.5788,0.8587],[-78.5165,8.5782,27.5289],[-78.5168,8.5826,3.7742],[-78.5229,8.5871,0.0],[-78.529,8.589,0.0],[-78.5354,8.5849,24.1394],[-78.5424,8.5857,0.0],[-78.544,8.5885,10.5058],[-78.5465,8.5871,0.0],[-78.5429,8.5843,11.4075],[-78.5424,8.5776,26.7866],[-78.5374,8.576,23.1044],[-78.5321,8.5693,24.725],[-78.5343,8.5665,0.0],[-78.5307,8.5646,13.2764],[-78.5287,8.5565,0.0],[-78.5324,8.5565,2.0999],[-78.5324,8.5546,14.2881],[-78.5263,8.5507,8.1054],[-78.5224,8.5515,20.0322],[-78.5137,8.5432,1.0371],[-78.5085,8.5424,3.5448],[-78.5082,8.5401,1.0937],[-78.5121,8.5376,17.7981],[-78.5118,8.5337,5.2114],[-78.5154,8.534,7.8753],[-78.5135,8.5318,20.3492],[-78.5149,8.5299,0.0],[-78.5126,8.5271,5.8562],[-78.5037,8.5254,22.5079],[-78.5021,8.521,0.0],[-78.4982,8.5235,0.0],[-78.4957,8.5204,12.6295],[-78.4979,8.5179,0.0],[-78.4968,8.5074,3.2659],[-78.4985,8.5074,0.0],[-78.4993,8.5054,17.0825],[-78.5035,8.5057,0.0],[-78.5024,8.5026,0.0],[-78.5051,8.4979,17.0207],[-78.5035,8.4926,20.0856],[-78.5004,8.4921,20.509],[-78.5015,8.489,12.8567],[-78.5001,8.4882,1.5911],[-78.4996,8.4815,2.9592],[-78.4979,8.4807,2.9592],[-78.4982,8.476,0.0],[-78.5068,8.4746,13.5987],[-78.5085,8.4657,0.0],[-78.5026,8.456,2.2874],[-78.4985,8.4521,5.2469],[-78.4968,8.4471,27.4261],[-78.4899,8.4449,0.0],[-78.4818,8.4379,0.0],[-78.4762,8.4315,13.6856],[-78.474,8.4249,0.5186],[-78.4724,8.426,0.0],[-78.4729,8.429,0.0],[-78.4701,8.4307,0.0],[-78.4701,8.4332,0.0],[-78.4757,8.4351,12.9208],[-78.4757,8.4379,8.114],[-78.4726,8.4476,5.4014],[-78.4692,8.4474,2.0194],[-78.4707,8.4481,2.0194],[-78.4727,8.4556,28.6991],[-78.4675,8.4613,19.4077],[-78.4669,8.4752,27.8094],[-78.4563,8.4915,47.0759],[-78.4608,8.4991,77.0691],[-78.462,8.5169,50.0067],[-78.4771,8.5343,88.4653],[-78.4752,8.5392,119.2534],[-78.4762,8.5481,28.2003],[-78.4844,8.5617,15.6703],[-78.4877,8.5739,45.7864],[-78.487,8.5907,52.7497],[-78.49,8.6005,29.1409],[-78.4801,8.606,47.224],[-78.4761,8.6106,50.1078],[-78.4737,8.6287,69.3668],[-78.475,8.6351,145.256],[-78.4726,8.6415,185.8101],[-78.4776,8.6469,134.2587],[-78.482,8.6553,110.0488],[-78.4916,8.6579,120.6935],[-78.4959,8.6618,146.4887],[-78.497,8.6795,216.2946],[-78.5005,8.6823,127.9103],[-78.5067,8.6839,79.0031],[-78.5121,8.6927,138.7286],[-78.5122,8.7013,222.455],[-78.5086,8.7089,243.4634]]]]}
,"properties": {"GID_3": "PAN.12.3.1_1","GID_0": "PAN","country": "Panama","GID_1": "PAN.12_1","province": "Panamá","NL_NAME_1": "NA","GID_2": "PAN.12.3_1","county": "Chimán","NL_NAME_2": "NA","city": "Brujas","VARNAME_3": "NA","NL_NAME_3": "NA","TYPE_3": "Corregimiento","ENGTYPE_3": "Municipality","CC_3": "NA","HASC_3": "NA","name": "Brujas.city","area_km2": 141.1966,"hist_schema_id": "Elevation0-9000","hist_area_km2": {"0": 22.474,"25": 63.2917,"50": 25.3474,"75": 11.7611,"100": 7.0859,"125": 5.2204,"150": 2.6415,"175": 1.2578,"200": 0.6498,"225": 0.5659,"250": 0.8174,"275": 0.0838}}}