{"type":"Feature","properties":{"GID_3":"PAN.9.7.3_1","GID_0":"PAN","country":"Panama","GID_1":"PAN.9_1","province":"LosSantos","NL_NAME_1":"NA","GID_2":"PAN.9.7_1","county":"Tonosí","NL_NAME_2":"NA","city":"Cañas","VARNAME_3":"NA","NL_NAME_3":"NA","TYPE_3":"Corregimiento","ENGTYPE_3":"Municipality","CC_3":"NA","HASC_3":"NA","name":"Cañas.city"},
"geometry":{"type": "MultiPolygon","coordinates": [[[[-80.3458,7.4721,115.82],[-80.343,7.468,72.6123],[-80.3427,7.462,37.3273],[-80.3502,7.4536,18.9142],[-80.3522,7.4485,18.8593],[-80.3501,7.4427,13.4729],[-80.3439,7.4358,7.9115],[-80.349,7.4282,12.356],[-80.3465,7.4262,7.9272],[-80.335,7.4242,9.9109],[-80.3338,7.4213,7.947],[-80.3389,7.4158,11.8112],[-80.3446,7.415,10.9847],[-80.3552,7.4082,16.5129],[-80.3554,7.406,13.7993],[-80.3518,7.4025,5.6539],[-80.3504,7.3974,6.022],[-80.3551,7.3915,14.0489],[-80.3601,7.3904,3.0],[-80.3585,7.3807,2.0],[-80.3646,7.3643,0.0],[-80.3474,7.3857,2.7215],[-80.339,7.3926,2.5823],[-80.3326,7.3957,3.4181],[-80.3226,7.4051,0.0],[-80.2968,7.4168,2.9951],[-80.2649,7.4224,1.6068],[-80.2601,7.426,1.3185],[-80.2626,7.4279,2.0061],[-80.2746,7.4274,0.5],[-80.286,7.4235,1.9101],[-80.2943,7.4185,1.6823],[-80.3024,7.4201,3.1374],[-80.3154,7.4162,5.4284],[-80.3171,7.4171,14.1814],[-80.3076,7.421,6.1631],[-80.2982,7.4221,6.1153],[-80.2901,7.4265,5.5717],[-80.2907,7.4282,7.3269],[-80.2887,7.4279,0.5],[-80.2874,7.4299,1.2183],[-80.2815,7.4301,0.5],[-80.2807,7.4332,1.8605],[-80.2726,7.4349,0.5],[-80.269,7.434,5.9066],[-80.2657,7.4307,1.7331],[-80.2643,7.434,6.2033],[-80.261,7.436,8.9415],[-80.2404,7.424,5.3767],[-80.2301,7.4249,0.0],[-80.2308,7.4264,6.937],[-80.2058,7.4517,118.0981],[-80.2498,7.4747,123.6107],[-80.2573,7.4802,80.7013],[-80.2563,7.4834,132.7155],[-80.2594,7.489,163.4086],[-80.2557,7.4942,225.336],[-80.2554,7.5005,248.2998],[-80.2605,7.5071,323.5701],[-80.2672,7.5097,315.1441],[-80.2721,7.5137,382.8047],[-80.3208,7.5105,379.7516],[-80.3403,7.4831,164.5139],[-80.3458,7.4721,115.82]]]]}}