{"type": "Feature","bbox": [-79.6949,8.9051,-79.5149,9.2238],"geometry": {"type": "MultiPolygon","coordinates": [[[[-79.5215,8.9063,0.0],[-79.5215,8.9051,0.0],[-79.5149,8.9051,0.0],[-79.5149,8.9113,0.0],[-79.5215,8.9101,13.8395],[-79.5229,8.9074,0.0],[-79.5215,8.9063,0.0]]],
[[[-79.5224,8.916,0.0],[-79.5263,8.9154,4.692],[-79.5249,8.9126,0.0],[-79.5218,8.9146,0.0],[-79.5224,8.916,0.0]]],
[[[-79.534,8.9179,1.6179],[-79.5354,8.9179,0.0],[-79.534,8.9143,1.5032],[-79.5296,8.9135,1.8434],[-79.5299,8.916,0.0],[-79.534,8.9179,1.6179]]],
[[[-79.6199,9.2032,64.6334],[-79.6219,9.2024,42.3133],[-79.6214,9.1987,62.544],[-79.6116,9.1861,54.8902],[-79.6039,9.1862,65.3803],[-79.593,9.1814,66.8086],[-79.5844,9.181,85.3489],[-79.5814,9.1829,90.2033],[-79.5817,9.1899,89.3147],[-79.5824,9.1874,72.5],[-79.586,9.189,72.5],[-79.5821,9.191,75.5265],[-79.5832,9.1954,74.7075],[-79.5863,9.1938,81.7831],[-79.586,9.1915,83.0893],[-79.5879,9.1924,74.8081],[-79.5899,9.191,83.3059],[-79.5851,9.1962,72.5],[-79.5846,9.2015,72.5],[-79.5876,9.1996,81.2842],[-79.589,9.2024,72.5],[-79.5896,9.1999,79.1761],[-79.5924,9.1999,91.8504],[-79.5888,9.2057,72.5],[-79.5921,9.2068,78.0577],[-79.5912,9.2104,83.6034],[-79.5949,9.2151,94.7998],[-79.6026,9.2174,72.5],[-79.6062,9.2204,98.9437],[-79.6101,9.2199,87.442],[-79.6143,9.2229,72.5],[-79.6154,9.2201,72.5],[-79.611,9.2174,86.5461],[-79.6107,9.2107,75.1449],[-79.6085,9.2126,93.102],[-79.6054,9.2068,84.8989],[-79.6115,9.2038,72.5],[-79.6137,9.2049,72.5],[-79.6151,9.2029,81.8104],[-79.6154,9.2104,72.7408],[-79.6168,9.2107,53.625],[-79.6193,9.2079,37.7126],[-79.6199,9.2032,64.6334]]],
[[[-79.6772,9.1406,26.87],[-79.6799,9.1365,25.7004],[-79.6826,9.1354,25.0],[-79.6799,9.134,25.5164],[-79.6779,9.1362,25.5],[-79.6762,9.1332,26.238],[-79.6793,9.1307,25.4806],[-79.6868,9.129,25.0],[-79.6846,9.1246,26.0141],[-79.6818,9.1243,32.8886],[-79.6857,9.1207,25.0],[-79.6821,9.1188,33.5703],[-79.6829,9.1157,85.5697],[-79.6885,9.1143,26.3095],[-79.6876,9.1126,30.1942],[-79.6926,9.1138,25.0],[-79.6949,9.1112,26.3122],[-79.6901,9.1085,32.2195],[-79.6932,9.1037,48.0252],[-79.6807,9.0864,25.0],[-79.672,9.067,40.7528],[-79.6551,9.053,25.0],[-79.6451,9.0382,38.9884],[-79.6122,9.0182,25.5268],[-79.608,9.0143,16.625],[-79.6046,9.0062,16.5238],[-79.5801,8.9939,16.4911],[-79.5755,8.9857,8.8031],[-79.5753,8.9802,9.079],[-79.5776,8.9757,5.8877],[-79.5746,8.9674,0.5],[-79.5738,8.9654,0.5],[-79.5707,8.9649,0.5],[-79.5665,8.961,8.0211],[-79.5657,8.956,4.2796],[-79.5676,8.9549,2.6643],[-79.5679,8.9474,0.0],[-79.5632,8.9449,2.2536],[-79.5632,8.9426,0.0],[-79.5604,8.9432,0.0],[-79.5568,8.9412,9.7433],[-79.5437,8.9304,0.0],[-79.5429,8.9326,0.0],[-79.5446,8.9343,0.9026],[-79.5454,8.9429,2.9698],[-79.549,8.9426,4.2628],[-79.5529,8.9449,5.6844],[-79.5474,8.9457,3.3572],[-79.5465,8.9482,5.7641],[-79.5429,8.9487,1.442],[-79.5394,8.9573,12.5746],[-79.5391,8.9729,11.8504],[-79.5347,8.9792,50.6776],[-79.5355,9.0153,64.6115],[-79.5312,9.0211,61.2588],[-79.5206,9.026,53.0401],[-79.5193,9.0366,37.4135],[-79.5425,9.0583,155.804],[-79.5625,9.071,202.4122],[-79.5828,9.0879,169.881],[-79.6119,9.1173,129.3324],[-79.6221,9.1327,58.2858],[-79.6274,9.1442,47.3454],[-79.6346,9.1505,47.3017],[-79.6396,9.1576,64.6967],[-79.6449,9.16,107.8367],[-79.6511,9.166,48.452],[-79.6516,9.1772,34.5764],[-79.6543,9.1837,30.1885],[-79.6507,9.1875,30.2986],[-79.6532,9.1926,28.561],[-79.6588,9.1812,35.6297],[-79.6561,9.1778,27.796],[-79.6587,9.1737,46.369],[-79.6584,9.1587,29.4374],[-79.6609,9.155,42.9284],[-79.672,9.1522,28.0368],[-79.6772,9.1451,47.1751],[-79.6772,9.1406,26.87]]],
[[[-79.6865,9.1226,25.0],[-79.6854,9.1235,25.0],[-79.6874,9.1276,25.0],[-79.6876,9.1243,25.0],[-79.6865,9.1226,25.0]]],
[[[-79.6843,9.1321,25.0],[-79.6818,9.1321,25.0],[-79.6818,9.1329,25.0],[-79.6846,9.1332,25.0],[-79.6843,9.1321,25.0]]],
[[[-79.6057,9.2238,72.5],[-79.6062,9.221,73.4884],[-79.604,9.2199,75.3477],[-79.604,9.2235,73.4016],[-79.6057,9.2238,72.5]]]]}
,"properties": {"GID_3": "PAN.12.6.1_1","GID_0": "PAN","country": "Panama","GID_1": "PAN.12_1","province": "Panamá","NL_NAME_1": "NA","GID_2": "PAN.12.6_1","county": "Panamá","NL_NAME_2": "NA","city": "Ancón","VARNAME_3": "NA","NL_NAME_3": "NA","TYPE_3": "Corregimiento","ENGTYPE_3": "Municipality","CC_3": "NA","HASC_3": "NA","name": "Ancón.city","area_km2": 209.5821,"hist_schema_id": "Elevation0-9000","hist_area_km2": {"0": 10.3041,"25": 28.2683,"50": 29.6908,"75": 38.607,"100": 31.0697,"125": 23.0717,"150": 19.0097,"175": 15.2829,"200": 8.3532,"225": 4.3755,"250": 1.298,"275": 0.1884,"300": 0.0628}}}