{"type": "Feature","bbox": [-81.3773,8.0342,-81.2397,8.1657],"geometry": {"type": "MultiPolygon","coordinates": [[[[-81.3548,8.1611,96.9736],[-81.362,8.149,67.5681],[-81.3639,8.1428,44.6129],[-81.3711,8.1394,61.0547],[-81.3754,8.1299,74.679],[-81.371,8.1278,48.1837],[-81.3679,8.1226,43.7469],[-81.3691,8.1197,51.2539],[-81.3731,8.1176,95.9302],[-81.373,8.1094,38.3771],[-81.3773,8.0991,36.3002],[-81.377,8.0875,63.3682],[-81.3581,8.0903,75.3876],[-81.3466,8.0887,78.209],[-81.3433,8.0844,91.4849],[-81.3423,8.0766,36.7214],[-81.3381,8.0727,78.3145],[-81.3172,8.0712,46.9071],[-81.3067,8.0659,48.7434],[-81.2964,8.0473,134.8498],[-81.2918,8.0342,16.659],[-81.28,8.0394,10.8264],[-81.2732,8.0452,52.5483],[-81.2644,8.0577,19.3548],[-81.253,8.0781,20.1406],[-81.2462,8.0941,30.6782],[-81.2397,8.1013,82.2485],[-81.2462,8.1219,74.2589],[-81.2505,8.1468,133.0678],[-81.2585,8.1539,66.8194],[-81.2993,8.1517,85.3379],[-81.3225,8.1623,166.5832],[-81.3334,8.1657,181.1228],[-81.3397,8.1656,143.4155],[-81.3548,8.1611,96.9736]]]]}
,"properties": {"GID_3": "PAN.13.11.9_1","GID_0": "PAN","country": "Panama","GID_1": "PAN.13_1","province": "Veraguas","NL_NAME_1": "NA","GID_2": "PAN.13.11_1","county": "Soná","NL_NAME_2": "NA","city": "RodeoViejo","VARNAME_3": "NA","NL_NAME_3": "NA","TYPE_3": "Corregimiento","ENGTYPE_3": "Municipality","CC_3": "NA","HASC_3": "NA","name": "Rodeo_Viejo.city","area_km2": 136.856,"hist_schema_id": "Elevation0-9000","hist_area_km2": {"0": 0.2729,"25": 12.0279,"50": 32.2196,"75": 29.9736,"100": 21.6408,"125": 14.8401,"150": 11.0827,"175": 6.36,"200": 3.6313,"225": 1.8262,"250": 1.0916,"275": 0.6088,"300": 0.2099,"325": 0.3569,"350": 0.2939,"375": 0.1889,"400": 0.063,"425": 0.042,"450": 0.105,"475": 0.021}}}