{"type": "Feature","bbox": [-79.6647,9.2457,-79.5327,9.4853],"geometry": {"type": "MultiPolygon","coordinates": [[[[-79.5576,9.3588,72.5],[-79.5575,9.3588,72.5],[-79.5576,9.3592,72.5],[-79.5576,9.3588,72.5]]],
[[[-79.6487,9.2866,160.7722],[-79.6512,9.2837,130.776],[-79.6403,9.2766,85.2618],[-79.6374,9.2678,56.4095],[-79.6249,9.2632,172.824],[-79.6167,9.2631,149.9973],[-79.6135,9.261,139.0691],[-79.608,9.2521,87.7234],[-79.6076,9.2471,74.6776],[-79.5971,9.2463,73.5664],[-79.5965,9.2479,86.5696],[-79.594,9.2457,72.5],[-79.5932,9.2485,72.5],[-79.5868,9.2535,80.5415],[-79.5871,9.2554,95.112],[-79.5896,9.2546,78.6714],[-79.5882,9.261,72.5],[-79.5901,9.2618,90.9757],[-79.6004,9.2546,80.871],[-79.6007,9.2529,80.2759],[-79.5985,9.2518,82.8006],[-79.599,9.2501,88.7825],[-79.6018,9.2524,72.5],[-79.6074,9.2515,77.227],[-79.606,9.2537,74.61],[-79.6024,9.254,72.5],[-79.6029,9.2554,89.4576],[-79.6004,9.2571,72.5],[-79.6021,9.2651,72.5],[-79.6004,9.2676,90.7463],[-79.5985,9.259,86.3034],[-79.5929,9.2629,72.5],[-79.5921,9.2732,72.5],[-79.5963,9.271,85.3867],[-79.596,9.2738,88.5536],[-79.5943,9.2774,80.5054],[-79.5918,9.2779,72.5],[-79.5935,9.2821,79.5203],[-79.5915,9.2871,84.8421],[-79.5893,9.2885,72.5],[-79.5871,9.2979,121.1635],[-79.5846,9.3004,72.5],[-79.5857,9.3026,72.5],[-79.5807,9.3049,77.2491],[-79.5821,9.3068,75.3638],[-79.5843,9.3068,91.7639],[-79.5832,9.3104,72.5],[-79.584,9.316,72.5],[-79.5818,9.3168,72.5],[-79.5824,9.3199,99.0622],[-79.5801,9.3215,72.5],[-79.5824,9.3304,81.9748],[-79.5874,9.3301,85.9029],[-79.5874,9.3321,77.9439],[-79.5907,9.3324,75.9517],[-79.5926,9.334,77.097],[-79.5926,9.3376,79.1916],[-79.5862,9.3315,72.5],[-79.5824,9.3335,72.5],[-79.5807,9.3282,72.5],[-79.5771,9.3237,72.5],[-79.5738,9.3262,72.5],[-79.5724,9.3299,74.4845],[-79.5735,9.3313,72.5],[-79.5693,9.3332,73.7131],[-79.5618,9.3457,115.0816],[-79.5599,9.3449,72.5],[-79.5563,9.3468,74.7389],[-79.5593,9.3588,72.5],[-79.5585,9.3613,75.8773],[-79.5668,9.37,95.7385],[-79.5669,9.3769,117.9131],[-79.5595,9.387,151.3332],[-79.5595,9.3918,187.7932],[-79.5571,9.3976,148.7648],[-79.5529,9.401,200.9968],[-79.5552,9.4048,193.1458],[-79.5536,9.4068,140.6281],[-79.5534,9.4122,177.6344],[-79.5423,9.4226,173.3202],[-79.5434,9.4368,178.6876],[-79.5361,9.4496,181.1832],[-79.5358,9.4658,194.8115],[-79.5327,9.4716,307.5019],[-79.5344,9.4753,220.861],[-79.5406,9.4748,229.7413],[-79.5621,9.4853,950.1628],[-79.5827,9.4729,898.7327],[-79.5923,9.4745,761.2826],[-79.5951,9.4736,707.9832],[-79.6062,9.4609,753.8988],[-79.6156,9.4536,650.9511],[-79.639,9.4526,596.9886],[-79.6489,9.4548,565.9539],[-79.652,9.4526,613.262],[-79.6523,9.447,585.4356],[-79.6485,9.4397,574.5741],[-79.6563,9.4318,489.81],[-79.658,9.4277,556.3453],[-79.6577,9.3811,309.8405],[-79.6599,9.3743,257.7472],[-79.6647,9.367,186.2897],[-79.6347,9.3541,377.6236],[-79.6323,9.3513,430.9671],[-79.6426,9.3367,466.4876],[-79.6398,9.3268,140.6807],[-79.6396,9.3173,76.9466],[-79.6409,9.3096,68.388],[-79.6467,9.3014,159.809],[-79.6459,9.2922,159.3466],[-79.6487,9.2866,160.7722]]]]}
,"properties": {"GID_3": "PAN.4.2.12_1","GID_0": "PAN","country": "Panama","GID_1": "PAN.4_1","province": "Colón","NL_NAME_1": "NA","GID_2": "PAN.4.2_1","county": "Colón","NL_NAME_2": "NA","city": "Salamanca","VARNAME_3": "NA","NL_NAME_3": "NA","TYPE_3": "Corregimiento","ENGTYPE_3": "Municipality","CC_3": "NA","HASC_3": "NA","name": "Salamanca.city","area_km2": 215.2323,"hist_schema_id": "Elevation0-9000","hist_area_km2": {"50": 1.1718,"75": 14.2698,"100": 15.3784,"125": 9.4359,"150": 9.289,"175": 9.8117,"200": 11.6941,"225": 12.3214,"250": 11.4635,"275": 10.5012,"300": 10.7101,"325": 9.6851,"350": 8.5344,"375": 7.8231,"400": 7.6557,"425": 6.7144,"450": 5.2711,"475": 4.5598,"500": 4.4133,"525": 4.225,"550": 4.2251,"575": 4.0577,"600": 4.5387,"625": 4.2668,"650": 4.1621,"675": 3.4719,"700": 3.0536,"725": 2.5516,"750": 2.4261,"775": 2.0287,"800": 2.0705,"825": 1.1293,"850": 0.8365,"875": 0.4183,"900": 0.2928,"925": 0.2719,"950": 0.4392,"975": 0.0627}}}