{"type":"Feature","properties":{"GID_3":"PAN.11.1.5_1","GID_0":"PAN","country":"Panama","GID_1":"PAN.11_1","province":"PanamáOeste","NL_NAME_1":"NA","GID_2":"PAN.11.1_1","county":"Arraiján","NL_NAME_2":"NA","city":"Veracruz","VARNAME_3":"NA","NL_NAME_3":"NA","TYPE_3":"Corregimiento","ENGTYPE_3":"Municipality","CC_3":"NA","HASC_3":"NA","name":"Veracruz.city"},
"geometry":{"type": "MultiPolygon","coordinates": [[[[-79.564,8.8607,8.8302],[-79.5657,8.8601,0.0],[-79.5651,8.8587,0.0],[-79.5638,8.8601,0.0],[-79.564,8.8607,8.8302]]],
[[[-79.5929,8.8785,6.6544],[-79.5943,8.8788,0.0],[-79.5943,8.8757,0.0],[-79.5926,8.8768,0.0],[-79.5929,8.8785,6.6544]]],
[[[-79.6482,8.8831,29.6811],[-79.6454,8.8813,0.0],[-79.6457,8.8851,0.0],[-79.6382,8.886,4.0602],[-79.634,8.8843,0.0],[-79.631,8.8854,0.0],[-79.6299,8.8838,0.0],[-79.6296,8.8854,0.0],[-79.624,8.8854,0.0],[-79.6254,8.8871,6.3871],[-79.6193,8.8874,0.0],[-79.6162,8.8924,4.8448],[-79.606,8.8943,5.7659],[-79.5937,8.8932,14.772],[-79.5929,8.8907,7.8745],[-79.5871,8.8904,0.0],[-79.5815,8.8871,3.3903],[-79.581,8.8885,3.3903],[-79.5835,8.8912,0.0],[-79.5826,8.896,23.5821],[-79.579,8.8982,3.4655],[-79.5721,8.8965,0.0],[-79.5663,8.9001,0.0],[-79.5629,8.9068,0.0],[-79.5593,8.9229,0.0],[-79.5674,8.929,0.0],[-79.5682,8.9313,0.0],[-79.5671,8.9365,0.0],[-79.5643,8.9399,0.0],[-79.566,8.9429,0.0],[-79.5718,8.9421,0.0],[-79.574,8.9437,8.3765],[-79.5726,8.9454,0.0],[-79.574,8.9479,3.967],[-79.5718,8.9513,0.0],[-79.5718,8.9546,0.5],[-79.5735,8.9551,0.5],[-79.571,8.9546,0.5],[-79.5713,8.9568,0.5],[-79.5765,8.9624,0.5],[-79.5776,8.9668,0.5],[-79.5801,8.9693,0.5],[-79.5952,8.9572,33.7454],[-79.617,8.9543,54.1705],[-79.619,8.9493,79.6028],[-79.616,8.9373,217.6702],[-79.6196,8.9294,229.8497],[-79.6407,8.9219,114.5455],[-79.6526,8.9148,63.423],[-79.6522,8.9085,135.2348],[-79.6451,8.9002,213.0997],[-79.6499,8.8885,32.5713],[-79.6482,8.8831,29.6811]]]]}}