{"type": "Feature","bbox": [-80.6648,7.7318,-80.5836,7.8249],"geometry": {"type": "MultiPolygon","coordinates": [[[[-80.5892,7.7593,86.6912],[-80.5921,7.7665,87.8338],[-80.5892,7.7708,70.1217],[-80.5925,7.7739,71.8462],[-80.5928,7.7802,147.391],[-80.5836,7.7876,80.9252],[-80.5968,7.7858,146.0123],[-80.6122,7.7936,120.2538],[-80.6181,7.8001,142.9515],[-80.627,7.8012,156.4988],[-80.6443,7.8069,193.2068],[-80.6608,7.8249,144.2076],[-80.6622,7.8198,173.5477],[-80.6648,7.8198,215.7204],[-80.6635,7.8132,162.3829],[-80.6643,7.8091,159.2136],[-80.6622,7.8061,201.3511],[-80.6616,7.8009,246.942],[-80.6496,7.7993,251.5055],[-80.6479,7.7952,242.9011],[-80.6367,7.7919,299.0443],[-80.6349,7.7827,305.9649],[-80.6313,7.7793,268.1305],[-80.634,7.7648,279.3696],[-80.6293,7.7613,303.3453],[-80.6293,7.7578,281.2572],[-80.6263,7.7545,249.2238],[-80.6302,7.7521,254.41],[-80.6339,7.7469,270.5818],[-80.6355,7.7412,251.5546],[-80.6347,7.739,218.7067],[-80.6283,7.7372,191.1588],[-80.6262,7.7323,203.8191],[-80.6207,7.7318,256.9621],[-80.612,7.7398,295.7576],[-80.596,7.7443,124.9583],[-80.5892,7.7593,86.6912]]]]}
,"properties": {"GID_3": "PAN.7.3.6_1","GID_0": "PAN","country": "Panama","GID_1": "PAN.7_1","province": "Herrera","NL_NAME_1": "NA","GID_2": "PAN.7.3_1","county": "LosPozos","NL_NAME_2": "NA","city": "LosCerritos","VARNAME_3": "NA","NL_NAME_3": "NA","TYPE_3": "Corregimiento","ENGTYPE_3": "Municipality","CC_3": "NA","HASC_3": "NA","name": "Los_Cerritos.city","area_km2": 34.07391,"hist_schema_id": "Elevation0-9000","hist_area_km2": {"50": 0.08403,"75": 0.67224,"100": 2.41587,"125": 3.17207,"150": 3.61321,"175": 4.47454,"200": 4.91575,"225": 4.91567,"250": 4.13841,"275": 3.13018,"300": 1.76467,"325": 0.75627,"350": 0.02101}}}