{"type": "Feature","bbox": [-79.6949,8.9051,-79.1283,9.5233],"geometry": {"type": "MultiPolygon","coordinates": [[[[-79.5212,8.9065,0.0],[-79.5215,8.9051,0.0],[-79.5149,8.9051,0.0],[-79.5149,8.9113,0.0],[-79.5215,8.9101,13.8395],[-79.5229,8.9074,0.0],[-79.5212,8.9065,0.0]]],
[[[-79.5218,8.9154,0.0],[-79.5237,8.9165,15.0766],[-79.5263,8.9146,4.692],[-79.524,8.9126,2.6327],[-79.5218,8.9154,0.0]]],
[[[-79.5329,8.9176,1.6179],[-79.5354,8.9179,0.0],[-79.5343,8.9146,1.5032],[-79.5296,8.9135,1.8434],[-79.5296,8.9157,0.0],[-79.5329,8.9176,1.6179]]],
[[[-79.5332,8.9546,2.0575],[-79.5357,8.9554,7.2099],[-79.5371,8.9596,6.5225],[-79.5329,8.9671,9.6158],[-79.5287,8.9712,5.4784],[-79.5276,8.9693,3.4815],[-79.5254,8.9701,2.0644],[-79.5268,8.9732,3.5992],[-79.5249,8.9757,10.7982],[-79.5188,8.9751,2.7774],[-79.5176,8.969,1.4158],[-79.5118,8.9738,3.1181],[-79.5065,8.9749,0.0],[-79.506,8.9762,0.0],[-79.509,8.9776,13.3402],[-79.5079,8.9804,0.7022],[-79.4976,8.9876,0.0],[-79.491,8.9968,0.0],[-79.4946,8.999,0.0],[-79.4946,9.0021,4.2126],[-79.4921,9.0043,6.7075],[-79.4857,9.0037,0.0],[-79.4851,9.0021,0.0],[-79.4796,9.0068,0.0],[-79.4699,9.009,2.5295],[-79.4629,9.0085,4.2989],[-79.4551,9.0115,5.0323],[-79.4532,9.0107,11.8008],[-79.4529,9.0118,11.8008],[-79.4451,9.0126,13.0611],[-79.4371,9.0182,5.732],[-79.4324,9.0126,3.3212],[-79.4313,9.0149,11.3218],[-79.4076,9.0163,2.0145],[-79.406,9.0179,2.2164],[-79.4007,9.016,0.0],[-79.4015,9.0199,15.7082],[-79.3993,9.024,14.4214],[-79.3926,9.019,10.3539],[-79.3935,9.0165,0.0],[-79.3901,9.0165,0.0],[-79.3782,9.0204,3.5101],[-79.3587,9.0218,4.9128],[-79.3546,9.026,6.979],[-79.3479,9.0229,7.8999],[-79.2901,9.024,0.0],[-79.2885,9.0257,5.6195],[-79.2671,9.0224,5.8818],[-79.2668,9.0193,0.0],[-79.2624,9.019,0.0],[-79.2593,9.0157,0.0],[-79.2549,9.016,0.0],[-79.2543,9.0182,0.0],[-79.2474,9.0171,0.0],[-79.2468,9.0185,0.0],[-79.244,9.0185,0.0],[-79.2049,9.014,6.8499],[-79.2038,9.0124,0.0],[-79.1937,9.0121,0.0],[-79.1929,9.0104,0.0],[-79.1896,9.0096,0.0],[-79.189,9.011,0.0],[-79.1918,9.0135,0.0],[-79.1779,9.0113,0.0],[-79.1774,9.0151,0.2209],[-79.1729,9.0157,0.0],[-79.1743,9.0274,18.2887],[-79.1726,9.0201,2.7306],[-79.1674,9.0168,3.8399],[-79.1687,9.0154,2.4045],[-79.1704,9.0163,1.3571],[-79.1687,9.0129,0.0],[-79.1582,9.0118,0.0],[-79.1579,9.0121,4.5236],[-79.1645,9.0147,11.4483],[-79.1673,9.0206,26.6756],[-79.1617,9.0214,31.242],[-79.1592,9.0201,26.8327],[-79.1576,9.0212,34.0504],[-79.153,9.0308,26.7491],[-79.1541,9.0416,30.4922],[-79.1514,9.0425,29.8763],[-79.1396,9.0393,31.5504],[-79.1394,9.0353,27.8804],[-79.1441,9.0325,23.7388],[-79.1432,9.029,23.6109],[-79.1405,9.0279,24.6619],[-79.1338,9.0346,30.7621],[-79.1367,9.0401,32.9775],[-79.136,9.0452,29.1237],[-79.1283,9.0518,30.6032],[-79.129,9.0545,28.9935],[-79.1365,9.06,26.3266],[-79.139,9.0729,12.1795],[-79.1451,9.0861,7.4852],[-79.1472,9.0988,8.7602],[-79.1514,9.1037,11.3755],[-79.161,9.1081,10.462],[-79.1752,9.1034,11.113],[-79.1938,9.1089,18.2379],[-79.2095,9.123,27.4683],[-79.23,9.1268,35.1178],[-79.2436,9.1383,49.9151],[-79.2472,9.1536,46.4053],[-79.2523,9.1632,60.203],[-79.2532,9.1729,82.6484],[-79.2499,9.1821,70.3005],[-79.2434,9.191,88.9024],[-79.2398,9.2026,104.7429],[-79.2337,9.2088,95.403],[-79.2251,9.2116,113.2605],[-79.2116,9.2208,129.1265],[-79.2073,9.2274,177.6278],[-79.2011,9.2312,292.9598],[-79.1886,9.2368,390.1831],[-79.1759,9.2378,284.1954],[-79.1935,9.2551,397.3195],[-79.1981,9.2578,472.1183],[-79.2183,9.2645,412.0629],[-79.2274,9.256,409.0289],[-79.2425,9.2581,405.2877],[-79.2516,9.2641,500.2256],[-79.2815,9.2734,554.6633],[-79.2869,9.2786,585.6793],[-79.2915,9.2867,499.2932],[-79.2968,9.3122,679.4798],[-79.2907,9.3168,816.1455],[-79.2828,9.3175,799.0682],[-79.2814,9.3229,869.5341],[-79.2775,9.3275,818.3044],[-79.2722,9.3292,838.9773],[-79.2705,9.335,829.3729],[-79.2537,9.3407,654.8481],[-79.2511,9.3447,643.0848],[-79.2594,9.3513,644.2726],[-79.2651,9.361,513.3405],[-79.2577,9.3754,521.9051],[-79.2536,9.3965,449.2772],[-79.2553,9.3986,404.4169],[-79.2586,9.3986,440.706],[-79.2756,9.3918,549.3967],[-79.2763,9.3934,533.0423],[-79.2711,9.4096,456.0892],[-79.2615,9.4245,643.058],[-79.2636,9.4326,436.4412],[-79.2685,9.4361,407.4147],[-79.2704,9.4403,344.1578],[-79.2724,9.4377,396.4734],[-79.2794,9.4367,368.9288],[-79.2815,9.4347,283.1515],[-79.2849,9.4351,380.2389],[-79.2982,9.4497,257.95],[-79.3059,9.4541,499.4273],[-79.3096,9.4545,389.812],[-79.3164,9.4526,409.1338],[-79.3203,9.4486,460.2856],[-79.3268,9.4469,439.8297],[-79.3295,9.4411,613.9231],[-79.3361,9.434,535.6339],[-79.3447,9.4302,275.8085],[-79.3492,9.4299,269.7012],[-79.3519,9.4314,234.1936],[-79.3544,9.4339,283.0375],[-79.3549,9.4403,169.2655],[-79.3621,9.444,144.6672],[-79.3733,9.4385,132.2363],[-79.3793,9.4295,270.8068],[-79.4055,9.4219,515.7794],[-79.4058,9.4201,508.3386],[-79.4132,9.4214,406.5417],[-79.4135,9.4244,358.7672],[-79.4112,9.4284,375.2559],[-79.4042,9.4281,444.6986],[-79.4003,9.4318,381.539],[-79.3911,9.4327,387.8729],[-79.3838,9.4397,221.0152],[-79.3798,9.4408,196.2645],[-79.3795,9.4424,235.0976],[-79.3809,9.444,238.2364],[-79.3797,9.4505,389.8751],[-79.3808,9.455,297.468],[-79.3774,9.4726,111.1278],[-79.3828,9.4803,191.2285],[-79.3941,9.4865,347.0168],[-79.3954,9.4891,374.5911],[-79.3867,9.501,190.5215],[-79.3757,9.5072,140.4398],[-79.3873,9.5084,138.1158],[-79.4038,9.5187,201.9868],[-79.4084,9.5158,214.1012],[-79.418,9.5146,180.5342],[-79.4186,9.5064,248.313],[-79.4199,9.5041,426.1522],[-79.4228,9.5035,424.6428],[-79.4374,9.5086,237.9456],[-79.4527,9.5233,85.0166],[-79.4662,9.5094,83.9546],[-79.4741,9.4949,155.5947],[-79.4827,9.4887,180.9433],[-79.4876,9.4882,201.2947],[-79.4909,9.4911,174.4851],[-79.5067,9.4908,341.7767],[-79.5111,9.4855,250.0122],[-79.5164,9.4862,251.8427],[-79.5222,9.4824,251.1754],[-79.5303,9.4816,289.7939],[-79.5333,9.4799,218.5102],[-79.5344,9.4753,220.861],[-79.5327,9.4716,307.5019],[-79.5358,9.4658,194.8115],[-79.5361,9.4496,181.1832],[-79.5434,9.4368,178.6876],[-79.5423,9.4226,173.3202],[-79.5534,9.4122,177.6344],[-79.5536,9.4068,140.6281],[-79.5552,9.4048,193.1458],[-79.5529,9.401,200.9968],[-79.5571,9.3976,148.7648],[-79.5595,9.3918,187.7932],[-79.5595,9.387,151.3332],[-79.5671,9.3756,117.9131],[-79.5664,9.3691,95.7385],[-79.5585,9.3613,75.8773],[-79.5563,9.3612,82.4033],[-79.5576,9.3592,72.5],[-79.5551,9.3549,74.4399],[-79.549,9.3557,97.6925],[-79.5504,9.354,79.9187],[-79.5493,9.3512,77.0915],[-79.5524,9.3446,72.5],[-79.5535,9.3374,80.3967],[-79.5576,9.3388,72.5],[-79.561,9.3349,74.172],[-79.561,9.3318,85.6725],[-79.5685,9.3254,72.5],[-79.5682,9.3226,72.5],[-79.5721,9.3196,72.5],[-79.5721,9.3157,72.5],[-79.5779,9.3096,106.864],[-79.581,9.3085,72.5],[-79.5796,9.3035,109.8143],[-79.5832,9.3015,79.2677],[-79.5788,9.2985,72.5],[-79.5751,9.3007,86.0838],[-79.5762,9.2965,86.2445],[-79.5807,9.296,72.5],[-79.5815,9.2935,73.9386],[-79.5796,9.2918,83.2269],[-79.5824,9.2907,72.5],[-79.581,9.2896,75.4421],[-79.5815,9.2865,75.5611],[-79.5785,9.2849,72.5],[-79.5788,9.2832,72.5],[-79.5757,9.2799,85.709],[-79.5754,9.2771,76.0082],[-79.5782,9.2746,72.5],[-79.579,9.2699,72.5],[-79.5762,9.2693,76.8625],[-79.5757,9.271,86.0273],[-79.5696,9.2729,82.8611],[-79.571,9.2696,75.9907],[-79.5735,9.269,75.0777],[-79.5726,9.2674,74.7514],[-79.5757,9.2676,72.5],[-79.5768,9.2654,72.5],[-79.5729,9.2643,81.6677],[-79.5751,9.2632,79.4667],[-79.5746,9.2607,81.7752],[-79.5693,9.2563,75.3039],[-79.571,9.2549,72.5],[-79.5699,9.2524,72.5],[-79.5713,9.251,76.3772],[-79.5682,9.2526,77.0837],[-79.5685,9.2504,72.5],[-79.5663,9.2504,78.5164],[-79.5687,9.2474,72.5],[-79.566,9.2471,76.9556],[-79.5646,9.249,77.2827],[-79.5646,9.2451,73.5542],[-79.5621,9.2454,72.5],[-79.5638,9.2429,72.5],[-79.5612,9.2412,77.1531],[-79.5585,9.2432,72.5],[-79.5582,9.2482,74.5018],[-79.5565,9.2482,84.0352],[-79.5568,9.2457,79.3211],[-79.554,9.2476,86.468],[-79.5549,9.2446,78.4665],[-79.551,9.2468,86.8329],[-79.5493,9.2432,86.3386],[-79.5565,9.2435,78.6643],[-79.5574,9.2379,74.6015],[-79.5568,9.2368,72.5],[-79.5551,9.2376,78.5897],[-79.5557,9.2357,72.5],[-79.5535,9.2332,72.5],[-79.5499,9.2335,72.5],[-79.5482,9.2304,72.5],[-79.5451,9.2324,83.2704],[-79.5451,9.2304,86.1439],[-79.5468,9.2296,75.3423],[-79.5443,9.2276,77.7093],[-79.5449,9.2254,72.5],[-79.5429,9.2238,79.5524],[-79.539,9.2263,79.2471],[-79.5379,9.2301,79.5788],[-79.5338,9.2321,126.7597],[-79.5304,9.229,108.8344],[-79.5332,9.2313,79.8899],[-79.5379,9.2296,79.5788],[-79.5382,9.226,74.4593],[-79.5354,9.2251,72.5],[-79.5349,9.2224,72.5],[-79.5382,9.2226,73.1993],[-79.5407,9.2204,99.364],[-79.5443,9.2207,77.9891],[-79.5476,9.224,76.1746],[-79.5482,9.2268,77.0653],[-79.5501,9.2257,76.877],[-79.549,9.2282,72.5],[-79.5554,9.2276,74.3351],[-79.5568,9.2246,85.8977],[-79.5612,9.2246,75.8354],[-79.564,9.2268,74.5884],[-79.5649,9.2254,75.9284],[-79.5635,9.2243,80.2304],[-79.5649,9.224,75.9284],[-79.5657,9.2204,85.1788],[-79.5676,9.2226,72.5],[-79.5707,9.2226,72.5],[-79.5713,9.219,76.3268],[-79.5693,9.2182,72.5],[-79.5676,9.2196,80.3543],[-79.5668,9.2154,72.5],[-79.5621,9.2187,78.1205],[-79.5601,9.2176,72.8986],[-79.5663,9.2082,72.5],[-79.5657,9.2049,72.5],[-79.564,9.2049,72.5],[-79.5654,9.1962,86.1729],[-79.569,9.1968,90.5588],[-79.5699,9.1999,73.1207],[-79.5765,9.199,76.1616],[-79.5779,9.2007,72.5],[-79.579,9.1993,72.5],[-79.5762,9.1974,78.262],[-79.5788,9.1968,72.5],[-79.5788,9.1938,72.8051],[-79.5804,9.1904,89.3147],[-79.5826,9.1896,72.5],[-79.5824,9.1874,72.5],[-79.586,9.189,72.5],[-79.5821,9.191,75.5265],[-79.5837,9.1957,72.5],[-79.5864,9.1935,74.8081],[-79.586,9.1915,83.0893],[-79.5879,9.1924,74.8081],[-79.5899,9.191,83.3059],[-79.5851,9.1962,72.5],[-79.5846,9.2015,72.5],[-79.5876,9.1996,81.2842],[-79.589,9.2024,72.5],[-79.5896,9.1999,79.1761],[-79.5924,9.1999,91.8504],[-79.5888,9.2057,72.5],[-79.5921,9.2068,78.0577],[-79.5912,9.2104,83.6034],[-79.5946,9.2149,94.7998],[-79.6026,9.2174,72.5],[-79.6062,9.2204,98.9437],[-79.6115,9.2204,103.556],[-79.6129,9.2229,72.5],[-79.6149,9.2226,72.5],[-79.6154,9.2201,72.5],[-79.6113,9.2179,86.5461],[-79.6107,9.2107,75.1449],[-79.6085,9.2126,93.102],[-79.6057,9.2065,84.8989],[-79.6093,9.206,72.5],[-79.6115,9.2038,72.5],[-79.6137,9.2049,72.5],[-79.6151,9.2029,81.8104],[-79.6154,9.2104,72.7408],[-79.6168,9.2107,53.625],[-79.6193,9.2079,37.7126],[-79.6201,9.2029,64.6334],[-79.6296,9.204,35.3898],[-79.6312,9.2057,28.6667],[-79.6451,9.206,26.0],[-79.644,9.2001,27.794],[-79.6474,9.2001,26.0],[-79.6482,9.1962,26.0],[-79.6539,9.1917,26.9238],[-79.6588,9.1812,35.6297],[-79.6561,9.1778,27.796],[-79.6587,9.1737,46.369],[-79.6584,9.1587,29.4374],[-79.6609,9.155,42.9284],[-79.672,9.1522,28.0368],[-79.6772,9.1451,47.1751],[-79.6782,9.1382,25.5],[-79.6826,9.136,25.375],[-79.6799,9.134,25.5164],[-79.6779,9.1362,25.5],[-79.6762,9.1332,26.238],[-79.6793,9.1307,25.4806],[-79.6868,9.129,25.0],[-79.6846,9.1246,26.0141],[-79.6818,9.1243,32.8886],[-79.6857,9.1207,25.0],[-79.6821,9.1188,33.5703],[-79.6829,9.1157,85.5697],[-79.6885,9.1143,26.3095],[-79.6876,9.1126,30.1942],[-79.6926,9.1138,25.0],[-79.6949,9.1114,26.3122],[-79.6901,9.1085,32.2195],[-79.6932,9.1037,48.0252],[-79.6807,9.0864,25.0],[-79.672,9.067,40.7528],[-79.6551,9.053,25.0],[-79.6451,9.0382,38.9884],[-79.6122,9.0182,25.5268],[-79.608,9.0143,16.625],[-79.6046,9.0062,16.5238],[-79.5798,8.9935,17.5262],[-79.5754,8.9851,9.6675],[-79.5754,8.9795,9.079],[-79.5776,8.9757,5.8877],[-79.5738,8.9654,0.5],[-79.5707,8.9649,0.5],[-79.5665,8.961,8.0211],[-79.5657,8.956,4.2796],[-79.5676,8.9549,2.6643],[-79.5679,8.9474,0.0],[-79.5632,8.9449,2.2536],[-79.5632,8.9426,0.0],[-79.5604,8.9432,0.0],[-79.5568,8.9412,9.7433],[-79.5443,8.9301,0.0],[-79.5429,8.9326,0.0],[-79.5446,8.9343,0.9026],[-79.5454,8.9429,2.9698],[-79.549,8.9426,4.2628],[-79.5529,8.9449,5.6844],[-79.5504,8.9446,2.351],[-79.5474,8.9457,3.3572],[-79.5465,8.9482,5.7641],[-79.5379,8.9501,0.0],[-79.5318,8.949,1.7251],[-79.5307,8.9532,0.0],[-79.5332,8.9546,2.0575]],
[[-79.4579,9.0907,38.0717],[-79.4414,9.0835,40.2415],[-79.4376,9.0753,33.7999],[-79.4332,9.0722,30.7438],[-79.4293,9.0595,23.507],[-79.4404,9.0537,16.4938],[-79.4551,9.0526,17.8384],[-79.4604,9.0476,13.341],[-79.4667,9.0445,34.045],[-79.4732,9.0371,15.5826],[-79.4759,9.0275,10.1971],[-79.4808,9.0258,10.0095],[-79.4913,9.0166,7.2119],[-79.4952,9.0228,16.309],[-79.5017,9.024,19.222],[-79.5023,9.0286,35.8335],[-79.5058,9.0264,20.398],[-79.5121,9.0302,34.2167],[-79.5114,9.0314,36.5012],[-79.5131,9.0353,35.0145],[-79.517,9.0333,38.2783],[-79.5238,9.0416,54.0484],[-79.5425,9.0583,155.804],[-79.5238,9.0642,92.203],[-79.52,9.0712,93.9873],[-79.512,9.0798,76.0757],[-79.5031,9.0811,87.8153],[-79.5008,9.0767,69.2216],[-79.495,9.08,64.0693],[-79.4893,9.0871,58.9356],[-79.4676,9.0927,68.3991],[-79.4579,9.0907,38.0717]]],
[[[-79.6868,9.1229,25.0],[-79.6854,9.1235,25.0],[-79.6874,9.1276,25.0],[-79.6876,9.1243,25.0],[-79.6868,9.1229,25.0]]],
[[[-79.6849,9.1318,25.0],[-79.6818,9.1321,25.0],[-79.6818,9.1329,25.0],[-79.6846,9.1332,25.0],[-79.6849,9.1318,25.0]]],
[[[-79.5765,9.206,83.1786],[-79.5762,9.2024,82.0608],[-79.5729,9.2021,78.7965],[-79.5732,9.2063,76.5664],[-79.5765,9.206,83.1786]]],
[[[-79.5668,9.2101,72.5],[-79.566,9.2113,74.669],[-79.5687,9.2107,72.5],[-79.5679,9.2099,72.5],[-79.5668,9.2101,72.5]]],
[[[-79.5796,9.2143,72.5],[-79.5807,9.2151,72.5],[-79.5815,9.2115,74.4406],[-79.5788,9.2096,72.5],[-79.5799,9.2071,74.2691],[-79.5785,9.2065,72.5],[-79.5776,9.2082,72.5],[-79.5796,9.2143,72.5]]],
[[[-79.6057,9.224,72.5],[-79.6062,9.221,73.4884],[-79.604,9.2199,75.3477],[-79.604,9.2235,73.4016],[-79.6057,9.224,72.5]]],
[[[-79.5779,9.2601,72.5],[-79.5765,9.2596,72.5],[-79.5751,9.2599,72.5],[-79.5768,9.2618,74.0891],[-79.5779,9.2601,72.5]]],
[[[-79.1865,9.0088,0.0],[-79.1849,9.0093,0.0],[-79.1874,9.0099,0.0],[-79.1899,9.0076,0.0],[-79.1874,9.0082,0.0],[-79.1865,9.0088,0.0]]],
[[[-79.1567,9.0118,0.0],[-79.1568,9.0119,0.0],[-79.1568,9.0115,0.0],[-79.1565,9.0115,0.0],[-79.1567,9.0118,0.0]]],
[[[-79.1568,9.0119,0.0],[-79.1575,9.012,0.0],[-79.1579,9.0121,4.5236],[-79.1579,9.0118,0.0],[-79.1568,9.0119,0.0]]]]}
,"properties": {"GID_2": "PAN.12.6_1","GID_0": "PAN","country": "Panama","GID_1": "PAN.12_1","province": "Panamá","NL_NAME_1": "NA","county": "Panamá","VARNAME_2": "NA","NL_NAME_2": "NA","TYPE_2": "Distrito","ENGTYPE_2": "District","CC_2": "NA","HASC_2": "PA.PN.PA","name": "Panamá.county","area_km2": 2086.499,"hist_schema_id": "Elevation0-9000","hist_area_km2": {"0": 216.798,"25": 195.929,"50": 108.172,"75": 107.307,"100": 107.277,"125": 107.23,"150": 93.076,"175": 82.245,"200": 73.092,"225": 70.2,"250": 67.288,"275": 67.789,"300": 66.199,"325": 65.823,"350": 64.629,"375": 63.081,"400": 59.524,"425": 53.729,"450": 55.047,"475": 52.578,"500": 47.076,"525": 41.489,"550": 35.485,"575": 31.678,"600": 26.949,"625": 22.619,"650": 19.376,"675": 15.694,"700": 13.037,"725": 12.325,"750": 10.484,"775": 9.542,"800": 6.78,"825": 5.399,"850": 3.955,"875": 2.972,"900": 2.176,"925": 1.444,"950": 0.649,"975": 0.314,"1000": 0.042}}}