{"type": "Feature","bbox": [-79.9905,8.9169,-79.9203,8.9896],"geometry": {"type": "MultiPolygon","coordinates": [[[[-79.9905,8.9724,81.3756],[-79.9848,8.9638,99.1603],[-79.9714,8.93,142.524],[-79.9605,8.9332,108.3754],[-79.9563,8.9322,131.5697],[-79.9548,8.9274,118.056],[-79.9551,8.9192,134.9573],[-79.9522,8.9169,174.2656],[-79.9448,8.9187,155.5435],[-79.9383,8.9237,196.7497],[-79.9359,8.9229,204.7376],[-79.9343,8.9265,182.6809],[-79.9349,8.9311,169.2439],[-79.9316,8.9321,166.8864],[-79.9203,8.9552,129.1886],[-79.9215,8.9598,124.8431],[-79.9257,8.9609,129.9432],[-79.9314,8.9584,144.3379],[-79.9426,8.9654,129.4841],[-79.9516,8.9682,90.4867],[-79.9543,8.9655,90.0444],[-79.9561,8.9674,49.5673],[-79.9544,8.9692,61.5858],[-79.9548,8.9714,36.2389],[-79.9598,8.9793,46.3115],[-79.9694,8.9887,27.2984],[-79.9722,8.9896,33.4616],[-79.9752,8.9892,28.1276],[-79.977,8.9831,40.2065],[-79.982,8.982,33.5082],[-79.9833,8.9788,36.6009],[-79.9874,8.9779,45.4244],[-79.9905,8.9724,81.3756]]]]}
,"properties": {"GID_3": "PAN.11.4.2_1","GID_0": "PAN","country": "Panama","GID_1": "PAN.11_1","province": "PanamáOeste","NL_NAME_1": "NA","GID_2": "PAN.11.4_1","county": "LaChorrera","NL_NAME_2": "NA","city": "Arosemena","VARNAME_3": "NA","NL_NAME_3": "NA","TYPE_3": "Corregimiento","ENGTYPE_3": "Municipality","CC_3": "NA","HASC_3": "NA","name": "Arosemena.city","area_km2": 31.26924,"hist_schema_id": "Elevation0-9000","hist_area_km2": {"25": 0.50262,"50": 2.57595,"75": 4.48179,"100": 5.08929,"125": 7.9797,"150": 5.31988,"175": 2.68094,"200": 2.09451,"225": 0.50268,"250": 0.04189}}}