{"type":"Feature","properties":{"GID_3":"PAN.3.3.6_1","GID_0":"PAN","country":"Panama","GID_1":"PAN.3_1","province":"Coclé","NL_NAME_1":"NA","GID_2":"PAN.3.3_1","county":"LaPintada","NL_NAME_2":"NA","city":"PiedrasGordas","VARNAME_3":"NA","NL_NAME_3":"NA","TYPE_3":"Corregimiento","ENGTYPE_3":"Municipality","CC_3":"NA","HASC_3":"NA","name":"Piedras_Gordas.city"},
"geometry":{"type": "MultiPolygon","coordinates": [[[[-80.5471,8.6088,480.9455],[-80.5292,8.6036,255.5043],[-80.5252,8.5975,254.8536],[-80.5104,8.5917,161.4725],[-80.5091,8.607,183.8982],[-80.5065,8.6108,227.2117],[-80.5015,8.6126,407.9177],[-80.487799999999993,8.6114,450.812],[-80.4698,8.6203,155.8792],[-80.4643,8.6315,102.7445],[-80.4897,8.6473,222.3668],[-80.4955,8.6485,278.3298],[-80.4979,8.6513,321.703],[-80.4992,8.7004,422.4385],[-80.5091,8.7299,208.3514],[-80.5028,8.7489,302.0746],[-80.5042,8.7543,258.5552],[-80.5072,8.7558,232.7539],[-80.5129,8.7539,162.2736],[-80.5307,8.7528,104.4786],[-80.5418,8.767,168.1024],[-80.5529,8.7667,60.5924],[-80.5554,8.7697,78.1121],[-80.555,8.7739,70.338],[-80.5587,8.7875,70.9442],[-80.5575,8.7979,49.0606],[-80.5737,8.7957,50.81],[-80.5829,8.7856,79.706],[-80.5924,8.7811,98.2969],[-80.5969,8.7669,108.3891],[-80.5964,8.7602,111.5848],[-80.5987,8.7553,83.9782],[-80.5972,8.7517,106.0481],[-80.5894,8.7486,150.4705],[-80.584,8.7409,131.1999],[-80.5823,8.7303,235.4392],[-80.5736,8.7248,315.3172],[-80.5723,8.715,387.2739],[-80.5746,8.7007,505.8696],[-80.5636,8.7004,506.0004],[-80.5518,8.6967,844.7806],[-80.5477,8.694,767.7289],[-80.5459,8.6904,864.8431],[-80.5435,8.6811,798.2186],[-80.5447,8.6721,686.2015],[-80.5402,8.6578,583.791],[-80.5455,8.6487,428.8862],[-80.5452,8.6407,395.1472],[-80.5542,8.6315,269.7729],[-80.5556,8.6262,216.2047],[-80.5473,8.6134,390.5637],[-80.5471,8.6088,480.9455]]]]}}