{"type": "Feature","bbox": [-82.6337,9.1645,-82.341,9.524],"geometry": {"type": "MultiPolygon","coordinates": [[[[-82.386,9.3353,2.1463],[-82.3887,9.3438,0.0],[-82.3782,9.3701,0.0],[-82.3721,9.369,0.0],[-82.3676,9.3746,0.6239],[-82.369,9.3791,7.9029],[-82.3623,9.3751,0.0],[-82.3571,9.3821,0.3756],[-82.3526,9.384,0.0],[-82.3565,9.3974,3.1154],[-82.3537,9.3993,0.0],[-82.3521,9.4065,1.1122],[-82.3535,9.4093,1.445],[-82.3507,9.416,6.6975],[-82.3443,9.4193,0.3079],[-82.344,9.4226,2.1161],[-82.3418,9.4251,6.2875],[-82.341,9.429,0.0],[-82.3424,9.4315,9.1318],[-82.3532,9.4349,1.2653],[-82.3524,9.4326,0.0],[-82.3551,9.4274,0.0],[-82.3557,9.4224,9.0623],[-82.3637,9.416,5.067],[-82.3743,9.4157,0.0],[-82.3851,9.4185,3.8112],[-82.3946,9.4249,2.0055],[-82.4193,9.4482,0.0],[-82.4426,9.4668,0.0],[-82.4574,9.4818,1.8491],[-82.4679,9.489,1.8373],[-82.5067,9.524,1.7412],[-82.5106,9.5097,0.0],[-82.5234,9.5019,0.3649],[-82.5281,9.4973,0.0834],[-82.5309,9.4909,6.694],[-82.5356,9.4871,16.194],[-82.5387,9.4817,0.8432],[-82.542,9.4703,5.7139],[-82.5498,9.4675,2.0533],[-82.5519,9.4639,5.7232],[-82.5578,9.4617,7.0505],[-82.5644,9.4501,2.3111],[-82.5774,9.4445,17.9831],[-82.5819,9.4377,11.9814],[-82.5866,9.4373,12.9184],[-82.5886,9.4329,11.1011],[-82.5919,9.4331,10.5258],[-82.5962,9.4359,17.9015],[-82.6004,9.4317,16.819],[-82.6078,9.4319,24.5453],[-82.6121,9.4239,10.8105],[-82.6108,9.4183,23.8645],[-82.6161,9.4151,7.5046],[-82.6174,9.4125,10.9202],[-82.6162,9.4095,21.6695],[-82.6062,9.3999,76.0252],[-82.6287,9.3968,353.4692],[-82.6337,9.389,273.6722],[-82.633,9.3865,275.3513],[-82.5886,9.3661,152.6013],[-82.5816,9.3665,41.5263],[-82.5808,9.3698,64.3642],[-82.5702,9.3813,39.6353],[-82.5668,9.3881,38.6918],[-82.5516,9.3839,95.7049],[-82.5453,9.3779,32.453],[-82.5384,9.3771,58.3608],[-82.5323,9.3743,40.889],[-82.5307,9.3701,13.0],[-82.5318,9.3607,26.7812],[-82.537,9.3565,23.6787],[-82.5569,9.3517,85.027],[-82.5602,9.3459,88.9546],[-82.5634,9.3439,108.8734],[-82.5762,9.3464,208.824],[-82.584,9.3395,323.8443],[-82.5946,9.338,383.4349],[-82.5973,9.3347,531.1099],[-82.5982,9.3283,472.5513],[-82.6022,9.3209,525.9964],[-82.607,9.3173,567.84],[-82.6113,9.3106,766.6998],[-82.615,9.3009,988.6453],[-82.6109,9.2911,957.8319],[-82.6119,9.2831,1205.3547],[-82.6077,9.2749,960.9902],[-82.603,9.2713,962.1189],[-82.6039,9.2681,1055.9441],[-82.5997,9.2579,926.2155],[-82.5998,9.2529,1066.7935],[-82.5951,9.2459,1032.7229],[-82.5979,9.2424,1120.0107],[-82.603,9.2416,1174.9387],[-82.6063,9.2385,1298.8955],[-82.6049,9.2229,1325.9066],[-82.6097,9.2194,1432.4336],[-82.6097,9.2155,1403.5153],[-82.6167,9.1991,1473.0526],[-82.6222,9.1957,1628.1252],[-82.6162,9.1873,1429.7772],[-82.595,9.1672,1208.9165],[-82.5856,9.1645,1206.853],[-82.5725,9.1695,746.7716],[-82.5637,9.1852,585.7595],[-82.5584,9.1917,720.4012],[-82.5544,9.1931,674.429],[-82.552,9.1962,670.4336],[-82.5408,9.1983,371.7462],[-82.5315,9.2067,503.8846],[-82.528,9.2039,318.2473],[-82.5251,9.2043,370.5689],[-82.5206,9.2138,344.0915],[-82.5146,9.2177,494.6014],[-82.5129,9.2301,364.8726],[-82.5094,9.2348,319.541],[-82.5157,9.2534,500.2455],[-82.5209,9.2533,315.7949],[-82.524,9.2553,320.4868],[-82.5214,9.2601,298.8344],[-82.5215,9.2657,186.3716],[-82.516,9.2773,110.1751],[-82.507,9.2798,71.5238],[-82.5054,9.2853,168.5249],[-82.4981,9.2827,161.6786],[-82.4922,9.2841,216.2085],[-82.4884,9.2773,130.5087],[-82.4847,9.2755,107.4838],[-82.482,9.2759,97.1329],[-82.4799,9.2793,209.9855],[-82.465,9.2796,411.4777],[-82.4649,9.2857,385.6774],[-82.4694,9.2933,483.1367],[-82.4694,9.3427,158.1231],[-82.4681,9.3561,65.8985],[-82.4607,9.3567,44.2125],[-82.4502,9.3541,36.9137],[-82.4464,9.3503,36.8566],[-82.4317,9.3421,41.2712],[-82.4275,9.3423,21.5566],[-82.4192,9.3481,12.6002],[-82.404,9.3445,16.4296],[-82.3916,9.3367,13.2967],[-82.386,9.3353,2.1463]]]]}
,"properties": {"GID_3": "PAN.1.2.2_1","GID_0": "PAN","country": "Panama","GID_1": "PAN.1_1","province": "BocasdelToro","NL_NAME_1": "NA","GID_2": "PAN.1.2_1","county": "Changuinola","NL_NAME_2": "NA","city": "Changuinola","VARNAME_3": "NA","NL_NAME_3": "NA","TYPE_3": "Corregimiento","ENGTYPE_3": "Municipality","CC_3": "NA","HASC_3": "NA","name": "Changuinola.city","area_km2": 545.3854,"hist_schema_id": "Elevation0-9000","hist_area_km2": {"0": 191.7559,"25": 84.9671,"50": 26.1081,"75": 18.9955,"100": 16.8619,"125": 14.7074,"150": 12.4901,"175": 11.1516,"200": 9.1432,"225": 8.2227,"250": 7.4696,"275": 7.0931,"300": 6.0679,"325": 5.4194,"350": 5.0219,"375": 4.7917,"400": 4.2896,"425": 4.6871,"450": 4.6035,"475": 4.7291,"500": 6.1727,"525": 5.9845,"550": 4.4362,"575": 4.1015,"600": 3.7458,"625": 3.8086,"650": 3.6203,"675": 3.7459,"700": 3.8924,"725": 3.4111,"750": 3.3065,"775": 2.6159,"800": 3.3274,"825": 3.0344,"850": 3.0135,"875": 2.5113,"900": 2.6368,"925": 2.5322,"950": 2.4276,"975": 2.2393,"1000": 1.9463,"1025": 1.9882,"1050": 2.0929,"1075": 1.5697,"1100": 1.7581,"1125": 1.7162,"1150": 1.6743,"1175": 1.5278,"1200": 1.5069,"1225": 1.193,"1250": 1.4232,"1275": 1.0883,"1300": 1.3185,"1325": 1.2557,"1350": 1.0464,"1375": 0.8162,"1400": 0.7744,"1425": 0.4604,"1450": 0.3558,"1475": 0.2721,"1500": 0.0419,"1525": 0.1256,"1550": 0.1046,"1575": 0.1046,"1600": 0.0628,"1625": 0.0209}}}