{"type":"Feature","properties":{"GID_3":"PAN.3.6.2_1","GID_0":"PAN","country":"Panama","GID_1":"PAN.3_1","province":"Coclé","NL_NAME_1":"NA","GID_2":"PAN.3.6_1","county":"Penonomé","NL_NAME_2":"NA","city":"ChiguiríArriba","VARNAME_3":"NA","NL_NAME_3":"NA","TYPE_3":"Corregimiento","ENGTYPE_3":"Municipality","CC_3":"NA","HASC_3":"NA","name":"Chiguirí_Arriba.city"},
"geometry":{"type": "MultiPolygon","coordinates": [[[[-80.117,8.6375,838.1429],[-80.1184,8.6429,823.9301],[-80.1183,8.6555,650.4899],[-80.112799999999993,8.664,887.0435],[-80.1109,8.6757,693.3364],[-80.1148,8.6878,533.0528],[-80.1138,8.697,499.2256],[-80.1165,8.7029,459.1071],[-80.1149,8.7123,395.8785],[-80.1198,8.7161,397.8233],[-80.1242,8.727,508.4845],[-80.1264,8.7461,302.7159],[-80.1304,8.7504,359.4503],[-80.1383,8.7535,478.4915],[-80.1442,8.7598,408.7495],[-80.1494,8.7692,322.1653],[-80.151,8.7774,270.9922],[-80.1559,8.7812,310.308],[-80.1571,8.7885,274.2345],[-80.176,8.7853,317.6337],[-80.1907,8.787,256.5866],[-80.1931,8.7835,223.4854],[-80.2137,8.7681,334.3019],[-80.2198,8.7656,330.9843],[-80.2275,8.7668,249.7365],[-80.23,8.7528,254.6914],[-80.2343,8.7492,213.2705],[-80.2311,8.7351,209.2486],[-80.2346,8.7305,216.4226],[-80.2431,8.7272,176.8776],[-80.2445,8.7239,153.528],[-80.2418,8.7201,159.6845],[-80.2327,8.7174,172.8465],[-80.2311,8.7111,241.9872],[-80.2269,8.7041,307.4847],[-80.2339,8.6941,191.6561],[-80.2406,8.6922,195.8373],[-80.2413,8.6898,238.971],[-80.2342,8.6732,291.8848],[-80.224,8.667,286.3549],[-80.2109,8.6451,377.3468],[-80.2063,8.6433,341.9019],[-80.2045,8.6407,345.645],[-80.2062,8.6371,285.6523],[-80.2106,8.6337,325.4054],[-80.2285,8.6288,292.4457],[-80.2292,8.6264,253.7345],[-80.2261,8.6187,274.6515],[-80.2142,8.6194,305.8831],[-80.206,8.6141,327.7434],[-80.1926,8.6124,372.3847],[-80.1719,8.6203,813.739],[-80.17,8.6182,738.4965],[-80.1687,8.61,665.9661],[-80.1596,8.607,730.3339],[-80.1518,8.5988,677.2626],[-80.1495,8.6076,701.4639],[-80.1394,8.6255,715.4259],[-80.1285,8.6287,974.5591],[-80.117,8.6375,838.1429]]]]}}