{"type": "Feature","bbox": [-80.5066,7.9186,-80.4423,7.9926],"geometry": {"type": "MultiPolygon","coordinates": [[[[-80.4423,7.9653,37.8517],[-80.4588,7.9796,25.7826],[-80.4639,7.9903,19.5975],[-80.4712,7.9926,7.263],[-80.4812,7.9807,11.4027],[-80.4893,7.9785,4.1488],[-80.4908,7.9724,10.4259],[-80.4971,7.9704,12.1317],[-80.5066,7.923,19.7627],[-80.5042,7.9207,19.9528],[-80.4994,7.9203,33.7959],[-80.4989,7.9186,30.959],[-80.488,7.9243,25.517],[-80.4765,7.9365,26.6995],[-80.4699,7.938,19.7958],[-80.4617,7.9343,14.7165],[-80.4553,7.9226,17.7353],[-80.4555,7.9349,28.3971],[-80.454,7.9362,16.0677],[-80.453,7.9553,34.4561],[-80.4423,7.9653,37.8517]]]]}
,"properties": {"GID_3": "PAN.7.1.2_1","GID_0": "PAN","country": "Panama","GID_1": "PAN.7_1","province": "Herrera","NL_NAME_1": "NA","GID_2": "PAN.7.1_1","county": "Chitré","NL_NAME_2": "NA","city": "LaArena","VARNAME_3": "NA","NL_NAME_3": "NA","TYPE_3": "Corregimiento","ENGTYPE_3": "Municipality","CC_3": "NA","HASC_3": "NA","name": "La_Arena.city","area_km2": 32.14821,"hist_schema_id": "Elevation0-9000","hist_area_km2": {"0": 1.88981,"25": 24.67298,"50": 5.35445,"75": 0.20998,"100": 0.021}}}