{"type":"Feature","properties":{"GID_2":"PAN.2.13_1","GID_0":"PAN","country":"Panama","GID_1":"PAN.2_1","province":"Chiriquí","NL_NAME_1":"NA","county":"Tolé","VARNAME_2":"NA","NL_NAME_2":"NA","TYPE_2":"Distrito","ENGTYPE_2":"District","CC_2":"NA","HASC_2":"PA.CH.TL","name":"Tolé.county"},
"geometry":{"type": "MultiPolygon","coordinates": [[[[-81.6196,8.1329,56.1139],[-81.6115,8.142,131.4316],[-81.6118,8.1586,170.5046],[-81.6079,8.1644,164.427],[-81.6008,8.1662,82.0193],[-81.5983,8.1688,61.8322],[-81.5983,8.1759,285.5881],[-81.5963,8.1788,267.1273],[-81.5805,8.1864,131.316],[-81.5757,8.1947,55.104],[-81.5684,8.1963,80.0812],[-81.567,8.1988,172.5517],[-81.5555,8.2052,94.461],[-81.5546,8.2088,149.6628],[-81.5586,8.2171,78.9016],[-81.5564,8.2267,113.7138],[-81.5573,8.2335,206.6323],[-81.5468,8.2473,277.9901],[-81.5386,8.2449,243.6214],[-81.5356,8.2558,253.0752],[-81.5301,8.2613,137.3101],[-81.5295,8.2638,175.0286],[-81.5363,8.2742,307.7562],[-81.5434,8.2721,259.0863],[-81.548,8.2726,199.6087],[-81.5497,8.2781,255.2707],[-81.5545,8.2777,233.3934],[-81.5578,8.2816,262.7663],[-81.5583,8.2878,359.9387],[-81.5535,8.2945,316.0271],[-81.5534,8.2996,343.8753],[-81.5424,8.3122,228.7393],[-81.5486,8.3272,376.3965],[-81.5535,8.3318,513.2556],[-81.565,8.3292,455.5966],[-81.5715,8.321,366.1061],[-81.5704,8.3175,407.7323],[-81.5713,8.312,450.194],[-81.5752,8.3035,471.0486],[-81.5715,8.3,414.1735],[-81.567,8.301,439.6746],[-81.5667,8.2977,353.2183],[-81.5711,8.2938,370.0171],[-81.5757,8.2929,351.9749],[-81.5802,8.295,369.0645],[-81.5834,8.2987,297.1364],[-81.5852,8.3052,357.6968],[-81.5837,8.3081,420.9976],[-81.5758,8.3118,379.0766],[-81.575,8.315,374.6341],[-81.597,8.2993,181.1938],[-81.5989,8.3015,142.4804],[-81.5971,8.3074,239.8761],[-81.5998,8.3137,249.2182],[-81.6105,8.3261,291.3895],[-81.6104,8.3302,303.6902],[-81.5946,8.3276,262.5192],[-81.5862,8.3153,336.5243],[-81.5734,8.3208,349.9929],[-81.5781,8.3368,331.1198],[-81.5822,8.3427,326.2343],[-81.5772,8.3521,233.6011],[-81.5748,8.3607,268.4236],[-81.5709,8.3652,320.6951],[-81.5818,8.3712,269.4827],[-81.5842,8.3771,253.1788],[-81.5901,8.3816,291.131],[-81.5917,8.3818,323.7232],[-81.5961,8.3768,348.5975],[-81.5968,8.3729,275.6204],[-81.6001,8.3717,262.3851],[-81.6015,8.3695,271.923],[-81.5991,8.3654,247.6559],[-81.6025,8.3582,402.3824],[-81.6144,8.3527,445.361],[-81.6157,8.3421,397.4099],[-81.6178,8.3392,347.91],[-81.6161,8.3368,335.0246],[-81.6166,8.3332,316.7155],[-81.6203,8.3289,275.3517],[-81.6183,8.3218,181.6745],[-81.6221,8.3167,335.0734],[-81.6214,8.3136,236.9692],[-81.625,8.3113,355.2776],[-81.6249,8.3042,353.8463],[-81.6205,8.303,359.6104],[-81.6223,8.2908,396.9057],[-81.6283,8.2892,273.1793],[-81.627,8.2936,416.70119999999997],[-81.6291,8.2954,372.9631],[-81.6291,8.3051,368.1846],[-81.6344,8.3011,379.9922],[-81.6424,8.3015,415.732],[-81.6447,8.2992,421.0379],[-81.6463,8.2937,214.0936],[-81.6538,8.2843,310.8515],[-81.6548,8.2793,422.7406],[-81.6648,8.273,448.7905],[-81.6651,8.287,414.7485],[-81.6603,8.2942,372.8764],[-81.6658,8.2947,378.2704],[-81.675,8.2873,382.8618],[-81.6787,8.2892,409.0223],[-81.687,8.2876,310.2861],[-81.6886,8.2848,296.1539],[-81.6927,8.2848,356.32],[-81.6913,8.2876,328.6066],[-81.6899,8.2876,328.6066],[-81.6885,8.2971,370.6581],[-81.6912,8.298,399.6548],[-81.6935,8.297,461.3307],[-81.6927,8.2948,456.4682],[-81.6952,8.2956,461.3307],[-81.6927,8.3083,575.8038],[-81.6947,8.3107,505.3839],[-81.7012,8.3131,416.131],[-81.7061,8.2946,456.9767],[-81.7083,8.2942,375.5112],[-81.7114,8.2903,358.5241],[-81.716,8.2899,309.7896],[-81.7164,8.2829,229.5396],[-81.72,8.2778,167.7385],[-81.7192,8.2719,124.0525],[-81.7151,8.2675,206.4628],[-81.7155,8.2611,235.4916],[-81.7194,8.2588,141.183],[-81.729,8.2577,68.991],[-81.7294,8.2503,114.4953],[-81.7257,8.2396,145.1629],[-81.7246,8.2307,182.271],[-81.7248,8.2238,118.1481],[-81.7267,8.2191,51.0934],[-81.7341,8.215,39.468],[-81.7367,8.2099,6.8355],[-81.7393,8.2085,54.1737],[-81.741,8.2093,38.5328],[-81.7434,8.2156,30.6685],[-81.7499,8.2152,12.9659],[-81.7551,8.2175,29.987],[-81.7567,8.2167,21.3424],[-81.7588,8.2052,4.085],[-81.7621,8.202,2.3943],[-81.7623,8.1985,0.0],[-81.7579,8.1957,1.9861],[-81.754,8.1896,0.0],[-81.7521,8.1901,0.0],[-81.7526,8.1979,16.6597],[-81.7507,8.1907,16.5669],[-81.7499,8.176,9.9579],[-81.7446,8.1674,0.0],[-81.7421,8.1662,0.0],[-81.7326,8.1768,0.0],[-81.7374,8.169,0.0],[-81.7396,8.1679,0.4998],[-81.7396,8.166,0.0],[-81.7365,8.1621,3.3854],[-81.7304,8.1471,8.2593],[-81.716,8.1315,6.7739],[-81.7104,8.1204,0.0],[-81.706,8.1154,0.0],[-81.7032,8.109,1.3731],[-81.7035,8.1018,0.0],[-81.7007,8.0996,0.0],[-81.7012,8.0951,0.0],[-81.6976,8.0899,0.0],[-81.6935,8.0899,0.0],[-81.6946,8.0879,0.0],[-81.6904,8.0821,5.3348],[-81.6904,8.079,1.3429],[-81.674,8.074,4.8552],[-81.6751,8.0735,7.464],[-81.6815,8.0749,0.0],[-81.6826,8.0715,0.0],[-81.6815,8.0704,6.0506],[-81.6879,8.0693,3.5484],[-81.6846,8.0718,0.0],[-81.684,8.0743,0.8649],[-81.6943,8.0779,1.1487],[-81.6985,8.0824,0.0],[-81.7021,8.0835,0.0],[-81.7087,8.0754,3.4773],[-81.714,8.0729,0.0],[-81.7146,8.0704,0.5708],[-81.7201,8.0713,2.7941],[-81.7224,8.0754,4.5548],[-81.7268,8.0746,3.6811],[-81.7318,8.0787,28.085],[-81.7371,8.0787,18.6226],[-81.7387,8.0813,0.0],[-81.7407,8.0804,1.6727],[-81.7415,8.0779,0.0],[-81.7393,8.0732,3.4146],[-81.7349,8.0688,0.0],[-81.7288,8.0665,0.0],[-81.7279,8.0624,0.0],[-81.7251,8.0654,0.0],[-81.7215,8.0654,2.3514],[-81.7112,8.0535,2.0579],[-81.7099,8.0471,0.0],[-81.7124,8.0465,0.0],[-81.7207,8.0382,0.0],[-81.7179,8.0307,4.6625],[-81.7107,8.029,0.0],[-81.7093,8.0271,10.2379],[-81.7018,8.0265,0.0],[-81.7032,8.0351,0.0],[-81.7021,8.0399,0.0],[-81.6999,8.0407,0.0],[-81.6999,8.0488,2.9462],[-81.7024,8.0551,2.7822],[-81.6996,8.0549,5.445],[-81.6976,8.0443,0.0],[-81.6985,8.0385,0.0],[-81.6949,8.0407,0.0],[-81.6937,8.0438,5.9369],[-81.689,8.0451,0.0],[-81.6835,8.0426,0.0],[-81.6793,8.0438,10.1399],[-81.6738,8.0404,17.2654],[-81.6754,8.0401,22.7872],[-81.6801,8.0424,0.0],[-81.684,8.0415,8.1526],[-81.6868,8.0432,0.0],[-81.6937,8.0424,2.1749],[-81.6937,8.039,0.0],[-81.6899,8.0415,1.673],[-81.689,8.0407,4.1933],[-81.6951,8.036,0.0],[-81.6951,8.0337,0.0],[-81.6893,8.0301,11.9493],[-81.6857,8.0235,0.0],[-81.681,8.0229,9.1562],[-81.6743,8.0165,0.0],[-81.6701,8.016,4.3206],[-81.6679,8.019,2.7018],[-81.6676,8.0165,0.8903],[-81.6704,8.014,-0.1132],[-81.6651,8.0113,11.4266],[-81.6707,8.0124,0.0],[-81.6785,8.0171,0.0],[-81.6826,8.0174,0.0],[-81.6826,8.016,0.0],[-81.674,8.0074,0.8795],[-81.6549,7.9985,32.9758],[-81.6528,7.9996,23.885],[-81.6435,8.0158,5.4676],[-81.6379,8.0215,0.8402],[-81.6385,8.0246,10.1305],[-81.6437,8.0308,3.2463],[-81.636,8.0321,3.0048],[-81.6315,8.0357,22.4918],[-81.6317,8.0392,6.3814],[-81.6344,8.0436,4.0644],[-81.6418,8.0497,7.285],[-81.6437,8.054,6.0659],[-81.641,8.0574,8.5302],[-81.6337,8.0568,43.9763],[-81.6312,8.0589,138.5701],[-81.6271,8.0708,94.1543],[-81.6286,8.0783,75.7222],[-81.6252,8.0961,87.2386],[-81.6222,8.0988,30.3698],[-81.6163,8.1006,132.4003],[-81.6138,8.1056,58.548],[-81.614,8.1086,74.7141],[-81.6189,8.1143,171.7477],[-81.6166,8.1282,191.7359],[-81.6196,8.1329,56.1139]],
[[-81.597,8.2993,181.1938],[-81.5943,8.2993,205.8486],[-81.5934,8.2976,221.4737],[-81.5974,8.2885,131.8218],[-81.5939,8.2812,238.0326],[-81.5995,8.2788,159.0967],[-81.6023,8.2753,306.2192],[-81.6091,8.2753,309.0634],[-81.614,8.2687,226.0716],[-81.6152,8.2707,211.7292],[-81.6219,8.2737,113.9224],[-81.6238,8.2758,167.7126],[-81.6219,8.2779,181.493],[-81.6117,8.28,167.7665],[-81.6091,8.2815,153.3036],[-81.6089,8.2847,127.9895],[-81.6057,8.2846,126.7316],[-81.6011,8.2875,177.6919],[-81.6001,8.2913,143.031],[-81.6046,8.2946,162.7488],[-81.597,8.2993,181.1938]],
[[-81.6045,8.248,217.3617],[-81.6071,8.2558,488.8861],[-81.605,8.2615,672.2952],[-81.5988,8.2698,393.6711],[-81.597,8.2752,258.7228],[-81.5924,8.2766,233.2174],[-81.5916,8.2742,249.4628],[-81.593,8.2702,268.8368],[-81.5949,8.2681,397.1111],[-81.5995,8.2679,462.7125],[-81.5969,8.2641,504.0768],[-81.6007,8.2621,551.2225],[-81.6028,8.2556,537.3806],[-81.6057,8.2541,386.8309],[-81.6029,8.2509,299.6024],[-81.6035,8.2464,225.842],[-81.6045,8.248,217.3617]],
[[-81.5968,8.2574,433.706],[-81.5923,8.2586,382.665],[-81.5857,8.2574,435.5424],[-81.58,8.2608,417.7436],[-81.5723,8.2607,398.0294],[-81.571,8.263,412.3466],[-81.5677,8.2635,343.7557],[-81.5624,8.2559,398.5877],[-81.5656,8.258,399.8293],[-81.5761,8.2561,399.863],[-81.5799,8.2535,410.7255],[-81.5892,8.2543,431.391],[-81.5981,8.2503,348.0092],[-81.5956,8.2463,270.275],[-81.5779,8.2435,305.2249],[-81.5718,8.245,393.799],[-81.5704,8.2497,384.1147],[-81.5663,8.2518,384.7543],[-81.563,8.2424,197.7621],[-81.5664,8.2338,210.8378],[-81.5761,8.2307,297.9343],[-81.5789,8.2363,358.6915],[-81.5938,8.2382,281.0453],[-81.5986,8.2408,180.255],[-81.6013,8.2552,478.5853],[-81.5968,8.2574,433.706]]],
[[[-81.8138,8.0887,12.6728],[-81.8174,8.0874,0.0],[-81.8187,8.0815,0.0],[-81.8115,8.0818,0.0],[-81.8087,8.084,0.0],[-81.8085,8.0876,0.0],[-81.8138,8.0887,12.6728]]],
[[[-81.759,8.094,0.0],[-81.7618,8.0949,0.0],[-81.7632,8.0915,11.4295],[-81.7657,8.0935,0.0],[-81.7637,8.0862,0.0],[-81.7607,8.0862,0.0],[-81.7624,8.0913,11.4295],[-81.7604,8.0915,0.0],[-81.759,8.094,0.0]]],
[[[-81.7071,8.1013,0.0],[-81.7087,8.1018,0.0],[-81.7085,8.1001,2.8555],[-81.7118,8.096,9.3428],[-81.7085,8.0976,25.2487],[-81.7071,8.1013,0.0]]],
[[[-81.7368,8.1504,4.1875],[-81.7387,8.1515,1.3376999999999999],[-81.7424,8.1457,5.3351],[-81.7468,8.146,0.0],[-81.7529,8.1404,5.3183],[-81.7535,8.1326,0.4796],[-81.7479,8.1285,0.0],[-81.739,8.1262,0.5333],[-81.7296,8.1185,0.0],[-81.7262,8.1143,5.9615],[-81.7246,8.1076,0.0],[-81.7218,8.1057,4.3136],[-81.7196,8.0926,0.0],[-81.7179,8.0915,0.0],[-81.7112,8.1038,2.9052],[-81.7129,8.1126,0.0],[-81.7179,8.1274,0.0],[-81.7315,8.1396,3.9059],[-81.7368,8.1504,4.1875]]],
[[[-81.7421,8.154,0.0],[-81.7429,8.1549,0.0],[-81.7443,8.1476,0.0],[-81.7412,8.1485,0.0],[-81.7421,8.154,0.0]]],
[[[-81.5338,8.3204,292.6574],[-81.5223,8.3077,256.0263],[-81.5136,8.3042,176.5031],[-81.5089,8.3052,253.1714],[-81.5081,8.3087,238.8386],[-81.5097,8.3167,239.9665],[-81.5074,8.3284,297.7183],[-81.5121,8.3396,222.558],[-81.5139,8.3565,318.0793],[-81.532,8.3813,291.6793],[-81.5366,8.3829,330.1815],[-81.5363,8.3856,335.5722],[-81.544,8.384,349.0814],[-81.5505,8.3768,303.7846],[-81.5551,8.3786,352.7216],[-81.5575,8.3774,387.7064],[-81.5628,8.3699,338.9792],[-81.5709,8.3652,320.6951],[-81.5697,8.3598,339.0751],[-81.5713,8.3546,339.2006],[-81.5695,8.3507,384.4538],[-81.5635,8.3456,448.0284],[-81.5588,8.3483,460.0325],[-81.5562,8.3571,286.6409],[-81.5531,8.3573,287.2928],[-81.5457,8.346,361.8528],[-81.5344,8.3393,381.7348],[-81.5347,8.3366,346.8383],[-81.5399,8.3314,377.0845],[-81.5409,8.3273,346.2274],[-81.5393,8.3235,313.7375],[-81.5338,8.3204,292.6574]]]]}}