{"type": "Feature","bbox": [-81.3742,8.1517,-81.2393,8.2157],"geometry": {"type": "MultiPolygon","coordinates": [[[[-81.2393,8.2112,78.2816],[-81.2602,8.2075,87.6331],[-81.285,8.2073,93.1142],[-81.2889,8.2091,133.1185],[-81.2934,8.215,98.2241],[-81.299,8.2157,181.7049],[-81.3211,8.2089,161.9551],[-81.3399,8.2064,199.3847],[-81.3559,8.1922,268.5276],[-81.3742,8.1862,147.4572],[-81.3622,8.1782,122.6567],[-81.3619,8.1737,138.4389],[-81.3548,8.1611,96.9736],[-81.3355,8.1658,162.8484],[-81.3242,8.163,188.8062],[-81.2993,8.1517,85.3379],[-81.2585,8.1539,66.8194],[-81.2497,8.1682,48.2097],[-81.2422,8.1718,105.3012],[-81.2418,8.1943,76.0509],[-81.2393,8.2112,78.2816]]]]}
,"properties": {"GID_3": "PAN.13.4.2_1","GID_0": "PAN","country": "Panama","GID_1": "PAN.13_1","province": "Veraguas","NL_NAME_1": "NA","GID_2": "PAN.13.4_1","county": "LaMesa","NL_NAME_2": "NA","city": "Boró","VARNAME_3": "NA","NL_NAME_3": "NA","TYPE_3": "Corregimiento","ENGTYPE_3": "Municipality","CC_3": "NA","HASC_3": "NA","name": "Boró.city","area_km2": 71.52139,"hist_schema_id": "Elevation0-9000","hist_area_km2": {"25": 0.20987,"50": 5.51942,"75": 7.17722,"100": 8.39444,"125": 7.05135,"150": 7.55515,"175": 10.64017,"200": 10.01056,"225": 5.18364,"250": 3.16892,"275": 2.32947,"300": 1.59495,"325": 1.11226,"350": 0.62958,"375": 0.52465,"400": 0.20986,"425": 0.18888,"450": 0.02099}}}