{"type":"Feature","properties":{"GID_3":"PAN.11.3.1_1","GID_0":"PAN","country":"Panama","GID_1":"PAN.11_1","province":"PanamáOeste","NL_NAME_1":"NA","GID_2":"PAN.11.3_1","county":"Chame","NL_NAME_2":"NA","city":"Bejuco","VARNAME_3":"NA","NL_NAME_3":"NA","TYPE_3":"Corregimiento","ENGTYPE_3":"Municipality","CC_3":"NA","HASC_3":"NA","name":"Bejuco.city"},
"geometry":{"type": "MultiPolygon","coordinates": [[[[-79.911,8.6649,648.2329],[-79.9124,8.6685,508.2496],[-79.9286,8.6583,697.2797],[-79.9214,8.6486,432.289],[-79.9138,8.6292,48.4087],[-79.9065,8.6246,74.9798],[-79.9202,8.613,234.8776],[-79.9267,8.6008,232.8958],[-79.933,8.5944,121.992],[-79.9285,8.5913,38.7175],[-79.9172,8.5902,84.7561],[-79.9096,8.5841,67.1574],[-79.9001,8.5847,30.3688],[-79.8962,8.5835,23.4459],[-79.8915,8.5952,33.0109],[-79.8745,8.6007,26.0476],[-79.8686,8.6068,26.9845],[-79.8639,8.6082,22.6441],[-79.862,8.6143,12.8263],[-79.8576,8.6204,11.7694],[-79.8501,8.6252,6.0534],[-79.8423,8.6264,8.0146],[-79.8368,8.6318,7.1551],[-79.8293,8.6327,8.3119],[-79.8295,8.6349,4.0781],[-79.8319,8.6365,2.1556],[-79.8368,8.6368,0.0],[-79.8426,8.6474,0.0],[-79.8529,8.6532,2.2441],[-79.8571,8.6518,5.2587],[-79.8538,8.6468,4.4554],[-79.8538,8.6404,5.3254],[-79.8554,8.6396,1.5538],[-79.8546,8.6468,2.4919],[-79.859,8.6504,2.9855],[-79.8551,8.654,0.0],[-79.8535,8.6581,0.0],[-79.8668,8.654,2.8454],[-79.8777,8.6592,20.3039],[-79.891,8.6515,86.6093],[-79.8972,8.6504,67.8335],[-79.9021,8.6529,172.246],[-79.911,8.6649,648.2329]]],
[[[-79.8401,8.6478,0.0],[-79.84,8.6474,0.0],[-79.8401,8.6482,0.0],[-79.8401,8.6478,0.0]]]]}}