{"type":"Feature","properties":{"GID_3":"PAN.10.3.7_1","GID_0":"PAN","country":"Panama","GID_1":"PAN.10_1","province":"NgöbeBuglé","NL_NAME_1":"NA","GID_2":"PAN.10.3_1","county":"Kusapín","NL_NAME_2":"NA","city":"ValleBonito","VARNAME_3":"NA","NL_NAME_3":"NA","TYPE_3":"Corregimiento","ENGTYPE_3":"Municipality","CC_3":"NA","HASC_3":"NA","name":"Valle_Bonito.city"},
"geometry":{"type": "MultiPolygon","coordinates": [[[[-81.3181,8.6807,1107.151],[-81.3191,8.6518,787.0807],[-81.3238,8.6308,950.9244],[-81.334,8.6201,1050.0123],[-81.3429,8.6192,1262.0747],[-81.3481,8.6163,1342.259],[-81.3566,8.6014,1332.8333],[-81.3523,8.5844,1496.6697],[-81.3435,8.5795,1798.1292],[-81.3358,8.5722,1785.296],[-81.3283,8.5688,1609.4443],[-81.3113,8.5555,1635.2662],[-81.3074,8.5508,1466.3296],[-81.3022,8.5397,1314.9761],[-81.2951,8.5316,1311.8958],[-81.2729,8.5356,981.3935],[-81.2637,8.5338,1054.3588],[-81.2542,8.5343,1368.0807],[-81.2508,8.5328,1567.5046],[-81.2414,8.5209,1634.0972],[-81.2311,8.5137,1318.5095],[-81.22,8.5146,1185.8068],[-81.2108,8.5125,1158.6023],[-81.2032,8.5142,826.0151],[-81.1889,8.5126,826.6239],[-81.1766,8.5138,816.5582],[-81.1705,8.5217,691.6423],[-81.1733,8.5269,644.1646],[-81.1776,8.5317,586.5483],[-81.1836,8.534,457.7394],[-81.2005,8.5307,645.4683],[-81.2018,8.5315,577.6934],[-81.2057,8.5449,632.0396],[-81.2122,8.5594,501.7492],[-81.2277,8.5801,418.1655],[-81.2327,8.5891,343.2933],[-81.2352,8.5989,290.2219],[-81.2314,8.6185,296.5724],[-81.2351,8.6246,314.9457],[-81.2356,8.6368,197.2538],[-81.2347,8.6508,176.6489],[-81.2272,8.6595,195.9751],[-81.2312,8.6651,165.054],[-81.2291,8.6701,91.1049],[-81.2311,8.6766,68.693],[-81.2288,8.6842,130.244],[-81.2382,8.6876,316.8171],[-81.2597,8.6849,707.2464],[-81.2667,8.6908,617.0527],[-81.2719,8.6918,580.9692],[-81.2828,8.688,649.9591],[-81.2952,8.6777,748.5104],[-81.3054,8.682,886.9391],[-81.3109,8.68,897.6717],[-81.3181,8.6807,1107.151]]]]}}