{"type":"Feature","properties":{"GID_3":"PAN.10.5.7_1","GID_0":"PAN","country":"Panama","GID_1":"PAN.10_1","province":"NgöbeBuglé","NL_NAME_1":"NA","GID_2":"PAN.10.5_1","county":"Müna","NL_NAME_2":"NA","city":"Maraca","VARNAME_3":"NA","NL_NAME_3":"NA","TYPE_3":"Corregimiento","ENGTYPE_3":"Municipality","CC_3":"NA","HASC_3":"NA","name":"Maraca.city"},
"geometry":{"type": "MultiPolygon","coordinates": [[[[-81.6943,8.3633,269.1586],[-81.6976,8.3649,330.9095],[-81.7036,8.382,334.8336],[-81.725,8.4005,429.8666],[-81.7299,8.4344,683.3286],[-81.7387,8.4466,697.8344],[-81.7474,8.4404,659.9153],[-81.7462,8.4337,649.5153],[-81.7517,8.429,676.7347],[-81.7424,8.4163,580.97],[-81.7406,8.406,485.654],[-81.7433,8.3907,627.495],[-81.7482,8.3842,704.9861],[-81.7401,8.3804,646.8636],[-81.7414,8.365,437.6508],[-81.7241,8.3348,366.2559],[-81.7202,8.3393,364.8454],[-81.7154,8.3405,694.2505],[-81.7125,8.3397,601.8336],[-81.7057,8.3326,434.3997],[-81.6968,8.3351,355.2643],[-81.694,8.3394,412.8439],[-81.6924,8.3523,345.582],[-81.6943,8.3633,269.1586]]]]}}