{"type":"Feature","properties":{"GID_3":"PAN.7.1.1_1","GID_0":"PAN","country":"Panama","GID_1":"PAN.7_1","province":"Herrera","NL_NAME_1":"NA","GID_2":"PAN.7.1_1","county":"Chitré","NL_NAME_2":"NA","city":"Chitré","VARNAME_3":"NA","NL_NAME_3":"NA","TYPE_3":"Corregimiento","ENGTYPE_3":"Municipality","CC_3":"NA","HASC_3":"NA","name":"Chitré.city"},
"geometry":{"type": "MultiPolygon","coordinates": [[[[-80.454,7.9362,16.0677],[-80.4464,7.9303,45.417],[-80.4428,7.9299,49.6651],[-80.438,7.9345,19.2541],[-80.4314,7.9344,15.1053],[-80.4201,7.9408,9.1926],[-80.4158,7.9388,14.0823],[-80.4104,7.9475,6.5],[-80.4025,7.9507,8.4351],[-80.4092,7.9593,7.4498],[-80.4423,7.9653,37.8517],[-80.453,7.9553,34.4561],[-80.454,7.9362,16.0677]]]]}}