{"type":"Feature","properties":{"GID_1":"PAN.4_1","GID_0":"PAN","country":"Panama","province":"Colón","VARNAME_1":"NA","NL_NAME_1":"NA","TYPE_1":"Provincia","ENGTYPE_1":"Province","CC_1":"NA","HASC_1":"PA.CL","ISO_1":"NA","name":"Colón.province"},
"geometry":{"type": "MultiPolygon","coordinates": [[[[-80.6545,8.7972,119.8222],[-80.654,8.8075,183.0089],[-80.6458,8.805,180.2558],[-80.6407,8.8086,246.3923],[-80.6336,8.8073,209.7412],[-80.6272,8.8078,198.0308],[-80.6269,8.8093,224.1716],[-80.6245,8.8084,198.4812],[-80.6241,8.7988,129.6808],[-80.6221,8.7968,83.1328],[-80.5737,8.7957,50.81],[-80.5575,8.7979,49.0606],[-80.5618,8.807,48.2988],[-80.5639,8.8081,53.1984],[-80.5526,8.8222,51.6927],[-80.5538,8.8335,75.9245],[-80.5521,8.8418,65.7616],[-80.5545,8.8476,57.3864],[-80.5505,8.8541,55.1407],[-80.552,8.8682,61.6116],[-80.5503,8.8714,27.3553],[-80.5546,8.876,42.8227],[-80.5544,8.8789,43.3141],[-80.5521,8.8812,54.364],[-80.5526,8.884,42.6322],[-80.5552,8.8828,39.1207],[-80.5557,8.8809,46.7717],[-80.5583,8.8819,33.5436],[-80.5598,8.8901,77.3469],[-80.5628,8.8943,78.6733],[-80.5601,8.897,83.2022],[-80.5558,8.8982,51.1931],[-80.5551,8.9022,19.7227],[-80.5518,8.9038,18.805],[-80.5525,8.9145,58.4397],[-80.5469,8.9202,24.8144],[-80.5448,8.9282,43.6574],[-80.5473,8.9418,73.1451],[-80.5445,8.9432,112.4048],[-80.531,8.9474,40.431],[-80.525,8.9354,52.2103],[-80.5136,8.936,84.571],[-80.5121,8.9307,18.0731],[-80.5064,8.9319,57.7509],[-80.5045,8.9276,72.8838],[-80.4969,8.93,51.927],[-80.487799999999993,8.9226,54.1033],[-80.4841,8.9248,75.8993],[-80.4789,8.9249,92.2549],[-80.4762,8.923,73.4926],[-80.4722,8.9238,171.292],[-80.4707,8.9223,171.7259],[-80.466,8.924,99.1263],[-80.4562,8.9169,50.4414],[-80.445,8.9018,42.2201],[-80.4238,8.8944,97.0167],[-80.3999,8.8961,94.0653],[-80.3919,8.8944,133.4135],[-80.383,8.8888,126.6184],[-80.3763,8.8872,125.1387],[-80.3695,8.8807,69.5799],[-80.3662,8.8848,110.1612],[-80.3567,8.9086,164.0048],[-80.2387,8.9694,130.3466],[-80.2291,8.9734,123.1633],[-80.2275,8.9719,116.3579],[-80.2193,8.9708,70.8753],[-80.2143,8.9718,95.1414],[-80.2125,8.9746,100.7657],[-80.2128,8.983,87.4618],[-80.2106,8.9901,50.9196],[-80.2111,9.001,50.5021],[-80.2088,9.017,46.0025],[-80.2106,9.0233,68.9446],[-80.2094,9.0362,74.1751],[-80.213,9.0433,56.9456],[-80.2147,9.0535,111.1986],[-80.2101,9.064,55.5331],[-80.2003,9.0518,19.2495],[-80.1977,9.0447,48.4601],[-80.1906,9.0413,19.6229],[-80.1886,9.0333,69.1177],[-80.1827,9.0269,20.7301],[-80.1857,9.0246,69.2037],[-80.1865,9.018,41.1381],[-80.1831,9.0144,56.5524],[-80.1845,9.0081,15.648],[-80.1828,9.0025,17.9471],[-80.1784,8.9969,18.2107],[-80.1804,8.9941,20.1871],[-80.1777,8.9918,15.7886],[-80.1796,8.9858,20.6583],[-80.1715,8.9821,17.0611],[-80.1741,8.9736,17.1175],[-80.1735,8.9697,16.7961],[-80.1664,8.9728,46.5933],[-80.1616,8.9669,22.2372],[-80.1546,8.9666,27.4951],[-80.1496,8.9616,40.3023],[-80.1473,8.9558,27.5598],[-80.1438,8.9567,37.1458],[-80.1349,8.9667,255.72559999999999],[-80.1157,8.9732,157.257],[-80.0922,9.0032,136.6991],[-80.0555,8.9751,64.9579],[-80.0513,8.9764,27.5598],[-79.9915,8.971,59.6067],[-79.9874,8.9779,45.4244],[-79.9833,8.9788,36.6009],[-79.982,8.982,33.5082],[-79.9767,8.9834,40.2065],[-79.9749,8.9895,28.1276],[-79.9694,8.9887,27.2984],[-79.9645,8.984,58.374],[-79.9617,8.9968,25.2677],[-79.9561,9.005,35.7891],[-79.9554,9.0096,25.3242],[-79.9587,9.0118,25.0],[-79.9589,9.0232,25.0],[-79.9546,9.0299,25.0],[-79.9525,9.0376,25.0],[-79.9684,9.0711,25.0],[-79.9807,9.0858,25.0],[-79.9798,9.0957,25.0],[-79.9692,9.1057,25.0],[-79.9566,9.1101,25.0],[-79.9496,9.1198,25.0],[-79.9478,9.1589,25.0],[-79.9346,9.1753,25.0],[-79.9237,9.1847,25.0],[-79.907,9.1903,25.0],[-79.885,9.1891,25.0],[-79.8603,9.1812,25.0],[-79.8541,9.1811,25.0],[-79.8487,9.1845,25.0],[-79.8448,9.1848,25.0],[-79.8352,9.1773,25.0],[-79.8283,9.1749,25.0],[-79.8184,9.1743,25.0],[-79.8127,9.1682,25.0],[-79.811,9.1326,25.0],[-79.8047,9.1229,25.0],[-79.7929,9.1166,25.0],[-79.779,9.116,25.0],[-79.7582,9.1049,32.1763],[-79.7596,9.1143,25.0],[-79.7549,9.119,25.0],[-79.7532,9.1193,25.0],[-79.7513,9.1168,44.9746],[-79.7535,9.1126,57.98],[-79.7515,9.1129,29.0979],[-79.7507,9.109,25.0],[-79.7462,9.1068,40.6964],[-79.7485,9.1124,25.0],[-79.7471,9.1129,25.0],[-79.7457,9.1099,32.3676],[-79.7429,9.1112,25.0],[-79.7462,9.1185,25.0],[-79.7426,9.1196,25.0],[-79.7349,9.1165,36.0273],[-79.7329,9.1132,35.222],[-79.7237,9.1099,27.1068],[-79.7193,9.1149,28.9443],[-79.7101,9.1124,35.0019],[-79.7132,9.1143,25.5035],[-79.7085,9.1149,25.0],[-79.7051,9.114,25.0],[-79.7079,9.1099,33.4771],[-79.7049,9.1087,30.696],[-79.704,9.1062,38.1293],[-79.7026,9.109,25.0],[-79.6971,9.1096,25.0],[-79.6917,9.1062,34.0135],[-79.6901,9.1085,32.2195],[-79.6946,9.1121,25.0],[-79.6926,9.1138,25.0],[-79.6876,9.1126,30.1942],[-79.6885,9.1143,26.3095],[-79.686,9.114,25.0],[-79.6821,9.1174,36.688],[-79.6824,9.119,33.5703],[-79.6857,9.1207,25.0],[-79.6818,9.1243,32.8886],[-79.6846,9.1246,26.0141],[-79.6868,9.129,25.0],[-79.6793,9.1307,25.4806],[-79.6762,9.1332,26.238],[-79.6779,9.1362,25.5],[-79.6799,9.134,25.5164],[-79.6826,9.1354,25.0],[-79.6776,9.1391,25.8128],[-79.6772,9.1451,47.1751],[-79.672,9.1522,28.0368],[-79.6609,9.155,42.9284],[-79.6584,9.1587,29.4374],[-79.6587,9.1737,46.369],[-79.6561,9.1778,27.796],[-79.6588,9.1812,35.6297],[-79.6501,9.1974,34.1029],[-79.6476,9.2085,26.0],[-79.6399,9.2068,29.1593],[-79.6363,9.2082,27.1825],[-79.6207,9.2035,64.6334],[-79.6188,9.2104,51.6764],[-79.6165,9.2118,53.625],[-79.6137,9.211,75.2076],[-79.6129,9.2168,72.5],[-79.6185,9.2162,77.5073],[-79.6193,9.2143,75.6017],[-79.619,9.2193,72.5],[-79.6215,9.2212,104.3513],[-79.6171,9.2224,72.5],[-79.6132,9.2274,121.8661],[-79.6087,9.2263,72.5],[-79.6085,9.2285,72.5],[-79.6018,9.2274,83.8191],[-79.5993,9.224,72.5],[-79.6007,9.2204,72.5],[-79.5987,9.2201,72.5],[-79.5971,9.2221,93.9691],[-79.589,9.221,78.7724],[-79.5901,9.2235,72.5],[-79.5888,9.2249,76.0201],[-79.5907,9.2271,87.3207],[-79.5885,9.229,83.6967],[-79.5901,9.231,74.8404],[-79.5868,9.234,74.7261],[-79.5888,9.2343,79.6485],[-79.5896,9.2382,75.3475],[-79.5932,9.2415,76.1387],[-79.5946,9.241,99.3768],[-79.5965,9.2443,72.5],[-79.5999,9.2457,72.5],[-79.5996,9.2474,78.9501],[-79.5971,9.2463,73.5664],[-79.5965,9.2479,86.5696],[-79.594,9.2457,72.5],[-79.5932,9.2485,72.5],[-79.5868,9.2535,80.5415],[-79.5871,9.2554,95.112],[-79.5896,9.2546,78.6714],[-79.5882,9.2565,72.5],[-79.5885,9.2615,90.9757],[-79.5971,9.2579,72.5],[-79.5987,9.2546,80.871],[-79.6004,9.2546,80.871],[-79.6007,9.2529,80.2759],[-79.5985,9.2518,82.8006],[-79.599,9.2501,88.7825],[-79.6018,9.2524,72.5],[-79.6074,9.2515,77.227],[-79.606,9.2537,74.61],[-79.6024,9.254,72.5],[-79.6029,9.2554,89.4576],[-79.6004,9.2571,72.5],[-79.6021,9.2651,72.5],[-79.6004,9.2676,90.7463],[-79.5985,9.259,86.3034],[-79.5929,9.2629,72.5],[-79.5921,9.2732,72.5],[-79.5963,9.271,85.3867],[-79.596,9.2738,88.5536],[-79.5943,9.2774,80.5054],[-79.5918,9.2779,72.5],[-79.5935,9.2821,79.5203],[-79.5915,9.2871,84.8421],[-79.5893,9.2885,72.5],[-79.5871,9.2979,121.1635],[-79.5846,9.3004,72.5],[-79.5857,9.3026,72.5],[-79.5807,9.3049,77.2491],[-79.5821,9.3068,75.3638],[-79.5843,9.3068,91.7639],[-79.5832,9.3104,72.5],[-79.584,9.316,72.5],[-79.5818,9.3168,72.5],[-79.5824,9.3199,99.0622],[-79.5801,9.3215,72.5],[-79.5824,9.3304,81.9748],[-79.5874,9.3301,85.9029],[-79.5874,9.3321,77.9439],[-79.5907,9.3324,75.9517],[-79.5926,9.334,77.097],[-79.5926,9.3376,79.1916],[-79.5862,9.3315,72.5],[-79.5824,9.3335,72.5],[-79.5807,9.3282,72.5],[-79.5771,9.3237,72.5],[-79.5738,9.3262,72.5],[-79.5724,9.3299,74.4845],[-79.5735,9.3313,72.5],[-79.5693,9.3332,73.7131],[-79.5618,9.3457,115.0816],[-79.5599,9.3449,72.5],[-79.5563,9.3468,74.7389],[-79.5593,9.3588,72.5],[-79.5585,9.3613,75.8773],[-79.5668,9.37,95.7385],[-79.5669,9.3769,117.9131],[-79.5595,9.387,151.3332],[-79.5595,9.3918,187.7932],[-79.5571,9.3976,148.7648],[-79.5529,9.401,200.9968],[-79.5552,9.4048,193.1458],[-79.5536,9.4068,140.6281],[-79.5534,9.4122,177.6344],[-79.5423,9.4226,173.3202],[-79.5434,9.4368,178.6876],[-79.5361,9.4496,181.1832],[-79.5358,9.4658,194.8115],[-79.5328,9.4711,237.106],[-79.5344,9.4753,220.861],[-79.5325,9.4807,302.8654],[-79.5234,9.482,260.4301],[-79.5164,9.4862,251.8427],[-79.5111,9.4855,250.0122],[-79.5067,9.4908,341.7767],[-79.4909,9.4911,174.4851],[-79.4876,9.4882,201.2947],[-79.4827,9.4887,180.9433],[-79.4741,9.4949,155.5947],[-79.4662,9.5094,83.9546],[-79.4527,9.5233,85.0166],[-79.4374,9.5086,237.9456],[-79.4228,9.5035,424.6428],[-79.4199,9.5041,426.1522],[-79.4186,9.5064,248.313],[-79.418,9.5146,180.5342],[-79.4084,9.5158,214.1012],[-79.4048,9.5187,201.9868],[-79.3937,9.5135,122.7434],[-79.3873,9.5084,138.1158],[-79.3757,9.5072,140.4398],[-79.3867,9.501,190.5215],[-79.3954,9.4891,374.5911],[-79.3941,9.4865,347.0168],[-79.3828,9.4803,191.2285],[-79.3774,9.4726,111.1278],[-79.3803,9.4616,281.8334],[-79.3809,9.444,238.2364],[-79.3797,9.441,196.2645],[-79.3838,9.4397,221.0152],[-79.3911,9.4327,387.8729],[-79.4003,9.4318,381.539],[-79.4042,9.4281,444.6986],[-79.4109,9.4286,375.2559],[-79.4135,9.4216,419.6562],[-79.4058,9.4201,508.3386],[-79.4055,9.4219,515.7794],[-79.3793,9.4295,270.8068],[-79.3733,9.4385,132.2363],[-79.3621,9.444,144.6672],[-79.3549,9.4403,169.2655],[-79.3544,9.4339,283.0375],[-79.3519,9.4314,234.1936],[-79.3492,9.4299,269.7012],[-79.3447,9.4302,275.8085],[-79.3361,9.434,535.6339],[-79.3295,9.4411,613.9231],[-79.3268,9.4469,439.8297],[-79.3203,9.4486,460.2856],[-79.3164,9.4526,409.1338],[-79.3096,9.4545,389.812],[-79.3059,9.4541,499.4273],[-79.2982,9.4497,257.95],[-79.2849,9.4351,380.2389],[-79.2815,9.4347,283.1515],[-79.2794,9.4367,368.9288],[-79.2724,9.4377,396.4734],[-79.2704,9.4403,344.1578],[-79.2685,9.4361,407.4147],[-79.2636,9.4326,436.4412],[-79.2615,9.4245,643.058],[-79.2711,9.4096,456.0892],[-79.2763,9.3934,533.0423],[-79.2756,9.3918,549.3967],[-79.2586,9.3986,440.706],[-79.2553,9.3986,404.4169],[-79.2536,9.3965,449.2772],[-79.2577,9.3754,521.9051],[-79.2651,9.361,513.3405],[-79.2594,9.3513,644.2726],[-79.2511,9.3447,643.0848],[-79.245,9.3539,543.7974],[-79.2337,9.3591,452.2211],[-79.224,9.3696,377.4756],[-79.2085,9.3815,339.8649],[-79.1979,9.3875,189.6804],[-79.1871,9.3857,184.2836],[-79.1831,9.3865,166.3791],[-79.1713,9.393,193.3119],[-79.1547,9.4278,26.714],[-79.1545,9.4341,30.9185],[-79.1498,9.4454,23.3361],[-79.1463,9.4486,30.0633],[-79.1403,9.4597,29.4834],[-79.1326,9.4677,19.4804],[-79.1262,9.4696,24.0248],[-79.114,9.4809,21.4022],[-79.1014,9.4869,11.9775],[-79.0989,9.4868,10.2285],[-79.0959,9.4794,10.3554],[-79.0901,9.4794,12.2149],[-79.0803,9.5582,3.1033],[-79.0893,9.5618,1.8156],[-79.1076,9.5554,5.1229],[-79.114,9.5585,0.0],[-79.1132,9.5565,4.5784],[-79.1188,9.5576,1.1993],[-79.1212,9.5554,12.497],[-79.1282,9.5543,0.0],[-79.1354,9.556,0.7199],[-79.1415,9.5615,1.1124],[-79.1451,9.561,0.0],[-79.1499,9.5588,0.0],[-79.1504,9.5568,1.7359],[-79.154,9.556,1.8516],[-79.1543,9.554,0.0],[-79.1507,9.5499,0.0],[-79.1535,9.5457,2.8475],[-79.1563,9.5454,0.0],[-79.1579,9.541,0.0],[-79.1626,9.5454,7.5212],[-79.1568,9.5468,0.0],[-79.1549,9.5493,0.0],[-79.1565,9.5526,5.0949],[-79.1582,9.554,0.0],[-79.1604,9.5535,6.8947],[-79.1618,9.556,0.0],[-79.1657,9.5551,9.1356],[-79.1682,9.5574,0.0],[-79.1743,9.5563,1.6469],[-79.179,9.5504,3.3114],[-79.186,9.5476,0.0],[-79.1907,9.5421,3.4633],[-79.1974,9.5407,0.0],[-79.1974,9.5379,4.8034],[-79.1993,9.5412,0.0],[-79.2107,9.5432,4.0481],[-79.2138,9.5463,0.0],[-79.2138,9.5499,0.0],[-79.2174,9.5454,4.3727],[-79.2318,9.5457,0.0],[-79.2446,9.5504,2.3121],[-79.2513,9.5557,0.0],[-79.2543,9.5546,7.3058],[-79.2604,9.5593,0.0],[-79.2635,9.5593,0.0],[-79.2635,9.5568,6.3281],[-79.2646,9.5568,6.3281],[-79.2688,9.5632,0.0],[-79.2802,9.569,0.0],[-79.2862,9.5662,1.3254],[-79.2932,9.5707,0.0],[-79.2926,9.5665,1.0404],[-79.2954,9.5643,3.7612],[-79.3071,9.5662,1.2656],[-79.3107,9.5621,6.7788],[-79.3082,9.5682,0.0],[-79.326,9.581,0.0],[-79.3271,9.5793,5.87],[-79.3346,9.579,0.0],[-79.3371,9.5754,4.5339],[-79.3482,9.5796,8.1203],[-79.3493,9.5763,4.524],[-79.3546,9.5754,1.5144],[-79.3551,9.5737,7.6499],[-79.3565,9.5757,0.0],[-79.361,9.5735,3.7886],[-79.3712,9.5782,1.2321],[-79.3751,9.5776,0.0],[-79.3765,9.5824,0.0],[-79.3796,9.5815,3.881],[-79.3801,9.5782,9.3439],[-79.3829,9.5768,5.7025],[-79.394,9.5832,4.5476],[-79.404,9.5843,0.0],[-79.4068,9.5829,1.2514],[-79.4149,9.5849,3.0663],[-79.4174,9.5874,0.0],[-79.4282,9.5874,2.8556],[-79.4321,9.5938,0.0],[-79.4368,9.5951,4.8875],[-79.4365,9.599,5.5779],[-79.4385,9.6038,0.0],[-79.4413,9.5982,3.4488],[-79.4451,9.6001,3.9203],[-79.4474,9.5979,2.9896],[-79.4504,9.5999,1.3774],[-79.4551,9.5979,2.6733],[-79.4576,9.6001,4.7867],[-79.4587,9.6046,0.0],[-79.464,9.6046,0.6434],[-79.4626,9.5993,9.7372],[-79.4696,9.5926,0.1761],[-79.4671,9.5915,0.0],[-79.4668,9.5865,4.594],[-79.4729,9.5824,1.4642],[-79.4779,9.584,1.2367],[-79.4788,9.5874,1.046],[-79.4765,9.5896,0.0],[-79.479,9.591,0.0],[-79.4854,9.5913,2.4595],[-79.4863,9.5887,7.4816],[-79.4935,9.5876,0.0],[-79.4974,9.5899,0.0],[-79.5021,9.5893,4.4253],[-79.5054,9.5924,0.0],[-79.5113,9.591,0.7205],[-79.514,9.5932,1.328],[-79.5174,9.5899,0.0],[-79.5168,9.5874,0.0],[-79.5201,9.5821,1.5928],[-79.519,9.5796,0.7939],[-79.5215,9.5779,0.5366],[-79.5246,9.5799,6.9004],[-79.5238,9.5849,0.0],[-79.5279,9.586,2.4143],[-79.526,9.594,0.0616],[-79.5374,9.5915,1.2899],[-79.5437,9.5935,9.3872],[-79.5415,9.5946,0.0],[-79.5418,9.5976,0.0],[-79.5385,9.5971,1.1845],[-79.5362,9.5988,1.7643],[-79.5346,9.604,5.8714],[-79.5307,9.6037,0.0],[-79.5232,9.6076,0.0],[-79.5237,9.609,0.0],[-79.5304,9.6076,0.0],[-79.5279,9.6129,4.1252],[-79.5298,9.6165,0.0],[-79.5388,9.6174,0.0],[-79.5376,9.6232,2.9924],[-79.5404,9.6226,4.2711],[-79.5415,9.6243,0.0],[-79.5401,9.6299,0.2756],[-79.5379,9.6315,0.0],[-79.539,9.6346,0.0],[-79.5485,9.6296,7.1632],[-79.5524,9.631,0.0],[-79.5576,9.6263,3.2602],[-79.5618,9.6254,0.0],[-79.5646,9.6201,2.6963],[-79.5649,9.6154,6.015],[-79.5676,9.6165,0.0],[-79.5685,9.6193,0.0],[-79.5757,9.6187,35.8164],[-79.5765,9.6157,3.0323],[-79.5793,9.6146,0.0],[-79.5788,9.6126,0.4458],[-79.5821,9.6129,1.5566],[-79.5849,9.6107,2.5607],[-79.5865,9.6088,0.0],[-79.586,9.6062,9.4019],[-79.5879,9.6049,0.0],[-79.5918,9.6093,0.0],[-79.596,9.6085,6.6757],[-79.601,9.6146,5.3994],[-79.6068,9.6135,7.8934],[-79.6054,9.6107,0.7319],[-79.609,9.6093,1.9047],[-79.6149,9.6115,8.9537],[-79.616,9.6149,6.3741],[-79.6188,9.6154,35.1074],[-79.619,9.6171,0.0],[-79.6235,9.6162,0.0],[-79.6276,9.6104,30.5989],[-79.631,9.611,2.1219],[-79.6363,9.6085,12.7168],[-79.634,9.6024,0.8243],[-79.6346,9.5999,6.3614],[-79.6374,9.6004,0.9527],[-79.6421,9.5976,0.0],[-79.6468,9.5904,22.5533],[-79.6562,9.5938,0.0],[-79.6565,9.5918,0.0],[-79.6546,9.5915,2.1909],[-79.6532,9.5885,23.1013],[-79.6562,9.5874,3.4807],[-79.6568,9.584,0.0],[-79.6615,9.5826,1.1436],[-79.6646,9.584,0.0],[-79.6643,9.5804,7.0058],[-79.6685,9.5821,0.0],[-79.669,9.5751,0.0],[-79.6676,9.5724,0.0],[-79.6726,9.5713,27.9957],[-79.6779,9.564,3.1079],[-79.6804,9.5662,6.3808],[-79.6829,9.5649,45.2264],[-79.6824,9.5621,21.0966],[-79.6801,9.5621,30.4432],[-79.6793,9.5585,0.0],[-79.6757,9.5565,0.0],[-79.659,9.5624,5.3386],[-79.6593,9.5685,2.4769],[-79.6576,9.5649,0.0],[-79.6537,9.5643,9.1546],[-79.6535,9.5626,4.586],[-79.6576,9.5615,0.3919],[-79.6543,9.5574,0.0],[-79.656,9.5543,2.6929],[-79.666,9.5521,0.0],[-79.6721,9.5474,17.0075],[-79.676,9.5476,0.0],[-79.6793,9.5449,0.0],[-79.6751,9.541,0.0],[-79.6738,9.5368,0.0],[-79.6693,9.5351,0.0],[-79.669,9.5332,0.5882],[-79.6746,9.5326,0.0],[-79.6771,9.5299,1.4348],[-79.681,9.5288,0.0],[-79.6829,9.5249,15.199],[-79.6879,9.5213,0.8095],[-79.6871,9.5174,9.5929],[-79.6921,9.5118,0.0],[-79.6893,9.5012,2.4323],[-79.6918,9.5018,0.9551],[-79.699,9.4957,2.7191],[-79.7038,9.4954,0.0],[-79.7046,9.4932,5.062],[-79.7087,9.4915,10.2981],[-79.7099,9.4874,0.0],[-79.7121,9.4854,3.397],[-79.7143,9.4868,1.4427],[-79.7187,9.4854,0.5486],[-79.7201,9.4812,6.2711],[-79.7226,9.4838,0.0],[-79.7251,9.4835,14.2359],[-79.7274,9.476,0.0],[-79.7249,9.4693,4.1719],[-79.7293,9.4685,1.972],[-79.7349,9.4704,0.5788],[-79.7368,9.4685,0.0],[-79.7354,9.4599,0.4977],[-79.7396,9.4551,2.0337],[-79.7382,9.4521,4.5394],[-79.741,9.454,0.0],[-79.744,9.4471,25.4986],[-79.7526,9.4432,4.7011],[-79.7699,9.4451,0.0],[-79.7726,9.4415,1.7897],[-79.7743,9.4432,0.2952],[-79.7776,9.4426,0.6995],[-79.7796,9.4401,2.9209],[-79.7846,9.4418,3.2811],[-79.7877,9.439,5.4995],[-79.7854,9.4354,15.9166],[-79.7893,9.4343,5.1906],[-79.7907,9.4365,0.9785],[-79.7921,9.4354,0.0],[-79.7907,9.4287,7.2166],[-79.7935,9.431,0.0],[-79.7965,9.4304,0.0],[-79.7971,9.4268,0.0],[-79.7951,9.4262,7.7858],[-79.8012,9.4229,0.6694],[-79.8012,9.4188,1.2414],[-79.8035,9.4185,6.4906],[-79.8046,9.4165,6.5339],[-79.8096,9.4171,0.0],[-79.8099,9.4137,9.0834],[-79.8129,9.4129,1.6242],[-79.8157,9.4093,0.0],[-79.816,9.404,1.1562],[-79.8179,9.4032,0.0],[-79.8129,9.3971,11.6835],[-79.8126,9.3943,3.7642],[-79.8074,9.3935,0.0],[-79.8074,9.3904,4.695],[-79.8099,9.3918,2.4539],[-79.8107,9.3899,0.0],[-79.8076,9.3832,0.0],[-79.8093,9.3793,0.0],[-79.8079,9.3713,1.8026],[-79.7962,9.3632,0.0],[-79.7996,9.3588,0.8001],[-79.8021,9.3593,0.0],[-79.8012,9.3632,1.8088],[-79.804,9.3649,3.9721],[-79.806,9.3604,6.7253],[-79.809,9.3582,8.6783],[-79.8087,9.3638,13.3389],[-79.806,9.3696,2.0759],[-79.8104,9.3718,2.42],[-79.8118,9.3821,0.0],[-79.8154,9.379,5.6043],[-79.8176,9.3799,2.5905],[-79.8196,9.3785,3.9712],[-79.8193,9.3821,3.0266],[-79.816,9.3829,1.1187],[-79.8165,9.3857,0.9738],[-79.8149,9.3888,2.3198],[-79.8151,9.3932,0.0],[-79.8182,9.3937,3.7934],[-79.8193,9.3963,0.7929],[-79.8232,9.396,0.0],[-79.8251,9.3912,0.0],[-79.8296,9.3874,1.532],[-79.8329,9.3868,0.0],[-79.8299,9.3835,0.0],[-79.8304,9.3735,10.8668],[-79.8329,9.3737,9.7532],[-79.8346,9.3768,1.9629],[-79.8374,9.3735,8.2783],[-79.8385,9.3776,0.0],[-79.8343,9.3776,2.074],[-79.8337,9.3807,1.8116],[-79.8376,9.3865,1.9912],[-79.8357,9.3899,0.0],[-79.8399,9.3904,5.4606],[-79.8404,9.3921,3.9416],[-79.8349,9.3918,0.0],[-79.8332,9.3937,0.0],[-79.8349,9.4012,0.0],[-79.8357,9.399,0.0],[-79.8396,9.3985,2.8205],[-79.8412,9.4004,2.5039],[-79.841,9.4032,2.6468],[-79.8429,9.404,0.0],[-79.8482,9.401,1.2527],[-79.8476,9.3946,2.8734],[-79.8454,9.3913,0.3573],[-79.8429,9.391,4.2553],[-79.8435,9.3869,0.0],[-79.8421,9.3868,0.0],[-79.8418,9.3829,0.3615],[-79.8401,9.3815,0.663],[-79.8415,9.3807,2.391],[-79.8432,9.3829,0.3615],[-79.8424,9.3787,6.8492],[-79.8437,9.3785,7.7371],[-79.8449,9.3824,3.525],[-79.8435,9.3866,0.0],[-79.8449,9.3893,0.0],[-79.8463,9.389,0.4589],[-79.8457,9.3868,1.7587],[-79.8479,9.386,0.9926],[-79.8496,9.3813,13.7402],[-79.851,9.386,6.562],[-79.8482,9.3863,0.9926],[-79.8482,9.3876,0.6516],[-79.8524,9.3904,5.4815],[-79.8587,9.3893,6.8159],[-79.8571,9.3918,0.0],[-79.8574,9.3965,0.0],[-79.8593,9.3976,2.2924],[-79.859,9.4004,3.9385],[-79.8613,9.4032,1.4291],[-79.8688,9.4049,0.655],[-79.874,9.404,0.5129],[-79.8771,9.3985,1.8501],[-79.8815,9.3976,1.3618],[-79.8849,9.3935,0.0],[-79.8849,9.3924,0.0],[-79.881,9.3926,1.6668],[-79.8807,9.389,0.0],[-79.8868,9.3871,0.0],[-79.889,9.3843,0.3995],[-79.8863,9.381,0.6073],[-79.881,9.3807,3.9183],[-79.8818,9.3782,2.5809],[-79.8871,9.3776,2.474],[-79.8882,9.376,3.8575],[-79.8874,9.3721,3.4546],[-79.8835,9.371,0.2881],[-79.8846,9.3699,1.8388],[-79.8838,9.3671,2.8131],[-79.8863,9.3665,0.2255],[-79.8868,9.3649,0.0],[-79.8846,9.361,3.7763],[-79.8821,9.3604,3.2017],[-79.8815,9.3579,4.1032],[-79.8829,9.3574,1.3656],[-79.8821,9.3549,3.5893],[-79.8846,9.3571,1.3656],[-79.8851,9.3535,8.872],[-79.8879,9.3518,3.9819],[-79.8904,9.3446,9.3031],[-79.884,9.3412,21.0865],[-79.8882,9.341,8.1541],[-79.8918,9.344,1.3533],[-79.8929,9.3479,13.8466],[-79.8901,9.349,3.0625],[-79.889,9.3526,4.764],[-79.891,9.3551,7.8021],[-79.8904,9.3574,0.0],[-79.8951,9.3624,3.822],[-79.8949,9.3663,0.3005],[-79.906,9.3663,0.3584],[-79.9088,9.3629,1.3947],[-79.9057,9.3546,1.9263],[-79.9088,9.3538,2.4218],[-79.9118,9.3551,1.3548],[-79.9143,9.3521,0.0],[-79.9046,9.3507,2.5361],[-79.9004,9.3449,2.7528],[-79.9021,9.3388,0.0],[-79.9037,9.3379,7.6774],[-79.9021,9.3454,6.2105],[-79.9068,9.3499,0.4546],[-79.9046,9.3451,2.5319],[-79.9115,9.3354,2.4192],[-79.9165,9.3321,0.0],[-79.9171,9.3243,2.2254],[-79.9157,9.3185,1.908],[-79.9171,9.3104,2.5187],[-79.9218,9.3104,3.3],[-79.9221,9.3118,2.6765],[-79.926,9.3126,0.5651],[-79.9293,9.3099,6.083],[-79.9476,9.3132,10.3098],[-79.9518,9.3196,0.0],[-79.9504,9.324,7.2907],[-79.944,9.3268,0.0],[-79.9485,9.3288,11.3495],[-79.9465,9.3332,8.2425],[-79.9488,9.3412,13.621],[-79.9474,9.3457,3.5072],[-79.9482,9.3471,0.0],[-79.951,9.3465,7.6005],[-79.9465,9.3504,1.3534],[-79.9451,9.3538,0.0],[-79.9463,9.3582,0.0],[-79.949,9.3596,3.021],[-79.9493,9.3635,0.5847],[-79.9465,9.3676,5.5724],[-79.9474,9.3699,2.0613],[-79.9501,9.3665,1.316],[-79.9518,9.3671,0.5735],[-79.949,9.3724,1.1595],[-79.959,9.3701,2.3738],[-79.9638,9.3646,4.0642],[-79.9654,9.3663,2.9686],[-79.971,9.366,0.1922],[-79.979,9.3626,0.0],[-79.9849,9.3565,7.9433],[-79.9837,9.3538,0.0],[-79.9907,9.3435,0.0],[-79.991,9.3404,35.8529],[-79.9938,9.339,0.0],[-79.9985,9.331,0.0],[-80.0035,9.3271,5.9316],[-80.0037,9.3246,16.102],[-79.999,9.3207,4.1476],[-79.9987,9.316,0.0],[-80.0021,9.3182,2.1077],[-80.0076,9.3146,6.4468],[-80.014,9.3143,2.4276],[-80.0199,9.3118,8.0708],[-80.0193,9.3074,13.7865],[-80.0212,9.3029,27.0797],[-80.0271,9.2985,33.9308],[-80.0321,9.2971,0.0],[-80.0418,9.2893,0.0],[-80.0482,9.281,3.1403],[-80.0479,9.2782,8.4148],[-80.0585,9.2701,10.3756],[-80.0612,9.266,4.5384],[-80.0665,9.2632,5.3721],[-80.0668,9.2601,6.1413],[-80.0701,9.256,0.0],[-80.0799,9.2479,5.7339],[-80.0799,9.2449,3.3299],[-80.084,9.2426,4.2742],[-80.0874,9.2385,3.0036],[-80.086,9.2337,5.9151],[-80.0937,9.2282,14.3746],[-80.1079,9.2224,0.0],[-80.111,9.2193,4.7095],[-80.121,9.2185,6.2662],[-80.1254,9.216,1.8028],[-80.1263,9.2126,1.3961],[-80.1304,9.2087,2.8426],[-80.1513,9.2082,2.5068],[-80.1537,9.2068,5.2476],[-80.156,9.2026,4.1097],[-80.1588,9.2021,0.0],[-80.1599,9.1993,3.9474],[-80.166,9.1979,2.7493],[-80.1732,9.1985,0.0],[-80.174,9.1954,3.5334],[-80.1771,9.1932,4.9624],[-80.1882,9.1921,0.4532],[-80.1899,9.1943,0.0],[-80.1979,9.1949,6.6691],[-80.2007,9.1935,0.0],[-80.201,9.1907,0.0],[-80.2074,9.1885,8.8397],[-80.216,9.1887,5.8296],[-80.231,9.1835,11.5666],[-80.2382,9.1838,0.0],[-80.2415,9.1801,6.9723],[-80.2429,9.1749,8.7785],[-80.249,9.1701,6.5679],[-80.2537,9.1687,3.7493],[-80.2568,9.1699,0.0],[-80.2643,9.169,0.0],[-80.2699,9.1671,0.0],[-80.2835,9.1685,9.3363],[-80.2849,9.1674,3.0],[-80.2846,9.1635,3.4153],[-80.2882,9.1599,3.8304],[-80.2946,9.1557,3.6021],[-80.3054,9.1557,0.0],[-80.3071,9.1518,3.9748],[-80.309,9.1571,0.0],[-80.3196,9.1582,7.3874],[-80.339,9.1551,7.5037],[-80.346,9.1504,13.5114],[-80.3551,9.1485,11.6294],[-80.3579,9.1438,12.2543],[-80.4079,9.1443,0.0],[-80.4149,9.1407,1.6346],[-80.4163,9.1393,2.2111],[-80.4154,9.1368,14.3996],[-80.4204,9.1343,0.0],[-80.4232,9.131,6.0113],[-80.4376,9.1287,1.5055],[-80.4379,9.1268,11.2451],[-80.4407,9.1254,7.6126],[-80.4529,9.1265,2.6173],[-80.4543,9.1249,14.0116],[-80.4576,9.1251,5.4698],[-80.4621,9.1235,2.3756],[-80.461,9.121,1.9704],[-80.4654,9.1165,6.0764],[-80.4746,9.1146,3.9131],[-80.4954,9.1171,0.0],[-80.4957,9.1154,12.6547],[-80.5007,9.1129,4.7014],[-80.5068,9.1115,0.0],[-80.509,9.1085,12.0187],[-80.5207,9.1051,16.6227],[-80.5265,9.1057,0.0],[-80.531,9.1043,0.0],[-80.5312,9.0993,5.9785],[-80.5343,9.0965,8.2709],[-80.5482,9.0932,5.6065],[-80.5485,9.0896,12.3241],[-80.5501,9.0882,15.6715],[-80.5624,9.086,0.0],[-80.564,9.0804,9.5221],[-80.5721,9.0779,0.0],[-80.5721,9.0749,4.7801],[-80.5704,9.0735,4.2681],[-80.559,9.0696,0.8043],[-80.5624,9.0699,6.9711],[-80.5713,9.0729,4.2681],[-80.5738,9.0757,0.0],[-80.5738,9.0799,0.0],[-80.5815,9.0785,6.0004],[-80.5862,9.0749,14.4891],[-80.596,9.0718,4.3567],[-80.6018,9.0662,12.1243],[-80.6085,9.0651,9.157],[-80.6121,9.0601,7.9507],[-80.6279,9.0554,0.9097],[-80.6268,9.0526,8.0701],[-80.6293,9.0535,4.6371],[-80.6376,9.0518,19.0419],[-80.6457,9.046,10.3031],[-80.6554,9.0418,12.1934],[-80.6599,9.0365,9.9893],[-80.6665,9.0349,2.7096],[-80.6746,9.0251,12.415],[-80.6818,9.0238,1.0225],[-80.681,9.0196,34.9114],[-80.6824,9.0096,10.0689],[-80.6832,9.0226,0.6948],[-80.6943,9.0207,0.0],[-80.6965,9.0151,8.7056],[-80.6951,9.0118,14.2178],[-80.699,9.0049,9.2071],[-80.7104,9.0001,10.6594],[-80.7249,8.9993,0.0],[-80.7254,8.9979,6.6974],[-80.7307,8.9987,0.0],[-80.7315,8.996,4.2637],[-80.7363,8.9943,0.0],[-80.7451,8.9854,28.7565],[-80.7474,8.9851,3.7813],[-80.7596,8.9754,14.2207],[-80.7621,8.9674,0.0],[-80.7613,8.9632,0.0],[-80.7668,8.9546,14.0228],[-80.7696,8.9518,2.9165],[-80.781,8.9479,0.0],[-80.7862,8.9438,0.0],[-80.7965,8.9279,0.0],[-80.7996,8.9204,1.0772],[-80.8068,8.9174,0.0],[-80.8104,8.9101,9.4418],[-80.8213,8.9049,0.0],[-80.8243,8.8949,3.0721],[-80.8307,8.8918,25.3975],[-80.8351,8.8915,5.3396],[-80.8412,8.8879,7.2451],[-80.8501,8.8874,0.0],[-80.8515,8.8854,4.4623],[-80.8604,8.8862,0.0],[-80.8704,8.8833,0.0],[-80.8688,8.8793,0.0],[-80.8729,8.8743,0.0],[-80.8732,8.8749,0.0],[-80.8729,8.8763,0.0],[-80.8724,8.8771,3.1815],[-80.8726,8.8779,3.1815],[-80.8712,8.8799,0.0],[-80.874,8.8823,0.0],[-80.8766,8.8815,11.7243],[-80.8738,8.8757,0.0],[-80.874,8.8534,0.9829],[-80.8658,8.846,2.2483],[-80.864,8.8391,17.7609],[-80.861,8.8355,30.2482],[-80.8408,8.8246,51.6436],[-80.8287,8.8225,77.817],[-80.8222,8.8166,18.2104],[-80.7993,8.8088,81.2822],[-80.7944,8.8089,64.0526],[-80.7821,8.8136,55.768],[-80.7728,8.8143,40.7169],[-80.7671,8.8127,146.6296],[-80.7624,8.8089,57.6614],[-80.7592,8.8011,93.1306],[-80.7535,8.7957,92.767],[-80.7467,8.7847,124.1778],[-80.7351,8.7726,92.8343],[-80.7297,8.7646,133.421],[-80.7253,8.7551,124.7353],[-80.726,8.7486,180.2703],[-80.7433,8.7412,317.4814],[-80.7512,8.7352,547.8597],[-80.7548,8.7271,356.576],[-80.7525,8.7141,337.6224],[-80.7462,8.6992,703.6029],[-80.737,8.6936,631.0661],[-80.7296,8.6858,424.0641],[-80.7242,8.6654,610.0169],[-80.7257,8.6566,911.1736],[-80.739,8.6452,1063.6862],[-80.7434,8.6393,1262.6602],[-80.7389,8.6402,1119.6379],[-80.7318,8.6373,981.6829],[-80.7251,8.637,906.5226],[-80.716,8.6327,740.1184],[-80.7149,8.6422,951.4545],[-80.7076,8.6615,857.3167],[-80.6974,8.6644,1123.9854],[-80.6856,8.6633,903.155],[-80.6908,8.6834,619.0082],[-80.6993,8.6889,653.3058],[-80.7048,8.7057,551.9854],[-80.7018,8.7208,348.2288],[-80.7034,8.7267,279.7535],[-80.7009,8.7321,257.9843],[-80.6946,8.7359,354.2646],[-80.6934,8.7407,318.4787],[-80.6874,8.748,227.7736],[-80.6878,8.7543,142.9569],[-80.6845,8.7572,95.5054],[-80.6907,8.769,128.1382],[-80.6887,8.7754,158.7792],[-80.677,8.7834,147.1673],[-80.6723,8.7847,174.5096],[-80.6641,8.7917,121.4399],[-80.6559,8.7947,93.5],[-80.6545,8.7972,119.8222]],
[[-79.7632,9.1079,25.0],[-79.7646,9.1104,25.0],[-79.7618,9.1129,25.0],[-79.7613,9.1112,49.0674],[-79.7632,9.1079,25.0]],
[[-79.7257,9.1149,33.7889],[-79.726,9.1162,28.5202],[-79.7229,9.1171,25.0],[-79.7204,9.1154,30.3074],[-79.7229,9.111,28.5689],[-79.7237,9.114,38.6338],[-79.7265,9.1135,25.0],[-79.7257,9.1149,33.7889]],
[[-79.6868,9.1251,25.0],[-79.6857,9.1226,25.0],[-79.6876,9.1243,25.0],[-79.6874,9.1276,25.0],[-79.6868,9.1251,25.0]],
[[-79.6832,9.1321,25.0],[-79.6849,9.1318,25.0],[-79.6846,9.1332,25.0],[-79.6821,9.1335,25.0],[-79.6818,9.1321,25.0],[-79.6832,9.1321,25.0]]],
[[[-79.6096,9.2226,72.5],[-79.6082,9.2235,72.5],[-79.6087,9.2254,72.5],[-79.6104,9.2251,72.8353],[-79.6096,9.2226,72.5]]],
[[[-79.7971,9.436,11.3997],[-79.7976,9.4379,3.2797],[-79.7999,9.4371,1.1096],[-79.8004,9.4332,0.0],[-79.7993,9.4329,0.9284],[-79.7971,9.436,11.3997]]],
[[[-79.849,9.3957,0.0],[-79.8532,9.3968,2.4913],[-79.854,9.3954,0.0],[-79.8521,9.3907,0.0],[-79.8485,9.3885,0.6516],[-79.8463,9.3899,0.4589],[-79.849,9.3957,0.0]]],
[[[-79.8012,9.429,4.1345],[-79.8012,9.4321,0.0],[-79.8029,9.4324,0.3982],[-79.806,9.4282,0.0],[-79.8049,9.4276,0.0],[-79.8012,9.429,4.1345]]],
[[[-79.5576,9.3592,72.5],[-79.5576,9.3588,72.5],[-79.5575,9.3588,72.5],[-79.5576,9.3592,72.5]]],
[[[-79.6813,9.5399,0.0],[-79.681,9.5399,0.0],[-79.6801,9.5421,0.0],[-79.6829,9.5407,0.4514],[-79.6813,9.5399,0.0]]],
[[[-79.664,9.5893,0.0],[-79.6637,9.5907,0.0],[-79.6665,9.5896,3.2956],[-79.6657,9.5885,0.0],[-79.664,9.5893,0.0]]],
[[[-79.6649,9.5968,12.1004],[-79.6682,9.5976,3.016],[-79.6668,9.5946,0.0],[-79.6643,9.5951,0.0],[-79.6649,9.5968,12.1004]]],
[[[-79.5815,9.6204,1.2368],[-79.5807,9.6226,2.7708],[-79.5896,9.6207,0.0],[-79.5899,9.6187,0.0],[-79.5882,9.6174,10.2327],[-79.589,9.6149,0.0],[-79.5849,9.614,6.8799],[-79.581,9.6157,9.2432],[-79.5793,9.6185,2.1121],[-79.5815,9.6204,1.2368]]],
[[[-79.5993,9.6185,0.0],[-79.601,9.6196,2.2226],[-79.6024,9.6176,14.2201],[-79.6007,9.6171,0.0],[-79.5993,9.6185,0.0]]],
[[[-79.579,9.6246,0.0],[-79.5771,9.6243,0.0],[-79.5768,9.6268,0.0],[-79.5793,9.6265,0.0],[-79.579,9.6246,0.0]]],
[[[-79.5579,9.6399,2.0611],[-79.5599,9.641,0.0],[-79.5604,9.6357,0.0],[-79.5668,9.6349,32.5148],[-79.571,9.6301,0.0],[-79.5687,9.6301,0.0],[-79.5676,9.6276,0.0],[-79.5646,9.6285,0.0],[-79.5632,9.631,2.5856],[-79.5599,9.6313,1.9938],[-79.5551,9.6368,0.0],[-79.5579,9.6399,2.0611]]],
[[[-79.5321,9.6332,0.0],[-79.5301,9.6338,0.0],[-79.5307,9.6365,0.0],[-79.5332,9.6354,0.0],[-79.5321,9.6332,0.0]]],
[[[-79.5243,9.6374,2.0599],[-79.5226,9.6371,2.0599],[-79.5224,9.6388,0.0],[-79.5237,9.639,0.0],[-79.5243,9.6374,2.0599]]],
[[[-79.5604,9.6465,22.2865],[-79.5629,9.6468,10.802],[-79.5638,9.6449,0.0],[-79.5612,9.6446,2.9858],[-79.5604,9.6465,22.2865]]]]}}