{"type": "Feature","id": "1337","bbox": [-80.8626,8.61384,-79.07453,9.62929],"geometry": {"type": "Polygon","coordinates": [[[-79.07453,9.56204,2.3601],[-79.08007,9.56158,0.0],[-79.09877,9.55603,10.1204],[-79.11604,9.55189,13.2226],[-79.13328,9.5534,7.357],[-79.15627,9.55496,0.0],[-79.175,9.5494,6.1758],[-79.19376,9.5396,3.3808],[-79.23971,9.54552,13.4196],[-79.27275,9.55702,49.2718],[-79.33605,9.57436,4.5339],[-79.39189,9.5805,0.9637],[-79.42984,9.58954,0.9356],[-79.43725,9.5847,28.6587],[-79.44457,9.58381,55.6993],[-79.45124,9.58739,24.5915],[-79.45653,9.59638,6.0147],[-79.46349,9.5777,21.2067],[-79.46398,9.56908,16.4061],[-79.48388,9.57502,8.1417],[-79.49201,9.57868,32.2757],[-79.49816,9.58332,15.6607],[-79.50499,9.58332,39.5603],[-79.50788,9.57738,45.945],[-79.51073,9.57453,14.3755],[-79.51431,9.5725,32.5607],[-79.5192,9.56908,25.7539],[-79.52282,9.57673,7.5671],[-79.52306,9.57905,0.0],[-79.53287,9.58332,57.4738],[-79.53287,9.58954,4.2923],[-79.52245,9.59528,0.0],[-79.52261,9.60285,0.0],[-79.52798,9.61245,4.1252],[-79.53287,9.62434,0.0],[-79.55097,9.62929,12.4343],[-79.57655,9.61779,0.3787],[-79.59624,9.61152,0.0],[-79.61221,9.61367,0.0],[-79.63034,9.60847,100.6256],[-79.63885,9.59851,22.0609],[-79.65003,9.58961,42.1759],[-79.66448,9.58337,9.7417],[-79.66984,9.57289,0.0],[-79.67573,9.56871,0.0],[-79.68216,9.56453,45.2264],[-79.6765,9.55842,18.7526],[-79.66772,9.5608,28.1491],[-79.65648,9.56496,0.0],[-79.65166,9.55969,0.9986],[-79.65968,9.55237,14.3134],[-79.67737,9.54561,0.7003],[-79.68428,9.52148,48.6227],[-79.69063,9.4958,52.8069],[-79.70546,9.48546,38.9652],[-79.71465,9.47984,25.3029],[-79.7213,9.46922,56.9412],[-79.72472,9.4667,27.9472],[-79.72663,9.46336,24.3022],[-79.72936,9.45596,9.148],[-79.73152,9.45303,17.6392],[-79.74828,9.44253,34.2857],[-79.77815,9.43159,14.9834],[-79.79296,9.4182,25.594],[-79.80272,9.40058,12.4919],[-79.80215,9.38666,14.7128],[-79.79699,9.37128,3.5359],[-79.79296,9.34935,44.9426],[-79.80036,9.36079,1.7335],[-79.81862,9.39103,3.81],[-79.8409,9.40071,0.0],[-79.85979,9.39908,3.9385],[-79.87121,9.4042,0.1715],[-79.8804,9.39464,3.5543],[-79.86803,9.37726,10.9566],[-79.87487,9.37108,4.1534],[-79.8793,9.37543,3.4447],[-79.8817,9.37726,2.5809],[-79.87951,9.3688,1.5883],[-79.87706,9.35163,3.2751],[-79.87487,9.34317,9.7782],[-79.89468,9.35643,4.8524],[-79.90026,9.34683,2.7052],[-79.9016,9.32665,5.0343],[-79.90905,9.30842,9.5749],[-79.91918,9.30317,0.0],[-79.92943,9.30414,37.5842],[-79.93822,9.30915,11.4381],[-79.94376,9.31586,0.0],[-79.94591,9.32587,5.8718],[-79.94376,9.36359,0.0],[-79.94744,9.37285,0.0],[-79.95373,9.37343,0.0],[-79.97894,9.36335,0.0],[-79.9985,9.3318,0.0],[-80.00082,9.32052,0.0],[-80.02619,9.29662,55.2036],[-80.0652,9.26248,4.7565],[-80.10082,9.22232,12.5196],[-80.12971,9.2062,3.4662],[-80.16291,9.19294,9.2428],[-80.19994,9.18317,8.7666],[-80.23493,9.17927,16.1587],[-80.24478,9.17512,0.0],[-80.27746,9.1564,41.5286],[-80.29259,9.15135,20.27],[-80.40832,9.14226,13.833],[-80.50677,9.11089,0.0],[-80.57934,9.08069,0.0],[-80.63712,9.05167,19.0419],[-80.65323,9.03531,39.031],[-80.6671,9.02973,14.4513],[-80.70348,9.00811,0.0],[-80.72683,8.99722,20.8365],[-80.74169,8.98005,87.7348],[-80.75064,8.97687,80.2009],[-80.75585,8.96979,88.4083],[-80.75914,8.96271,35.83],[-80.76252,8.95954,29.3981],[-80.77257,8.95344,0.0],[-80.78356,8.9392,79.1379],[-80.80429,8.91237,12.0247],[-80.8129,8.90267,92.7375],[-80.82242,8.89069,50.4645],[-80.84486,8.88448,40.5836],[-80.8626,8.88507,7.1255],[-80.86198,8.8769,24.9975],[-80.86173,8.87416,22.7716],[-80.86033,8.85359,46.7476],[-80.85684,8.84411,47.3348],[-80.85118,8.83272,72.4042],[-80.84069,8.82086,39.763],[-80.83343,8.81455,85.0015],[-80.81509,8.80262,31.7233],[-80.79783,8.79455,40.4196],[-80.78026,8.7889,56.0265],[-80.76902,8.78406,71.7886],[-80.76152,8.77949,60.981],[-80.74044,8.75574,86.2999],[-80.73354,8.74458,86.4269],[-80.72819,8.73014,124.3239],[-80.732919999999993,8.71487,318.557],[-80.73863,8.70283,473.5579],[-80.74197,8.69081,706.8623],[-80.73812,8.67249,463.0758],[-80.73336,8.66443,581.5799],[-80.72794,8.65862,773.9797],[-80.72579,8.65304,916.6287],[-80.7239,8.64611,873.1418],[-80.73941,8.61524,1102.1088],[-80.71579,8.61384,673.6403],[-80.70569,8.62991,848.015],[-80.69499,8.64177,1034.1072],[-80.69259,8.652,1306.6984],[-80.69484,8.66327,1142.1111],[-80.6961,8.67544,908.2773],[-80.69491,8.69376,447.9163],[-80.68533,8.7151,204.5793],[-80.6775,8.7383,303.0347],[-80.66698,8.75233,111.5293],[-80.65169,8.76701,114.0477],[-80.64019,8.77213,97.9473],[-80.63042,8.77391,85.7407],[-80.61202,8.77027,69.581],[-80.60081,8.76934,155.4468],[-80.58614,8.76972,111.1949],[-80.56939,8.77461,116.0351],[-80.55508,8.78158,47.9191],[-80.54247,8.79096,75.8232],[-80.53585,8.80587,49.8185],[-80.53268,8.82117,36.3074],[-80.53469,8.85243,72.9912],[-80.53792,8.86127,64.6711],[-80.54141,8.86646,41.2853],[-80.54342,8.8708,61.6073],[-80.54218,8.8806,39.5251],[-80.53097,8.91698,72.2626],[-80.52394,8.92488,21.3639],[-80.51565,8.92659,72.4324],[-80.42452,8.89269,50.2396],[-80.41144,8.88463,41.2238],[-80.38969,8.87835,57.6053],[-80.36475,8.87468,58.8021],[-80.35548,8.87189,66.3438],[-80.34173,8.87656,58.991],[-80.32553,8.88881,125.2526],[-80.24652,8.96354,119.0731],[-80.23282,8.9733,148.9748],[-80.22207,8.97842,75.2231],[-80.21458,8.98578,89.3434],[-80.20761,8.99844,113.3007],[-80.20239,9.0273,58.0338],[-80.19223,9.04748,13.9328],[-80.17823,9.0218,88.7972],[-80.17732,9.01085,34.6434],[-80.1705,8.97633,62.3274],[-80.16425,8.96571,24.2599],[-80.15748,8.95948,51.3168],[-80.14978,8.95452,39.6801],[-80.13745,8.94925,55.2219],[-80.09265,8.98369,46.8092],[-80.05017,8.96834,51.3793],[-80.02224,8.96617,110.1758],[-79.9854,8.9778,53.7804],[-79.95594,8.99697,45.0378],[-79.95062,9.00798,51.8587],[-79.94519,9.02374,55.7856],[-79.9455,9.03909,26.6052],[-79.94899,9.05074,31.3159],[-79.95734,9.06617,26.2611],[-79.96268,9.08348,29.48],[-79.92067,9.17518,72.3535],[-79.90594,9.19063,25.0],[-79.88925,9.19396,25.0],[-79.85799,9.17928,25.0],[-79.83001,9.17324,25.0],[-79.81905,9.16789,25.0],[-79.80856,9.15812,25.0],[-79.78954,9.12624,28.9837],[-79.77823,9.11435,25.0],[-79.75624,9.10924,57.2882],[-79.70474,9.11001,25.0],[-79.68792,9.11598,25.0],[-79.66976,9.12815,112.923],[-79.64157,9.16262,92.2474],[-79.63516,9.18985,66.485],[-79.62935,9.19357,74.8581],[-79.62229,9.199,62.2944],[-79.60475,9.20714,88.9924],[-79.58775,9.21213,72.5],[-79.57372,9.21825,72.5],[-79.56878,9.22391,72.5],[-79.56752,9.23096,72.5],[-79.57193,9.24882,72.5],[-79.57,9.26362,113.2459],[-79.56506,9.28458,107.7382],[-79.55191,9.31832,172.3658],[-79.54754,9.33393,196.5193],[-79.54718,9.34447,96.6853],[-79.54989,9.34834,88.7399],[-79.55059,9.35558,94.6058],[-79.5485,9.36589,175.0493],[-79.5225,9.45426,224.4789],[-79.48519,9.4694,428.0508],[-79.44078,9.47901,439.9393],[-79.41613,9.4725,237.83],[-79.39972,9.46614,258.9178],[-79.39122,9.45953,319.6624],[-79.38461,9.45092,382.1506],[-79.3812,9.44526,238.2364],[-79.37125,9.43253,288.1415],[-79.3697,9.42826,178.4561],[-79.3714,9.42539,291.6375],[-79.37603,9.42291,282.1161],[-79.38835,9.41757,291.9658],[-79.39375,9.41415,377.5868],[-79.39727,9.40901,522.5072],[-79.39879,9.40297,537.5601],[-79.39613,9.39591,494.8816],[-79.39143,9.39397,542.7328],[-79.38448,9.3949,459.0138],[-79.36815,9.40056,370.1214],[-79.35879,9.4025,514.1296],[-79.33489,9.40235,309.2606],[-79.32861,9.4039,407.4241],[-79.31818,9.41222,363.1126],[-79.30779,9.41485,390.8462],[-79.29017,9.41508,602.7262],[-79.26694,9.40731,393.6093],[-79.25671,9.40242,266.7252],[-79.25208,9.39661,412.5856],[-79.25376,9.39134,593.9343],[-79.26151,9.38095,501.4702],[-79.26162,9.37566,484.8755],[-79.25707,9.37224,513.3755],[-79.24808,9.36891,587.4061],[-79.24273,9.36356,504.079],[-79.23934,9.35674,450.5411],[-79.2381,9.34974,624.2305],[-79.23867,9.34408,588.5829],[-79.23981,9.33974,454.6973],[-79.24699,9.33075,466.1051],[-79.24348,9.32057,532.6065],[-79.23932,9.32049,506.3658],[-79.22035,9.33555,288.6957],[-79.19268,9.35269,302.2699],[-79.17625,9.36015,233.1792],[-79.15707,9.36659,305.1338],[-79.14808,9.37201,283.2697],[-79.14206,9.37785,377.8011],[-79.13914,9.38351,225.9033],[-79.13728,9.38994,124.8449],[-79.13558,9.40552,98.5017],[-79.13222,9.41524,85.6399],[-79.12088,9.43152,41.1237],[-79.11263,9.43945,23.2703],[-79.10222,9.44588,36.8922],[-79.0955,9.44774,36.004],[-79.087,9.44875,12.8972],[-79.07891,9.451,12.2801],[-79.07499,9.45728,16.3168],[-79.07455,9.54128,43.1407],[-79.07453,9.56204,2.3601]]]}
,"properties": {"ISO3166-1-Alpha-3": "PAN","country": "Panama","fill": "#00F","name": "Colón","area_km2": 5122.165,"hist_schema_id": "Elevation0-9000","hist_area_km2": {"-25": 0.084,"0": 255.401,"25": 949.632,"50": 715.386,"75": 669.056,"100": 595.915,"125": 474.388,"150": 322.077,"175": 223.704,"200": 150.393,"225": 110.133,"250": 93.109,"275": 75.425,"300": 61.339,"325": 51.358,"350": 43.427,"375": 37.444,"400": 32.529,"425": 29.706,"450": 25.501,"475": 22.991,"500": 19.037,"525": 17.196,"550": 16.443,"575": 16.15,"600": 15.418,"625": 13.054,"650": 12.489,"675": 9.749,"700": 8.891,"725": 8.807,"750": 7.615,"775": 6.8,"800": 5.692,"825": 4.353,"850": 3.182,"875": 3.643,"900": 2.66,"925": 2.179,"950": 1.739,"975": 1.446,"1000": 1.237,"1025": 1.132,"1050": 0.964,"1075": 0.671,"1100": 0.838,"1125": 0.461,"1150": 0.335,"1175": 0.231,"1200": 0.189,"1225": 0.168,"1250": 0.272,"1300": 0.042,"1350": 0.042}}}