{"type":"Feature","properties":{"GID_3":"PAN.11.3.4_1","GID_0":"PAN","country":"Panama","GID_1":"PAN.11_1","province":"PanamáOeste","NL_NAME_1":"NA","GID_2":"PAN.11.3_1","county":"Chame","NL_NAME_2":"NA","city":"Chame","VARNAME_3":"NA","NL_NAME_3":"NA","TYPE_3":"Corregimiento","ENGTYPE_3":"Municipality","CC_3":"NA","HASC_3":"NA","name":"Chame.city"},
"geometry":{"type": "MultiPolygon","coordinates": [[[[-79.8962,8.5835,23.4459],[-79.8879,8.5811,37.1342],[-79.8737,8.5803,14.3338],[-79.8596,8.5865,16.2659],[-79.8454,8.5802,178.6707],[-79.8321,8.5618,2.5141],[-79.8271,8.5649,6.4183],[-79.8238,8.5646,3.388],[-79.8238,8.566,6.5792],[-79.8207,8.5651,0.0],[-79.8117,8.5679,1.5174],[-79.8084,8.585,13.7319],[-79.8019,8.5932,33.5027],[-79.8234,8.6015,170.1843],[-79.8576,8.6204,11.7694],[-79.862,8.6143,12.8263],[-79.8639,8.6082,22.6441],[-79.8686,8.6068,26.9845],[-79.8745,8.6007,26.0476],[-79.8915,8.5952,33.0109],[-79.8962,8.5835,23.4459]]]]}}