{"type":"Feature","properties":{"GID_3":"PAN.5.1.2_1","GID_0":"PAN","country":"Panama","GID_1":"PAN.5_1","province":"Darién","NL_NAME_1":"NA","GID_2":"PAN.5.1_1","county":"Chepigana","NL_NAME_2":"NA","city":"Camogantí","VARNAME_3":"NA","NL_NAME_3":"NA","TYPE_3":"Corregimiento","ENGTYPE_3":"Municipality","CC_3":"NA","HASC_3":"NA","name":"Camogantí.city"},
"geometry":{"type": "MultiPolygon","coordinates": [[[[-77.8286,8.1611,21.0876],[-77.8332,8.1636,21.2961],[-77.8384,8.1707,8.8612],[-77.8426,8.1621,0.0],[-77.851,8.1627,10.0079],[-77.8524,8.1812,5.2411],[-77.8551,8.184,0.0],[-77.8743,8.1915,14.8159],[-77.879,8.199,7.9761],[-77.8807,8.2076,5.1532],[-77.8887,8.2151,16.1634],[-77.8929,8.2171,0.0],[-77.9146,8.2251,7.5885],[-77.9313,8.2268,16.0327],[-77.9526,8.239,0.0],[-77.961,8.2396,0.0],[-77.9746,8.2365,7.0234],[-77.9743,8.2326,0.0],[-77.966,8.2265,5.4021],[-77.9565,8.2129,6.1763],[-77.9443,8.2051,0.0],[-77.9358,8.2021,27.7509],[-77.9432,8.1967,8.8916],[-77.9546,8.2024,9.5019],[-77.9762,8.2238,0.0],[-77.9876,8.2265,6.3977],[-77.9961,8.2251,5.9002],[-77.9903,8.2162,27.1357],[-77.9778,8.1886,29.1537],[-77.9375,8.0899,17.7257],[-77.9112,8.0315,26.1405],[-77.9005,8.0369,34.7922],[-77.8843,8.0383,11.7195],[-77.8744,8.0441,21.32],[-77.871,8.0432,20.2228],[-77.8643,8.0376,22.3543],[-77.8583,8.0305,25.6229],[-77.8494,8.0133,28.8023],[-77.8489,7.9983,29.1065],[-77.8434,7.9875,37.2598],[-77.8448,7.979,30.6664],[-77.844,7.9673,39.7808],[-77.8284,7.9483,98.8531],[-77.8135,7.9371,98.0122],[-77.8081,7.9277,87.0042],[-77.8008,7.9246,114.0775],[-77.7896,7.9239,159.009],[-77.7737,7.9307,196.5959],[-77.7677,7.9316,266.7314],[-77.7541,7.9187,365.5636],[-77.7495,7.918,424.6801],[-77.6899,7.9484,1095.7371],[-77.67,7.9558,359.2146],[-77.6701,7.9616,385.8501],[-77.6756,7.966,500.0046],[-77.676,7.9689,435.6952],[-77.6826,7.9746,525.8249],[-77.8027,8.1118,22.5166],[-77.814,8.1377,21.12],[-77.8286,8.1611,21.0876]]]]}}