{"type":"Feature","properties":{"GID_3":"PAN.12.6.19_1","GID_0":"PAN","country":"Panama","GID_1":"PAN.12_1","province":"Panamá","NL_NAME_1":"NA","GID_2":"PAN.12.6_1","county":"Panamá","NL_NAME_2":"NA","city":"Tocumen","VARNAME_3":"NA","NL_NAME_3":"NA","TYPE_3":"Corregimiento","ENGTYPE_3":"Municipality","CC_3":"NA","HASC_3":"NA","name":"Tocumen.city"},
"geometry":{"type": "MultiPolygon","coordinates": [[[[-79.4626,9.1845,518.0195],[-79.4614,9.1645,223.146],[-79.4647,9.1538,174.69],[-79.4634,9.1475,192.0592],[-79.4569,9.1407,269.2115],[-79.4445,9.136,412.2991],[-79.4362,9.1291,275.561],[-79.4343,9.1248,226.2619],[-79.4249,9.1149,201.6276],[-79.4164,9.1108,90.4312],[-79.4113,9.1056,64.7139],[-79.4098,9.0911,54.407],[-79.4136,9.0771,39.8294],[-79.4134,9.0708,26.1786],[-79.3962,9.0494,11.1625],[-79.397,9.039,9.4037],[-79.3937,9.0279,13.2133],[-79.3871,9.0333,23.8825],[-79.3691,9.035,4.3878],[-79.3525,9.0507,4.5624],[-79.3503,9.0629,5.7022],[-79.3464,9.0727,7.0541],[-79.347,9.0767,6.0844],[-79.3546,9.0881,17.2134],[-79.3687,9.1038,25.3177],[-79.3702,9.1149,41.6025],[-79.3792,9.1272,223.4567],[-79.4041,9.1429,404.8289],[-79.4271,9.1522,511.1137],[-79.4345,9.1577,389.3395],[-79.4462,9.18,480.4431],[-79.4461,9.1858,372.2423],[-79.4412,9.1976,378.1709],[-79.4507,9.2005,397.9969],[-79.4574,9.1985,291.6444],[-79.4634,9.2071,245.2789],[-79.467,9.2072,279.4898],[-79.4656,9.1959,380.2074],[-79.4609,9.1902,460.6151],[-79.4626,9.1845,518.0195]]]]}}