{"type": "Feature","bbox": [-82.0758,8.4158,-81.9418,8.5153],"geometry": {"type": "MultiPolygon","coordinates": [[[[-82.0197,8.4175,172.5022],[-82.0187,8.4189,145.682],[-82.012,8.4182,205.4572],[-82.0037,8.4201,205.1236],[-81.9892,8.4195,256.1221],[-81.9818,8.4228,215.4275],[-81.9699,8.4333,331.1317],[-81.9572,8.4468,502.9671],[-81.9452,8.4628,708.4438],[-81.9418,8.4725,678.175],[-81.9438,8.4788,716.3213],[-81.9446,8.4965,975.7758],[-81.9644,8.4916,870.726],[-81.9729,8.504,873.6758],[-81.9909,8.5045,680.0327],[-82.0214,8.5083,422.9778],[-82.0287,8.5153,327.5642],[-82.0354,8.5126,304.2776],[-82.0401,8.5086,213.6244],[-82.0487,8.4975,348.0403],[-82.0563,8.4972,248.3709],[-82.0663,8.4891,179.9349],[-82.0691,8.4839,205.7006],[-82.0758,8.4798,197.6487],[-82.0696,8.4757,258.528],[-82.0651,8.4752,194.255],[-82.0713,8.4663,124.8331],[-82.0648,8.4625,202.7056],[-82.0631,8.4566,220.5883],[-82.058,8.4537,303.4858],[-82.0561,8.4405,480.3858],[-82.0494,8.4356,321.8085],[-82.0534,8.4276,253.0656],[-82.0524,8.4241,202.7991],[-82.044,8.4218,184.2455],[-82.0426,8.4165,150.6455],[-82.0405,8.4158,136.1101],[-82.0308,8.4205,211.2727],[-82.0252,8.4261,253.073],[-82.0213,8.424,131.3845],[-82.0197,8.4175,172.5022]]]]}
,"properties": {"GID_3": "PAN.10.1.3_1","GID_0": "PAN","country": "Panama","GID_1": "PAN.10_1","province": "NgöbeBuglé","NL_NAME_1": "NA","GID_2": "PAN.10.1_1","county": "Besiko","NL_NAME_2": "NA","city": "CerroBanco","VARNAME_3": "NA","NL_NAME_3": "NA","TYPE_3": "Corregimiento","ENGTYPE_3": "Municipality","CC_3": "NA","HASC_3": "NA","name": "Cerro_Banco.city","area_km2": 108.73569,"hist_schema_id": "Elevation0-9000","hist_area_km2": {"125": 0.4614,"150": 2.05532,"175": 3.06202,"200": 4.53,"225": 6.33351,"250": 6.10281,"275": 6.48026,"300": 6.92057,"325": 10.21312,"350": 8.26271,"375": 7.67545,"400": 6.06065,"425": 4.38291,"450": 4.3829,"475": 3.37628,"500": 2.95685,"525": 2.24386,"550": 1.88735,"575": 1.92928,"600": 2.22287,"625": 2.55839,"650": 2.26481,"675": 2.07606,"700": 1.59374,"725": 1.82441,"750": 1.36306,"775": 1.23725,"800": 1.09044,"825": 0.92268,"850": 0.6291,"875": 0.52425,"900": 0.46134,"925": 0.23067,"950": 0.23067,"975": 0.16776,"1000": 0.02097}}}