{"type":"Feature","properties":{"GID_3":"PAN.3.3.1_1","GID_0":"PAN","country":"Panama","GID_1":"PAN.3_1","province":"Coclé","NL_NAME_1":"NA","GID_2":"PAN.3.3_1","county":"LaPintada","NL_NAME_2":"NA","city":"ElHarino","VARNAME_3":"NA","NL_NAME_3":"NA","TYPE_3":"Corregimiento","ENGTYPE_3":"Municipality","CC_3":"NA","HASC_3":"NA","name":"El_Harino.city"},
"geometry":{"type": "MultiPolygon","coordinates": [[[[-80.5471,8.6088,480.9455],[-80.5473,8.6134,390.5637],[-80.5556,8.6262,216.2047],[-80.5542,8.6315,269.7729],[-80.5452,8.6407,395.1472],[-80.5455,8.6487,428.8862],[-80.5402,8.6578,583.791],[-80.5447,8.6721,686.2015],[-80.5435,8.6811,798.2186],[-80.5459,8.6904,864.8431],[-80.5477,8.694,767.7289],[-80.5518,8.6967,844.7806],[-80.5636,8.7004,506.0004],[-80.5746,8.7007,505.8696],[-80.5723,8.715,387.2739],[-80.5736,8.7248,315.3172],[-80.5823,8.7303,235.4392],[-80.5832,8.7395,155.25],[-80.5887,8.7478,150.4705],[-80.5963,8.7512,101.6266],[-80.5986,8.7544,83.9782],[-80.5964,8.7602,111.5848],[-80.5969,8.7669,108.3891],[-80.5929,8.7805,93.4488],[-80.5829,8.7856,79.706],[-80.5737,8.7957,50.81],[-80.6221,8.7968,83.1328],[-80.6241,8.7988,129.6808],[-80.625,8.8049,181.7269],[-80.6237,8.8055,186.1051],[-80.625,8.8089,224.8824],[-80.6336,8.8073,209.7412],[-80.6407,8.8086,246.3923],[-80.6458,8.805,180.2558],[-80.654,8.8075,183.0089],[-80.6554,8.7951,93.5],[-80.6641,8.7917,121.4399],[-80.6723,8.7847,174.5096],[-80.677,8.7834,147.1673],[-80.6887,8.7754,158.7792],[-80.6907,8.769,128.1382],[-80.6845,8.7572,95.5054],[-80.6878,8.7543,142.9569],[-80.6874,8.748,227.7736],[-80.6934,8.7407,318.4787],[-80.6946,8.7359,354.2646],[-80.7009,8.7321,257.9843],[-80.7034,8.7267,279.7535],[-80.7018,8.7208,348.2288],[-80.7048,8.7057,551.9854],[-80.6993,8.6889,653.3058],[-80.6908,8.6834,619.0082],[-80.6856,8.6633,903.155],[-80.6813,8.6584,1031.879],[-80.6765,8.6579,1123.3843],[-80.6671,8.6679,1045.5659],[-80.6584,8.6684,1017.0677],[-80.6532,8.6664,941.031],[-80.6449,8.6577,834.9171],[-80.6305,8.658,1003.3801],[-80.6138,8.6402,738.7164],[-80.6049,8.6365,704.5704],[-80.5976,8.6269,607.5577],[-80.591,8.6254,489.4177],[-80.5849,8.6192,422.8185],[-80.5731,8.6129,392.7351],[-80.5723,8.6086,319.8156],[-80.5822,8.6064,434.0718],[-80.5847,8.6029,455.6814],[-80.5798,8.5945,485.2907],[-80.5731,8.5714,201.1213],[-80.5659,8.5746,142.9982],[-80.5543,8.567,110.0287],[-80.5551,8.5801,124.7324],[-80.5524,8.5886,134.0874],[-80.553,8.5961,192.5892],[-80.5484,8.5995,190.5737],[-80.5471,8.6088,480.9455]]]]}}