{"type":"Feature","properties":{"GID_3":"PAN.13.9.5_1","GID_0":"PAN","country":"Panama","GID_1":"PAN.13_1","province":"Veraguas","NL_NAME_1":"NA","GID_2":"PAN.13.9_1","county":"SantaFe","NL_NAME_2":"NA","city":"GatúoGatucito","VARNAME_3":"NA","NL_NAME_3":"NA","TYPE_3":"Corregimiento","ENGTYPE_3":"Municipality","CC_3":"NA","HASC_3":"NA","name":"Gatúo_Gatucito.city"},
"geometry":{"type": "MultiPolygon","coordinates": [[[[-80.8792,8.6006,1592.1589],[-80.891,8.598,1354.3098],[-80.9022,8.592,1128.5776],[-80.9121,8.591,1131.6387],[-80.9322,8.5838,961.5496],[-80.94,8.5841,917.8254],[-80.95,8.589,755.3275],[-80.9608,8.5875,792.2529],[-80.9776,8.5779,1233.8439],[-80.9843,8.5569,1013.6479],[-80.9836,8.5533,935.8871],[-80.9754,8.5437,1013.3606],[-80.9729,8.5371,976.3226],[-80.9701,8.508,883.6359],[-80.9527,8.4974,978.7357],[-80.9472,8.4898,903.1928],[-80.9458,8.4651,691.7021],[-80.9413,8.4602,546.58],[-80.9292,8.453,309.3432],[-80.9124,8.4347,315.7524],[-80.9029,8.4376,314.6251],[-80.8998,8.4427,478.6838],[-80.9009,8.4462,361.6551],[-80.9058,8.4501,365.4618],[-80.9075,8.4536,453.6371],[-80.9046,8.4599,501.8701],[-80.8999,8.4652,493.0106],[-80.9014,8.4743,637.7004],[-80.9076,8.5002,617.0331],[-80.9295,8.5258,819.5704],[-80.9323,8.5334,739.6476],[-80.9324,8.5389,779.927],[-80.9218,8.5543,710.326],[-80.9099,8.5657,827.3438],[-80.8792,8.6006,1592.1589]]]]}}