{"type":"Feature","properties":{"GID_3":"PAN.12.7.6_1","GID_0":"PAN","country":"Panama","GID_1":"PAN.12_1","province":"Panamá","NL_NAME_1":"NA","GID_2":"PAN.12.7_1","county":"SanMiguelito","NL_NAME_2":"NA","city":"MateoIturralde","VARNAME_3":"NA","NL_NAME_3":"NA","TYPE_3":"Corregimiento","ENGTYPE_3":"Municipality","CC_3":"NA","HASC_3":"NA","name":"Mateo_Iturralde.city"},
"geometry":{"type": "MultiPolygon","coordinates": [[[[-79.4742,9.0334,12.3962],[-79.479,9.0351,12.1752],[-79.4764,9.0377,14.7539],[-79.4791,9.0402,13.9789],[-79.487,9.0367,16.8257],[-79.4946,9.0381,49.4728],[-79.4945,9.0312,59.5872],[-79.4971,9.0312,56.7755],[-79.4971,9.0272,32.0669],[-79.4932,9.025,19.2074],[-79.4819,9.0249,8.5809],[-79.4759,9.0275,10.1971],[-79.4742,9.0334,12.3962]]]]}}