{"type":"Feature","properties":{"GID_3":"PAN.1.2.4_1","GID_0":"PAN","country":"Panama","GID_1":"PAN.1_1","province":"BocasdelToro","NL_NAME_1":"NA","GID_2":"PAN.1.2_1","county":"Changuinola","NL_NAME_2":"NA","city":"Teribe","VARNAME_3":"NA","NL_NAME_3":"NA","TYPE_3":"Corregimiento","ENGTYPE_3":"Municipality","CC_3":"NA","HASC_3":"NA","name":"Teribe.city"},
"geometry":{"type": "MultiPolygon","coordinates": [[[[-82.9342,9.0787,2766.2461],[-82.9311,9.0789,2774.5461],[-82.9276,9.0744,2905.3352],[-82.9143,9.0828,3034.3579],[-82.9061,9.0821,3109.907],[-82.8944,9.0872,3209.4194],[-82.8784,9.0994,3202.8364],[-82.8735,9.1073,3246.1343],[-82.874,9.1115,3279.9785],[-82.872,9.1182,3256.1836],[-82.8487,9.1134,2724.0359],[-82.8426,9.1174,2638.5449],[-82.8229,9.1205,2476.896],[-82.8157,9.1282,2715.0059],[-82.8138,9.1327,2560.9243],[-82.8082,9.1375,2678.0601],[-82.7973,9.155,2473.7388],[-82.7853,9.1631,2418.1106],[-82.7808,9.1687,2409.7083],[-82.774,9.1685,2381.6465],[-82.7727,9.1698,2402.6934],[-82.7726,9.1735,2297.7454],[-82.763,9.1883,1999.323],[-82.7547,9.1903,2027.1313],[-82.7396,9.2022,1844.6737],[-82.7302,9.2047,2063.9612],[-82.7295,9.2093,2070.3926],[-82.7311,9.2153,1970.8104],[-82.7252,9.2199,2070.5596],[-82.7223,9.2256,1925.2277],[-82.6945,9.2187,1549.8578],[-82.6898,9.215,1561.8658],[-82.6771,9.213,1360.6316],[-82.6685,9.2098,1310.4396],[-82.6563,9.2026,1586.1316],[-82.6501,9.1961,1405.9668],[-82.6439,9.1841,1616.9542],[-82.641,9.1814,1733.8538],[-82.6376,9.1813,1636.0786],[-82.6323,9.1891,1646.5348],[-82.6167,9.1991,1473.0526],[-82.6097,9.2155,1403.5153],[-82.6097,9.2194,1432.4336],[-82.6047,9.2236,1325.9066],[-82.6063,9.2385,1298.8955],[-82.603,9.2416,1174.9387],[-82.5979,9.2424,1120.0107],[-82.5951,9.2459,1032.7229],[-82.5998,9.2529,1066.7935],[-82.5997,9.2579,926.2155],[-82.6039,9.2681,1055.9441],[-82.603,9.2713,962.1189],[-82.6077,9.2749,960.9902],[-82.6119,9.2831,1205.3547],[-82.6109,9.2911,957.8319],[-82.615,9.3009,988.6453],[-82.6113,9.3106,766.6998],[-82.607,9.3173,567.84],[-82.6022,9.3209,525.9964],[-82.595,9.3377,340.8149],[-82.584,9.3395,323.8443],[-82.5762,9.3464,208.824],[-82.5634,9.3439,108.8734],[-82.5602,9.3459,88.9546],[-82.5569,9.3517,85.027],[-82.537,9.3565,23.6787],[-82.5318,9.3607,26.7812],[-82.5311,9.3731,45.84],[-82.5384,9.3771,58.3608],[-82.5453,9.3779,32.453],[-82.5516,9.3839,95.7049],[-82.5668,9.3881,38.6918],[-82.5702,9.3813,39.6353],[-82.5808,9.3698,64.3642],[-82.5816,9.3665,41.5263],[-82.5886,9.3661,152.6013],[-82.633,9.3865,275.3513],[-82.6334,9.3897,273.6722],[-82.6287,9.3968,353.4692],[-82.6064,9.3999,76.0252],[-82.6169,9.405,35.286],[-82.6406,9.4238,27.4835],[-82.6356,9.4292,20.5197],[-82.6296,9.4449,22.1107],[-82.6254,9.4505,19.0311],[-82.619,9.4535,29.0018],[-82.6194,9.4549,25.7604],[-82.6236,9.4557,22.0868],[-82.634,9.4527,13.4131],[-82.6485,9.4524,14.2101],[-82.6562,9.4477,16.1716],[-82.6609,9.4485,13.1073],[-82.6678,9.4471,18.2464],[-82.6741,9.4509,25.7849],[-82.6952,9.4577,46.3415],[-82.7015,9.4583,54.879],[-82.7192,9.4729,187.2829],[-82.7318,9.4769,247.1511],[-82.7491,9.4874,617.6267],[-82.7459,9.4665,622.1349],[-82.7461,9.4303,536.8708],[-82.7516,9.4225,523.0264],[-82.7613,9.4189,702.1407],[-82.768,9.4104,974.375],[-82.7716,9.3895,357.5116],[-82.7784,9.386,397.606],[-82.7881,9.3733,424.861],[-82.7896,9.3691,345.8599],[-82.789,9.3596,303.5095],[-82.7958,9.3553,285.6723],[-82.7943,9.3502,308.8134],[-82.8033,9.3374,427.6704],[-82.8025,9.329,442.606],[-82.8062,9.3254,484.2971],[-82.8133,9.324,606.9757],[-82.827,9.3136,563.9185],[-82.8322,9.3134,546.0749],[-82.8409,9.3177,591.7111],[-82.853,9.3138,826.2742],[-82.8675,9.299,828.1018],[-82.8725,9.2981,727.4976],[-82.8766,9.2953,701.1942],[-82.8813,9.2851,746.9761],[-82.8823,9.2731,723.9289],[-82.891,9.2626,753.4327],[-82.8906,9.2481,801.2567],[-82.8936,9.2431,913.074],[-82.8942,9.2366,879.8027],[-82.9046,9.2213,1177.0857],[-82.9101,9.2173,1300.3773],[-82.9125,9.2121,1378.4862],[-82.9201,9.2089,1482.2179],[-82.9185,9.1981,1543.9005],[-82.9232,9.1947,1675.2283],[-82.9257,9.1907,1643.0166],[-82.9272,9.1784,1811.6924],[-82.9343,9.1646,2015.4163],[-82.9342,9.0787,2766.2461]]]]}}