{"type": "Feature","bbox": [-82.8353,8.4287,-82.5457,8.9195],"geometry": {"type": "MultiPolygon","coordinates": [[[[-82.7201,8.439,48.8139],[-82.7034,8.4376,65.3567],[-82.7027,8.4335,56.1577],[-82.6989,8.432,56.9545],[-82.6904,8.43,65.3088],[-82.6833,8.4306,69.9056],[-82.6815,8.4389,81.8231],[-82.6828,8.4431,91.4721],[-82.6796,8.4525,117.2455],[-82.6705,8.4616,130.8047],[-82.6673,8.4608,129.7408],[-82.6618,8.4554,114.1821],[-82.6541,8.456,108.7926],[-82.6469,8.4528,97.9344],[-82.6355,8.4545,90.7229],[-82.6287,8.451,84.6438],[-82.6272,8.4562,88.1877],[-82.6214,8.4578,96.77],[-82.6186,8.4676,118.0457],[-82.6143,8.4695,120.5166],[-82.6116,8.4736,127.6169],[-82.611,8.4787,142.3079],[-82.6077,8.4823,147.9908],[-82.605,8.4907,165.0081],[-82.6026,8.5153,211.498],[-82.6073,8.5309,256.1814],[-82.6156,8.5402,292.9937],[-82.616,8.5485,321.7547],[-82.6087,8.5652,357.8911],[-82.6067,8.576,407.7773],[-82.6019,8.5846,425.3525],[-82.6027,8.6035,538.4481],[-82.6016,8.6136,592.8795],[-82.5983,8.6158,610.4459],[-82.5979,8.6201,586.1246],[-82.5998,8.62,625.2643],[-82.6073,8.6543,818.6133],[-82.6107,8.662,865.5029],[-82.6153,8.6668,915.6407],[-82.6165,8.685,977.7123],[-82.6207,8.6907,1032.6969],[-82.6289,8.7102,1074.9662],[-82.6329,8.7307,1128.4702],[-82.6313,8.7484,1414.845],[-82.6338,8.7597,1427.7474],[-82.6309,8.7652,1404.2496],[-82.6243,8.7707,1508.0862],[-82.6194,8.7801,1467.424],[-82.6191,8.7896,1513.8658],[-82.6115,8.7942,1567.0284],[-82.6036,8.7975,1701.8121],[-82.5976,8.7977,1787.7],[-82.5941,8.7961,1922.0549],[-82.5904,8.7852,2157.1785],[-82.5884,8.7843,2152.647],[-82.5698,8.7868,2149.1663],[-82.5505,8.7946,2693.1675],[-82.5457,8.8689,2386.321],[-82.5471,8.8729,2254.8547],[-82.5548,8.881,2269.2666],[-82.5564,8.8854,2327.0962],[-82.5648,8.8924,2258.5063],[-82.5698,8.9035,2461.1091],[-82.5837,8.9088,2640.3965],[-82.591,8.9065,2360.1729],[-82.5955,8.9104,2396.907],[-82.599,8.9112,2309.844],[-82.6156,8.9022,2355.3394],[-82.6274,8.9002,2409.4863],[-82.6301,8.901,2657.1641],[-82.6368,8.9076,2592.2544],[-82.6416,8.9074,2506.46],[-82.6538,8.8844,2426.916],[-82.6656,8.8941,2129.1787],[-82.6699,8.8908,2081.9004],[-82.6741,8.8899,2160.1733],[-82.6937,8.9007,2383.3474],[-82.6994,8.9195,2160.6809],[-82.7094,8.9099,2285.1621],[-82.7108,8.9065,2179.4482],[-82.7089,8.8992,2248.7854],[-82.7055,8.896,2019.0498],[-82.706,8.8921,1946.6194],[-82.7231,8.8713,1532.552],[-82.7313,8.869,1699.6084],[-82.7308,8.8553,1479.5308],[-82.7321,8.8483,1392.1602],[-82.7352,8.8395,1247.7156],[-82.7394,8.8344,1227.4884],[-82.738,8.8238,1144.9553],[-82.74,8.8098,1028.4224],[-82.7356,8.8107,995.9822],[-82.7322,8.8159,1086.6445],[-82.7286,8.8176,1097.9645],[-82.716,8.8092,1115.4852],[-82.7129,8.7884,1290.3162],[-82.6998,8.7747,1166.5463],[-82.6954,8.7662,1344.7825],[-82.6936,8.7458,1213.1169],[-82.7058,8.7228,1067.7805],[-82.7131,8.7178,1019.7454],[-82.7152,8.713,1038.785],[-82.7189,8.7122,933.7421],[-82.7215,8.7092,977.7967],[-82.7214,8.7018,1008.4763],[-82.7254,8.6961,972.5955],[-82.7247,8.6851,876.5543],[-82.7226,8.6787,782.1405],[-82.7238,8.6765,753.7422],[-82.7225,8.675,746.1723],[-82.7274,8.6697,812.959],[-82.7291,8.6636,774.7406],[-82.7268,8.6471,714.9659],[-82.7333,8.6228,570.1176],[-82.7415,8.6097,506.9341],[-82.7447,8.5951,450.4761],[-82.744,8.5894,394.799],[-82.7409,8.5847,413.0194],[-82.7406,8.5776,414.3619],[-82.755,8.5838,457.2188],[-82.7578,8.5889,602.9816],[-82.7644,8.592,483.1646],[-82.7682,8.5882,444.2461],[-82.7779,8.5844,350.1372],[-82.7849,8.5756,296.4624],[-82.7922,8.5714,290.5709],[-82.799,8.561,262.5309],[-82.8086,8.5541,245.5869],[-82.821,8.5493,217.2564],[-82.831,8.5412,165.1934],[-82.8277,8.5226,84.3847],[-82.8291,8.5131,75.7427],[-82.8258,8.4921,51.285],[-82.8315,8.4759,35.2092],[-82.8315,8.4673,28.8878],[-82.8353,8.4525,26.9089],[-82.8343,8.4454,22.373],[-82.8281,8.4416,28.9918],[-82.8277,8.4382,25.801],[-82.8243,8.4363,21.1447],[-82.8215,8.4368,20.635],[-82.8191,8.4301,20.319],[-82.8072,8.4306,22.4623],[-82.8046,8.4287,22.7573],[-82.7985,8.4311,18.7818],[-82.7856,8.4323,17.318],[-82.7314,8.4327,25.2374],[-82.7234,8.44,43.5023],[-82.7201,8.439,48.8139]]]]}
,"properties": {"GID_2": "PAN.2.5_1","GID_0": "PAN","country": "Panama","GID_1": "PAN.2_1","province": "Chiriquí","NL_NAME_1": "NA","county": "Bugaba","VARNAME_2": "NA","NL_NAME_2": "NA","TYPE_2": "Distrito","ENGTYPE_2": "District","CC_2": "NA","HASC_2": "PA.CH.BG","name": "Bugaba.county","area_km2": 867.8061,"hist_schema_id": "Elevation0-9000","hist_area_km2": {"0": 0.4404,"25": 38.4836,"50": 22.7325,"75": 22.6485,"100": 26.1921,"125": 28.771,"150": 30.0495,"175": 27.3856,"200": 24.659,"225": 24.9938,"250": 22.2046,"275": 18.3042,"300": 14.1106,"325": 13.125,"350": 14.8439,"375": 15.326,"400": 12.5583,"425": 12.1177,"450": 12.2223,"475": 11.1739,"500": 10.6706,"525": 10.8382,"550": 10.1252,"575": 9.8945,"600": 9.6427,"625": 9.7265,"650": 8.4267,"675": 7.8815,"700": 7.2526,"725": 6.5818,"750": 6.8751,"775": 6.7283,"800": 6.1623,"825": 6.2671,"850": 6.3089,"875": 5.7639,"900": 5.4704,"925": 6.4345,"950": 6.3715,"975": 5.7846,"1000": 5.3653,"1025": 6.8323,"1050": 6.2245,"1075": 4.6734,"1100": 3.6884,"1125": 3.5625,"1150": 3.6253,"1175": 4.3377,"1200": 4.1071,"1225": 4.4005,"1250": 4.4633,"1275": 5.5318,"1300": 8.2139,"1325": 8.8842,"1350": 14.2486,"1375": 15.1494,"1400": 9.408,"1425": 5.9715,"1450": 4.7352,"1475": 4.3999,"1500": 3.9598,"1525": 4.337,"1550": 3.9179,"1575": 3.9179,"1600": 3.6874,"1625": 4.253,"1650": 3.4988,"1675": 3.6454,"1700": 3.5825,"1725": 3.1844,"1750": 3.8339,"1775": 4.1481,"1800": 4.2528,"1825": 4.7137,"1850": 5.6145,"1875": 5.9497,"1900": 5.1117,"1925": 5.8449,"1950": 5.2583,"1975": 4.9651,"2000": 4.8813,"2025": 4.7975,"2050": 5.0069,"2075": 5.5935,"2100": 5.363,"2125": 5.4888,"2150": 5.4049,"2175": 5.5516,"2200": 5.2583,"2225": 4.9859,"2250": 4.5878,"2275": 4.7344,"2300": 3.6241,"2325": 4.085,"2350": 3.4356,"2375": 3.3518,"2400": 3.268,"2425": 2.6396,"2450": 2.451,"2475": 1.9901,"2500": 1.8645,"2525": 1.5503,"2550": 1.4874,"2575": 1.5712,"2600": 1.6131,"2625": 1.5083,"2650": 1.0893,"2675": 1.2569,"2700": 1.1103,"2725": 0.9637,"2750": 0.9427,"2775": 0.8589,"2800": 0.7123,"2825": 0.7961,"2850": 0.817,"2875": 0.5237,"2900": 0.3561,"2925": 0.2933,"2950": 0.1886,"2975": 0.2514,"3000": 0.1257,"3025": 0.1048,"3050": 0.0838,"3075": 0.0629,"3100": 0.021,"3125": 0.021,"3150": 0.0419,"3200": 0.021,"3225": 0.021}}}