{"type": "Feature","bbox": [-80.208,7.5263,-80.1286,7.6382],"geometry": {"type": "MultiPolygon","coordinates": [[[[-80.1458,7.528,123.3774],[-80.157,7.5436,171.0958],[-80.1637,7.5469,204.4589],[-80.1636,7.5587,159.509],[-80.1697,7.5717,177.3046],[-80.1665,7.5805,103.7127],[-80.1682,7.584,100.295],[-80.1729,7.5877,94.9738],[-80.1747,7.5936,122.11279999999999],[-80.1726,7.5988,79.6104],[-80.1654,7.6048,72.6163],[-80.1574,7.6073,44.1757],[-80.1535,7.6109,70.2655],[-80.1433,7.614,45.416],[-80.1304,7.6138,31.3054],[-80.1286,7.6171,30.2214],[-80.134,7.618,35.3748],[-80.1379,7.6217,30.4575],[-80.144,7.6242,32.5934],[-80.1477,7.6314,39.7002],[-80.1538,7.6347,39.1492],[-80.1641,7.6351,52.8832],[-80.1752,7.6382,57.6843],[-80.1868,7.6342,68.7679],[-80.1934,7.6337,75.5734],[-80.2014,7.6287,77.8736],[-80.206,7.623,100.9338],[-80.2076,7.6061,119.1701],[-80.2043,7.5983,120.4554],[-80.2076,7.589,187.3404],[-80.2056,7.5772,199.1427],[-80.208,7.5705,267.8123],[-80.2048,7.5675,280.7936],[-80.183,7.5616,306.3618],[-80.1697,7.5359,197.4034],[-80.1687,7.5263,178.8505],[-80.1603,7.5306,155.6771],[-80.1458,7.528,123.3774]]]]}
,"properties": {"GID_3": "PAN.9.6.4_1","GID_0": "PAN","country": "Panama","GID_1": "PAN.9_1","province": "LosSantos","NL_NAME_1": "NA","GID_2": "PAN.9.6_1","county": "Pocrí","NL_NAME_2": "NA","city": "Paritilla","VARNAME_3": "NA","NL_NAME_3": "NA","TYPE_3": "Corregimiento","ENGTYPE_3": "Municipality","CC_3": "NA","HASC_3": "NA","name": "Paritilla.city","area_km2": 47.0973,"hist_schema_id": "Elevation0-9000","hist_area_km2": {"25": 1.38699,"50": 8.34291,"75": 10.69668,"100": 6.2417299999999996,"125": 4.32943,"150": 3.25772,"175": 2.7533,"200": 4.07745,"225": 4.07745,"250": 1.38717,"275": 0.33629,"300": 0.18916,"325": 0.02102}}}