{"type": "Feature","bbox": [-82.538,8.2985,-82.4341,8.4512],"geometry": {"type": "MultiPolygon","coordinates": [[[[-82.5326,8.3908,17.9787],[-82.5272,8.3909,15.9499],[-82.5132,8.3951,30.9996],[-82.5091,8.3824,22.3292],[-82.5089,8.3595,11.2569],[-82.5072,8.3556,8.3343],[-82.5017,8.3523,6.5179],[-82.4896,8.3538,6.6265],[-82.4898,8.3447,5.5391],[-82.4842,8.347,5.9366],[-82.4793,8.3416,4.8073],[-82.4746,8.341,4.8389],[-82.482,8.3311,3.5899],[-82.4796,8.3266,3.9919],[-82.4792,8.3194,5.6422],[-82.4767,8.3197,3.4546],[-82.4749,8.3074,5.8376],[-82.4762,8.2985,0.0],[-82.4721,8.3001,7.8909],[-82.4582,8.3001,0.0],[-82.4576,8.3029,1.752],[-82.4601,8.304,0.0],[-82.4632,8.309,17.7623],[-82.4624,8.3135,6.3353],[-82.4641,8.3214,19.7549],[-82.4625,8.3264,29.6552],[-82.4571,8.328,23.1228],[-82.4593,8.3347,9.1987],[-82.4563,8.3375,11.5958],[-82.4582,8.3447,24.3751],[-82.4562,8.3534,23.8206],[-82.4585,8.3665,2.869],[-82.4483,8.3588,20.3812],[-82.4471,8.3516,20.2211],[-82.4358,8.3518,18.9947],[-82.4341,8.3578,20.3504],[-82.4359,8.3594,4.9787],[-82.4377,8.3568,19.7954],[-82.4408,8.3576,16.4166],[-82.4405,8.3595,8.2919],[-82.438,8.3603,11.406],[-82.4391,8.3646,7.9976],[-82.4483,8.365,19.9857],[-82.4633,8.3689,9.2488],[-82.4624,8.3745,3.5343],[-82.4637,8.3787,4.2392],[-82.4587,8.3838,12.0848],[-82.4584,8.3865,13.4107],[-82.4618,8.3931,14.9007],[-82.4683,8.4003,12.038],[-82.4698,8.4052,16.9943],[-82.4809,8.418,30.156],[-82.4844,8.4258,39.6739],[-82.4864,8.4276,38.1355],[-82.4954,8.4295,45.2577],[-82.4985,8.4371,52.9657],[-82.504,8.4431,47.2675],[-82.5226,8.4512,68.2757],[-82.5299,8.4484,76.7286],[-82.538,8.4421,61.6672],[-82.5341,8.4373,49.9001],[-82.5289,8.4231,36.7828],[-82.5281,8.4026,21.8009],[-82.5326,8.3908,17.9787]]]]}
,"properties": {"GID_3": "PAN.2.6.9_1","GID_0": "PAN","country": "Panama","GID_1": "PAN.2_1","province": "Chiriquí","NL_NAME_1": "NA","GID_2": "PAN.2.6_1","county": "David","NL_NAME_2": "NA","city": "SanPabloNuevo","VARNAME_3": "NA","NL_NAME_3": "NA","TYPE_3": "Corregimiento","ENGTYPE_3": "Municipality","CC_3": "NA","HASC_3": "NA","name": "San_Pablo_Nuevo.city","area_km2": 70.5199,"hist_schema_id": "Elevation0-9000","hist_area_km2": {"0": 21.5015,"25": 31.40083,"50": 13.94737,"75": 3.6702}}}