{"type": "Feature","bbox": [-82.2229,8.3188,-82.0197,8.4807],"geometry": {"type": "MultiPolygon","coordinates": [[[[-82.2182,8.3704,0.0],[-82.2168,8.3651,0.0],[-82.2229,8.3526,0.0],[-82.2174,8.3451,0.0],[-82.211,8.3457,8.196],[-82.2063,8.3443,3.1881],[-82.1957,8.3457,1.7721],[-82.1796,8.3404,0.0],[-82.1754,8.3404,0.0],[-82.174,8.341,2.9275],[-82.1732,8.3457,8.4748],[-82.1717,8.3416,1.8824],[-82.1623,8.3432,5.1713],[-82.1581,8.3403,0.0],[-82.1524,8.3413,6.2566],[-82.1524,8.3465,6.302],[-82.1502,8.3488,7.4523],[-82.1448,8.3456,2.8754],[-82.1311,8.3446,13.5872],[-82.1188,8.3331,36.8653],[-82.1092,8.3317,42.5238],[-82.1089,8.3226,31.5616],[-82.1058,8.3188,28.2199],[-82.0985,8.3285,32.6261],[-82.0822,8.3359,36.8727],[-82.0769,8.3473,42.9001],[-82.0727,8.3522,41.8865],[-82.0707,8.3592,58.7322],[-82.0671,8.3635,72.2716],[-82.0602,8.367,76.8912],[-82.057,8.3711,62.3431],[-82.0531,8.3812,96.1172],[-82.0468,8.3843,75.5744],[-82.0396,8.391,88.6933],[-82.0337,8.3994,109.1662],[-82.0252,8.4034,100.4305],[-82.022,8.4095,142.3376],[-82.0226,8.4145,137.6734],[-82.0197,8.4175,172.5022],[-82.021,8.4234,139.3048],[-82.0263,8.426,253.073],[-82.0308,8.4205,211.2727],[-82.0411,8.4158,136.1101],[-82.0429,8.4171,177.7989],[-82.044,8.4218,184.2455],[-82.0524,8.4241,202.7991],[-82.0534,8.4276,253.0656],[-82.0494,8.4356,321.8085],[-82.0561,8.4405,480.3858],[-82.058,8.4537,303.4858],[-82.0631,8.4566,220.5883],[-82.0648,8.4625,202.7056],[-82.0713,8.4663,124.8331],[-82.0651,8.4752,194.255],[-82.0696,8.4757,258.528],[-82.0775,8.4807,152.3874],[-82.0807,8.4789,126.9087],[-82.0833,8.4743,130.5915],[-82.0898,8.4711,121.8824],[-82.089,8.4651,148.2428],[-82.0924,8.459,129.3952],[-82.0983,8.4608,215.1279],[-82.1029,8.4558,249.6761],[-82.1095,8.4545,233.0288],[-82.1182,8.4502,281.4404],[-82.1208,8.4509,231.524],[-82.1235,8.4547,204.8295],[-82.1297,8.4496,197.1625],[-82.1359,8.4512,156.5088],[-82.1388,8.4476,216.9328],[-82.1445,8.4495,161.8168],[-82.1497,8.4474,198.8315],[-82.1578,8.4479,130.3886],[-82.162,8.4447,134.6337],[-82.1711,8.4429,98.4021],[-82.1827,8.4443,183.9106],[-82.1846,8.448,229.8694],[-82.1839,8.4513,253.9528],[-82.1759,8.4623,282.2453],[-82.1798,8.4714,153.2525],[-82.1854,8.4643,224.5901],[-82.1883,8.4642,204.9083],[-82.1961,8.4538,162.544],[-82.2021,8.4577,167.178],[-82.2075,8.4549,189.4701],[-82.2073,8.4341,453.6933],[-82.205,8.4196,443.1963],[-82.2181,8.4111,205.9689],[-82.2205,8.4047,67.1055],[-82.2184,8.3989,100.996],[-82.2139,8.3951,10.2956],[-82.2128,8.3868,32.6713],[-82.2084,8.3764,5.2694],[-82.2182,8.3704,0.0]]]]}
,"properties": {"GID_3": "PAN.2.12.2_1","GID_0": "PAN","country": "Panama","GID_1": "PAN.2_1","province": "Chiriquí","NL_NAME_1": "NA","GID_2": "PAN.2.12_1","county": "SanLorenzo","NL_NAME_2": "NA","city": "BocadelMonte","VARNAME_3": "NA","NL_NAME_3": "NA","TYPE_3": "Corregimiento","ENGTYPE_3": "Municipality","CC_3": "NA","HASC_3": "NA","name": "Bocadel_Monte.city","area_km2": 231.8136,"hist_schema_id": "Elevation0-9000","hist_area_km2": {"0": 13.7397,"25": 30.7725,"50": 37.5477,"75": 37.7766,"100": 25.5676,"125": 19.044,"150": 13.6328,"175": 12.0596,"200": 10.1928,"225": 7.9697,"250": 6.5435,"275": 4.0058,"300": 2.4958,"325": 1.7617,"350": 1.8037,"375": 1.0696,"400": 0.9648,"425": 1.4681,"450": 2.1812,"475": 0.9228,"500": 0.2517,"525": 0.0419}}}