{"type":"Feature","properties":{"GID_3":"PAN.10.5.11_1","GID_0":"PAN","country":"Panama","GID_1":"PAN.10_1","province":"NgöbeBuglé","NL_NAME_1":"NA","GID_2":"PAN.10.5_1","county":"Müna","NL_NAME_2":"NA","city":"SitioPrado","VARNAME_3":"NA","NL_NAME_3":"NA","TYPE_3":"Corregimiento","ENGTYPE_3":"Municipality","CC_3":"NA","HASC_3":"NA","name":"Sitio_Prado.city"},
"geometry":{"type": "MultiPolygon","coordinates": [[[[-81.5709,8.3652,320.6951],[-81.5628,8.3699,338.9792],[-81.5567,8.378,387.7064],[-81.5505,8.3768,303.7846],[-81.5432,8.3845,375.8132],[-81.5327,8.3853,278.7529],[-81.5325,8.3904,279.6823],[-81.5272,8.3921,281.5914],[-81.5345,8.4026,431.7513],[-81.5354,8.4078,465.3746],[-81.5286,8.4108,337.898],[-81.5224,8.4166,331.2543],[-81.534,8.4244,416.9408],[-81.532,8.4435,455.825],[-81.5381,8.4549,551.7786],[-81.5415,8.4585,635.3196],[-81.5459,8.4603,692.3408],[-81.5569,8.4593,867.4837],[-81.5612,8.4607,1103.5443],[-81.5679,8.4677,1271.3678],[-81.5717,8.4755,1155.0961],[-81.5771,8.4771,1044.7871],[-81.5935,8.4699,521.2665],[-81.5983,8.4635,472.0698],[-81.6002,8.4565,468.7244],[-81.599,8.451,446.397],[-81.5946,8.4444,493.7929],[-81.5947,8.4408,410.8849],[-81.5986,8.4352,391.6482],[-81.6193,8.4182,339.4908],[-81.626,8.4076,339.962],[-81.6292,8.3969,330.3308],[-81.6224,8.3865,303.3145],[-81.6253,8.3779,285.5963],[-81.618,8.3755,338.2448],[-81.6103,8.3754,334.0703],[-81.5985,8.3811,372.5323],[-81.5901,8.3816,291.131],[-81.5842,8.3771,253.1788],[-81.5818,8.3712,269.4827],[-81.5709,8.3652,320.6951]]]]}}