{"type":"Feature","properties":{"GID_2":"PAN.11.6_1","GID_0":"PAN","country":"Panama","GID_1":"PAN.11_1","province":"PanamáOeste","NL_NAME_1":"NA","county":"SanCarlos","VARNAME_2":"NA","NL_NAME_2":"NA","TYPE_2":"Distrito","ENGTYPE_2":"District","CC_2":"NA","HASC_2":"PA.PN.SC","name":"San_Carlos.county"},
"geometry":{"type": "MultiPolygon","coordinates": [[[[-79.9897,8.5696,176.5503],[-79.9982,8.5892,369.2229],[-80.0007,8.599,222.0942],[-80.0156,8.6094,228.8381],[-80.022,8.625,268.9893],[-80.0262,8.6302,383.3144],[-80.0318,8.6333,475.8],[-80.0434,8.6346,604.9041],[-80.0558,8.633,792.2093],[-80.0643,8.6392,755.7482],[-80.075,8.6378,1029.4991],[-80.0806,8.6362,1032.2505],[-80.1091,8.6114,670.2891],[-80.1055,8.6103,723.3945],[-80.1002,8.5878,793.9468],[-80.1038,8.5736,598.8211],[-80.1037,8.5637,587.2928],[-80.105,8.5629,523.8108],[-80.1135,8.5665,572.1406],[-80.1221,8.5666,575.7341],[-80.1117,8.5546,509.1388],[-80.1095,8.5474,465.3539],[-80.111,8.5417,427.2533],[-80.1073,8.535,397.9113],[-80.1016,8.5311,384.817],[-80.0963,8.5195,282.2485],[-80.0922,8.5152,279.4836],[-80.0998,8.4851,191.819],[-80.0981,8.4709,132.6598],[-80.0931,8.4671,153.2937],[-80.0907,8.4592,125.0353],[-80.0848,8.4554,107.6202],[-80.0742,8.4412,89.2955],[-80.0721,8.4283,67.7332],[-80.0688,8.4257,68.9445],[-80.0644,8.416,50.2421],[-80.0584,8.4153,35.0338],[-80.0565,8.4108,44.5664],[-80.0527,8.4074,38.3486],[-80.0535,8.4045,32.6815],[-80.0597,8.4013,20.5027],[-80.046,8.406,6.2717],[-80.0399,8.4124,18.9317],[-80.021,8.4213,10.5821],[-80.0076,8.4301,0.0],[-80.0013,8.4371,9.7311],[-79.984,8.4465,7.138],[-79.9757,8.449,5.7162],[-79.9704,8.456,5.819],[-79.9582,8.4626,0.0],[-79.9568,8.4663,18.7999],[-79.9512,8.4676,0.0],[-79.9524,8.4707,1.1152],[-79.9504,8.4793,0.0],[-79.9432,8.4929,6.2562],[-79.939,8.4943,6.6241],[-79.9318,8.5001,2.8376],[-79.9137,8.5076,12.4962],[-79.9135,8.5118,17.0565],[-79.9085,8.5143,2.7848],[-79.9079,8.5165,2.0327],[-79.9007,8.5221,14.5686],[-79.8947,8.5226,5.2924],[-79.8976,8.5307,25.1561],[-79.9017,8.5361,33.5594],[-79.9073,8.542,38.1781],[-79.9154,8.5464,54.412],[-79.9325,8.5536,79.5127],[-79.9463,8.5533,83.6178],[-79.9601,8.5602,142.9259],[-79.9669,8.5603,126.7123],[-79.9732,8.563,144.5183],[-79.9867,8.5652,176.6294],[-79.9862,8.5682,148.7525],[-79.9892,8.5682,166.2563],[-79.9897,8.5696,176.5503]]]]}}