{"type":"Feature","properties":{"GID_3":"PAN.4.3.2_1","GID_0":"PAN","country":"Panama","GID_1":"PAN.4_1","province":"Colón","NL_NAME_1":"NA","GID_2":"PAN.4.3_1","county":"Donoso","NL_NAME_2":"NA","city":"ElGuásimo","VARNAME_3":"NA","NL_NAME_3":"NA","TYPE_3":"Corregimiento","ENGTYPE_3":"Municipality","CC_3":"NA","HASC_3":"NA","name":"El_Guásimo.city"},
"geometry":{"type": "MultiPolygon","coordinates": [[[[-80.2291,8.9734,123.1633],[-80.2316,8.9879,128.1916],[-80.2269,8.9956,155.6097],[-80.22,9.0232,129.2808],[-80.2307,9.0234,106.7969],[-80.2434,9.0339,106.8745],[-80.255,9.039,111.318],[-80.267,9.0393,39.776],[-80.2765,9.0471,54.7159],[-80.2812,9.0538,38.6114],[-80.2889,9.0583,34.4107],[-80.2939,9.0634,34.2067],[-80.2974,9.0632,26.4036],[-80.3017,9.0572,36.9494],[-80.3052,9.0556,12.5954],[-80.3111,9.0626,48.191],[-80.323,9.0685,71.0744],[-80.3284,9.0692,13.0186],[-80.3394,9.065,78.2206],[-80.3481,9.0713,112.3749],[-80.3568,9.0669,212.6335],[-80.3614,9.0665,208.4057],[-80.3645,9.0675,219.1866],[-80.3657,9.0732,229.6296],[-80.3679,9.0746,329.851],[-80.3779,9.0703,347.4265],[-80.3871,9.0686,295.0184],[-80.3946,9.0589,292.8594],[-80.4005,9.0576,315.8475],[-80.4084,9.0585,315.0153],[-80.4125,9.0566,283.7244],[-80.4185,9.0489,203.391],[-80.4242,9.0454,146.2759],[-80.4204,9.038,187.2306],[-80.4212,9.035,93.7619],[-80.4392,9.0307,111.4846],[-80.444,9.0276,72.0463],[-80.4445,9.0208,63.9786],[-80.442,9.0118,59.9915],[-80.4582,8.9967,158.9414],[-80.437,8.9907,157.3022],[-80.4271,8.9673,145.2897],[-80.4229,8.9635,144.1286],[-80.4032,8.9603,185.2861],[-80.3912,8.9715,162.9843],[-80.3859,8.9741,83.6974],[-80.3834,8.9735,86.3339],[-80.3743,8.9595,139.6766],[-80.3786,8.9538,151.7998],[-80.3816,8.9453,162.889],[-80.3785,8.9265,167.1567],[-80.3743,8.9208,151.1255],[-80.3567,8.9086,164.0048],[-80.2291,8.9734,123.1633]]]]}}