{"type": "Feature","bbox": [-81.3234,8.4361,-81.1327,8.5643],"geometry": {"type": "MultiPolygon","coordinates": [[[[-81.322,8.5643,1497.9009],[-81.3234,8.5606,1384.8782],[-81.3168,8.5152,1179.668],[-81.3141,8.5275,1067.7526],[-81.3085,8.5331,1216.6067],[-81.3047,8.5328,1283.3545],[-81.2932,8.5227,1270.2769],[-81.2837,8.5031,1311.5292],[-81.2829,8.4968,1078.2999],[-81.2843,8.4923,1089.7373],[-81.2875,8.4909,979.7474],[-81.2966,8.4931,852.0198],[-81.3001,8.4874,808.337],[-81.3019,8.4763,635.8296],[-81.2976,8.47,555.6147],[-81.2929,8.4697,693.6116],[-81.2816,8.4756,825.678],[-81.2773,8.4748,872.4866],[-81.2636,8.4673,738.2782],[-81.2596,8.4704,713.1145],[-81.259,8.4721,715.0047],[-81.264,8.4871,972.422],[-81.2757,8.5038,1505.6759],[-81.2745,8.5098,1627.1665],[-81.277,8.5164,1707.7542],[-81.269,8.5168,1600.8867],[-81.2666,8.5135,1499.2274],[-81.2582,8.5105,1428.7272],[-81.2541,8.5061,1341.6238],[-81.2473,8.4825,676.5117],[-81.2328,8.4578,436.0884],[-81.2227,8.4581,463.6616],[-81.2116,8.4551,504.0519],[-81.194,8.4552,401.2289],[-81.1721,8.4722,770.9523],[-81.1669,8.4679,700.938],[-81.1631,8.4565,647.4772],[-81.1487,8.4519,442.9057],[-81.1327,8.4361,444.6423],[-81.1381,8.4555,587.4918],[-81.1509,8.4636,606.5835],[-81.1645,8.4759,789.3549],[-81.1709,8.4844,738.2662],[-81.1743,8.5111,1020.8887],[-81.1775,8.5132,876.9505],[-81.1889,8.5126,826.6239],[-81.2032,8.5142,826.0151],[-81.2108,8.5125,1158.6023],[-81.22,8.5146,1185.8068],[-81.2311,8.5137,1318.5095],[-81.2414,8.5209,1634.0972],[-81.2508,8.5328,1567.5046],[-81.2542,8.5343,1368.0807],[-81.2637,8.5338,1054.3588],[-81.2729,8.5356,981.3935],[-81.2951,8.5316,1311.8958],[-81.3029,8.5407,1370.2832],[-81.3086,8.5526,1522.5686],[-81.322,8.5643,1497.9009]]]]}
,"properties": {"GID_3": "PAN.10.7.6_1","GID_0": "PAN","country": "Panama","GID_1": "PAN.10_1","province": "NgöbeBuglé","NL_NAME_1": "NA","GID_2": "PAN.10.7_1","county": "Ñürüm","NL_NAME_2": "NA","city": "ElParedón","VARNAME_3": "NA","NL_NAME_3": "NA","TYPE_3": "Corregimiento","ENGTYPE_3": "Municipality","CC_3": "NA","HASC_3": "NA","name": "El_Paredón.city","area_km2": 87.2126,"hist_schema_id": "Elevation0-9000","hist_area_km2": {"400": 0.18874,"425": 0.41943,"450": 1.59384,"475": 2.05521,"500": 2.22299,"525": 2.01324,"550": 1.63575,"575": 1.9503,"600": 2.32778,"625": 2.05514,"650": 1.84542,"675": 1.71959,"700": 1.59376,"725": 1.74055,"750": 1.53084,"775": 1.57278,"800": 1.76151,"825": 1.95023,"850": 1.65664,"875": 1.86634,"900": 2.07603,"925": 2.01313,"950": 2.13894,"975": 2.43251,"1000": 2.32763,"1025": 1.74047,"1050": 1.69852,"1075": 1.67754,"1100": 1.76142,"1125": 1.88721,"1150": 2.28561,"1175": 1.80333,"1200": 1.86622,"1225": 2.24362,"1250": 1.76136,"1275": 1.69846,"1300": 1.95008,"1325": 1.69844,"1350": 2.03393,"1375": 1.7194,"1400": 1.5936,"1425": 1.76131,"1450": 1.55167,"1475": 1.48874,"1500": 1.53067,"1525": 1.27905,"1550": 1.19518,"1575": 1.09034,"1600": 0.96453,"1625": 0.73388,"1650": 0.56614,"1675": 0.48226,"1700": 0.27259,"1725": 0.12581,"1750": 0.04194,"1775": 0.02097}}}