{"type": "Feature","bbox": [-80.8908,7.5458,-80.7776,7.7239],"geometry": {"type": "MultiPolygon","coordinates": [[[[-80.8908,7.6707,232.0047],[-80.8409,7.5898,587.8339],[-80.8227,7.5575,330.9416],[-80.8106,7.5494,270.7127],[-80.7934,7.5458,479.9786],[-80.7932,7.5543,689.4537],[-80.7859,7.596,792.1702],[-80.7902,7.5989,807.4236],[-80.7886,7.6079,835.0362],[-80.7915,7.612,896.7758],[-80.7928,7.6204,816.2808],[-80.7836,7.6323,812.5088],[-80.79,7.6375,643.9788],[-80.7946,7.6374,639.6368],[-80.7978,7.6409,653.9821],[-80.7989,7.6463,546.4583],[-80.8048,7.6517,468.9434],[-80.7828,7.6728,704.2153],[-80.7823,7.675,672.4487],[-80.7892,7.6814,609.9306],[-80.7882,7.6837,601.5043],[-80.7795,7.6856,457.3789],[-80.7776,7.6901,457.7883],[-80.7799,7.6915,473.4493],[-80.7838,7.6909,470.7792],[-80.7864,7.6947,470.7899],[-80.7934,7.6994,501.3453],[-80.8018,7.7024,510.7419],[-80.806,7.7056,527.2679],[-80.8057,7.7078,554.8871],[-80.8,7.713,523.774],[-80.8102,7.7239,753.2501],[-80.8242,7.7219,633.4479],[-80.8319,7.7172,773.8568],[-80.8429,7.7181,886.829],[-80.8519,7.7069,471.7165],[-80.8644,7.7152,579.5183],[-80.8705,7.712,566.0266],[-80.8743,7.7152,592.4973],[-80.8788,7.7155,529.8187],[-80.8842,7.7094,531.3545],[-80.8817,7.6791,336.4764],[-80.8856,7.6734,279.5024],[-80.8908,7.6707,232.0047]]]]}
,"properties": {"GID_3": "PAN.7.2.1_1","GID_0": "PAN","country": "Panama","GID_1": "PAN.7_1","province": "Herrera","NL_NAME_1": "NA","GID_2": "PAN.7.2_1","county": "LasMinas","NL_NAME_2": "NA","city": "Chepo","VARNAME_3": "NA","NL_NAME_3": "NA","TYPE_3": "Corregimiento","ENGTYPE_3": "Municipality","CC_3": "NA","HASC_3": "NA","name": "Chepo.city","area_km2": 144.1116,"hist_schema_id": "Elevation0-9000","hist_area_km2": {"125": 0.0841,"150": 0.7565,"175": 1.2608,"200": 2.0803,"225": 3.4252,"250": 4.2447,"275": 5.0852,"300": 5.7366,"325": 6.8083,"350": 6.2619,"375": 6.1779,"400": 6.8292,"425": 6.1779,"450": 6.262,"475": 5.6946,"500": 6.2829,"525": 6.7662,"550": 7.2075,"575": 7.0815,"600": 7.0185,"625": 6.5353,"650": 6.8927,"675": 6.2413,"700": 6.0522,"725": 4.5602,"750": 3.1732,"775": 2.9631,"800": 2.5849,"825": 2.1015,"850": 0.8196,"875": 0.6515,"900": 0.1471,"925": 0.0841,"950": 0.0631}}}