{"type": "Feature","bbox": [-79.827,9.2936,-79.6647,9.414],"geometry": {"type": "MultiPolygon","coordinates": [[[[-79.6647,9.367,186.2897],[-79.711,9.3689,402.7836],[-79.7159,9.3719,351.3761],[-79.7279,9.386,171.1676],[-79.7337,9.3889,129.0502],[-79.7463,9.3897,145.8505],[-79.7557,9.3827,51.6196],[-79.7623,9.3837,92.2756],[-79.7684,9.3913,30.9772],[-79.7753,9.3923,34.6058],[-79.7868,9.3972,24.7747],[-79.7981,9.4103,26.3043],[-79.8055,9.4108,10.0464],[-79.8099,9.414,2.6321],[-79.8138,9.4121,1.6242],[-79.814,9.4099,11.0949],[-79.8157,9.4093,0.0],[-79.816,9.404,1.1562],[-79.8179,9.4032,0.0],[-79.8129,9.3971,11.6835],[-79.8126,9.3943,3.7642],[-79.8074,9.3935,0.0],[-79.8074,9.3904,4.695],[-79.8099,9.3918,2.4539],[-79.8107,9.3899,0.0],[-79.8076,9.3832,0.0],[-79.8093,9.3793,0.0],[-79.8079,9.3713,1.8026],[-79.7962,9.3632,0.0],[-79.7965,9.3612,0.0],[-79.801,9.3588,0.0],[-79.8021,9.3593,0.0],[-79.8012,9.3632,1.8088],[-79.804,9.3649,3.9721],[-79.8087,9.3579,8.6783],[-79.8093,9.3615,6.5261],[-79.806,9.3696,2.0759],[-79.8104,9.3718,2.42],[-79.8121,9.3782,0.0],[-79.8112,9.3815,2.0211],[-79.8196,9.3785,3.9712],[-79.8193,9.3821,3.0266],[-79.816,9.3829,1.1187],[-79.8151,9.3932,0.0],[-79.8174,9.3932,3.7934],[-79.8193,9.3963,0.7929],[-79.8218,9.3968,1.1277],[-79.827,9.3899,16.9297],[-79.8252,9.388,12.6973],[-79.826,9.3769,13.9131],[-79.822,9.3764,11.475],[-79.8049,9.351,5.5005],[-79.795,9.3394,78.9157],[-79.7886,9.3246,86.2355],[-79.7823,9.2966,119.5966],[-79.7765,9.2936,70.3176],[-79.77,9.2955,44.413],[-79.7586,9.3035,69.4767],[-79.7482,9.3077,46.482],[-79.737,9.3202,131.9951],[-79.733,9.3291,253.3557],[-79.7294,9.3332,255.9108],[-79.7257,9.3334,258.0117],[-79.7219,9.3309,239.2474],[-79.7149,9.3191,96.2813],[-79.693,9.3375,112.4175],[-79.6895,9.3457,152.7756],[-79.6852,9.3503,148.5336],[-79.6647,9.367,186.2897]]]]}
,"properties": {"GID_3": "PAN.4.2.10_1","GID_0": "PAN","country": "Panama","GID_1": "PAN.4_1","province": "Colón","NL_NAME_1": "NA","GID_2": "PAN.4.2_1","county": "Colón","NL_NAME_2": "NA","city": "PuertoPilón","VARNAME_3": "NA","NL_NAME_3": "NA","TYPE_3": "Corregimiento","ENGTYPE_3": "Municipality","CC_3": "NA","HASC_3": "NA","name": "Puerto_Pilón.city","area_km2": 103.88989,"hist_schema_id": "Elevation0-9000","hist_area_km2": {"0": 10.71033,"25": 10.71034,"50": 4.33052,"75": 6.06715,"100": 8.36848,"125": 9.2471,"150": 9.66543,"175": 8.01262,"200": 7.61509,"225": 6.12974,"250": 4.79077,"275": 3.59827,"300": 3.32632,"325": 2.44766,"350": 2.13385,"375": 1.61084,"400": 1.73635,"425": 1.46439,"450": 1.02507,"475": 0.73219,"500": 0.16736}}}