{"type": "Feature","bbox": [-80.5338,7.8548,-80.4553,7.9379],"geometry": {"type": "MultiPolygon","coordinates": [[[[-80.4989,7.9186,30.959],[-80.5019,7.9148,32.8619],[-80.5027,7.9092,38.8152],[-80.5087,7.9061,32.8655],[-80.5233,7.8937,23.9198],[-80.5243,7.8892,31.5029],[-80.522,7.8823,46.3456],[-80.5236,7.8805,46.0629],[-80.5288,7.8798,32.5734],[-80.5307,7.877,30.5725],[-80.5338,7.8584,47.337],[-80.5177,7.8548,82.7036],[-80.5097,7.8707,63.5205],[-80.4966,7.8765,55.8816],[-80.49,7.8824,44.235],[-80.464,7.9174,20.0847],[-80.4553,7.9226,17.7353],[-80.4617,7.9343,14.7165],[-80.4709,7.9379,19.7958],[-80.4765,7.9365,26.6995],[-80.488,7.9243,25.517],[-80.4989,7.9186,30.959]]]]}
,"properties": {"GID_3": "PAN.9.3.10_1","GID_0": "PAN","country": "Panama","GID_1": "PAN.9_1","province": "LosSantos","NL_NAME_1": "NA","GID_2": "PAN.9.3_1","county": "LosSantos","NL_NAME_2": "NA","city": "LosOlivos","VARNAME_3": "NA","NL_NAME_3": "NA","TYPE_3": "Corregimiento","ENGTYPE_3": "Municipality","CC_3": "NA","HASC_3": "NA","name": "Los_Olivos.city","area_km2": 30.15757,"hist_schema_id": "Elevation0-9000","hist_area_km2": {"0": 0.39899,"25": 16.21231,"50": 12.30709,"75": 1.05015,"100": 0.16802,"125": 0.021}}}