{"type":"Feature","properties":{"GID_3":"PAN.5.1.3_1","GID_0":"PAN","country":"Panama","GID_1":"PAN.5_1","province":"Darién","NL_NAME_1":"NA","GID_2":"PAN.5.1_1","county":"Chepigana","NL_NAME_2":"NA","city":"Chepigana","VARNAME_3":"NA","NL_NAME_3":"NA","TYPE_3":"Corregimiento","ENGTYPE_3":"Municipality","CC_3":"NA","HASC_3":"NA","name":"Chepigana.city"},
"geometry":{"type": "MultiPolygon","coordinates": [[[[-77.9939,8.2222,21.3306],[-77.9961,8.2251,5.9002],[-78.0001,8.2235,0.0],[-78.0029,8.2254,16.262],[-78.0165,8.2282,24.0689],[-78.0224,8.2324,0.0],[-78.0296,8.2407,6.6241],[-78.0351,8.2513,24.342],[-78.0362,8.2571,0.0],[-78.0399,8.2624,0.0],[-78.0385,8.2815,0.0],[-78.0449,8.2918,3.9376],[-78.0494,8.3043,1.8143],[-78.0555,8.2841,82.1311],[-78.0566,8.2686,16.4605],[-78.0595,8.2583,114.1037],[-78.0599,8.2234,174.2837],[-78.0546,8.2,222.9904],[-78.0549,8.1776,107.0596],[-78.0581,8.1699,187.3215],[-78.0676,8.1632,306.1251],[-78.0762,8.1629,108.0161],[-78.09,8.1657,53.3604],[-78.0891,8.1376,144.2218],[-78.0836,8.09,145.2015],[-78.083,8.0604,230.8145],[-78.0848,8.0229,155.998],[-78.0875,8.0075,243.3755],[-78.0906,8.0015,288.6151],[-78.1099,7.9834,210.7045],[-77.9361,8.022,36.8219],[-77.9188,8.0275,25.7308],[-77.9112,8.0315,26.1405],[-77.9375,8.0899,17.7257],[-77.9778,8.1886,29.1537],[-77.9939,8.2222,21.3306]]],
[[[-78.014,8.2354,26.8818],[-78.0154,8.2351,7.9585],[-78.0135,8.2318,0.0],[-78.0085,8.2293,0.0],[-77.9974,8.2282,0.0],[-77.9938,8.2293,2.4047],[-78.0026,8.2343,4.9676],[-78.014,8.2354,26.8818]]]]}}