{"type": "Feature","bbox": [-80.2316,8.9709,-80.199,9.1896],"geometry": {"type": "MultiPolygon","coordinates": [[[[-80.2101,9.064,55.5331],[-80.2008,9.0713,80.8802],[-80.199,9.0771,23.4403],[-80.2037,9.0848,112.3055],[-80.2021,9.0902,71.9172],[-80.2064,9.0923,86.9587],[-80.2064,9.1005,113.1709],[-80.2095,9.109,95.2817],[-80.2159,9.1137,50.1554],[-80.217,9.1172,76.6495],[-80.2086,9.1287,104.6878],[-80.2101,9.1367,65.1512],[-80.2037,9.1432,60.687],[-80.2083,9.1526,25.2247],[-80.2042,9.1594,36.3644],[-80.2091,9.1639,17.3679],[-80.2079,9.1781,18.5505],[-80.205,9.1896,2.8688],[-80.2251,9.1862,6.1747],[-80.2218,9.1834,9.779],[-80.2214,9.1788,11.9022],[-80.2256,9.1732,21.3598],[-80.2248,9.1692,17.0612],[-80.2264,9.1606,20.801],[-80.2197,9.1498,41.3101],[-80.219,9.1455,59.6643],[-80.2214,9.139,33.8031],[-80.2216,9.13,48.0941],[-80.2253,9.1234,66.5596],[-80.2181,9.1151,15.2939],[-80.2136,9.1,24.2761],[-80.2064,9.0916,128.5768],[-80.2135,9.0845,37.0191],[-80.2149,9.0758,54.5002],[-80.2245,9.0531,73.0823],[-80.226,9.0389,87.4994],[-80.2199,9.0257,125.1792],[-80.2269,8.9956,155.6097],[-80.2316,8.9879,128.1916],[-80.2291,8.9734,123.1633],[-80.2275,8.9719,116.3579],[-80.2168,8.9709,101.6813],[-80.2135,8.9723,97.3879],[-80.2125,8.9746,100.7657],[-80.2128,8.983,87.4618],[-80.2106,8.9901,50.9196],[-80.2111,9.001,50.5021],[-80.2088,9.017,46.0025],[-80.2106,9.0233,68.9446],[-80.2094,9.0362,74.1751],[-80.213,9.0433,56.9456],[-80.2147,9.0535,111.1986],[-80.2101,9.064,55.5331]]]]}
,"properties": {"GID_3": "PAN.4.3.5_1","GID_0": "PAN","country": "Panama","GID_1": "PAN.4_1","province": "Colón","NL_NAME_1": "NA","GID_2": "PAN.4.3_1","county": "Donoso","NL_NAME_2": "NA","city": "RíoIndio","VARNAME_3": "NA","NL_NAME_3": "NA","TYPE_3": "Corregimiento","ENGTYPE_3": "Municipality","CC_3": "NA","HASC_3": "NA","name": "Río_Indio.city","area_km2": 33.91732,"hist_schema_id": "Elevation0-9000","hist_area_km2": {"0": 1.84193,"25": 7.03336,"50": 6.11315,"75": 7.11906,"100": 5.8419,"125": 4.02041,"150": 1.57057,"175": 0.37694}}}