{"type":"Feature","properties":{"GID_3":"PAN.2.7.5_1","GID_0":"PAN","country":"Panama","GID_1":"PAN.2_1","province":"Chiriquí","NL_NAME_1":"NA","GID_2":"PAN.2.7_1","county":"Dolega","NL_NAME_2":"NA","city":"PotrerillosAbajo","VARNAME_3":"NA","NL_NAME_3":"NA","TYPE_3":"Corregimiento","ENGTYPE_3":"Municipality","CC_3":"NA","HASC_3":"NA","name":"Potrerillos_Abajo.city"},
"geometry":{"type": "MultiPolygon","coordinates": [[[[-82.4485,8.6534,596.6091],[-82.4586,8.657,632.9001],[-82.4619,8.6605,669.2291],[-82.4812,8.672,792.3469],[-82.489,8.6708,807.123],[-82.498,8.6738,840.3992],[-82.5093,8.6736,867.4837],[-82.5101,8.6719,863.7767],[-82.4944,8.6371,638.574],[-82.4865,8.6269,566.8601],[-82.4735,8.6189,506.9134],[-82.4614,8.608,426.2924],[-82.4503,8.6007,393.2575],[-82.4398,8.5971,353.8479],[-82.4367,8.5998,363.5904],[-82.4433,8.6096,412.9764],[-82.4421,8.6128,419.0531],[-82.4352,8.6138,406.1283],[-82.4268,8.6081,354.8057],[-82.4163,8.608,354.597],[-82.4223,8.6151,391.295],[-82.4288,8.6182,404.2194],[-82.4327,8.6236,436.6927],[-82.4485,8.6534,596.6091]]]]}}