{"type": "Feature","bbox": [-82.5021,8.7391,-82.4234,8.798],"geometry": {"type": "MultiPolygon","coordinates": [[[[-82.4272,8.7639,1175.7588],[-82.4241,8.7746,1207.3086],[-82.4234,8.7908,1260.1123],[-82.4255,8.7948,1290.5107],[-82.4356,8.7931,1174.7931],[-82.4472,8.798,1241.8313],[-82.4633,8.7942,1446.3926],[-82.4876,8.7955,1745.2949],[-82.5021,8.7911,2119.3164],[-82.4936,8.7802,1795.3799],[-82.4704,8.7791,1488.3073],[-82.4574,8.7717,1331.147],[-82.4463,8.7676,1265.1998],[-82.4442,8.7597,1190.6251],[-82.4388,8.7516,1140.125],[-82.4393,8.7391,1070.4878],[-82.4344,8.742,1066.6211],[-82.4336,8.7606,1048.2999],[-82.4272,8.7639,1175.7588]]]]}
,"properties": {"GID_3": "PAN.2.4.2_1","GID_0": "PAN","country": "Panama","GID_1": "PAN.2_1","province": "Chiriquí","NL_NAME_1": "NA","GID_2": "PAN.2.4_1","county": "Boquete","NL_NAME_2": "NA","city": "BajoBoquete","VARNAME_3": "NA","NL_NAME_3": "NA","TYPE_3": "Corregimiento","ENGTYPE_3": "Municipality","CC_3": "NA","HASC_3": "NA","name": "Bajo_Boquete.city","area_km2": 21.91759,"hist_schema_id": "Elevation0-9000","hist_area_km2": {"1050": 0.29336,"1075": 0.98486,"1100": 1.23631,"1125": 1.38297,"1150": 1.52964,"1175": 1.40391,"1200": 1.32008,"1225": 0.94292,"1250": 0.94292,"1275": 0.94292,"1300": 0.67051,"1325": 0.83814,"1350": 0.60765,"1375": 0.85909,"1400": 0.71242,"1425": 0.48193,"1450": 0.64956,"1475": 0.44002,"1500": 0.79623,"1525": 0.48193,"1550": 0.39811,"1575": 0.44002,"1600": 0.3143,"1625": 0.35621,"1650": 0.3143,"1675": 0.27239,"1700": 0.3143,"1725": 0.20953,"1750": 0.3143,"1775": 0.3143,"1800": 0.16763,"1825": 0.08381,"1850": 0.23049,"1875": 0.08381,"1900": 0.12572,"1925": 0.08381,"1950": 0.02095,"1975": 0.10477,"2000": 0.10477,"2025": 0.06286,"2050": 0.02095,"2075": 0.02095,"2100": 0.04191}}}