{"type": "Feature","bbox": [-82.511,8.4967,-82.4351,8.6184],"geometry": {"type": "MultiPolygon","coordinates": [[[[-82.44,8.4967,111.8039],[-82.4355,8.5063,181.2867],[-82.4351,8.5201,170.0759],[-82.4431,8.5314,202.274],[-82.4618,8.5704,320.0968],[-82.4643,8.5793,351.9983],[-82.469,8.5856,385.5726],[-82.4734,8.5964,435.4601],[-82.486,8.6169,539.3041],[-82.4906,8.6184,558.4534],[-82.511,8.6025,535.5099],[-82.5063,8.5928,485.9344],[-82.501,8.5869,447.6662],[-82.4987,8.5791,418.4314],[-82.4936,8.5708,376.3373],[-82.4841,8.5616,330.3853],[-82.48,8.5544,305.4807],[-82.4621,8.5387,237.9356],[-82.4488,8.5205,188.6685],[-82.4481,8.5168,157.5825],[-82.451,8.5101,150.9068],[-82.4492,8.4991,144.4274],[-82.44,8.4967,111.8039]]]]}
,"properties": {"GID_3": "PAN.2.7.7_1","GID_0": "PAN","country": "Panama","GID_1": "PAN.2_1","province": "Chiriquí","NL_NAME_1": "NA","GID_2": "PAN.2.7_1","county": "Dolega","NL_NAME_2": "NA","city": "Tinajas","VARNAME_3": "NA","NL_NAME_3": "NA","TYPE_3": "Corregimiento","ENGTYPE_3": "Municipality","CC_3": "NA","HASC_3": "NA","name": "Tinajas.city","area_km2": 32.93708,"hist_schema_id": "Elevation0-9000","hist_area_km2": {"125": 0.85974,"150": 1.76138,"175": 1.34197,"200": 1.2371,"225": 1.929,"250": 1.86606,"275": 2.13858,"300": 2.26433,"325": 2.2014,"350": 2.26426,"375": 2.18037,"400": 2.18034,"425": 2.18031,"450": 1.92871,"475": 1.99157,"500": 1.9077,"525": 1.78189,"550": 0.92238}}}