{"type":"Feature","properties":{"GID_3":"PAN.2.11.3_1","GID_0":"PAN","country":"Panama","GID_1":"PAN.2_1","province":"Chiriquí","NL_NAME_1":"NA","GID_2":"PAN.2.11_1","county":"SanFélix","NL_NAME_2":"NA","city":"LajasAdentro","VARNAME_3":"NA","NL_NAME_3":"NA","TYPE_3":"Corregimiento","ENGTYPE_3":"Municipality","CC_3":"NA","HASC_3":"NA","name":"Lajas_Adentro.city"},
"geometry":{"type": "MultiPolygon","coordinates": [[[[-81.8526,8.2709,60.6706],[-81.8768,8.2758,83.2666],[-81.8738,8.2571,75.706],[-81.8769,8.2425,54.1259],[-81.8852,8.2294,38.8536],[-81.8851,8.2229,39.9213],[-81.8876,8.2199,39.4669],[-81.8972,8.2153,33.7456],[-81.902,8.2056,29.8315],[-81.9182,8.1896,2.6991],[-81.9104,8.189,4.0801],[-81.9146,8.1865,0.0],[-81.9182,8.1868,0.0],[-81.9174,8.1849,0.0],[-81.9135,8.1851,0.8372],[-81.8924,8.1776,2.5551],[-81.8947,8.1825,8.141],[-81.8902,8.1991,19.834],[-81.8787,8.2225,32.7911],[-81.8684,8.2327,59.1943],[-81.8633,8.2492,35.5365],[-81.8544,8.2492,36.3932],[-81.8455,8.2458,32.67],[-81.8507,8.2531,33.331],[-81.8538,8.2611,55.9123],[-81.8526,8.2709,60.6706]]]]}}