{"type": "Feature","bbox": [-80.7353,7.9137,-80.6568,8.0228],"geometry": {"type": "MultiPolygon","coordinates": [[[[-80.7112,7.9148,93.282],[-80.7076,7.9169,91.2904],[-80.7047,7.9166,94.5154],[-80.6992,7.9199,83.7704],[-80.6979,7.9229,86.0603],[-80.6956,7.9234,85.0489],[-80.6919,7.9226,111.8534],[-80.6781,7.9137,71.7639],[-80.6749,7.9194,73.6945],[-80.6745,7.9238,81.697],[-80.6692,7.9219,76.184],[-80.6658,7.9247,74.5032],[-80.6593,7.9246,72.4408],[-80.6568,7.9266,65.7466],[-80.6599,7.9518,90.1865],[-80.6679,7.963,59.5327],[-80.6762,7.9708,66.2195],[-80.6807,7.9723,72.6631],[-80.6765,7.9858,53.6338],[-80.6768,7.9915,51.8771],[-80.6722,8.0025,43.1947],[-80.6769,8.011,43.3901],[-80.6789,8.0192,34.9667],[-80.6813,8.0187,38.868899999999996],[-80.6833,8.0228,32.0253],[-80.6902,8.0145,37.1654],[-80.6916,8.0106,43.4912],[-80.7001,8.004,51.0782],[-80.7036,7.9987,66.4497],[-80.7084,7.9965,50.0954],[-80.7154,7.9877,59.3805],[-80.719,7.9794,49.6007],[-80.7316,7.9671,103.1321],[-80.7303,7.9628,105.6819],[-80.7338,7.9565,156.7326],[-80.7319,7.9535,139.549],[-80.7353,7.9501,149.9172],[-80.7326,7.9432,138.1355],[-80.7346,7.9343,93.8518],[-80.7227,7.9297,68.1515],[-80.7191,7.9229,70.9972],[-80.715,7.9219,69.7809],[-80.7146,7.9186,72.4678],[-80.7112,7.9148,93.282]]]]}
,"properties": {"GID_3": "PAN.7.4.3_1","GID_0": "PAN","country": "Panama","GID_1": "PAN.7_1","province": "Herrera","NL_NAME_1": "NA","GID_2": "PAN.7.4_1","county": "Ocú","NL_NAME_2": "NA","city": "LlanoGrande","VARNAME_3": "NA","NL_NAME_3": "NA","TYPE_3": "Corregimiento","ENGTYPE_3": "Municipality","CC_3": "NA","HASC_3": "NA","name": "Llano_Grande.city","area_km2": 60.6422,"hist_schema_id": "Elevation0-9000","hist_area_km2": {"25": 0.25194,"50": 14.46706,"75": 29.94356,"100": 10.66711,"125": 4.03163,"150": 1.13392,"175": 0.14699}}}