{"type":"Feature","properties":{"GID_3":"PAN.3.6.3_1","GID_0":"PAN","country":"Panama","GID_1":"PAN.3_1","province":"Coclé","NL_NAME_1":"NA","GID_2":"PAN.3.6_1","county":"Penonomé","NL_NAME_2":"NA","city":"Coclé","VARNAME_3":"NA","NL_NAME_3":"NA","TYPE_3":"Corregimiento","ENGTYPE_3":"Municipality","CC_3":"NA","HASC_3":"NA","name":"Coclé.city"},
"geometry":{"type": "MultiPolygon","coordinates": [[[[-80.3973,8.3496,10.6008],[-80.399,8.3535,6.3802],[-80.3991,8.3628,5.9544],[-80.3939,8.3753,8.5245],[-80.3987,8.3851,12.1223],[-80.3985,8.393,13.9547],[-80.3873,8.4178,24.5075],[-80.3708,8.4407,37.8005],[-80.3611,8.45,46.5998],[-80.3507,8.4718,56.006],[-80.3479,8.4815,59.1627],[-80.3675,8.4783,53.1075],[-80.3795,8.4781,52.73],[-80.3886,8.4684,42.4434],[-80.3968,8.47,47.1537],[-80.4055,8.4744,47.6566],[-80.4165,8.4712,40.3212],[-80.427,8.4653,35.3533],[-80.4312,8.4677,27.2783],[-80.4392,8.4651,27.9312],[-80.4399,8.4628,24.9365],[-80.4358,8.4475,19.2677],[-80.442,8.4401,20.383],[-80.4482,8.4391,21.1425],[-80.4503,8.437,24.6354],[-80.4458,8.4291,19.3285],[-80.4519,8.4246,16.5299],[-80.4486,8.417,16.4573],[-80.4537,8.4011,12.3926],[-80.4689,8.3896,15.6604],[-80.4711,8.3837,9.1726],[-80.4857,8.3641,9.6628],[-80.4849,8.3601,8.2383],[-80.4869,8.3536,7.6246],[-80.4863,8.342,7.7939],[-80.4808,8.3332,10.5895],[-80.4714,8.3298,12.9972],[-80.4685,8.3264,8.1758],[-80.4662,8.326,7.8723],[-80.4567,8.3289,17.1739],[-80.4653,8.3339,12.3601],[-80.4559,8.3399,59.4225],[-80.4423,8.3378,4.4579],[-80.432,8.3411,6.1238],[-80.4242,8.3365,3.0211],[-80.4177,8.3449,4.4103],[-80.4116,8.3447,1.9405],[-80.4072,8.3478,1.7612],[-80.3973,8.3496,10.6008]]]]}}