{"type": "Feature","bbox": [-80.5862,8.2285,-80.517,8.2758],"geometry": {"type": "MultiPolygon","coordinates": [[[[-80.517,8.2758,5.0882],[-80.528,8.2752,9.0776],[-80.534,8.2692,8.4351],[-80.5411,8.2665,13.2818],[-80.5494,8.2699,15.3744],[-80.563,8.2671,26.2627],[-80.5645,8.2695,23.0345],[-80.5729,8.2655,32.5404],[-80.5818,8.2585,51.8299],[-80.5859,8.2528,34.5319],[-80.5862,8.2486,29.645],[-80.5832,8.2441,23.6078],[-80.5778,8.2401,26.1602],[-80.5702,8.2285,21.6634],[-80.5665,8.2299,20.2456],[-80.5348,8.2487,22.4082],[-80.5265,8.2487,12.0056],[-80.5226,8.2563,12.3289],[-80.517,8.2758,5.0882]]]]}
,"properties": {"GID_3": "PAN.3.1.5_1","GID_0": "PAN","country": "Panama","GID_1": "PAN.3_1","province": "Coclé","NL_NAME_1": "NA","GID_2": "PAN.3.1_1","county": "Aguadulce","NL_NAME_2": "NA","city": "Pocrí","VARNAME_3": "NA","NL_NAME_3": "NA","TYPE_3": "Corregimiento","ENGTYPE_3": "Municipality","CC_3": "NA","HASC_3": "NA","name": "Pocrí.city","area_km2": 21.42321,"hist_schema_id": "Elevation0-9000","hist_area_km2": {"0": 1.32185,"25": 15.67402,"50": 4.34341,"75": 0.04196,"100": 0.04196}}}