{"type":"Feature","properties":{"GID_3":"PAN.10.1.1_1","GID_0":"PAN","country":"Panama","GID_1":"PAN.10_1","province":"NgöbeBuglé","NL_NAME_1":"NA","GID_2":"PAN.10.1_1","county":"Besiko","NL_NAME_2":"NA","city":"BocaDeBalsa","VARNAME_3":"NA","NL_NAME_3":"NA","TYPE_3":"Corregimiento","ENGTYPE_3":"Municipality","CC_3":"NA","HASC_3":"NA","name":"Boca_De_Balsa.city"},
"geometry":{"type": "MultiPolygon","coordinates": [[[[-81.9603,8.6503,1460.0509],[-81.9798,8.6527,1091.2107],[-82.0012,8.6432,1216.4531],[-82.02,8.6436,1264.4449],[-82.0333,8.6335,1313.0519],[-82.0429,8.6283,1228.5106],[-82.0595,8.6272,1333.4852],[-82.0727,8.6222,1561.835],[-82.0788,8.6251,1584.7561],[-82.0857,8.632,1557.9757],[-82.0889,8.6377,1552.8495],[-82.0922,8.6385,1581.6284],[-82.0915,8.6313,1475.8616],[-82.0891,8.6287,1437.8842],[-82.0888,8.6185,1257.5291],[-82.0848,8.6091,1252.5022],[-82.0694,8.5901,840.6455],[-82.0735,8.5741,543.9563],[-82.0634,8.5627,394.8441],[-82.0576,8.5451,327.082],[-82.0514,8.5383,261.9266],[-82.0485,8.5316,280.8578],[-82.0486,8.4991,307.6872],[-82.0401,8.5086,213.6244],[-82.0327,8.5140999999999991,322.9993],[-82.0269,8.5148,327.5642],[-82.0214,8.5083,422.9778],[-82.0019,8.5233,497.141],[-81.9926,8.5274,727.6392],[-81.99,8.5302,757.7452],[-81.9895,8.5454,446.3525],[-81.9823,8.5534,373.5849],[-81.9789,8.5609,520.3064],[-81.9864,8.5715,477.9138],[-81.9904,8.5886,759.1605],[-81.9815,8.6005,1336.6371],[-81.9654,8.6143,1296.9373],[-81.9613,8.6274,1221.7921],[-81.9618,8.6395,1394.3192],[-81.9603,8.6503,1460.0509]]]]}}