{"type": "Feature","bbox": [-80.4558,7.3099,-80.3418,7.4269],"geometry": {"type": "MultiPolygon","coordinates": [[[[-80.4386,7.349,53.5455],[-80.3968,7.3387,64.8425],[-80.3905,7.3277,65.9325],[-80.384,7.3231,44.0712],[-80.3833,7.3099,0.0],[-80.3704,7.3149,4.2292],[-80.351,7.3171,12.6856],[-80.3418,7.3199,15.5106],[-80.3493,7.3304,0.0],[-80.3549,7.334,3.9494],[-80.3515,7.3435,0.0],[-80.3526,7.349,0.0],[-80.3607,7.3515,4.8427],[-80.3624,7.354,1.8119],[-80.3676,7.3565,8.2192],[-80.3615,7.3574,0.0],[-80.3626,7.3612,0.0],[-80.3662,7.3629,0.0],[-80.3676,7.3621,0.0],[-80.3679,7.3663,1.5884],[-80.3604,7.3829,10.859],[-80.3607,7.3915,6.6118],[-80.366,7.3907,5.7837],[-80.3635,7.3929,11.7858],[-80.3611,7.3924,6.9048],[-80.3633,7.3956,17.9752],[-80.3686,7.4012,22.9856],[-80.3749,7.4026,19.6455],[-80.3788,7.4075,10.2273],[-80.3924,7.4104,4.0528],[-80.3957,7.4142,7.1643],[-80.4036,7.4176,8.4644],[-80.4372,7.4269,11.8016],[-80.4558,7.4227,16.9318],[-80.4537,7.4144,16.5386],[-80.4541,7.4054,15.6114],[-80.4464,7.3934,13.0078],[-80.4459,7.3815,28.8344],[-80.4412,7.3712,44.008],[-80.436,7.3654,42.4249],[-80.4383,7.3585,109.4397],[-80.4386,7.349,53.5455]]]]}
,"properties": {"GID_3": "PAN.9.7.10_1","GID_0": "PAN","country": "Panama","GID_1": "PAN.9_1","province": "LosSantos","NL_NAME_1": "NA","GID_2": "PAN.9.7_1","county": "Tonosí","NL_NAME_2": "NA","city": "Tonosí","VARNAME_3": "NA","NL_NAME_3": "NA","TYPE_3": "Corregimiento","ENGTYPE_3": "Municipality","CC_3": "NA","HASC_3": "NA","name": "Tonosí.city","area_km2": 88.10267,"hist_schema_id": "Elevation0-9000","hist_area_km2": {"0": 43.92384,"25": 27.22976,"50": 3.80613,"75": 3.21737,"100": 2.25008,"125": 1.85054,"150": 2.1239,"175": 1.70333,"200": 0.88321,"225": 0.54674,"250": 0.1472,"275": 0.16823,"300": 0.10514,"325": 0.12617,"350": 0.02103}}}