{"type":"Feature","properties":{"GID_3":"PAN.13.10.4_1","GID_0":"PAN","country":"Panama","GID_1":"PAN.13_1","province":"Veraguas","NL_NAME_1":"NA","GID_2":"PAN.13.10_1","county":"Santiago","NL_NAME_2":"NA","city":"LaRayadeSantaMaría","VARNAME_3":"NA","NL_NAME_3":"NA","TYPE_3":"Corregimiento","ENGTYPE_3":"Municipality","CC_3":"NA","HASC_3":"NA","name":"La_Rayade_Santa_María.city"},
"geometry":{"type": "MultiPolygon","coordinates": [[[[-80.7095,8.1661,14.9223],[-80.7178,8.1631,15.9717],[-80.7308,8.1614,29.0188],[-80.7424,8.1643,28.4372],[-80.7547,8.1612,29.3717],[-80.7719,8.1618,41.2878],[-80.7864,8.1702,36.8829],[-80.7896,8.1806,23.2968],[-80.8232,8.1678,39.7574],[-80.8314,8.1734,24.3337],[-80.8436,8.1786,27.3428],[-80.8492,8.1878,49.4631],[-80.8531,8.191,30.4998],[-80.8652,8.1866,37.0915],[-80.8678,8.1843,36.8106],[-80.8789,8.1815,60.9068],[-80.8812,8.1795,65.5748],[-80.8788,8.175,77.8436],[-80.8701,8.1693,65.3737],[-80.8524,8.1663,54.3487],[-80.8457,8.1621,51.5402],[-80.8368,8.1455,57.7742],[-80.8403,8.1323,35.8799],[-80.8245,8.125,41.0282],[-80.8006,8.1107,28.0224],[-80.7922,8.1071,34.9514],[-80.7761,8.1035,23.887],[-80.7667,8.1048,23.0905],[-80.7523,8.1129,32.5663],[-80.7258,8.1122,35.3772],[-80.7177,8.1228,26.653],[-80.7081,8.1263,20.9552],[-80.7007,8.1254,22.159],[-80.6812,8.1169,21.116],[-80.6713,8.1191,11.215],[-80.6702,8.1226,7.8749],[-80.6712,8.1263,11.9023],[-80.6768,8.1354,11.0241],[-80.6872,8.1412,15.6405],[-80.6945,8.153,14.2929],[-80.7095,8.1661,14.9223]]]]}}