{"type":"Feature","properties":{"GID_2":"PAN.2.1_1","GID_0":"PAN","country":"Panama","GID_1":"PAN.2_1","province":"Chiriquí","NL_NAME_1":"NA","county":"Alanje","VARNAME_2":"NA","NL_NAME_2":"NA","TYPE_2":"Distrito","ENGTYPE_2":"District","CC_2":"NA","HASC_2":"PA.CH.AL","name":"Alanje.county"},
"geometry":{"type": "MultiPolygon","coordinates": [[[[-82.5285,8.3907,15.9499],[-82.5326,8.3908,17.9787],[-82.5281,8.4026,21.8009],[-82.5289,8.4231,36.7828],[-82.5339,8.4368,48.297],[-82.5368,8.4408,61.8827],[-82.557,8.448,81.5004],[-82.5748,8.452,84.3804],[-82.5792,8.4551,91.392],[-82.5885,8.4569,100.4263],[-82.6012,8.4561,100.9406],[-82.6214,8.4578,96.77],[-82.6272,8.4562,88.1877],[-82.6287,8.451,84.6438],[-82.6355,8.4545,90.7229],[-82.6469,8.4528,97.9344],[-82.6541,8.456,108.7926],[-82.6618,8.4554,114.1821],[-82.6673,8.4608,129.7408],[-82.6705,8.4616,130.8047],[-82.6796,8.4525,117.2455],[-82.6828,8.4431,91.4721],[-82.6815,8.4389,81.8231],[-82.6833,8.4306,69.9056],[-82.6904,8.43,65.3088],[-82.6989,8.432,56.9545],[-82.7027,8.4335,56.1577],[-82.7027,8.4374,65.3567],[-82.7222,8.4401,45.1622],[-82.7278,8.4368,31.8684],[-82.7299,8.4328,27.5529],[-82.7975,8.4312,17.5514],[-82.8044,8.4288,24.9507],[-82.809,8.4234,19.9528],[-82.8001,8.4258,21.0729],[-82.7996,8.4204,20.3063],[-82.7887,8.4154,14.7927],[-82.7886,8.4116,14.9836],[-82.7804,8.4051,13.724],[-82.7812,8.4015,12.8815],[-82.7788,8.3983,12.0125],[-82.7801,8.3951,13.2142],[-82.7739,8.3894,8.5739],[-82.7753,8.3847,9.8645],[-82.7726,8.3802,13.0146],[-82.7609,8.3732,9.6586],[-82.7522,8.3652,6.4799],[-82.7469,8.3626,7.1083],[-82.7373,8.3609,7.8005],[-82.7346,8.3558,7.8546],[-82.7214,8.3469,3.2428],[-82.7155,8.345,3.2051],[-82.7122,8.3384,21.7927],[-82.7087,8.3376,1.8811],[-82.7079,8.3438,4.9021],[-82.7076,8.3379,16.7482],[-82.7032,8.3351,4.7826],[-82.7004,8.3279,0.0],[-82.696,8.3293,12.5919],[-82.689,8.3287,0.0],[-82.6851,8.331,0.0],[-82.664,8.3287,0.0],[-82.6593,8.331,4.5482],[-82.6574,8.3279,1.0523],[-82.6532,8.329,4.3304],[-82.6485,8.3251,0.0],[-82.6387,8.3218,0.0],[-82.5257,8.2874,5.2036],[-82.4921,8.2718,0.0],[-82.4824,8.2707,3.0162],[-82.4832,8.2737,4.3043],[-82.4804,8.276,5.0808],[-82.4807,8.2774,0.0],[-82.4849,8.2788,0.0],[-82.4899,8.2782,6.7657],[-82.5004,8.2832,5.9725],[-82.4871,8.2799,1.8226],[-82.4785,8.2796,2.159],[-82.474,8.2813,0.0],[-82.4729,8.2837,0.0],[-82.4696,8.2843,0.0],[-82.4649,8.289,6.4099],[-82.4549,8.2924,1.9046],[-82.4538,8.2949,0.0],[-82.4679,8.2971,0.0],[-82.4904,8.294,6.7024],[-82.5004,8.2976,0.0],[-82.5054,8.2943,10.2534],[-82.509,8.2943,5.5936],[-82.5238,8.3015,9.5835],[-82.5265,8.3071,4.6389],[-82.5376,8.3062,3.5414],[-82.5362,8.3076,11.7473],[-82.5263,8.3082,4.6389],[-82.5201,8.3032,0.0],[-82.5168,8.3026,8.9872],[-82.5151,8.2993,0.0],[-82.5085,8.2971,11.555],[-82.5068,8.3004,6.4631],[-82.5018,8.3021,0.0],[-82.5013,8.3096,1.8588],[-82.5001,8.3085,6.7995],[-82.5004,8.2999,0.0],[-82.4896,8.2979,8.3527],[-82.4788,8.2993,0.0],[-82.479,8.3051,0.0],[-82.4812,8.3082,4.9237],[-82.4757,8.3082,4.7477],[-82.4767,8.3197,3.4546],[-82.4792,8.3194,5.6422],[-82.4796,8.3266,3.9919],[-82.482,8.3311,3.5899],[-82.4746,8.341,4.8389],[-82.4793,8.3416,4.8073],[-82.4842,8.347,5.9366],[-82.4898,8.3447,5.5391],[-82.4896,8.3538,6.6265],[-82.5017,8.3523,6.5179],[-82.5072,8.3556,8.3343],[-82.5089,8.3595,11.2569],[-82.5091,8.3824,22.3292],[-82.5132,8.3951,30.9996],[-82.5285,8.3907,15.9499]]]]}}