{"type":"Feature","properties":{"GID_3":"PAN.13.2.6_1","GID_0":"PAN","country":"Panama","GID_1":"PAN.13_1","province":"Veraguas","NL_NAME_1":"NA","GID_2":"PAN.13.2_1","county":"Calobre","NL_NAME_2":"NA","city":"LaLaguna","VARNAME_3":"NA","NL_NAME_3":"NA","TYPE_3":"Corregimiento","ENGTYPE_3":"Municipality","CC_3":"NA","HASC_3":"NA","name":"La_Laguna.city"},
"geometry":{"type": "MultiPolygon","coordinates": [[[[-80.6751,8.3249,113.0437],[-80.6966,8.3327,123.6278],[-80.7075,8.342,106.9858],[-80.7115,8.3533,146.4957],[-80.7104,8.3757,181.0436],[-80.7129,8.3876,149.8187],[-80.7467,8.3863,165.5266],[-80.755,8.384,220.5101],[-80.7811,8.3667,186.6966],[-80.7897,8.348,116.5107],[-80.7987,8.3373,109.357],[-80.7969,8.3293,113.2032],[-80.768,8.3184,89.7046],[-80.7788,8.3026,75.2881],[-80.7785,8.298,75.6982],[-80.7745,8.294,84.0524],[-80.7568,8.2826,118.5144],[-80.7477,8.2919,108.674],[-80.7374,8.2958,119.7603],[-80.707,8.2906,81.8359],[-80.7006,8.2864,101.6832],[-80.6977,8.2822,108.0247],[-80.6891,8.2574,102.2644],[-80.6696,8.2897,77.7813],[-80.6612,8.3196,119.8643],[-80.6751,8.3249,113.0437]]]]}}