{"type": "Feature","bbox": [-81.4862,8.2797,-81.3484,8.4991],"geometry": {"type": "MultiPolygon","coordinates": [[[[-81.4736,8.4099,345.6035],[-81.475,8.4081,325.6171],[-81.4782,8.4081,287.7473],[-81.479,8.41,288.6991],[-81.4862,8.4107,370.9727],[-81.4846,8.3939,314.0355],[-81.4794,8.3806,287.6168],[-81.477,8.3678,359.2783],[-81.4727,8.3639,408.6824],[-81.4606,8.3584,430.9857],[-81.4454,8.3205,234.2318],[-81.4468,8.3182,234.9102],[-81.4501,8.3181,231.3367],[-81.4718,8.3204,279.323],[-81.4582,8.3049,330.2003],[-81.4582,8.2903,220.0067],[-81.4371,8.2797,257.4366],[-81.4315,8.2844,251.6373],[-81.4239,8.3081,148.1657],[-81.416,8.319,165.4875],[-81.404,8.3146,132.7479],[-81.3961,8.3189,293.9764],[-81.3923,8.3405,268.726],[-81.3962,8.339,221.3904],[-81.4163,8.3506,333.9148],[-81.4212,8.3498,273.7936],[-81.4283,8.3555,195.9887],[-81.4315,8.3517,171.3809],[-81.4346,8.3598,214.1933],[-81.4376,8.3632,211.8357],[-81.4372,8.3676,200.1053],[-81.4337,8.3709,191.1687],[-81.4307,8.371,179.6064],[-81.4158,8.3577,336.0379],[-81.4125,8.3582,338.0065],[-81.4065,8.3634,319.8793],[-81.4006,8.3638,227.4986],[-81.3994,8.3653,227.4986],[-81.3977,8.3822,248.5359],[-81.3917,8.389,275.2776],[-81.3904,8.3963,407.9865],[-81.3837,8.3993,414.779],[-81.3804,8.3967,348.7203],[-81.3794,8.3873,379.4366],[-81.3764,8.3838,394.1845],[-81.3683,8.3867,373.7935],[-81.3536,8.3876,446.3735],[-81.3691,8.4154,685.1116],[-81.3675,8.4214,412.7981],[-81.3649,8.424,314.4342],[-81.3502,8.4277,290.3589],[-81.3484,8.4316,257.0143],[-81.3495,8.4378,253.8193],[-81.3507,8.4412,260.2309],[-81.3642,8.4514,285.4937],[-81.3633,8.4587,425.8163],[-81.3661,8.4615,409.0781],[-81.3687,8.4717,520.5154],[-81.3817,8.4931,635.2643],[-81.3875,8.4982,792.4033],[-81.3939,8.4991,708.6075],[-81.3993,8.4949,511.9705],[-81.4085,8.4703,759.7962],[-81.4181,8.4656,539.6006],[-81.4201,8.463,542.8105],[-81.4122,8.4399,482.4439],[-81.4133,8.4372,452.0156],[-81.4154,8.4364,425.6778],[-81.425,8.4365,355.0819],[-81.4237,8.4319,386.3922],[-81.4255,8.4231,390.5049],[-81.4299,8.4183,302.4228],[-81.4358,8.4288,340.9218],[-81.4426,8.4313,368.641],[-81.4485,8.436,452.1404],[-81.4516,8.4309,543.9546],[-81.4597,8.4312,481.6242],[-81.4614,8.4294,450.5968],[-81.4591,8.4229,467.6662],[-81.4506,8.4211,556.1777],[-81.4487,8.4171,501.2895],[-81.4492,8.4147,458.0418],[-81.4554,8.4109,430.0857],[-81.4579,8.4071,356.5566],[-81.4568,8.3982,316.3249],[-81.4594,8.3977,320.414],[-81.4664,8.4002,357.1805],[-81.4736,8.4099,345.6035]]]]}
,"properties": {"GID_3": "PAN.13.3.5_1","GID_0": "PAN","country": "Panama","GID_1": "PAN.13_1","province": "Veraguas","NL_NAME_1": "NA","GID_2": "PAN.13.3_1","county": "Cañazas","NL_NAME_2": "NA","city": "SanJosé","VARNAME_3": "NA","NL_NAME_3": "NA","TYPE_3": "Corregimiento","ENGTYPE_3": "Municipality","CC_3": "NA","HASC_3": "NA","name": "San_José.city","area_km2": 154.9642,"hist_schema_id": "Elevation0-9000","hist_area_km2": {"125": 0.8601,"150": 4.8671,"175": 6.0838,"200": 9.1463,"225": 12.7119,"250": 14.1801,"275": 14.012,"300": 12.1868,"325": 10.8021,"350": 8.1591,"375": 7.7185,"400": 8.4525,"425": 7.4037,"450": 7.4666,"475": 5.4531,"500": 4.3414,"525": 3.859,"550": 3.2088,"575": 2.5167,"600": 2.1601,"625": 1.9923,"650": 1.489,"675": 1.1744,"700": 1.0486,"725": 1.0905,"750": 0.9227,"775": 0.6291,"800": 0.3775,"825": 0.3985,"850": 0.2517}}}