{"type":"Feature","properties":{"GID_3":"PAN.7.6.7_1","GID_0":"PAN","country":"Panama","GID_1":"PAN.7_1","province":"Herrera","NL_NAME_1":"NA","GID_2":"PAN.7.6_1","county":"Pesé","NL_NAME_2":"NA","city":"RincónHondo","VARNAME_3":"NA","NL_NAME_3":"NA","TYPE_3":"Corregimiento","ENGTYPE_3":"Municipality","CC_3":"NA","HASC_3":"NA","name":"Rincón_Hondo.city"},
"geometry":{"type": "MultiPolygon","coordinates": [[[[-80.5836,7.7876,80.9252],[-80.5877,7.7967,60.946],[-80.596,7.7934,129.1591],[-80.6004,7.8015,78.6654],[-80.592,7.8083,65.1721],[-80.5882,7.8171,60.2169],[-80.583,7.8196,58.7917],[-80.5878,7.8234,64.7473],[-80.6034,7.8268,72.4234],[-80.6049,7.83,72.3263],[-80.6043,7.8366,58.6962],[-80.5997,7.8447,48.5109],[-80.6138,7.8587,69.9372],[-80.6278,7.8487,73.2908],[-80.6277,7.8391,74.7754],[-80.6299,7.8335,85.642],[-80.644,7.8326,110.5263],[-80.6531,7.8263,131.6357],[-80.6608,7.8249,144.2076],[-80.6443,7.8069,193.2068],[-80.627,7.8012,156.4988],[-80.6181,7.8001,142.9515],[-80.6122,7.7936,120.2538],[-80.5968,7.7858,146.0123],[-80.5836,7.7876,80.9252]]]]}}