{"type": "Feature","bbox": [-80.3957,7.8976,-79.9999,8.004],"geometry": {"type": "MultiPolygon","coordinates": [[[[-80.3922,7.98,4.7986],[-80.3848,7.9764,2.9547],[-80.3836,7.9725,4.8421],[-80.391,7.9635,5.3],[-80.3905,7.9533,3.2078],[-80.3932,7.9462,8.2984],[-80.3864,7.9454,9.3809],[-80.383,7.9432,14.7541],[-80.3786,7.931,19.7804],[-80.3782,7.9257,24.2909],[-80.3798,7.9223,22.7008],[-80.3827,7.9214,28.7325],[-80.3934,7.9261,24.5494],[-80.393,7.9168,44.0799],[-80.3957,7.9088,74.5059],[-80.381,7.9052,29.6857],[-80.3729,7.8992,24.3549],[-80.3624,7.8989,18.8986],[-80.3555,7.9019,13.8901],[-80.3485,7.902,11.9303],[-80.3473,7.8984,14.3534],[-80.3453,7.8976,13.3492],[-80.3432,7.8998,20.3556],[-80.3466,7.909,21.0495],[-80.3453,7.9122,8.5769],[-80.3428,7.9128,4.9918],[-80.3257,7.8998,9.4506],[-80.3207,7.9014,3.1929],[-80.3165,7.8999,5.382],[-80.3193,7.9032,0.0],[-80.3224,7.9026,1.8241],[-80.3254,7.9079,11.2433],[-80.3235,7.9099,2.7395],[-80.3238,7.9079,0.0],[-80.3204,7.9068,1.5113],[-80.3179,7.9104,0.4819],[-80.321,7.9174,1.6891],[-80.3262,7.9393,0.0],[-80.339,7.9626,0.0],[-80.3376,7.9663,2.0371],[-80.3454,7.9746,1.1303],[-80.3482,7.9799,1.226],[-80.3499,7.9799,5.9264],[-80.3618,8.0004,1.8729],[-80.3662,8.004,0.0],[-80.3697,8.0035,13.9013],[-80.3723,7.9998,21.393],[-80.3858,7.9945,8.8973],[-80.3941,7.9871,7.1191],[-80.3922,7.98,4.7986]]],
[[[-80.0001,7.9999,0.0],[-79.9999,7.9999,0.0],[-79.9999,8.0001,0.0],[-80.0001,8.0001,0.0],[-80.0001,7.9999,0.0]]]]}
,"properties": {"GID_3": "PAN.9.3.12_1","GID_0": "PAN","country": "Panama","GID_1": "PAN.9_1","province": "LosSantos","NL_NAME_1": "NA","GID_2": "PAN.9.3_1","county": "LosSantos","NL_NAME_2": "NA","city": "SantaAna","VARNAME_3": "NA","NL_NAME_3": "NA","TYPE_3": "Corregimiento","ENGTYPE_3": "Municipality","CC_3": "NA","HASC_3": "NA","name": "Santa_Ana.city","area_km2": 62.40815,"hist_schema_id": "Elevation0-9000","hist_area_km2": {"0": 40.31684,"25": 20.55828,"50": 1.47003,"75": 0.063}}}