{"type": "Feature","bbox": [-80.7294,7.5109,-80.4134,7.7939],"geometry": {"type": "MultiPolygon","coordinates": [[[[-80.719,7.523,584.7485],[-80.7294,7.5109,1048.8081],[-80.6396,7.5159,237.5453],[-80.5198,7.5384,316.9037],[-80.5109,7.5361,363.1598],[-80.4157,7.638,535.1321],[-80.4314,7.6384,708.5526],[-80.4358,7.6486,680.1078],[-80.4288,7.6557,617.8098],[-80.4271,7.666,380.9016],[-80.422,7.6733,313.4489],[-80.4253,7.6816,276.2273],[-80.4271,7.6934,223.4421],[-80.4254,7.6966,232.0363],[-80.4134,7.707,216.4563],[-80.4173,7.7113,174.9141],[-80.4169,7.7156,157.3075],[-80.4251,7.7205,197.9655],[-80.4292,7.7309,207.3963],[-80.4361,7.7328,171.7745],[-80.4424,7.7381,152.2132],[-80.485,7.761,173.4896],[-80.4978,7.7695,134.4699],[-80.5482,7.7764,82.6099],[-80.5692,7.7939,80.1512],[-80.583,7.7899,83.3017],[-80.5836,7.7876,80.9252],[-80.5928,7.7802,147.391],[-80.5925,7.7739,71.8462],[-80.5892,7.7708,70.1217],[-80.592,7.766,87.8338],[-80.5859,7.7534,126.4024],[-80.5798,7.7533,132.2102],[-80.5765,7.7489,137.3296],[-80.5776,7.7397,129.9911],[-80.5745,7.74,112.1097],[-80.5732,7.7438,114.8413],[-80.5684,7.7416,149.591],[-80.5733,7.7365,130.696],[-80.5729,7.7279,156.094],[-80.5667,7.7203,192.3043],[-80.5635,7.7114,91.1857],[-80.5687,7.6893,147.6137],[-80.5763,7.6863,114.9746],[-80.5784,7.6763,115.3434],[-80.5858,7.6612,120.5952],[-80.5967,7.663,145.1998],[-80.6003,7.6604,147.6469],[-80.6026,7.6517,135.148],[-80.6079,7.6513,150.4939],[-80.615,7.6551,163.8321],[-80.6216,7.6522,174.0727],[-80.6285,7.6513,191.8551],[-80.6336,7.6454,190.4732],[-80.6391,7.6429,217.7324],[-80.6399,7.6339,231.1667],[-80.6742,7.5772,241.2085],[-80.719,7.523,584.7485]]]]}
,"properties": {"GID_2": "PAN.9.4_1","GID_0": "PAN","country": "Panama","GID_1": "PAN.9_1","province": "LosSantos","NL_NAME_1": "NA","county": "Macaracas","VARNAME_2": "NA","NL_NAME_2": "NA","TYPE_2": "Distrito","ENGTYPE_2": "District","CC_2": "NA","HASC_2": "PA.LS.MC","name": "Macaracas.county","area_km2": 540.6529,"hist_schema_id": "Elevation0-9000","hist_area_km2": {"50": 1.3025,"75": 24.2646,"100": 34.4356,"125": 39.8392,"150": 45.8302,"175": 39.6112,"200": 36.2283,"225": 32.3202,"250": 29.8197,"275": 26.9622,"300": 25.4281,"325": 23.8103,"350": 22.823,"375": 24.2312,"400": 23.8107,"425": 22.4659,"450": 19.2506,"475": 16.5606,"500": 13.3452,"525": 9.5833,"550": 6.6621,"575": 4.2033,"600": 2.9634,"625": 2.8583,"650": 2.0597,"675": 1.9546,"700": 1.6814,"725": 1.4922,"750": 1.261,"775": 1.2821,"800": 0.7356,"825": 0.5885,"850": 0.3783,"875": 0.2943,"900": 0.1471,"925": 0.1051,"950": 0.021,"975": 0.042}}}