{"type":"Feature","properties":{"GID_2":"PAN.2.8_1","GID_0":"PAN","country":"Panama","GID_1":"PAN.2_1","province":"Chiriquí","NL_NAME_1":"NA","county":"Gualaca","VARNAME_2":"NA","NL_NAME_2":"NA","TYPE_2":"Distrito","ENGTYPE_2":"District","CC_2":"NA","HASC_2":"PA.CH.GL","name":"Gualaca.county"},
"geometry":{"type": "MultiPolygon","coordinates": [[[[-82.2958,8.4292,45.7516],[-82.2963,8.4267,44.9744],[-82.2916,8.4273,51.7497],[-82.2827,8.4245,44.0237],[-82.2774,8.4262,46.3035],[-82.269,8.4322,53.2561],[-82.2599,8.4226,84.6323],[-82.2492,8.4185,62.7593],[-82.2422,8.4235,88.3707],[-82.2345,8.4191,131.7576],[-82.2139,8.4228,430.5195],[-82.2054,8.4208,440.616],[-82.2074,8.4357,446.1666],[-82.2075,8.4549,189.4701],[-82.2021,8.4577,167.178],[-82.1961,8.4538,162.544],[-82.1883,8.4642,204.9083],[-82.1854,8.4643,224.5901],[-82.1798,8.4714,153.2525],[-82.1776,8.4834,176.0241],[-82.1663,8.4946,295.3059],[-82.1646,8.502,317.5092],[-82.153,8.5098,241.4492],[-82.1523,8.5168,293.3209],[-82.1536,8.5201,293.7339],[-82.1566,8.5241,437.6914],[-82.1661,8.53,503.6504],[-82.1657,8.5313,499.6064],[-82.1612,8.5308,499.1903],[-82.1614,8.5288,493.928],[-82.1504,8.5295,268.0107],[-82.1471,8.5347,302.485],[-82.145,8.5439,333.6873],[-82.1411,8.5465,410.8024],[-82.1381,8.5514,405.224],[-82.1351,8.5517,475.4438],[-82.132,8.5475,551.1768],[-82.1266,8.5447,544.7215],[-82.1277,8.5589,708.0396],[-82.1301,8.5627,612.8518],[-82.1375,8.5607,509.3406],[-82.1418,8.5556,380.6918],[-82.1443,8.555,337.2908],[-82.1481,8.5653,438.0328],[-82.1614,8.5689,788.6628],[-82.1582,8.5842,663.8329],[-82.1515,8.5855,543.9456],[-82.1466,8.6006,728.8207],[-82.1467,8.6121,875.636],[-82.1494,8.617,1048.2841],[-82.1444,8.6561,1962.3651],[-82.1471,8.7605,1143.3075],[-82.1515,8.7614,1144.5156],[-82.1613,8.7587,1075.8868],[-82.1674,8.7628,1090.1345],[-82.1766,8.7637,1142.1309],[-82.2012,8.7816,920.2313],[-82.2061,8.7817,1021.8848],[-82.2074,8.7788,1083.1444],[-82.2014,8.7625,1052.6486],[-82.2072,8.763,1075.8102],[-82.2248,8.7699,1478.5969],[-82.2361,8.7504,1169.2539],[-82.2507,8.7326,1288.8788],[-82.2531,8.7216,1485.7786],[-82.2582,8.7139,1209.5874],[-82.2606,8.7066,1153.2455],[-82.2588,8.6923,1176.6208],[-82.257,8.6883,1055.9506],[-82.2592,8.6791,773.8735],[-82.2824,8.6843,448.7153],[-82.3085,8.6777,477.3851],[-82.3124,8.6727,484.2263],[-82.3259,8.6697,528.0415],[-82.3272,8.6623,559.6342],[-82.3306,8.657,416.5344],[-82.3291,8.6512,357.4838],[-82.3175,8.6397,489.2119],[-82.3158,8.6346,582.8196],[-82.3186,8.63,649.0875],[-82.324,8.6313,627.0113],[-82.3342,8.6282,520.2844],[-82.3384,8.6119,248.8225],[-82.3334,8.6008,261.3584],[-82.327,8.5948,263.5891],[-82.3222,8.5836,195.8734],[-82.3187,8.5806,176.9121],[-82.3155,8.5714,232.013],[-82.3105,8.5679,200.2715],[-82.3083,8.5632,158.6257],[-82.3118,8.5457,136.9194],[-82.3097,8.5223,107.3656],[-82.3069,8.5186,100.9043],[-82.304,8.5051,88.6112],[-82.2956,8.489,79.9243],[-82.2962,8.4733,74.1899],[-82.2901,8.4682,65.1719],[-82.2837,8.4563,54.3051],[-82.2852,8.4437,50.0586],[-82.2958,8.4292,45.7516]]]]}}