{"type":"Feature","properties":{"GID_2":"PAN.2.10_1","GID_0":"PAN","country":"Panama","GID_1":"PAN.2_1","province":"Chiriquí","NL_NAME_1":"NA","county":"Renacimiento","VARNAME_2":"NA","NL_NAME_2":"NA","TYPE_2":"Distrito","ENGTYPE_2":"District","CC_2":"NA","HASC_2":"PA.CH.RN","name":"Renacimiento.county"},
"geometry":{"type": "MultiPolygon","coordinates": [[[[-82.8261,8.5803,324.5951],[-82.8092,8.5649,171.677],[-82.8064,8.5568,238.5155],[-82.799,8.561,262.5309],[-82.7922,8.5714,290.5709],[-82.7849,8.5756,296.4624],[-82.7779,8.5844,350.1372],[-82.7682,8.5882,444.2461],[-82.7644,8.592,483.1646],[-82.7578,8.5889,602.9816],[-82.755,8.5838,457.2188],[-82.7406,8.5776,414.3619],[-82.7409,8.5847,413.0194],[-82.744,8.5894,394.799],[-82.7447,8.5951,450.4761],[-82.7415,8.6097,506.9341],[-82.7333,8.6228,570.1176],[-82.7268,8.6471,714.9659],[-82.7291,8.6636,774.7406],[-82.7274,8.6697,812.959],[-82.7225,8.675,746.1723],[-82.7238,8.6765,753.7422],[-82.7226,8.6787,782.1405],[-82.7247,8.6851,876.5543],[-82.7254,8.6961,972.5955],[-82.7214,8.7018,1008.4763],[-82.7215,8.7092,977.7967],[-82.7189,8.7122,933.7421],[-82.7152,8.713,1038.785],[-82.7131,8.7178,1019.7454],[-82.7058,8.7228,1067.7805],[-82.6936,8.7458,1213.1169],[-82.6954,8.7662,1344.7825],[-82.6998,8.7747,1166.5463],[-82.7129,8.7884,1290.3162],[-82.716,8.8092,1115.4852],[-82.7286,8.8176,1097.9645],[-82.7322,8.8159,1086.6445],[-82.7356,8.8107,995.9822],[-82.74,8.8098,1028.4224],[-82.738,8.8238,1144.9553],[-82.7394,8.8344,1227.4884],[-82.7352,8.8395,1247.7156],[-82.7321,8.8483,1392.1602],[-82.7308,8.8553,1479.5308],[-82.7313,8.869,1699.6084],[-82.7231,8.8713,1532.552],[-82.7058,8.8929,2018.0586],[-82.7055,8.896,2019.0498],[-82.7162,8.9031,2085.0825],[-82.7252,8.9171,2350.291],[-82.7487,8.9065,2103.8494],[-82.7489,8.9022,2016.9094],[-82.7471,8.9,1947.7122],[-82.7481,8.898,1884.8132],[-82.7591,8.8889,1564.6052],[-82.7608,8.8851,1464.3187],[-82.7698,8.8823,1334.0553],[-82.7759,8.8772,1332.3964],[-82.7829,8.8755,1301.932],[-82.7888,8.8777,1271.1367],[-82.799,8.8773,1224.6433],[-82.8093,8.8724,1227.1652],[-82.8129,8.8651,1191.254],[-82.8218,8.8596,1141.1056],[-82.834,8.8558,1097.5391],[-82.8391,8.8563,1099.7954],[-82.8495,8.8539,1064.5328],[-82.8548,8.8561,1084.1437],[-82.8566,8.8527,1043.9291],[-82.8622,8.8523,1043.376],[-82.8625,8.8494,1036.0411],[-82.8674,8.8469,1043.0488],[-82.8692,8.8436,1015.1235],[-82.8829,8.832,987.3571],[-82.8837,8.8295,1002.9636],[-82.8834,8.8265,987.6738],[-82.8818,8.826,995.0587],[-82.8807,8.8226,989.9832],[-82.8764,8.8229,1002.2936],[-82.8778,8.82,1017.0197],[-82.8713,8.8184,945.8517],[-82.8706,8.816,941.2824],[-82.8623,8.8181,986.094],[-82.8656,8.8048,983.5416],[-82.8883,8.7931,955.574],[-82.8904,8.7859,999.8944],[-82.8949,8.7832,1022.078],[-82.8902,8.7788,1029.3884],[-82.8921,8.7724,1070.5764],[-82.8948,8.7714,1075.2103],[-82.8988,8.7746,1091.949],[-82.9004,8.773,1087.3723],[-82.906,8.7748,1118.1754],[-82.9092,8.7741,1111.8123],[-82.914,8.77,1151.884],[-82.9135,8.7672,1118.2406],[-82.9189,8.7656,1146.0854],[-82.9156,8.7638,1112.7454],[-82.9148,8.7596,1152.6013],[-82.909,8.7589,1118.983],[-82.9088,8.7574,1118.2634],[-82.9157,8.7518,1132.1422],[-82.92,8.7517,1165.9044],[-82.9161,8.7417,1163.9792],[-82.9131,8.7409,1156.8671],[-82.909,8.7359,1124.8015],[-82.9064,8.7372,1116.5831],[-82.9044,8.7361,1124.3048],[-82.901,8.7308,1092.3254],[-82.9006,8.7228,1065.3276],[-82.897,8.7156,964.0042],[-82.887,8.7067,912.2679],[-82.8869,8.7048,910.4711],[-82.8811,8.6999,883.9617],[-82.8806,8.6973,890.2349],[-82.8704,8.6989,891.3657],[-82.8682,8.6977,865.2558],[-82.8656,8.6902,876.5529],[-82.8626,8.688,865.6415],[-82.8644,8.679,848.1141],[-82.8587,8.6762,772.2891],[-82.859,8.6725,654.7578],[-82.8549,8.6637,732.4053],[-82.8432,8.6556,843.986],[-82.8363,8.6465,836.6581],[-82.8344,8.6418,849.6771],[-82.8349,8.6389,855.203],[-82.83,8.6361,897.0344],[-82.828,8.6229,713.9881],[-82.8286,8.6161,610.2429],[-82.8311,8.6142,603.989],[-82.8371,8.6153,587.131],[-82.8382,8.6134,595.9692],[-82.8287,8.6052,666.5026],[-82.8268,8.6007,675.0012],[-82.8332,8.5923,555.1176],[-82.8261,8.5803,324.5951]]]]}}