{"type":"Feature","properties":{"GID_3":"PAN.9.1.3_1","GID_0":"PAN","country":"Panama","GID_1":"PAN.9_1","province":"LosSantos","NL_NAME_1":"NA","GID_2":"PAN.9.1_1","county":"Guararé","NL_NAME_2":"NA","city":"ElMacano","VARNAME_3":"NA","NL_NAME_3":"NA","TYPE_3":"Corregimiento","ENGTYPE_3":"Municipality","CC_3":"NA","HASC_3":"NA","name":"El_Macano.city"},
"geometry":{"type": "MultiPolygon","coordinates": [[[[-80.4134,7.707,216.4563],[-80.427,7.694,220.2351],[-80.4253,7.6816,276.2273],[-80.422,7.6738,308.2387],[-80.4271,7.666,380.9016],[-80.4288,7.6557,617.8098],[-80.4358,7.6486,680.1078],[-80.4305,7.6381,708.5526],[-80.4159,7.6379,535.1321],[-80.3991,7.6463,386.2294],[-80.3915,7.6553,423.2855],[-80.3882,7.6648,351.5052],[-80.3901,7.6782,231.3406],[-80.3823,7.6905,198.3372],[-80.3851,7.7065,186.2512],[-80.4021,7.705,214.2391],[-80.4134,7.707,216.4563]]]]}}