{"type": "Feature","bbox": [-80.0852,8.5622,-79.9897,8.6394],"geometry": {"type": "MultiPolygon","coordinates": [[[[-80.0007,8.599,222.0942],[-80.0156,8.6094,228.8381],[-80.022,8.625,268.9893],[-80.0293,8.6324,440.1554],[-80.0415,8.6345,578.8568],[-80.0558,8.633,792.2093],[-80.0657,8.6394,755.7482],[-80.0806,8.6362,1032.2505],[-80.0796,8.6274,952.1893],[-80.0761,8.6175,989.3625],[-80.0852,8.5964,616.0309],[-80.0848,8.5899,725.1207],[-80.0743,8.5825,635.8406],[-80.059,8.5776,542.4731],[-80.0557,8.5687,429.6765],[-80.0511,8.5646,353.441],[-80.0452,8.5622,382.2285],[-80.0254,8.5646,319.3696],[-80.0048,8.5746,257.3269],[-79.9897,8.5708,184.4772],[-79.9982,8.5892,369.2229],[-80.0007,8.599,222.0942]]]]}
,"properties": {"GID_3": "PAN.11.6.5_1","GID_0": "PAN","country": "Panama","GID_1": "PAN.11_1","province": "PanamáOeste","NL_NAME_1": "NA","GID_2": "PAN.11.6_1","county": "SanCarlos","NL_NAME_2": "NA","city": "LaLaguna","VARNAME_3": "NA","NL_NAME_3": "NA","TYPE_3": "Corregimiento","ENGTYPE_3": "Municipality","CC_3": "NA","HASC_3": "NA","name": "La_Laguna.city","area_km2": 56.6024,"hist_schema_id": "Elevation0-9000","hist_area_km2": {"175": 0.06289,"200": 0.12578,"225": 0.67087,"250": 1.04821,"275": 1.06919,"300": 1.11113,"325": 2.13838,"350": 2.87218,"375": 4.17199,"400": 3.54302,"425": 3.29141,"450": 3.24945,"475": 3.37523,"500": 2.51568,"525": 2.327,"550": 2.36892,"575": 2.26408,"600": 2.38984,"625": 2.32696,"650": 1.63515,"675": 1.53033,"700": 1.34164,"725": 1.04816,"750": 1.17392,"775": 1.19487,"800": 0.90139,"825": 0.90138,"850": 0.75465,"875": 0.73368,"900": 0.58695,"925": 0.54502,"950": 0.46117,"975": 0.58695,"1000": 0.48213,"1025": 0.29347,"1050": 0.56598,"1075": 0.46117,"1100": 0.31443,"1125": 0.08385,"1150": 0.06289,"1175": 0.02096}}}