{"type": "Feature","bbox": [-77.613,7.5509,-77.1293,8.0585],"geometry": {"type": "MultiPolygon","coordinates": [[[[-77.1639,7.9479,331.2389],[-77.1638,7.9498,390.2285],[-77.1592,7.9496,374.1699],[-77.1583,7.9533,466.5522],[-77.1531,7.9598,579.5565],[-77.1342,7.9735,340.6613],[-77.1293,7.9801,116.6383],[-77.1329,7.9826,279.4728],[-77.1445,7.985,124.3225],[-77.151,7.994,94.9427],[-77.1541,7.9964,96.2549],[-77.1563,7.9952,93.4425],[-77.1588,8.0007,155.3392],[-77.1643,8.0036,124.0597],[-77.1641,8.006,175.5834],[-77.1831,7.9848,754.151],[-77.1801,7.9814,729.6299],[-77.1834,7.9835,727.7513],[-77.2016,7.9851,616.4711],[-77.2533,8.0004,817.5678],[-77.2553,8.0025,859.144],[-77.2559,8.0065,986.3403],[-77.2418,8.0549,1387.2157],[-77.2421,8.0577,1390.6083],[-77.2443,8.0585,1368.4343],[-77.2597,8.0533,1194.0624],[-77.2757,8.0567,963.1895],[-77.2872,8.0568,963.4756],[-77.304,8.0432,1003.2088],[-77.3129,8.0385,812.0406],[-77.3208,8.0376,765.6011],[-77.3336,8.0396,542.0454],[-77.3385,8.0383,581.1945],[-77.3498,8.0319,554.1992],[-77.378,7.9955,294.0095],[-77.3866,7.9904,285.3142],[-77.3979,7.9869,206.4926],[-77.4135,7.9858,187.131],[-77.4339,7.9916,122.2741],[-77.4458,7.9903,118.2289],[-77.4533,7.9919,113.2588],[-77.4634,7.9898,84.5213],[-77.4943,7.9757999999999996,64.2691],[-77.5073,7.942,111.7401],[-77.5028,7.9416,118.1894],[-77.5006,7.9396,102.9202],[-77.5002,7.9309,102.1264],[-77.5071,7.9265,65.1799],[-77.5141,7.919,71.5013],[-77.5121,7.9112,92.406],[-77.5142,7.9013,98.6016],[-77.5136,7.8945,105.5084],[-77.5033,7.8888,115.2739],[-77.5079,7.8823,142.9585],[-77.5047,7.8736,125.7463],[-77.5057,7.8706,103.0954],[-77.5134,7.8686,113.8926],[-77.5401,7.8709,130.5753],[-77.5566,7.8609,195.8848],[-77.603,7.8611,316.6177],[-77.6074,7.8585,481.4128],[-77.6095,7.8536,581.9166],[-77.6097,7.8247,642.5645],[-77.613,7.8096,714.5086],[-77.6013,7.772,928.827],[-77.5971,7.7634,900.3409],[-77.6008,7.7187,1024.8094],[-77.5759,7.6685,357.6983],[-77.5782,7.6564,404.3406],[-77.5809,7.6534,388.2081],[-77.5883,7.6512,310.6551],[-77.5913,7.6473,329.9665],[-77.596,7.6272,303.6609],[-77.5953,7.6223,353.3609],[-77.5888,7.6152,262.649],[-77.5833,7.593,455.0683],[-77.5845,7.5824,588.175],[-77.5905,7.5722,660.594],[-77.5902,7.5663,598.8564],[-77.581,7.5649,365.1147],[-77.5686,7.569,618.1757],[-77.5612,7.5661,537.7853],[-77.5496,7.5583,600.3004],[-77.5247,7.5509,1211.3934],[-77.523,7.5589,1186.3093],[-77.5257,7.5659,1234.4192],[-77.5172,7.5823,1353.8649],[-77.5071,7.593,1031.6726],[-77.4913,7.5996,626.9052],[-77.488,7.6061,723.1185],[-77.4776,7.6132,748.1156],[-77.4708,7.6201,514.9857],[-77.4466,7.6508,381.7633],[-77.4358,7.6548,374.9919],[-77.436,7.66,415.7438],[-77.4319,7.6655,360.227],[-77.4262,7.6676,319.1716],[-77.4223,7.6671,289.7707],[-77.4188,7.6692,309.5206],[-77.416,7.6786,273.8599],[-77.3927,7.7042,209.8634],[-77.3745,7.7155,53.6502],[-77.3661,7.726,106.7205],[-77.361,7.7365,138.5283],[-77.3532,7.7397,184.0678],[-77.3493,7.745,164.7531],[-77.3417,7.75,118.2791],[-77.3202,7.7462,69.9118],[-77.3168,7.7486,56.1016],[-77.3163,7.7557,64.7511],[-77.3201,7.7701,103.6041],[-77.3274,7.7848,105.1932],[-77.3338,7.7938,131.8351],[-77.3242,7.8255,122.8821],[-77.3226,7.8379,122.1406],[-77.323,7.8506,169.348],[-77.3203,7.862,133.1793],[-77.3179,7.865,186.8739],[-77.3013,7.8774,281.6171],[-77.2914,7.8817,251.6685],[-77.2819,7.891,341.1245],[-77.2746,7.8954,372.4555],[-77.271,7.9044,420.0838],[-77.2655,7.9104,481.0103],[-77.2587,7.9145,559.0364],[-77.2521,7.9164,576.7495],[-77.2266,7.9184,577.9626],[-77.2182,7.9138,605.5199],[-77.2091,7.9143,477.9102],[-77.2027,7.9272,401.0225],[-77.1868,7.9236,407.5343],[-77.1747,7.9333,421.3282],[-77.1671,7.9358,469.0448],[-77.1666,7.9418,439.5661],[-77.1639,7.9479,331.2389]]]]}
,"properties": {"GID_3": "PAN.5.2.5_1","GID_0": "PAN","country": "Panama","GID_1": "PAN.5_1","province": "Darién","NL_NAME_1": "NA","GID_2": "PAN.5.2_1","county": "Pinogana","NL_NAME_2": "NA","city": "Paya","VARNAME_3": "NA","NL_NAME_3": "NA","TYPE_3": "Corregimiento","ENGTYPE_3": "Municipality","CC_3": "NA","HASC_3": "NA","name": "Paya.city","area_km2": 1274.0507,"hist_schema_id": "Elevation0-9000","hist_area_km2": {"50": 3.1295,"75": 30.2206,"100": 115.6775,"125": 137.9475,"150": 107.3951,"175": 91.457,"200": 84.6754,"225": 86.295,"250": 77.2023,"275": 57.6253,"300": 43.9492,"325": 35.6297,"350": 32.6239,"375": 32.0538,"400": 28.2294,"425": 25.3934,"450": 22.137,"475": 19.5329,"500": 18.5668,"525": 15.6467,"550": 15.668,"575": 15.164,"600": 13.799,"625": 12.0554,"650": 12.2657,"675": 12.2868,"700": 12.1191,"725": 11.5723,"750": 11.6989,"775": 10.8585,"800": 9.1574,"825": 8.0858,"850": 6.4687,"875": 5.6286,"900": 5.3133,"925": 4.7882999999999996,"950": 4.3893,"975": 4.3055,"1000": 4.5156,"1025": 3.3184,"1050": 2.7512,"1075": 3.0873,"1100": 2.3732,"1125": 2.3314,"1150": 2.1212,"1175": 1.9743,"1200": 2.7309,"1225": 2.7939,"1250": 1.5752,"1275": 1.1342,"1300": 0.903,"1325": 0.651,"1350": 0.609,"1375": 0.126,"1400": 0.042}}}