{"type": "Feature","bbox": [-80.5873,8.3845,-80.4995,8.5128],"geometry": {"type": "MultiPolygon","coordinates": [[[[-80.5873,8.5002,267.0742],[-80.5851,8.4868,293.5592],[-80.5784,8.4877,256.5536],[-80.5766,8.486,326.1317],[-80.5745,8.4758,373.2638],[-80.5753,8.4643,82.5767],[-80.5711,8.4555,49.6852],[-80.562,8.4473,96.5903],[-80.5605,8.4432,89.9778],[-80.5612,8.4376,33.234],[-80.5761,8.4119,41.891],[-80.5685,8.4107,47.142],[-80.5542,8.4043,33.5945],[-80.5494,8.3964,24.4279],[-80.5406,8.3922,19.0215],[-80.5312,8.3905,21.0335],[-80.5219,8.3845,13.5249],[-80.5164,8.3855,14.2273],[-80.5116,8.3893,11.7719],[-80.5084,8.3864,12.5976],[-80.5016,8.3852,11.263],[-80.4995,8.3949,12.1962],[-80.506,8.406,15.6762],[-80.507,8.4138,17.9171],[-80.5047,8.4217,22.1736],[-80.5135,8.4406,25.6097],[-80.5132,8.4492,30.4042],[-80.5154,8.4555,33.327],[-80.5154,8.4617,39.9168],[-80.5195,8.4703,77.1974],[-80.5306,8.4841,89.1806],[-80.5375,8.5018,80.8206],[-80.5451,8.5094,83.0193],[-80.5559,8.5128,151.7321],[-80.5619,8.5097,256.974],[-80.5718,8.5108,130.9201],[-80.5873,8.5002,267.0742]]]]}
,"properties": {"GID_3": "PAN.3.4.2_1","GID_0": "PAN","country": "Panama","GID_1": "PAN.3_1","province": "Coclé","NL_NAME_1": "NA","GID_2": "PAN.3.4_1","county": "Natá","NL_NAME_2": "NA","city": "ElCaño","VARNAME_3": "NA","NL_NAME_3": "NA","TYPE_3": "Corregimiento","ENGTYPE_3": "Municipality","CC_3": "NA","HASC_3": "NA","name": "El_Caño.city","area_km2": 78.43596,"hist_schema_id": "Elevation0-9000","hist_area_km2": {"0": 1.40533,"25": 35.21483,"50": 10.69574,"75": 8.0529,"100": 4.97002,"125": 3.523,"150": 2.74707,"175": 1.92922,"200": 2.57929,"225": 2.28572,"250": 1.61468,"275": 0.83879,"300": 0.52425,"325": 0.39843,"350": 0.27262,"375": 0.39844,"400": 0.29359,"425": 0.31456,"450": 0.2097,"475": 0.10485,"500": 0.06291}}}