{"type": "Feature","bbox": [-79.752,9.1858,-79.6325,9.367],"geometry": {"type": "MultiPolygon","coordinates": [[[[-79.7026,9.1858,156.4505],[-79.7059,9.1956,205.435],[-79.7115,9.2046,283.8466],[-79.7074,9.2255,206.8385],[-79.7001,9.2298,188.2605],[-79.6789,9.2327,63.8842],[-79.6668,9.2412,102.6558],[-79.6611,9.2474,104.4117],[-79.6593,9.2505,112.9245],[-79.6564,9.2817,139.4878],[-79.655,9.2833,90.6576],[-79.6512,9.2837,130.776],[-79.6468,9.2897,188.6325],[-79.6457,9.2939,146.985],[-79.6467,9.3014,159.809],[-79.6405,9.311,71.2619],[-79.6398,9.3268,140.6807],[-79.6426,9.3367,466.4876],[-79.6335,9.3482,468.5534],[-79.6325,9.3523,408.4719],[-79.6647,9.367,186.2897],[-79.6852,9.3503,148.5336],[-79.6895,9.3457,152.7756],[-79.693,9.3375,112.4175],[-79.7149,9.3191,96.2813],[-79.7178,9.3086,86.894],[-79.7214,9.3042,64.0843],[-79.7278,9.3003,92.7186],[-79.7279,9.2951,101.5913],[-79.7323,9.2825,118.7007],[-79.7274,9.2739,124.0045],[-79.7266,9.2688,137.8126],[-79.7298,9.2148,264.5833],[-79.7433,9.2039,201.8879],[-79.752,9.1907,205.8548],[-79.7282,9.191,235.8052],[-79.7026,9.1858,156.4505]]]]}
,"properties": {"GID_3": "PAN.4.2.3_1","GID_0": "PAN","country": "Panama","GID_1": "PAN.4_1","province": "Colón","NL_NAME_1": "NA","GID_2": "PAN.4.2_1","county": "Colón","NL_NAME_2": "NA","city": "BuenaVista","VARNAME_3": "NA","NL_NAME_3": "NA","TYPE_3": "Corregimiento","ENGTYPE_3": "Municipality","CC_3": "NA","HASC_3": "NA","name": "Buena_Vista.city","area_km2": 120.29513,"hist_schema_id": "Elevation0-9000","hist_area_km2": {"50": 0.69055,"75": 12.45012,"100": 22.84992,"125": 15.75624,"150": 13.51664,"175": 11.75897,"200": 8.07678,"225": 8.24463,"250": 8.22383,"275": 7.90997,"300": 4.95919,"325": 2.57362,"350": 1.17162,"375": 0.85777,"400": 0.66949,"425": 0.37658,"450": 0.12553,"475": 0.08369}}}