{"type": "Feature","bbox": [-80.6384,8.5002,-80.5374,8.601],"geometry": {"type": "MultiPolygon","coordinates": [[[[-80.5731,8.5714,201.1213],[-80.5787,8.5744,234.0827],[-80.5935,8.5879,372.0722],[-80.6033,8.5864,208.3795],[-80.6085,8.5886,241.3097],[-80.6129,8.5965,458.0948],[-80.6182,8.601,606.2546],[-80.6266,8.6002,396.804],[-80.6384,8.5923,472.6908],[-80.635,8.5627,555.1935],[-80.6272,8.5594,532.7516],[-80.6076,8.544,341.1771],[-80.5857,8.5222,131.2005],[-80.5852,8.5133,148.6597],[-80.5873,8.5002,267.0742],[-80.5718,8.5108,130.9201],[-80.5619,8.5097,256.974],[-80.5559,8.5128,151.7321],[-80.5451,8.5094,83.0193],[-80.5375,8.5018,80.8206],[-80.5374,8.5086,64.7265],[-80.54,8.5179,62.1721],[-80.5473,8.5323,113.9011],[-80.5436,8.5554,87.81],[-80.5452,8.563,127.851],[-80.5494,8.5662,149.4345],[-80.5543,8.567,110.0287],[-80.5659,8.5746,142.9982],[-80.5731,8.5714,201.1213]]]]}
,"properties": {"GID_3": "PAN.3.4.3_1","GID_0": "PAN","country": "Panama","GID_1": "PAN.3_1","province": "Coclé","NL_NAME_1": "NA","GID_2": "PAN.3.4_1","county": "Natá","NL_NAME_2": "NA","city": "Guzmán","VARNAME_3": "NA","NL_NAME_3": "NA","TYPE_3": "Corregimiento","ENGTYPE_3": "Municipality","CC_3": "NA","HASC_3": "NA","name": "Guzmán.city","area_km2": 61.72512,"hist_schema_id": "Elevation0-9000","hist_area_km2": {"50": 0.02097,"75": 1.992,"100": 4.5079,"125": 7.63206,"150": 5.45145,"175": 4.65461,"200": 5.47219,"225": 4.7593,"250": 4.1303,"275": 4.73833,"300": 3.85774,"325": 3.16585,"350": 2.87233,"375": 2.80944,"400": 1.40471,"425": 1.04827,"450": 1.00634,"475": 0.60799,"500": 0.5451,"525": 0.35641,"550": 0.29351,"575": 0.23061,"600": 0.12579,"625": 0.04193}}}