{"type": "Feature","bbox": [-82.8776,8.3797,-82.8046,8.5787],"geometry": {"type": "MultiPolygon","coordinates": [[[[-82.8334,8.5079,67.7591],[-82.8315,8.5055,67.7708],[-82.8396,8.4801,41.4964],[-82.8682,8.4396,19.3833],[-82.8776,8.4375,24.7611],[-82.8741,8.4311,15.6943],[-82.8507,8.4036,16.7838],[-82.8413,8.3902,14.544],[-82.8385,8.3824,15.8727],[-82.8348,8.3802,14.7277],[-82.8297,8.3797,13.7437],[-82.8254,8.3853,15.188],[-82.824,8.3899,14.453],[-82.8204,8.3917,18.6056],[-82.8232,8.3985,18.5999],[-82.8205,8.4021,16.3647],[-82.8166,8.4037,20.5437],[-82.8207,8.4099,14.5453],[-82.8205,8.4124,15.201599999999999],[-82.8076,8.4225,19.8717],[-82.809,8.4236,19.9528],[-82.8046,8.4287,22.7573],[-82.8072,8.4306,22.4623],[-82.8191,8.4301,20.319],[-82.8215,8.4368,20.635],[-82.8243,8.4363,21.1447],[-82.8277,8.4382,25.801],[-82.8281,8.4416,28.9918],[-82.8343,8.4454,22.373],[-82.8353,8.4525,26.9089],[-82.8315,8.4673,28.8878],[-82.8315,8.4759,35.2092],[-82.8258,8.4921,51.285],[-82.8291,8.5131,75.7427],[-82.8277,8.5226,84.3847],[-82.831,8.5412,165.1934],[-82.821,8.5493,217.2564],[-82.8086,8.5541,245.5869],[-82.8061,8.5568,238.5155],[-82.8092,8.5649,171.677],[-82.8242,8.5787,290.3418],[-82.8256,8.5786,287.3932],[-82.824,8.5745,275.7786],[-82.8252,8.5713,266.0558],[-82.8223,8.5671,259.444],[-82.8285,8.5571,175.4408],[-82.8351,8.552,132.1474],[-82.839,8.5444,117.4839],[-82.8384,8.5324,126.6119],[-82.8332,8.5241,108.6101],[-82.8334,8.5079,67.7591]]]]}
,"properties": {"GID_3": "PAN.2.2.3_1","GID_0": "PAN","country": "Panama","GID_1": "PAN.2_1","province": "Chiriquí","NL_NAME_1": "NA","GID_2": "PAN.2.2_1","county": "Barú","NL_NAME_2": "NA","city": "Progreso","VARNAME_3": "NA","NL_NAME_3": "NA","TYPE_3": "Corregimiento","ENGTYPE_3": "Municipality","CC_3": "NA","HASC_3": "NA","name": "Progreso.city","area_km2": 49.5146,"hist_schema_id": "Elevation0-9000","hist_area_km2": {"0": 0.3356,"25": 37.62597,"50": 2.3696,"75": 1.17424,"100": 1.06935,"125": 1.27898,"150": 1.46764,"175": 0.79672,"200": 0.98542,"225": 1.34183,"250": 0.67091,"275": 0.35641,"300": 0.04193}}}