{"type":"Feature","properties":{"GID_3":"PAN.3.2.5_1","GID_0":"PAN","country":"Panama","GID_1":"PAN.3_1","province":"Coclé","NL_NAME_1":"NA","GID_2":"PAN.3.2_1","county":"Antón","NL_NAME_2":"NA","city":"ElRetiro","VARNAME_3":"NA","NL_NAME_3":"NA","TYPE_3":"Corregimiento","ENGTYPE_3":"Municipality","CC_3":"NA","HASC_3":"NA","name":"El_Retiro.city"},
"geometry":{"type": "MultiPolygon","coordinates": [[[[-80.1494,8.4746,136.1581],[-80.1533,8.4803,162.2499],[-80.1563,8.4937,207.9975],[-80.1636,8.4952,196.4071],[-80.1748,8.4939,162.9447],[-80.1777,8.4909,167.3186],[-80.1814,8.4614,82.5536],[-80.1836,8.456,105.9133],[-80.186,8.4555,106.8572],[-80.2049,8.4613,87.6683],[-80.2105,8.457,83.1943],[-80.2185,8.4392,62.0846],[-80.2176,8.4348,58.6846],[-80.2201,8.4273,50.6185],[-80.2192,8.4199,37.5537],[-80.2132,8.411,37.5727],[-80.2134,8.4018,29.3574],[-80.2095,8.3899,30.8553],[-80.207,8.3905,35.3518],[-80.2043,8.3979,39.6015],[-80.1982,8.4016,39.4325],[-80.1938,8.4209,59.3663],[-80.1911,8.4227,64.3645],[-80.1861,8.4206,65.7702],[-80.177,8.411,34.3591],[-80.1757,8.4062,49.5499],[-80.1779,8.3997,38.3931],[-80.1738,8.3866,23.7449],[-80.163,8.4038,51.3818],[-80.1625,8.4083,49.0978],[-80.165,8.4153,48.01],[-80.163,8.4307,73.5519],[-80.1651,8.4383,63.5019],[-80.1629,8.4402,82.6881],[-80.1536,8.4376,61.1963],[-80.1513,8.4207,44.9348],[-80.143,8.402,26.8272],[-80.1395,8.398,29.8533],[-80.1396,8.3946,19.5014],[-80.1415,8.3937,16.588],[-80.1421,8.3913,16.2409],[-80.1401,8.3899,18.5694],[-80.1387,8.3907,23.5451],[-80.1382,8.3946,19.5014],[-80.134,8.3971,35.803],[-80.132,8.4056,27.7964],[-80.1376,8.4158,47.1297],[-80.1421,8.4375,64.1979],[-80.138,8.4494,91.6327],[-80.1354,8.4723,132.8824],[-80.1369,8.476,163.3632],[-80.1494,8.4746,136.1581]]]]}}