{"type": "Feature","bbox": [-80.6776,8.1909,-80.5645,8.3249],"geometry": {"type": "MultiPolygon","coordinates": [[[[-80.5702,8.2285,21.6634],[-80.5778,8.2401,26.1602],[-80.5845,8.2458,27.8815],[-80.5865,8.2507,31.0178],[-80.5818,8.2585,51.8299],[-80.5729,8.2655,32.5404],[-80.5645,8.2695,23.0345],[-80.5735,8.279,26.0439],[-80.5789,8.2795,33.8577],[-80.5826,8.2816,33.3126],[-80.5852,8.2923,123.5965],[-80.5981,8.301,100.5799],[-80.6136,8.2959,60.9697],[-80.624,8.3089,91.6757],[-80.6291,8.3101,76.5588],[-80.6345,8.314,83.5973],[-80.6751,8.3249,113.0437],[-80.6612,8.3196,119.8643],[-80.6696,8.2897,77.7813],[-80.6776,8.2755,137.1596],[-80.6715,8.2562,82.4107],[-80.6727,8.236,36.6381],[-80.663,8.2237,31.9149],[-80.6536,8.218,23.4519],[-80.6501,8.2134,20.7038],[-80.6454,8.2107,24.1301],[-80.6403,8.2034,17.9527],[-80.637,8.2021,25.7566],[-80.632,8.2023,27.9041],[-80.618,8.2096,9.9619],[-80.6002,8.2113,17.2591],[-80.5992,8.209,15.2309],[-80.601,8.2019,7.7371],[-80.5959,8.1909,5.9932],[-80.5903,8.2122,11.1077],[-80.5702,8.2285,21.6634]]]]}
,"properties": {"GID_3": "PAN.3.1.3_1","GID_0": "PAN","country": "Panama","GID_1": "PAN.3_1","province": "Coclé","NL_NAME_1": "NA","GID_2": "PAN.3.1_1","county": "Aguadulce","NL_NAME_2": "NA","city": "ElCristo","VARNAME_3": "NA","NL_NAME_3": "NA","TYPE_3": "Corregimiento","ENGTYPE_3": "Municipality","CC_3": "NA","HASC_3": "NA","name": "El_Cristo.city","area_km2": 109.08716,"hist_schema_id": "Elevation0-9000","hist_area_km2": {"0": 4.134,"25": 46.35221,"50": 28.05296,"75": 19.34434,"100": 9.46228,"125": 1.25882,"150": 0.35667,"175": 0.1049,"200": 0.02098}}}