{"type": "Feature","bbox": [-80.3857,7.4721,-80.2156,7.568],"geometry": {"type": "MultiPolygon","coordinates": [[[[-80.2764,7.552,81.856],[-80.2812,7.5482,106.8634],[-80.2899,7.5459,123.9353],[-80.2941,7.5412,167.2305],[-80.3107,7.5347,226.417],[-80.325,7.5417,401.7385],[-80.3275,7.5521,268.7495],[-80.3291,7.5535,268.7495],[-80.3358,7.5502,376.1348],[-80.3388,7.543,364.2871],[-80.3473,7.5411,462.6299],[-80.3619,7.5449,482.6025],[-80.3811,7.568,510.8474],[-80.3857,7.5582,420.4052],[-80.37,7.5229,240.9085],[-80.3686,7.5126,220.2114],[-80.3698,7.5079,230.1524],[-80.3665,7.5026,178.4625],[-80.3654,7.4942,243.1075],[-80.3549,7.4785,201.5676],[-80.3485,7.4735,111.3824],[-80.3458,7.4721,115.82],[-80.3403,7.4831,164.5139],[-80.3208,7.5105,379.7516],[-80.2774,7.5139,368.3372],[-80.2711,7.5134,396.4874],[-80.2672,7.5097,315.1441],[-80.261,7.5075,323.5701],[-80.2554,7.5005,248.2998],[-80.2557,7.4942,225.336],[-80.2594,7.489,163.4086],[-80.2563,7.4834,132.7155],[-80.2573,7.4802,80.7013],[-80.2372,7.478,129.0922],[-80.2161,7.5164,27.5569],[-80.217,7.5234,63.1906],[-80.2156,7.5278,123.1636],[-80.2184,7.5301,103.84],[-80.223,7.5393,45.092],[-80.2441,7.5528,73.2168],[-80.2486,7.5534,56.7636],[-80.2565,7.5483,67.4431],[-80.2641,7.547,68.8563],[-80.2686,7.5507,94.1764],[-80.2695,7.5554,75.2324],[-80.2764,7.552,81.856]]]]}
,"properties": {"GID_3": "PAN.9.2.15_1","GID_0": "PAN","country": "Panama","GID_1": "PAN.9_1","province": "LosSantos","NL_NAME_1": "NA","GID_2": "PAN.9.2_1","county": "LasTablas","NL_NAME_2": "NA","city": "Nuario","VARNAME_3": "NA","NL_NAME_3": "NA","TYPE_3": "Corregimiento","ENGTYPE_3": "Municipality","CC_3": "NA","HASC_3": "NA","name": "Nuario.city","area_km2": 92.19283,"hist_schema_id": "Elevation0-9000","hist_area_km2": {"25": 0.56753,"50": 1.91273,"75": 2.66943,"100": 3.80451,"125": 4.2039,"150": 5.14989,"175": 5.52829,"200": 6.3481,"225": 6.68445,"250": 7.12588,"275": 8.0297,"300": 7.42005,"325": 6.62124,"350": 7.9875,"375": 5.94855,"400": 3.95167,"425": 2.69046,"450": 1.6605,"475": 1.95475,"500": 1.32417,"525": 0.52545,"550": 0.06306,"575": 0.02102}}}