{"type": "Feature","bbox": [-79.7745,8.9563,-79.6451,9.1196],"geometry": {"type": "MultiPolygon","coordinates": [[[[-79.7582,9.1051,32.1763],[-79.7574,9.1024,25.0],[-79.7529,9.0982,50.4646],[-79.7424,9.0953,139.4714],[-79.7326,9.0851,168.6635],[-79.7268,9.0738,213.9064],[-79.725,9.0651,214.3162],[-79.7183,9.0617,182.2027],[-79.7157,9.0615,175.8357],[-79.7138,9.0633,175.283],[-79.7108,9.0611,215.3499],[-79.7109,9.0588,255.6387],[-79.7137,9.0578,227.5909],[-79.7148,9.0551,181.1793],[-79.7291,9.0456,188.2768],[-79.7294,9.0361,104.6598],[-79.7355,9.0247,173.1272],[-79.738,9.0233,182.1606],[-79.7507,9.0247,157.7987],[-79.7564,9.0227,102.6328],[-79.7653,9.0079,112.8805],[-79.7673,9.0014,110.127],[-79.7745,8.9912,125.1932],[-79.7732,8.9879,129.4217],[-79.7537,8.9732,137.3551],[-79.7524,8.9649,136.0352],[-79.7498,8.9609,93.429],[-79.7462,8.9589,101.07],[-79.7411,8.9601,78.455],[-79.7317,8.9563,25.4357],[-79.7287,8.9697,67.3437],[-79.7297,8.9751,90.7064],[-79.7274,8.9791,142.2225],[-79.7243,8.98,126.829],[-79.7183,8.9785,97.5327],[-79.7053,8.9817,93.6219],[-79.7021,8.991,140.287],[-79.6966,8.9992,186.1376],[-79.6931,9.0007,222.3948],[-79.6854,8.9999,146.5308],[-79.6824,9.0015,157.2066],[-79.6772,9.0097,167.9957],[-79.6748,9.0255,189.6912],[-79.6655,9.0374,262.5762],[-79.6451,9.0382,38.9884],[-79.6551,9.053,25.0],[-79.672,9.067,40.7528],[-79.6807,9.0864,25.0],[-79.6932,9.1037,48.0252],[-79.6918,9.1065,34.0135],[-79.6935,9.1079,31.581],[-79.6971,9.1096,25.0],[-79.7015,9.1093,26.9618],[-79.704,9.1062,38.1293],[-79.7049,9.1087,30.696],[-79.7079,9.1099,33.4771],[-79.7051,9.114,25.0],[-79.7085,9.1149,25.0],[-79.7126,9.1149,25.5035],[-79.7129,9.1138,25.5035],[-79.7101,9.1126,35.0019],[-79.7112,9.1124,35.0019],[-79.7193,9.1149,28.9443],[-79.7237,9.1099,27.1068],[-79.7329,9.1132,35.222],[-79.7354,9.1168,36.0273],[-79.744,9.1196,25.0],[-79.7462,9.1185,25.0],[-79.7462,9.1165,25.0],[-79.7429,9.1112,25.0],[-79.7457,9.1099,32.3676],[-79.7471,9.1129,25.0],[-79.7485,9.1124,25.0],[-79.7482,9.1096,25.0],[-79.746,9.1079,25.0],[-79.7468,9.1068,40.6964],[-79.7507,9.109,25.0],[-79.7515,9.1129,29.0979],[-79.7535,9.1126,57.98],[-79.7513,9.1168,44.9746],[-79.754,9.1193,25.0],[-79.7596,9.1143,25.0],[-79.7582,9.1051,32.1763]]],
[[[-79.7229,9.1168,29.3718],[-79.726,9.1162,28.5202],[-79.7265,9.114,25.0],[-79.7249,9.1135,31.6833],[-79.7237,9.114,38.6338],[-79.7232,9.111,28.5689],[-79.7204,9.1146,30.3074],[-79.7229,9.1168,29.3718]]]]}
,"properties": {"GID_3": "PAN.11.1.3_1","GID_0": "PAN","country": "Panama","GID_1": "PAN.11_1","province": "PanamáOeste","NL_NAME_1": "NA","GID_2": "PAN.11.1_1","county": "Arraiján","NL_NAME_2": "NA","city": "NuevoEmperador","VARNAME_3": "NA","NL_NAME_3": "NA","TYPE_3": "Corregimiento","ENGTYPE_3": "Municipality","CC_3": "NA","HASC_3": "NA","name": "Nuevo_Emperador.city","area_km2": 114.1799,"hist_schema_id": "Elevation0-9000","hist_area_km2": {"25": 2.51235,"50": 8.81436,"75": 13.9443,"100": 19.32675,"125": 34.614,"150": 17.54742,"175": 8.96178,"200": 3.99923,"225": 2.24037,"250": 1.02594,"275": 0.58624,"300": 0.29311,"325": 0.18843,"350": 0.12562}}}