{"type":"Feature","properties":{"GID_3":"PAN.2.13.3_1","GID_0":"PAN","country":"Panama","GID_1":"PAN.2_1","province":"Chiriquí","NL_NAME_1":"NA","GID_2":"PAN.2.13_1","county":"Tolé","NL_NAME_2":"NA","city":"ElCristo","VARNAME_3":"NA","NL_NAME_3":"NA","TYPE_3":"Corregimiento","ENGTYPE_3":"Municipality","CC_3":"NA","HASC_3":"NA","name":"El_Cristo.city"},
"geometry":{"type": "MultiPolygon","coordinates": [[[[-81.5989,8.3015,142.4804],[-81.5971,8.3074,239.8761],[-81.5998,8.3137,249.2182],[-81.6105,8.3261,291.3895],[-81.6104,8.3302,303.6902],[-81.5946,8.3276,262.5192],[-81.5862,8.3153,336.5243],[-81.5734,8.3208,349.9929],[-81.5781,8.3368,331.1198],[-81.5822,8.3427,326.2343],[-81.5772,8.3521,233.6011],[-81.5748,8.3607,268.4236],[-81.5709,8.3652,320.6951],[-81.5818,8.3712,269.4827],[-81.5842,8.3771,253.1788],[-81.5901,8.3816,291.131],[-81.5917,8.3818,323.7232],[-81.5961,8.3768,348.5975],[-81.5968,8.3729,275.6204],[-81.6001,8.3717,262.3851],[-81.6015,8.3695,271.923],[-81.5991,8.3654,247.6559],[-81.6025,8.3582,402.3824],[-81.6144,8.3527,445.361],[-81.6157,8.3421,397.4099],[-81.6178,8.3392,347.91],[-81.6161,8.3368,335.0246],[-81.6166,8.3332,316.7155],[-81.6203,8.3289,275.3517],[-81.6183,8.3218,181.6745],[-81.6221,8.3167,335.0734],[-81.6214,8.3136,236.9692],[-81.625,8.3113,355.2776],[-81.6249,8.3042,353.8463],[-81.6205,8.303,359.6104],[-81.6208,8.2942,367.5128],[-81.6223,8.2908,396.9057],[-81.6283,8.2892,273.1793],[-81.6284,8.2872,253.4819],[-81.6253,8.2856,290.1277],[-81.6189,8.2892,326.4725],[-81.6115,8.2992,367.6795],[-81.5989,8.3015,142.4804]]]]}}