{"type":"Feature","properties":{"GID_3":"PAN.9.4.8_1","GID_0":"PAN","country":"Panama","GID_1":"PAN.9_1","province":"LosSantos","NL_NAME_1":"NA","GID_2":"PAN.9.4_1","county":"Macaracas","NL_NAME_2":"NA","city":"LasPalmas","VARNAME_3":"NA","NL_NAME_3":"NA","TYPE_3":"Corregimiento","ENGTYPE_3":"Municipality","CC_3":"NA","HASC_3":"NA","name":"Las_Palmas.city"},
"geometry":{"type": "MultiPolygon","coordinates": [[[[-80.5046,7.708,113.1799],[-80.5121,7.7101,100.1594],[-80.5201,7.7062,117.2072],[-80.5255,7.7084,98.8014],[-80.5321,7.7145,94.2403],[-80.5357,7.7125,99.8928],[-80.5381,7.705,95.0506],[-80.5378,7.699,111.8192],[-80.5322,7.688,119.9607],[-80.5255,7.679,160.639],[-80.5269,7.6724,273.9299],[-80.5347,7.66,234.4646],[-80.531,7.654,219.8088],[-80.5243,7.6482,233.0842],[-80.52,7.6465,267.0444],[-80.524,7.6343,444.5218],[-80.5225,7.6326,389.8279],[-80.5186,7.6323,369.238],[-80.5159,7.6267,510.7054],[-80.5146,7.6114,491.073],[-80.5126,7.6064,475.3344],[-80.5031,7.6095,521.2281],[-80.4931,7.596,386.0197],[-80.4899,7.5948,378.4397],[-80.487799999999993,7.5966,447.8721],[-80.4822,7.6155,430.7247],[-80.4906,7.6397,375.8714],[-80.4903,7.6508,254.3495],[-80.4733,7.6455,378.5186],[-80.4649,7.645,402.824],[-80.4691,7.6537,308.7132],[-80.4785,7.6592,249.9041],[-80.4896,7.6602,169.7691],[-80.4996,7.6712,241.3471],[-80.5047,7.6821,236.1844],[-80.4947,7.6908,174.704],[-80.4903,7.7018,231.5587],[-80.4991,7.7037,140.3874],[-80.5046,7.708,113.1799]]]]}}