{"type":"Feature","properties":{"GID_3":"PAN.2.5.13_1","GID_0":"PAN","country":"Panama","GID_1":"PAN.2_1","province":"Chiriquí","NL_NAME_1":"NA","GID_2":"PAN.2.5_1","county":"Bugaba","NL_NAME_2":"NA","city":"Volcán","VARNAME_3":"NA","NL_NAME_3":"NA","TYPE_3":"Corregimiento","ENGTYPE_3":"Municipality","CC_3":"NA","HASC_3":"NA","name":"Volcán.city"},
"geometry":{"type": "MultiPolygon","coordinates": [[[[-82.7089,8.8992,2248.7854],[-82.7055,8.896,2019.0498],[-82.7065,8.8914,1904.7786],[-82.7231,8.8713,1532.552],[-82.7313,8.869,1699.6084],[-82.7311,8.8532,1448.9214],[-82.7352,8.8395,1247.7156],[-82.7394,8.8344,1227.4884],[-82.738,8.8238,1144.9553],[-82.7403,8.8134,1057.7063],[-82.74,8.8098,1028.4224],[-82.7383,8.8093,989.0526],[-82.7351,8.8112,995.9822],[-82.7322,8.8159,1086.6445],[-82.7286,8.8176,1097.9645],[-82.7166,8.81,1232.3689],[-82.7129,8.7884,1290.3162],[-82.6998,8.7747,1166.5463],[-82.6954,8.7662,1344.7825],[-82.6938,8.745,1209.4276],[-82.7054,8.7234,1067.7805],[-82.7092,8.721,988.1726],[-82.7097,8.7189,1016.992],[-82.7067,8.7161,1042.5469],[-82.709,8.7116,1064.5839],[-82.7069,8.7015,998.7843],[-82.6996,8.6916,851.37],[-82.6985,8.6794,765.0961],[-82.694,8.67,791.8694],[-82.6882,8.665,645.5619],[-82.688,8.6528,604.0126],[-82.6901,8.6379,584.09],[-82.6816,8.6486,592.5],[-82.6773,8.6584,599.4041],[-82.6755,8.6687,726.9025],[-82.6681,8.6714,764.1729],[-82.6557,8.6712,942.7355],[-82.6579,8.6791,920.9648],[-82.655,8.6973,963.8054],[-82.6536,8.7022,1014.8244],[-82.6476,8.7106,1040.6841],[-82.645,8.7111,1033.373],[-82.6344,8.705,1042.4153],[-82.6275,8.7056,1069.8679],[-82.6329,8.7307,1128.4702],[-82.6313,8.7484,1414.845],[-82.6338,8.7597,1427.7474],[-82.6309,8.7652,1404.2496],[-82.6243,8.7707,1508.0862],[-82.6194,8.7801,1467.424],[-82.6191,8.7896,1513.8658],[-82.6036,8.7975,1701.8121],[-82.5976,8.7977,1787.7],[-82.5941,8.7961,1922.0549],[-82.5904,8.7852,2157.1785],[-82.5884,8.7843,2152.647],[-82.5698,8.7868,2149.1663],[-82.5505,8.7946,2693.1675],[-82.5555,8.7985,2788.7163],[-82.5611,8.7989,2431.498],[-82.5689,8.803,2156.356],[-82.5798,8.8061,1976.6925],[-82.5862,8.8036,1989.4878],[-82.5915,8.7991,2048.751],[-82.6006,8.7979,1844.0255],[-82.624,8.8008,1520.8442],[-82.6355,8.7964,1461.6783],[-82.6398,8.7971,1454.9449],[-82.6393,8.8021,1503.6592],[-82.641,8.8061,1580.8724],[-82.6376,8.812,1512.4929],[-82.6376,8.8184,1558.189],[-82.6529,8.8404,1879.0222],[-82.6508,8.8468,2094.7397],[-82.6531,8.8548,2274.9014],[-82.6494,8.8619,2452.9404],[-82.648,8.8734,2320.1235],[-82.6483,8.8784,2481.5752],[-82.6519,8.8862,2602.6387],[-82.6548,8.8846,2519.8745],[-82.6656,8.8941,2129.1787],[-82.6719,8.89,2077.6106],[-82.6791,8.8917,2224.2249],[-82.6905,8.9001,2347.1807],[-82.6937,8.9007,2383.3474],[-82.6994,8.9195,2160.6809],[-82.7103,8.9082,2210.7292],[-82.7089,8.8992,2248.7854]]]]}}