{"type": "Feature","bbox": [-79.9143,9.336,-79.8854,9.3551],"geometry": {"type": "MultiPolygon","coordinates": [[[[-79.9065,9.354,1.9263],[-79.9118,9.3551,1.3548],[-79.9143,9.3521,0.0],[-79.9046,9.3507,2.5361],[-79.9004,9.3449,2.7528],[-79.9024,9.3382,0.0],[-79.8887,9.336,8.7008],[-79.8854,9.341,5.9944],[-79.8904,9.3424,1.3697],[-79.8929,9.3476,13.8466],[-79.8901,9.349,3.0625],[-79.889,9.3526,4.764],[-79.9065,9.354,1.9263]]]]}
,"properties": {"GID_3": "PAN.4.2.2_1","GID_0": "PAN","country": "Panama","GID_1": "PAN.4_1","province": "Colón","NL_NAME_1": "NA","GID_2": "PAN.4.2_1","county": "Colón","NL_NAME_2": "NA","city": "BarrioSur","VARNAME_3": "NA","NL_NAME_3": "NA","TYPE_3": "Corregimiento","ENGTYPE_3": "Municipality","CC_3": "NA","HASC_3": "NA","name": "Barrio_Sur.city","area_km2": 2.845223,"hist_schema_id": "Elevation0-9000","hist_area_km2": {"0": 2.803382,"25": 0.041842}}}