{"type": "Feature","bbox": [-80.7941,8.0395,-80.7107,8.0937],"geometry": {"type": "MultiPolygon","coordinates": [[[[-80.7529,8.0395,47.1075],[-80.7519,8.0443,62.7723],[-80.7532,8.0471,38.9191],[-80.7513,8.0514,51.8155],[-80.7492,8.0526,66.0665],[-80.7465,8.0491,45.7395],[-80.7446,8.0495,51.5456],[-80.7379,8.0642,36.4908],[-80.7324,8.0699,30.3053],[-80.7314,8.0752,29.4136],[-80.7238,8.0663,22.9392],[-80.7139,8.0643,22.4148],[-80.7152,8.0781,24.2394],[-80.7107,8.0881,19.2023],[-80.7109,8.092,22.6214],[-80.719,8.0917,27.4635],[-80.7266,8.0937,71.1628],[-80.7321,8.087,47.1673],[-80.7345,8.0887,50.207],[-80.7456,8.0863,50.7927],[-80.7537,8.0744,61.4011],[-80.7689,8.0734,45.0129],[-80.7941,8.0623,69.1648],[-80.792,8.0609,72.6781],[-80.7869,8.0613,55.0517],[-80.7829,8.0558,73.3649],[-80.7754,8.0539,61.4317],[-80.7732,8.0514,50.5026],[-80.7722,8.0463,50.4224],[-80.7665,8.0419,82.8763],[-80.7593,8.0425,44.2915],[-80.7529,8.0395,47.1075]]]]}
,"properties": {"GID_3": "PAN.7.7.1_1","GID_0": "PAN","country": "Panama","GID_1": "PAN.7_1","province": "Herrera","NL_NAME_1": "NA","GID_2": "PAN.7.7_1","county": "SantaMaría","NL_NAME_2": "NA","city": "Chupampa","VARNAME_3": "NA","NL_NAME_3": "NA","TYPE_3": "Corregimiento","ENGTYPE_3": "Municipality","CC_3": "NA","HASC_3": "NA","name": "Chupampa.city","area_km2": 22.77671,"hist_schema_id": "Elevation0-9000","hist_area_km2": {"25": 5.43689,"50": 12.04967,"75": 5.24817,"100": 0.04199}}}