{"type":"Feature","properties":{"GID_3":"PAN.4.5.1_1","GID_0":"PAN","country":"Panama","GID_1":"PAN.4_1","province":"Colón","NL_NAME_1":"NA","GID_2":"PAN.4.5_1","county":"Portobelo","NL_NAME_2":"NA","city":"Cacique","VARNAME_3":"NA","NL_NAME_3":"NA","TYPE_3":"Corregimiento","ENGTYPE_3":"Municipality","CC_3":"NA","HASC_3":"NA","name":"Cacique.city"},
"geometry":{"type": "MultiPolygon","coordinates": [[[[-79.6146,9.5993,81.6576],[-79.618,9.6077,16.3662],[-79.6177,9.6151,35.1074],[-79.619,9.6171,0.0],[-79.6215,9.6171,0.0],[-79.6254,9.6146,0.0],[-79.6251,9.6126,21.8558],[-79.6268,9.6126,0.0],[-79.6276,9.6104,30.5989],[-79.631,9.611,2.1219],[-79.6363,9.6085,12.7168],[-79.6343,9.6001,6.3614],[-79.6374,9.6004,0.9527],[-79.6421,9.5976,0.0],[-79.6468,9.5904,22.5533],[-79.6546,9.594,0.0],[-79.6568,9.5924,0.0],[-79.6532,9.5896,11.8035],[-79.6556,9.5877,3.4807],[-79.648,9.5839,3.7795],[-79.6375,9.59,83.5648],[-79.6247,9.5931,68.0394],[-79.6146,9.5993,81.6576]]]]}}