{"type":"Feature","properties":{"GID_2":"PAN.5.2_1","GID_0":"PAN","country":"Panama","GID_1":"PAN.5_1","province":"Darién","NL_NAME_1":"NA","county":"Pinogana","VARNAME_2":"NA","NL_NAME_2":"NA","TYPE_2":"ComarcaIndígena","ENGTYPE_2":"IndigenousTerritory","CC_2":"NA","HASC_2":"PA.DR.PG","name":"Pinogana.county"},
"geometry":{"type": "MultiPolygon","coordinates": [[[[-77.5274,7.5446,1158.6045],[-77.523,7.5584,1207.4895],[-77.5257,7.5659,1234.4192],[-77.5172,7.5823,1353.8649],[-77.5071,7.593,1031.6726],[-77.4913,7.5996,626.9052],[-77.488,7.6061,723.1185],[-77.4776,7.6132,748.1156],[-77.4708,7.6201,514.9857],[-77.4466,7.6508,381.7633],[-77.4358,7.6548,374.9919],[-77.436,7.66,415.7438],[-77.4319,7.6655,360.227],[-77.4262,7.6676,319.1716],[-77.4223,7.6671,289.7707],[-77.4188,7.6692,309.5206],[-77.416,7.6786,273.8599],[-77.3927,7.7042,209.8634],[-77.3745,7.7155,53.6502],[-77.3661,7.726,106.7205],[-77.361,7.7365,138.5283],[-77.3532,7.7397,184.0678],[-77.3493,7.745,164.7531],[-77.3417,7.75,118.2791],[-77.3202,7.7462,69.9118],[-77.3168,7.7486,56.1016],[-77.3163,7.7557,64.7511],[-77.3201,7.7701,103.6041],[-77.3274,7.7848,105.1932],[-77.3338,7.7938,131.8351],[-77.3242,7.8255,122.8821],[-77.3226,7.8379,122.1406],[-77.323,7.8506,169.348],[-77.3203,7.862,133.1793],[-77.3179,7.865,186.8739],[-77.3013,7.8774,281.6171],[-77.2914,7.8817,251.6685],[-77.2819,7.891,341.1245],[-77.2746,7.8954,372.4555],[-77.271,7.9044,420.0838],[-77.2655,7.9104,481.0103],[-77.2587,7.9145,559.0364],[-77.2521,7.9164,576.7495],[-77.2266,7.9184,577.9626],[-77.2182,7.9138,605.5199],[-77.2116,7.9139,533.4955],[-77.2079,7.9155,502.5077],[-77.2027,7.9272,401.0225],[-77.1855,7.9241,400.4524],[-77.1747,7.9333,421.3282],[-77.1671,7.9358,469.0448],[-77.1642,7.9496,390.2285],[-77.1592,7.9496,374.1699],[-77.1583,7.9533,466.5522],[-77.1531,7.9598,579.5565],[-77.1342,7.9735,340.6613],[-77.1293,7.9801,116.6383],[-77.1329,7.9826,279.4728],[-77.1445,7.985,124.3225],[-77.151,7.994,94.9427],[-77.1541,7.9964,96.2549],[-77.1563,7.9952,93.4425],[-77.1588,8.0007,155.3392],[-77.1643,8.0036,124.0597],[-77.1641,8.006,175.5834],[-77.167,8.0047,137.8786],[-77.1685,8.0072,155.5802],[-77.1773,8.0089,175.6547],[-77.1786,8.0113,220.7303],[-77.1844,8.0135,211.8965],[-77.1863,8.0115,263.248],[-77.1916,8.0199,306.1362],[-77.1906,8.0221,347.6129],[-77.1922,8.0261,319.4652],[-77.1908,8.0278,471.6454],[-77.1973,8.0411,583.0355],[-77.2014,8.0418,549.819],[-77.2082,8.038,645.8317],[-77.2193,8.0384,1090.6829],[-77.2228,8.0399,1129.7179],[-77.2263,8.0546,1484.6644],[-77.218,8.0883,1400.7781],[-77.219,8.0979,1344.3989],[-77.2289,8.1287,1340.5824],[-77.2273,8.1434,1276.6156],[-77.2437,8.1555,1253.9022],[-77.246,8.161,1390.4426],[-77.2449,8.1744,1245.4819],[-77.2802,8.168,1562.2555],[-77.3559,8.1491,870.2161],[-77.3623,8.1463,1037.6318],[-77.3708,8.1373,1000.1852],[-77.3819,8.1372,1002.8939],[-77.3921,8.1332,759.3579],[-77.4019,8.1393,457.009],[-77.4082,8.1321,725.2946],[-77.4206,8.1343,541.8931],[-77.4245,8.1283,537.5211],[-77.4327,8.1229,498.6699],[-77.4415,8.1221,475.9824],[-77.4467,8.1179,391.634],[-77.448,8.1147,309.0701],[-77.4458,8.107,329.61],[-77.4463,8.1007,463.5086],[-77.4539,8.096,453.9519],[-77.4593,8.0869,317.3399],[-77.4695,8.095,153.2823],[-77.4768,8.097,97.8887],[-77.4849,8.0963,118.8041],[-77.4884,8.0903,96.0703],[-77.4915,8.0897,89.9468],[-77.4938,8.091,93.3023],[-77.4963,8.0978,99.5545],[-77.4993,8.0989,99.183],[-77.5135,8.0907,80.8102],[-77.5214,8.0933,86.9942],[-77.5254,8.0856,97.9051],[-77.5365,8.0816,59.7822],[-77.5401,8.0779,66.9221],[-77.545,8.0773,68.7527],[-77.5508,8.0783,43.9206],[-77.5658,8.1045,67.8465],[-77.5738,8.1099,43.1522],[-77.58,8.1206,53.3106],[-77.5878,8.1232,50.4322],[-77.6083,8.1186,34.3413],[-77.6034,8.1286,26.9306],[-77.6084,8.1286,25.2442],[-77.6133,8.1372,18.0084],[-77.6093,8.1416,22.6445],[-77.6101,8.15,42.8018],[-77.6059,8.1517,36.0047],[-77.6062,8.1562,49.0189],[-77.6094,8.157,60.231],[-77.6164,8.1858,19.5691],[-77.6237,8.2009,47.1656],[-77.6604,8.2293,22.1049],[-77.6941,8.2416,48.1252],[-77.7144,8.2509,19.9707],[-77.7244,8.251,15.3255],[-77.7292,8.253,8.8516],[-77.7324,8.2593,20.1915],[-77.7308,8.2649,20.8948],[-77.735,8.2739,31.978],[-77.7347,8.2785,20.8526],[-77.7309,8.285,18.6274],[-77.7313,8.2882,29.3166],[-77.7334,8.2892,15.9005],[-77.7473,8.2866,12.0422],[-77.755,8.2919,31.0006],[-77.7617,8.3087,8.5576],[-77.7701,8.3115,20.4947],[-77.7703,8.3144,29.7924],[-77.7656,8.3199,21.6063],[-77.7655,8.3228,11.0228],[-77.7805,8.327,32.8661],[-77.782,8.3435,26.9722],[-77.788,8.3488,28.5936],[-77.7933,8.3484,26.8746],[-77.7951,8.35,13.3877],[-77.7978,8.3593,27.79],[-77.7967,8.3686,36.261],[-77.8018,8.3775,26.6299],[-77.8012,8.3863,19.9759],[-77.805,8.3922,18.2172],[-77.8064,8.4016,27.4848],[-77.809,8.3986,23.3759],[-77.811,8.3988,14.9443],[-77.8125,8.3959,36.2002],[-77.8174,8.3964,17.9687],[-77.8165,8.4055,12.6408],[-77.8199,8.4079,23.6185],[-77.8191,8.4144,28.0506],[-77.8168,8.417,26.0881],[-77.8092,8.4198,25.3373],[-77.8068,8.4251,27.0549],[-77.8092,8.4442,21.9134],[-77.8111,8.4495,38.7341],[-77.8148,8.4535,26.4219],[-77.8158,8.463,40.1167],[-77.8217,8.4634,32.3542],[-77.8249,8.4703,31.4676],[-77.8348,8.4733,33.9272],[-77.84,8.4806,50.9574],[-77.84,8.4831,52.5075],[-77.8347,8.4931,46.7966],[-77.8343,8.5004,43.1543],[-77.8388,8.5023,40.4951],[-77.8453,8.499,45.2915],[-77.8542,8.4976,63.9377],[-77.8644,8.5029,50.1325],[-77.8631,8.5097,53.3015],[-77.8655,8.5132,55.8014],[-77.8724,8.5175,58.6694],[-77.8809,8.5188,40.8573],[-77.8809,8.5214,32.1818],[-77.876,8.5258,58.5906],[-77.8728,8.5259,60.0229],[-77.8713,8.5309,56.6534],[-77.8658,8.534,55.5211],[-77.8647,8.5396,38.6771],[-77.8706,8.5435,46.3913],[-77.8727,8.5566,63.3821],[-77.8822,8.5591,51.2084],[-77.8878,8.5668,51.5599],[-77.8954,8.5706,32.6656],[-77.8985,8.5839,35.6432],[-77.8968,8.5935,39.6607],[-77.9058,8.6009,35.3642],[-77.9062,8.6068,46.0526],[-77.9087,8.613,27.5868],[-77.9086,8.6233,31.3961],[-77.9079,8.628,42.6724],[-77.899,8.6437,61.6343],[-77.8821,8.6471,57.2267],[-77.8775,8.6528,58.8967],[-77.8691,8.6585,59.0615],[-77.8667,8.6716,65.3309],[-77.8635,8.6794,53.9182],[-77.854,8.6867,57.5331],[-77.8386,8.7026,78.4373],[-77.8364,8.7072,98.7954],[-77.8331,8.7272,111.3553],[-77.8316,8.7295,109.3454],[-77.817,8.7349,205.3938],[-77.8037,8.7351,138.3405],[-77.7945,8.7395,155.1012],[-77.7845,8.7417,144.6524],[-77.7803,8.7456,153.5116],[-77.7727,8.7598,188.7708],[-77.7595,8.7696,427.329],[-77.7514,8.7704,355.0743],[-77.7403,8.7755,287.846],[-77.7198,8.7776,436.6651],[-77.708,8.7684,505.238],[-77.6966,8.7672,732.2739],[-77.6923,8.7681,646.8826],[-77.6909,8.7743,571.616],[-77.6976,8.7942,291.0389],[-77.699,8.8139,145.79],[-77.711,8.8255,234.023],[-77.7228,8.8269,233.8719],[-77.7337,8.8332,305.18],[-77.7369,8.8392,282.8716],[-77.7394,8.8571,217.236],[-77.7525,8.8687,482.2787],[-77.7715,8.8773,551.5229],[-77.7891,8.882,400.6867],[-77.7943,8.8865,576.7278],[-77.8015,8.8892,478.167],[-77.8107,8.9013,377.6802],[-77.8175,8.9071,327.4246],[-77.8256,8.9085,295.3754],[-77.8348,8.9074,308.0519],[-77.8462,8.9174,257.3512],[-77.8519,8.9252,284.1541],[-77.8597,8.9418,380.6918],[-77.8651,8.9474,395.303],[-77.8694,8.9549,398.1396],[-77.8685,8.9587,371.5484],[-77.8644,8.9625,381.9454],[-77.8654,8.9662,370.8877],[-77.8932,8.9846,414.6872],[-77.9016,8.9988,208.5197],[-77.9053,9.0002,303.7454],[-77.9132,8.9999,456.4066],[-77.9152,9.0013,448.9857],[-77.9155,9.0048,369.5938],[-77.9125,9.0138,395.6871],[-77.9155,9.0206,318.22],[-77.9352,9.0254,448.2106],[-77.9374,9.0363,242.0031],[-77.9419,9.0395,249.9961],[-77.9576,9.0409,333.5453],[-77.9622,9.0491,342.6774],[-77.9741,9.0564,397.5879],[-77.9863,9.0723,503.5316],[-77.9946,9.0773,540.4189],[-78.0051,9.0808,592.5168],[-78.0117,9.0876,603.461],[-78.0289,9.0927,648.2498],[-78.0402,9.0899,418.3203],[-78.047,9.0905,432.5067],[-78.0528,9.0859,488.8306],[-78.0562,9.0645,368.1019],[-78.0597,9.0578,273.9689],[-78.0597,9.0543,276.7256],[-78.0556,9.0483,396.2229],[-78.0584,9.041,304.1499],[-78.0721,9.0319,298.8693],[-78.0858,9.0296,299.5761],[-78.0939,9.0211,210.8558],[-78.0951,9.0015,120.1934],[-78.1074,8.9888,138.2388],[-78.112799999999993,8.9778,192.6017],[-78.1072,8.9632,151.3814],[-78.109,8.9464,129.9025],[-78.1184,8.937,138.1883],[-78.1182,8.9321,117.6024],[-78.1213,8.932,110.1091],[-78.1309,8.9198,105.9605],[-78.132,8.916,86.6761],[-78.1294,8.9117,90.2553],[-78.1188,8.9139,106.6872],[-78.112,8.9132,89.7129],[-78.1084,8.9112,98.4905],[-78.1043,8.8989,85.1568],[-78.1144,8.8796,89.4387],[-78.1161,8.8672,104.8891],[-78.1088,8.8615,107.6377],[-78.1044,8.8549,94.0639],[-78.0897,8.8546,79.2011],[-78.0824,8.8514,68.1632],[-78.0774,8.8464,70.565],[-78.0714,8.8308,79.237799999999993],[-78.0712,8.8194,85.8067],[-78.0665,8.8123,80.8024],[-78.0696,8.8081,73.7304],[-78.0626,8.7905,74.4833],[-78.0494,8.7816,55.2758],[-78.0385,8.7782,56.9718],[-78.0288,8.7782,61.6906],[-78.0169,8.7711,47.1036],[-78.014,8.7669,45.1702],[-78.0132,8.7566,44.416],[-78.0112,8.7515,42.1705],[-77.9958,8.737,46.7021],[-77.9789,8.7325,36.8167],[-77.976,8.7346,33.4262],[-77.9739,8.7396,34.109],[-77.9614,8.7304,45.1916],[-77.9558,8.7292,43.964],[-77.9547,8.7247,62.2901],[-77.956,8.7168,36.4596],[-77.952,8.7069,35.5802],[-77.9551,8.6981,36.2049],[-77.9545,8.6857,32.1313],[-77.9629,8.682,33.4518],[-77.9669,8.6829,34.5581],[-77.9752,8.6892,36.3617],[-78.0148,8.6952,48.2665],[-78.0189,8.698,45.01],[-78.0295,8.7105,59.7334],[-78.0413,8.7305,76.2299],[-78.0468,8.7369,64.947],[-78.0625,8.75,54.8652],[-78.0699,8.7505,67.5554],[-78.0734,8.7487,83.7031],[-78.066,8.7294,70.5134],[-78.065,8.7117,64.9312],[-78.0533,8.6828,66.7075],[-78.0489,8.6766,49.0096],[-78.0479,8.6713,54.8731],[-78.049,8.6582,65.4577],[-78.0576,8.6411,67.9111],[-78.063,8.6246,55.6902],[-78.0692,8.6136,59.6216],[-78.0509,8.6041,50.5533],[-78.0493,8.5944,74.2794],[-78.0358,8.5909,55.0345],[-78.0294,8.5846,57.2383],[-78.0385,8.57,69.2392],[-78.0372,8.5554,66.244],[-78.0401,8.5478,78.7954],[-78.0422,8.5468,72.0902],[-78.0543,8.5486,86.2598],[-78.0583,8.5472,123.2386],[-78.062,8.5429,279.9598],[-78.0597,8.5356,292.9566],[-78.0534,8.5258,332.7118],[-78.0504,8.5043,399.0288],[-78.0516,8.4992,320.888],[-78.0563,8.4926,199.5779],[-78.0565,8.4826,190.0993],[-78.0494,8.4718,240.664],[-78.0417,8.4659,146.9496],[-78.0355,8.4642,163.3134],[-78.0188,8.4712,279.7525],[-78.0145,8.4717,188.531],[-77.995,8.4603,192.3015],[-77.9637,8.4363,364.4285],[-77.9437,8.4356,84.8983],[-77.9393,8.4341,82.4413],[-77.9295,8.4182,74.2341],[-77.9195,8.4133,67.2215],[-77.9161,8.4088,65.909],[-77.9099,8.3743,199.8691],[-77.9064,8.3638,143.9827],[-77.8942,8.356,275.1074],[-77.8848,8.3535,498.9454],[-77.8821,8.3511,382.0253],[-77.8726,8.3099,407.4797],[-77.8518,8.2457,12.3427],[-77.8501,8.232,6.8648],[-77.8313,8.1645,25.41],[-77.8228,8.1534,10.1919],[-77.814,8.1377,21.12],[-77.8027,8.1118,22.5166],[-77.6826,7.9746,525.8249],[-77.676,7.9689,435.6952],[-77.6756,7.966,500.0046],[-77.6701,7.9616,385.8501],[-77.6691,7.9421,411.2559],[-77.666,7.9356,351.0262],[-77.6643,7.9241,329.0294],[-77.6668,7.9101,650.4391],[-77.675,7.898,749.5146],[-77.6798,7.8873,800.2024],[-77.6892,7.8772,1131.9314],[-77.6899,7.8652,784.8421],[-77.7046,7.8415,1242.4927],[-77.7132,7.8146,1248.9731],[-77.7269,7.798,1418.7195],[-77.7268,7.7853,1572.0398],[-77.7379,7.7674,1612.0522],[-77.7428,7.7555,1253.7872],[-77.7427,7.7515,1178.8846],[-77.7383,7.7445,1251.8876],[-77.7299,7.7385,1097.4735],[-77.7273,7.7301,1011.652],[-77.7178,7.7274,973.6328],[-77.714,7.7239,1001.9733],[-77.7006,7.7206,801.3316],[-77.696,7.7131,867.3304],[-77.6857,7.7043,979.502],[-77.6844,7.6944,967.9294],[-77.6766,7.6912,1037.467],[-77.672,7.6863,1077.3228],[-77.66,7.68,812.1597],[-77.6548,7.6744,899.8558],[-77.6523,7.6692,990.5543],[-77.6473,7.6432,1478.5679],[-77.6411,7.624,1389.3547],[-77.6407,7.6098,1001.1743],[-77.6329,7.5884,893.5134],[-77.6226,7.5717,845.7474],[-77.6225,7.5597,702.8469],[-77.6187,7.5476,563.7164],[-77.6131,7.5454,650.7488],[-77.6045,7.5385,540.5342],[-77.5967,7.5232,403.3154],[-77.5853,7.5187,593.615],[-77.5823,7.5131,756.3077],[-77.5792,7.5114,785.3391],[-77.5717,7.5116,837.8572],[-77.561,7.5083,946.061],[-77.5456,7.5207,966.6036],[-77.5384,7.5331,921.9638],[-77.5274,7.5446,1158.6045]]]]}}