{"type": "Feature","bbox": [-79.5425,9.0166,-79.4293,9.0927],"geometry": {"type": "MultiPolygon","coordinates": [[[[-79.5131,9.0331,34.5771],[-79.5114,9.0314,36.5012],[-79.5121,9.0302,34.2167],[-79.5058,9.0264,20.398],[-79.5023,9.0286,35.8335],[-79.5017,9.024,19.222],[-79.4952,9.0228,16.309],[-79.4913,9.0166,7.2119],[-79.4896,9.0173,9.7596],[-79.4808,9.0258,10.0095],[-79.4759,9.0275,10.1971],[-79.4732,9.0371,15.5826],[-79.4667,9.0445,34.045],[-79.4604,9.0476,13.341],[-79.4551,9.0526,17.8384],[-79.4404,9.0537,16.4938],[-79.4293,9.0595,23.507],[-79.4319,9.0695,36.2235],[-79.434,9.0731,30.7438],[-79.4376,9.0753,33.7999],[-79.4414,9.0835,40.2415],[-79.4485,9.0873,51.3233],[-79.4667,9.0927,65.5436],[-79.4893,9.0871,58.9356],[-79.495,9.08,64.0693],[-79.5008,9.0767,69.2216],[-79.5031,9.0811,87.8153],[-79.512,9.0798,76.0757],[-79.52,9.0712,93.9873],[-79.5238,9.0642,92.203],[-79.5425,9.0583,155.804],[-79.5238,9.0416,54.0484],[-79.517,9.0333,38.2783],[-79.5131,9.0353,35.0145],[-79.5131,9.0331,34.5771]]]]}
,"properties": {"GID_2": "PAN.12.7_1","GID_0": "PAN","country": "Panama","GID_1": "PAN.12_1","province": "Panamá","NL_NAME_1": "NA","county": "SanMiguelito","VARNAME_2": "NA","NL_NAME_2": "NA","TYPE_2": "Distrito","ENGTYPE_2": "District","CC_2": "NA","HASC_2": "PA.PN.SM","name": "San_Miguelito.county","area_km2": 54.33343,"hist_schema_id": "Elevation0-9000","hist_area_km2": {"0": 0.9632,"25": 14.2589,"50": 15.59856,"75": 14.09088,"100": 5.73686,"125": 1.86344,"150": 1.02594,"175": 0.41876,"200": 0.20938,"225": 0.1675}}}