{"type":"Feature","properties":{"GID_3":"PAN.2.6.5_1","GID_0":"PAN","country":"Panama","GID_1":"PAN.2_1","province":"Chiriquí","NL_NAME_1":"NA","GID_2":"PAN.2.6_1","county":"David","NL_NAME_2":"NA","city":"Guacá","VARNAME_3":"NA","NL_NAME_3":"NA","TYPE_3":"Corregimiento","ENGTYPE_3":"Municipality","CC_3":"NA","HASC_3":"NA","name":"Guacá.city"},
"geometry":{"type": "MultiPolygon","coordinates": [[[[-82.5476,8.6338,729.4936],[-82.5357,8.6293,699.0634],[-82.533,8.6224,666.6625],[-82.5268,8.614,613.8802],[-82.5244,8.6084,577.3691],[-82.5249,8.6011,549.2229],[-82.5228,8.5912,500.0732],[-82.5158,8.5742,422.5069],[-82.5118,8.5522,333.6453],[-82.5061,8.5433,291.786],[-82.4978,8.5269,244.0645],[-82.4959,8.5197,227.7501],[-82.489,8.5078,195.4636],[-82.4815,8.4997,177.8158],[-82.4731,8.4985,165.4931],[-82.4613,8.4932,147.2527],[-82.4405,8.489,110.9903],[-82.4385,8.4912,129.1632],[-82.44,8.4967,111.8039],[-82.4474,8.4979,176.1375],[-82.4496,8.4998,144.4274],[-82.451,8.5111,166.4619],[-82.4481,8.5168,157.5825],[-82.4488,8.5205,188.6685],[-82.4621,8.5387,237.9356],[-82.48,8.5544,305.4807],[-82.4841,8.5616,330.3853],[-82.4941,8.5716,379.241],[-82.4987,8.5791,418.4314],[-82.501,8.5869,447.6662],[-82.5063,8.5928,485.9344],[-82.511,8.6025,535.5099],[-82.5187,8.6274,663.6039],[-82.5302,8.6457,773.1838],[-82.5309,8.6508,787.7834],[-82.5286,8.6582,814.5041],[-82.5352,8.6782,955.5593],[-82.5423,8.6856,1023.5556],[-82.5433,8.6889,1039.1493],[-82.5401,8.6956,1077.1119],[-82.5439,8.7089,1182.5846],[-82.5413,8.7202,1260.5721],[-82.5438,8.7257,1312.3267],[-82.5426,8.7406,1448.313],[-82.5438,8.7444,1343.8977],[-82.5449,8.7463,1366.9397],[-82.5629,8.7566,1834.9778],[-82.5693,8.7585,1831.0105],[-82.5692,8.7529,1716.072],[-82.5624,8.7378,1435.5404],[-82.5574,8.7192,1193.7548],[-82.5548,8.7036,1147.8484],[-82.5568,8.6897,1029.126],[-82.5522,8.6844,1008.9238],[-82.550299999999993,8.6748,947.4628],[-82.5459,8.6393,754.6768],[-82.5476,8.6338,729.4936]]]]}}