{"type":"Feature","properties":{"GID_3":"PAN.8.1.3_1","GID_0":"PAN","country":"Panama","GID_1":"PAN.8_1","province":"KunaYala","NL_NAME_1":"NA","GID_2":"PAN.8.1_1","county":"KunaYala","NL_NAME_2":"NA","city":"PuertoObaldía","VARNAME_3":"NA","NL_NAME_3":"NA","TYPE_3":"Corregimiento","ENGTYPE_3":"Municipality","CC_3":"NA","HASC_3":"NA","name":"Puerto_Obaldía.city"},
"geometry":{"type": "MultiPolygon","coordinates": [[[[-77.361,8.6568,5.3736],[-77.3643,8.6549,8.2613],[-77.3657,8.6593,0.0],[-77.3643,8.6621,8.0794],[-77.3615,8.6607,1.1905],[-77.3596,8.6629,0.0],[-77.359,8.6718,12.1936],[-77.3574,8.6732,0.0],[-77.3582,8.6757,0.0],[-77.3593,8.6746,24.1855],[-77.3629,8.6754,6.7186],[-77.3643,8.6726,13.2618],[-77.3676,8.6746,0.0],[-77.3676,8.6768,0.0],[-77.3712,8.6782,0.0],[-77.3679,8.6687,31.1033],[-77.374,8.6613,17.3216],[-77.3801,8.661,5.2883],[-77.3826,8.6671,0.0],[-77.3838,8.6668,1.4095],[-77.3843,8.6654,17.5273],[-77.3857,8.6662,9.9928],[-77.3871,8.6715,11.3991],[-77.3918,8.6721,0.0],[-77.3949,8.6768,3.2955],[-77.3979,8.6754,105.4235],[-77.4018,8.6765,9.6702],[-77.4046,8.6737,3.2616],[-77.4043,8.6707,2.9512],[-77.4151,8.674,0.0],[-77.4185,8.6732,1.9577],[-77.4215,8.6671,0.5029],[-77.4207,8.6632,0.9784],[-77.424,8.6613,3.5586],[-77.429,8.6615,32.1749],[-77.4384,8.6663,1.6917],[-77.443,8.6584,28.1575],[-77.4495,8.655,10.1728],[-77.4533,8.6556,12.7751],[-77.4597,8.6616,17.7388],[-77.4677,8.6622,20.1881],[-77.4709,8.659,16.6963],[-77.4697,8.6507,26.0105],[-77.472,8.6461,20.1039],[-77.4982,8.6398,301.5902],[-77.5055,8.5968,458.6632],[-77.4993,8.5888,599.8087],[-77.4946,8.5724,533.6172],[-77.4879,8.5608,393.8753],[-77.4816,8.5425,461.7634],[-77.4728,8.533,627.0654],[-77.4625,8.5254,920.0383],[-77.459,8.5178,923.6931],[-77.4459,8.5012,733.0989],[-77.4432,8.5137,811.9788],[-77.4319,8.5271,426.5083],[-77.4279,8.5371,435.8005],[-77.4259,8.548,291.7188],[-77.4279,8.5588,307.3446],[-77.4067,8.57,217.546],[-77.3944,8.5802,201.1605],[-77.39,8.5866,224.205],[-77.3872,8.5973,161.4008],[-77.3909,8.6071,93.2334],[-77.3968,8.6139,182.4984],[-77.3949,8.6214,165.5021],[-77.3954,8.6374,203.2641],[-77.3914,8.6394,286.7747],[-77.3717,8.6433,168.3561],[-77.361,8.6568,5.3736]]]]}}