{"type":"Feature","properties":{"GID_2":"PAN.7.4_1","GID_0":"PAN","country":"Panama","GID_1":"PAN.7_1","province":"Herrera","NL_NAME_1":"NA","county":"Ocú","VARNAME_2":"NA","NL_NAME_2":"NA","TYPE_2":"Distrito","ENGTYPE_2":"District","CC_2":"NA","HASC_2":"PA.HE.OC","name":"Ocú.county"},
"geometry":{"type": "MultiPolygon","coordinates": [[[[-80.9157,7.7791,123.5705],[-80.9039,7.7852,209.0484],[-80.8977,7.783,202.1357],[-80.8911,7.7834,268.7089],[-80.8864,7.7787,277.3489],[-80.8774,7.7797,221.5632],[-80.8714,7.7783,194.3176],[-80.8704,7.7802,197.3195],[-80.8627,7.7801,301.967],[-80.8561,7.7779,321.1294],[-80.8515,7.7808,272.6963],[-80.8462,7.7797,280.0345],[-80.837,7.7829,313.9285],[-80.8344,7.7881,303.2677],[-80.8357,7.7944,189.6115],[-80.8288,7.7997,193.2],[-80.8215,7.809,335.4794],[-80.8072,7.8008,407.8724],[-80.7962,7.8007,411.4995],[-80.785,7.804,359.091],[-80.7803,7.8081,287.995],[-80.771,7.841,210.3195],[-80.7553,7.8397,232.3429],[-80.7511,7.8459,160.2679],[-80.7371,7.8458,135.5203],[-80.7381,7.8576,138.0123],[-80.7363,7.8603,131.9549],[-80.7318,7.8619,114.0172],[-80.7261,7.8705,158.2885],[-80.7258,7.8774,96.3513],[-80.7229,7.8831,92.4425],[-80.7206,7.8984,120.4193],[-80.719,7.9017,89.3289],[-80.713,7.9054,81.4775],[-80.7112,7.9148,93.282],[-80.7076,7.9169,91.2904],[-80.7047,7.9166,94.5154],[-80.6992,7.9199,83.7704],[-80.6979,7.9229,86.0603],[-80.6956,7.9234,85.0489],[-80.6919,7.9226,111.8534],[-80.6781,7.9137,71.7639],[-80.6749,7.9194,73.6945],[-80.6745,7.9238,81.697],[-80.6692,7.9219,76.184],[-80.6655,7.9248,74.5032],[-80.6599,7.9245,72.4408],[-80.6571,7.9261,65.7466],[-80.6599,7.9518,90.1865],[-80.6679,7.963,59.5327],[-80.6762,7.9708,66.2195],[-80.6807,7.9723,72.6631],[-80.6765,7.9858,53.6338],[-80.6768,7.9915,51.8771],[-80.6722,8.0025,43.1947],[-80.6769,8.011,43.3901],[-80.6789,8.0192,34.9667],[-80.6813,8.0187,38.868899999999996],[-80.6822,8.022,35.1444],[-80.6875,8.0241,31.6231],[-80.6888,8.0263,30.6738],[-80.685,8.0313,35.4363],[-80.6867,8.0366,49.7103],[-80.7044,8.0304,30.62],[-80.7144,8.0252,37.5468],[-80.7234,8.0283,47.4218],[-80.728,8.0332,41.9661],[-80.7335,8.0321,41.5727],[-80.7388,8.0286,55.223],[-80.758,8.042,42.3121],[-80.7665,8.0419,82.8763],[-80.7722,8.0463,50.4224],[-80.7744,8.0532,56.6089],[-80.7829,8.0558,73.3649],[-80.7869,8.0613,55.0517],[-80.7926,8.0611,73.1128],[-80.7979,8.0636,66.4917],[-80.8047,8.0627,45.1805],[-80.8111,8.0687,39.2453],[-80.8163,8.0676,37.7216],[-80.8192,8.0648,34.305],[-80.8228,8.0671,32.7827],[-80.8286,8.0646,41.6974],[-80.8363,8.0661,34.8499],[-80.8383,8.0606,36.5092],[-80.8426,8.0573,43.9459],[-80.8369,8.0453,46.6668],[-80.8366,8.0401,49.5872],[-80.8342,8.0381,53.038],[-80.8358,8.0296,71.7868],[-80.8287,8.0273,55.4161],[-80.8256,8.0209,62.9413],[-80.8213,8.017,69.9508],[-80.8186,8.0047,86.3893],[-80.815,7.9991,90.0166],[-80.8285,7.9965,85.4228],[-80.8315,7.9913,75.0538],[-80.8344,7.9797,131.2384],[-80.8386,7.9803,132.7668],[-80.8398,7.9789,146.5909],[-80.8428,7.9634,153.4725],[-80.8548,7.9602,161.7543],[-80.8555,7.9571,165.7493],[-80.8663,7.9422,180.3199],[-80.8665,7.9374,187.4551],[-80.8687,7.9353,176.9461],[-80.8704,7.9287,174.9463],[-80.8706,7.9232,175.5373],[-80.8797,7.9247,179.3855],[-80.8918,7.9213,188.3687],[-80.9027,7.9268,204.6996],[-80.912,7.9229,220.8939],[-80.9157,7.923,234.1256],[-80.9195,7.9202,221.0334],[-80.9235,7.923,170.7984],[-80.9301,7.9229,134.0326],[-80.9282,7.9174,121.7052],[-80.9226,7.916,99.9794],[-80.919,7.9124,93.463],[-80.9155,7.9114,91.7715],[-80.9143,7.9089,101.5965],[-80.9206,7.9018,106.5743],[-80.9229,7.8862,83.6067],[-80.9257,7.8839,109.3089],[-80.9304,7.8736,141.2704],[-80.9322,7.8537,394.2226],[-80.9389,7.8297,395.7805],[-80.9373,7.8203,347.5767],[-80.9481,7.7993,151.8006],[-80.949,7.7785,165.247],[-80.9524,7.772,90.3105],[-80.9578,7.7726,104.1103],[-80.9612,7.7709,75.8016],[-80.9632,7.7643,81.0759],[-80.9602,7.7595,95.0526],[-80.9587,7.7607,85.9713],[-80.936,7.7601,233.2789],[-80.9157,7.7791,123.5705]]]]}}