{"type":"Feature","properties":{"GID_3":"PAN.2.8.1_1","GID_0":"PAN","country":"Panama","GID_1":"PAN.2_1","province":"Chiriquí","NL_NAME_1":"NA","GID_2":"PAN.2.8_1","county":"Gualaca","NL_NAME_2":"NA","city":"Gualaca","VARNAME_3":"NA","NL_NAME_3":"NA","TYPE_3":"Corregimiento","ENGTYPE_3":"Municipality","CC_3":"NA","HASC_3":"NA","name":"Gualaca.city"},
"geometry":{"type": "MultiPolygon","coordinates": [[[[-82.2843,8.4581,48.5836],[-82.2804,8.4699,66.6688],[-82.2741,8.4742,62.7856],[-82.2745,8.4833,69.6644],[-82.2676,8.4828,66.9313],[-82.2651,8.4865,78.4645],[-82.2668,8.4912,79.2019],[-82.2627,8.4915,80.6786],[-82.2601,8.4887,84.8073],[-82.2476,8.4908,77.5688],[-82.2414,8.4943,96.4093],[-82.2393,8.4871,91.3111],[-82.2353,8.486,121.4207],[-82.2265,8.4925,215.594],[-82.2249,8.4963,202.2029],[-82.2278,8.5086,129.3621],[-82.2313,8.5139,157.3773],[-82.2299,8.5238,221.4769],[-82.2337,8.5353,261.551],[-82.2256,8.5462,330.3292],[-82.2166,8.5633,359.3656],[-82.2116,8.566,297.9922],[-82.2049,8.5661,386.2238],[-82.1869,8.5719,422.7332],[-82.1762,8.5681,556.6366],[-82.1614,8.5689,788.6628],[-82.1582,8.5842,663.8329],[-82.1515,8.5855,543.9456],[-82.1466,8.6006,728.8207],[-82.1467,8.6121,875.636],[-82.1494,8.617,1048.2841],[-82.1444,8.6561,1962.3651],[-82.2164,8.6439,1139.7819],[-82.2238,8.641,937.6682],[-82.223,8.6378,868.1057],[-82.2282,8.6357,767.4908],[-82.2392,8.6368,772.759],[-82.246,8.6404,820.1134],[-82.2563,8.6343,669.1345],[-82.2627,8.6216,507.3083],[-82.2694,8.615,423.5105],[-82.2713,8.6151,371.476],[-82.2741,8.6217,371.159],[-82.2782,8.6241,428.0703],[-82.2891,8.6227,291.0347],[-82.2977,8.6174,409.9986],[-82.3027,8.6124,366.5675],[-82.3068,8.6026,270.5613],[-82.317,8.5964,317.8456],[-82.3238,8.5888,249.7117],[-82.3222,8.5836,195.8734],[-82.3184,8.5801,183.9452],[-82.3155,8.5714,232.013],[-82.3105,8.5679,200.2715],[-82.3083,8.5632,158.6257],[-82.3118,8.5457,136.9194],[-82.3097,8.5223,107.3656],[-82.3069,8.5186,100.9043],[-82.304,8.5051,88.6112],[-82.2956,8.489,79.9243],[-82.2962,8.4733,74.1899],[-82.2901,8.4682,65.1719],[-82.2843,8.4581,48.5836]]]]}}