{"type": "Feature","bbox": [-80.6465,7.7097,-80.5636,7.7593],"geometry": {"type": "MultiPolygon","coordinates": [[[[-80.6412,7.7097,206.9406],[-80.6355,7.7125,183.5349],[-80.6313,7.7196,165.2122],[-80.6172,7.7159,180.64],[-80.6132,7.7133,242.0176],[-80.6011,7.7134,233.6519],[-80.5809,7.7104,178.0066],[-80.5742,7.7116,146.8443],[-80.5636,7.7108,91.1857],[-80.5667,7.7203,192.3043],[-80.5729,7.7279,156.094],[-80.5733,7.7365,130.696],[-80.569,7.74,154.9613],[-80.5686,7.7421,137.3575],[-80.5732,7.7438,114.8413],[-80.5745,7.74,112.1097],[-80.5776,7.7397,129.9911],[-80.578,7.7432,134.2055],[-80.5761,7.7474,145.8513],[-80.5781,7.7518,122.6042],[-80.5803,7.7534,145.7039],[-80.5856,7.7531,126.4024],[-80.5892,7.7593,86.6912],[-80.5965,7.7439,124.9583],[-80.612,7.7398,295.7576],[-80.6211,7.7316,256.9621],[-80.6339,7.733,153.8692],[-80.6368,7.7315,169.583],[-80.6399,7.7276,223.1469],[-80.6465,7.7107,219.2568],[-80.6418,7.7122,242.8461],[-80.6412,7.7097,206.9406]]]]}
,"properties": {"GID_3": "PAN.7.3.4_1","GID_0": "PAN","country": "Panama","GID_1": "PAN.7_1","province": "Herrera","NL_NAME_1": "NA","GID_2": "PAN.7.3_1","county": "LosPozos","NL_NAME_2": "NA","city": "LaArena","VARNAME_3": "NA","NL_NAME_3": "NA","TYPE_3": "Corregimiento","ENGTYPE_3": "Municipality","CC_3": "NA","HASC_3": "NA","name": "La_Arena.city","area_km2": 24.6233,"hist_schema_id": "Elevation0-9000","hist_area_km2": {"75": 0.04202,"100": 1.74376,"125": 3.90774,"150": 3.61365,"175": 3.15147,"200": 4.34904,"225": 3.71874,"250": 2.45814,"275": 1.0925,"300": 0.42019,"325": 0.10505,"350": 0.02101}}}