{"type":"Feature","properties":{"GID_3":"PAN.2.13.2_1","GID_0":"PAN","country":"Panama","GID_1":"PAN.2_1","province":"Chiriquí","NL_NAME_1":"NA","GID_2":"PAN.2.13_1","county":"Tolé","NL_NAME_2":"NA","city":"CerroViejo","VARNAME_3":"NA","NL_NAME_3":"NA","TYPE_3":"Corregimiento","ENGTYPE_3":"Municipality","CC_3":"NA","HASC_3":"NA","name":"Cerro_Viejo.city"},
"geometry":{"type": "MultiPolygon","coordinates": [[[[-81.5707,8.1959,71.7897],[-81.5555,8.2052,94.461],[-81.5546,8.2088,149.6628],[-81.5586,8.2171,78.9016],[-81.5564,8.2267,113.7138],[-81.5573,8.2335,206.6323],[-81.5468,8.2473,277.9901],[-81.5386,8.2449,243.6214],[-81.5356,8.2558,253.0752],[-81.5301,8.2613,137.3101],[-81.5295,8.2638,175.0286],[-81.5363,8.2742,307.7562],[-81.5434,8.2721,259.0863],[-81.548,8.2726,199.6087],[-81.5497,8.2781,255.2707],[-81.5545,8.2777,233.3934],[-81.5578,8.2816,262.7663],[-81.5583,8.2878,359.9387],[-81.5535,8.2945,316.0271],[-81.5534,8.2996,343.8753],[-81.5424,8.3122,228.7393],[-81.5486,8.3272,376.3965],[-81.5549,8.3322,579.7515],[-81.565,8.3292,455.5966],[-81.5715,8.321,366.1061],[-81.5704,8.3175,407.7323],[-81.5713,8.312,450.194],[-81.5752,8.3035,471.0486],[-81.5715,8.3,414.1735],[-81.567,8.301,439.6746],[-81.567,8.2969,332.1212],[-81.5722,8.2933,376.6172],[-81.5757,8.2929,351.9749],[-81.5788,8.2939,369.0645],[-81.5834,8.2987,297.1364],[-81.5847,8.3069,364.0083],[-81.5758,8.3118,379.0766],[-81.575,8.315,374.6341],[-81.597,8.2993,181.1938],[-81.5943,8.2993,205.8486],[-81.5934,8.2976,221.4737],[-81.5974,8.2885,131.8218],[-81.5939,8.2812,238.0326],[-81.5995,8.2788,159.0967],[-81.6023,8.2753,306.2192],[-81.6091,8.2753,309.0634],[-81.614,8.2687,226.0716],[-81.6196,8.2671,182.6137],[-81.6198,8.2643,180.2323],[-81.6177,8.263,222.5999],[-81.6105,8.2622,507.1619],[-81.6095,8.2568,480.4394],[-81.6071,8.2558,488.8861],[-81.597,8.2752,258.7228],[-81.5917,8.2759,233.2174],[-81.593,8.2702,268.8368],[-81.5949,8.2681,397.1111],[-81.5997,8.2675,462.7125],[-81.5969,8.2641,504.0768],[-81.6007,8.2621,551.2225],[-81.6028,8.2556,537.3806],[-81.6057,8.2541,386.8309],[-81.6029,8.2509,299.6024],[-81.6035,8.2464,225.842],[-81.5911,8.2237,185.3495],[-81.5849,8.2212,177.6943],[-81.5809,8.2159,94.6977],[-81.5735,8.2117,171.2637],[-81.5707,8.1959,71.7897]],
[[-81.5923,8.2586,382.665],[-81.5857,8.2574,435.5424],[-81.58,8.2608,417.7436],[-81.5723,8.2607,398.0294],[-81.5709,8.2631,412.3466],[-81.5677,8.2634,343.7557],[-81.5624,8.2559,398.5877],[-81.5656,8.258,399.8293],[-81.5761,8.2561,399.863],[-81.5799,8.2535,410.7255],[-81.5892,8.2543,431.391],[-81.5981,8.2503,348.0092],[-81.5956,8.2463,270.275],[-81.5779,8.2435,305.2249],[-81.5718,8.245,393.799],[-81.5704,8.2497,384.1147],[-81.5663,8.2518,384.7543],[-81.563,8.2424,197.7621],[-81.5664,8.2338,210.8378],[-81.5761,8.2307,297.9343],[-81.5789,8.2363,358.6915],[-81.5938,8.2382,281.0453],[-81.5986,8.2408,180.255],[-81.6013,8.2552,478.5853],[-81.5923,8.2586,382.665]]],
[[[-81.597,8.2993,181.1938],[-81.5987,8.3015,170.3408],[-81.6125,8.2986,313.6616],[-81.6189,8.2892,326.4725],[-81.6241,8.2859,290.1277],[-81.6219,8.2779,181.493],[-81.6117,8.28,167.7665],[-81.6091,8.2815,153.3036],[-81.6089,8.2847,127.9895],[-81.6057,8.2846,126.7316],[-81.6011,8.2875,177.6919],[-81.6001,8.2913,143.031],[-81.6046,8.2946,162.7488],[-81.597,8.2993,181.1938]]]]}}