{"type":"Feature","properties":{"GID_3":"PAN.13.11.5_1","GID_0":"PAN","country":"Panama","GID_1":"PAN.13_1","province":"Veraguas","NL_NAME_1":"NA","GID_2":"PAN.13.11_1","county":"Soná","NL_NAME_2":"NA","city":"Guarumal","VARNAME_3":"NA","NL_NAME_3":"NA","TYPE_3":"Corregimiento","ENGTYPE_3":"Municipality","CC_3":"NA","HASC_3":"NA","name":"Guarumal.city"},
"geometry":{"type": "MultiPolygon","coordinates": [[[[-81.2363,7.7054,4.3171],[-81.2364,7.7054,4.3171],[-81.2363,7.7052,4.3171],[-81.2363,7.7054,4.3171]]],
[[[-81.2365,7.7057,0.0],[-81.2367,7.7057,2.1579],[-81.2365,7.7055,0.0],[-81.2365,7.7057,0.0]]],
[[[-81.2401,7.7092,0.0],[-81.2399,7.709,0.0],[-81.2399,7.7093,0.0],[-81.2401,7.7092,0.0]]],
[[[-81.2401,7.7096,0.0],[-81.2404,7.7096,0.0],[-81.2402,7.7093,0.0],[-81.2401,7.7096,0.0]]],
[[[-81.2351,7.7043,4.3171],[-81.2357,7.7046,4.3171],[-81.2343,7.7032,0.0],[-81.2343,7.704,0.0],[-81.2351,7.7043,4.3171]]],
[[[-81.2359,7.7049,4.3171],[-81.2357,7.7046,4.3171],[-81.2357,7.7049,4.3171],[-81.2359,7.7049,4.3171]]],
[[[-81.174,7.7493,0.0],[-81.1757,7.7499,0.0],[-81.1763,7.7479,0.0],[-81.1746,7.7457,2.8705],[-81.1724,7.7471,0.0],[-81.174,7.7493,0.0]]],
[[[-81.1685,7.8393,0.0],[-81.1729,7.8382,0.0],[-81.1785,7.826,1.1926],[-81.1793,7.8204,0.0],[-81.1771,7.819,0.5999],[-81.1699,7.8193,0.0],[-81.1635,7.8268,0.0],[-81.1621,7.8351,0.0],[-81.1685,7.8393,0.0]]],
[[[-81.1992,7.876,3.1494],[-81.2093,7.8826,0.0],[-81.2074,7.9005,0.0],[-81.2218,7.8892,15.675],[-81.2334,7.8826,21.1975],[-81.2456,7.885,4.3638],[-81.2767,7.8842,19.8182],[-81.2823,7.8811,70.0789],[-81.2873,7.8663,45.1509],[-81.2988,7.8517,184.5141],[-81.3044,7.8488,146.1913],[-81.3147,7.8463,212.5173],[-81.3334,7.8486,406.1688],[-81.3515,7.8395,470.2468],[-81.3479,7.8348,314.3551],[-81.347,7.8298,431.6217],[-81.3489,7.824,281.0733],[-81.3531,7.8194,233.6755],[-81.3599,7.8193,84.7749],[-81.3688,7.8281,198.8597],[-81.3818,7.8315,281.4675],[-81.3859,7.8308,197.9842],[-81.388,7.8274,212.2666],[-81.3885,7.8132,372.4413],[-81.3911,7.8009,135.5942],[-81.4022,7.7913,137.8259],[-81.418,7.7699,123.2474],[-81.423,7.7614,302.225],[-81.4245,7.7484,343.5486],[-81.4142,7.749,456.8684],[-81.3999,7.757,445.4731],[-81.3916,7.7584,548.7675],[-81.3663,7.7527,458.7563],[-81.3575,7.7454,421.847],[-81.3478,7.7442,266.6273],[-81.335,7.7487,64.9397],[-81.3227,7.7561,20.5864],[-81.2921,7.7663,15.7025],[-81.2835,7.758,10.5936],[-81.2739,7.7408,4.9314],[-81.2674,7.7374,1.2882],[-81.2404,7.7096,0.0],[-81.2407,7.7149,0.0],[-81.2468,7.7165,10.7455],[-81.2507,7.7215,0.0],[-81.2485,7.7215,3.2877],[-81.2457,7.7174,4.9959],[-81.239,7.7171,14.732],[-81.2351,7.7085,0.0],[-81.2304,7.7085,0.0],[-81.2165,7.7163,0.0],[-81.2162,7.7221,0.0],[-81.221,7.7235,5.5488],[-81.2257,7.7307,0.0],[-81.2288,7.7312,0.7444],[-81.226,7.7321,0.0],[-81.2262,7.7488,0.0],[-81.2321,7.7499,4.8227],[-81.2401,7.7485,6.3421],[-81.2438,7.7496,6.025],[-81.241,7.7501,0.0],[-81.2418,7.7515,0.0],[-81.2499,7.7521,2.4814],[-81.239,7.7532,0.0],[-81.2399,7.7549,0.0],[-81.2421,7.7549,0.0],[-81.2451,7.7532,3.3742],[-81.2438,7.756,0.8533],[-81.2457,7.7607,3.9571],[-81.2423,7.7562,0.7836],[-81.2371,7.7535,0.0],[-81.2312,7.7535,0.0],[-81.2349,7.7565,0.955],[-81.2376,7.7565,4.2208],[-81.2374,7.7585,2.0039],[-81.2351,7.7587,0.0],[-81.2354,7.7607,3.1186],[-81.2326,7.7574,0.7219],[-81.2301,7.7582,0.0],[-81.2307,7.7601,2.271],[-81.229,7.7579,0.0],[-81.2268,7.759,1.7971],[-81.2243,7.756,0.8136],[-81.2213,7.7576,3.4956],[-81.2179,7.7451,3.846],[-81.2224,7.744,0.0],[-81.2207,7.7471,0.751],[-81.2232,7.7488,0.0],[-81.2235,7.7304,0.0],[-81.2201,7.726,8.8848],[-81.2179,7.7257,0.0],[-81.2151,7.7312,0.0],[-81.2087,7.7335,0.6395],[-81.209,7.7396,1.8724],[-81.2057,7.7468,0.0],[-81.194,7.7562,7.5848],[-81.1943,7.7587,7.092],[-81.1985,7.7593,3.4594],[-81.2012,7.7621,0.0],[-81.211,7.7637,17.5756],[-81.206,7.7651,0.0],[-81.1974,7.761,0.0],[-81.1915,7.7618,0.0],[-81.1929,7.761,0.0],[-81.1918,7.7587,0.5369],[-81.1937,7.7546,0.0],[-81.2054,7.7435,10.7369],[-81.2068,7.7387,0.0],[-81.2021,7.7382,0.0],[-81.1957,7.7399,0.0],[-81.1937,7.7435,4.3452],[-81.1854,7.7482,0.5935],[-81.1851,7.7499,0.0],[-81.1801,7.7507,5.5224],[-81.1765,7.7493,0.0],[-81.1782,7.7554,0.0],[-81.1718,7.7643,0.0],[-81.1682,7.776,0.0],[-81.1732,7.7838,5.6217],[-81.1701,7.7954,0.0],[-81.1718,7.7979,0.0],[-81.1701,7.8001,0.0],[-81.1696,7.8096,0.0],[-81.1804,7.8174,0.0],[-81.1837,7.8254,5.5496],[-81.1815,7.8312,0.0],[-81.181,7.8393,1.5413],[-81.1771,7.8421,12.8839],[-81.1771,7.8485,6.4948],[-81.1824,7.8493,0.0],[-81.1799,7.8541,0.0],[-81.183,7.8532,0.0],[-81.1925,7.8639,29.4993],[-81.1992,7.876,3.1494]]]]}}