{"type":"Feature","properties":{"GID_3":"PAN.2.6.2_1","GID_0":"PAN","country":"Panama","GID_1":"PAN.2_1","province":"Chiriquí","NL_NAME_1":"NA","GID_2":"PAN.2.6_1","county":"David","NL_NAME_2":"NA","city":"Chiriquí","VARNAME_3":"NA","NL_NAME_3":"NA","TYPE_3":"Corregimiento","ENGTYPE_3":"Municipality","CC_3":"NA","HASC_3":"NA","name":"Chiriquí.city"},
"geometry":{"type": "MultiPolygon","coordinates": [[[[-82.3263,8.4146,21.8088],[-82.3315,8.4031,14.4894],[-82.3438,8.4034,12.0304],[-82.3501,8.3991,9.3613],[-82.3592,8.3959,8.6068],[-82.3627,8.3875,8.1358],[-82.3681,8.3831,5.1105],[-82.372,8.3743,3.9855],[-82.375,8.3747,2.7797],[-82.3793,8.3812,4.7541],[-82.3809,8.3813,4.2552],[-82.3851,8.3702,3.7009],[-82.3956,8.3621,0.8275],[-82.398,8.353,2.142],[-82.3993,8.3347,23.5522],[-82.3927,8.3343,17.102],[-82.3926,8.329,27.2115],[-82.3877,8.3245,24.4967],[-82.3841,8.3263,26.8737],[-82.382,8.3311,23.1905],[-82.3758,8.3306,16.9533],[-82.3733,8.3284,19.7782],[-82.3736,8.3242,16.7356],[-82.3676,8.3231,8.5753],[-82.3632,8.3257,0.0],[-82.3671,8.3265,24.4975],[-82.3701,8.3304,6.0914],[-82.3704,8.3335,0.0],[-82.3763,8.3374,11.0671],[-82.3751,8.3396,18.218],[-82.3701,8.339,0.0],[-82.3701,8.3446,13.6223],[-82.3685,8.3396,0.0],[-82.3704,8.3379,10.2104],[-82.3749,8.3388,18.218],[-82.3754,8.3374,11.0671],[-82.3696,8.334,14.1227],[-82.3679,8.3293,0.0],[-82.3654,8.3276,5.6947],[-82.3604,8.3293,9.1424],[-82.3579,8.334,1.1518],[-82.3549,8.3351,0.0],[-82.3471,8.3346,6.3794],[-82.3426,8.3326,0.0],[-82.3399,8.3262,0.0],[-82.336,8.3226,0.0],[-82.3235,8.3246,0.0],[-82.3257,8.3276,0.0],[-82.3249,8.3285,0.0],[-82.3099,8.3246,0.5328],[-82.3076,8.3265,0.0],[-82.3068,8.3324,10.7144],[-82.3079,8.3349,2.0131],[-82.3124,8.3357,1.3183],[-82.3132,8.3385,1.9944],[-82.3112,8.3363,1.3183],[-82.3063,8.3349,0.3735],[-82.3051,8.3293,0.0],[-82.3015,8.3293,0.0],[-82.2954,8.3346,0.0],[-82.2946,8.3388,1.304],[-82.2862,8.344,8.0591],[-82.2846,8.3468,0.6474],[-82.2862,8.3401,0.0],[-82.2765,8.3429,0.0],[-82.2712,8.3404,21.0472],[-82.2765,8.3415,5.2295],[-82.2832,8.3388,0.0],[-82.2876,8.336,0.0],[-82.2896,8.3304,3.1598],[-82.2929,8.3274,0.0],[-82.3065,8.3224,0.0],[-82.3082,8.3182,7.0593],[-82.3057,8.3104,0.0],[-82.3018,8.3085,0.0],[-82.2951,8.309,4.9277],[-82.2879,8.3043,0.0],[-82.2815,8.3163,3.4014],[-82.2765,8.3204,5.0361],[-82.2818,8.3143,8.3609],[-82.2857,8.3051,8.7376],[-82.2743,8.2932,0.0],[-82.2696,8.2904,0.0],[-82.2665,8.2924,0.0],[-82.2621,8.291,0.0],[-82.2599,8.2943,2.4725],[-82.2571,8.2943,0.0],[-82.2443,8.301,0.0],[-82.2404,8.3168,0.0],[-82.2374,8.3188,2.5951],[-82.2382,8.324,0.0],[-82.2363,8.3282,0.0],[-82.2363,8.334,2.8119],[-82.2326,8.3382,0.7848],[-82.229,8.3396,0.0],[-82.2237,8.3465,0.0],[-82.2257,8.3529,0.0],[-82.2246,8.3585,0.0],[-82.2276,8.3599,1.83],[-82.2235,8.3585,0.0],[-82.2199,8.3604,0.0],[-82.2182,8.3668,5.8352],[-82.221,8.371,2.466],[-82.2185,8.3746,3.2699],[-82.2096,8.3776,0.0],[-82.2101,8.3762,1.9146],[-82.2174,8.3743,0.0],[-82.2182,8.3704,0.0],[-82.2084,8.3764,5.2694],[-82.2128,8.3868,32.6713],[-82.2139,8.3951,10.2956],[-82.2184,8.3989,100.996],[-82.2205,8.4047,67.1055],[-82.2181,8.4111,205.9689],[-82.2064,8.4176,446.883],[-82.205,8.4205,440.616],[-82.2139,8.4228,430.5195],[-82.2345,8.4191,131.7576],[-82.2422,8.4235,88.3707],[-82.2485,8.4186,58.7825],[-82.2505,8.4187,62.7593],[-82.2599,8.4226,84.6323],[-82.269,8.4322,53.2561],[-82.2792,8.4254,35.6714],[-82.2844,8.4244,43.6775],[-82.2916,8.4273,51.7497],[-82.2957,8.4268,44.9744],[-82.3005,8.4227,38.595],[-82.321,8.4151,31.788],[-82.3263,8.4146,21.8088]]]]}}