{"type": "Feature","bbox": [-82.5403,8.2979,-82.4746,8.3951],"geometry": {"type": "MultiPolygon","coordinates": [[[[-82.5403,8.3667,15.8926],[-82.5394,8.3631,17.1295],[-82.5228,8.3506,9.5087],[-82.5207,8.3393,8.219],[-82.5186,8.3358,6.6095],[-82.5216,8.3296,4.8386],[-82.5141,8.3261,23.4978],[-82.5164,8.3198,3.5504],[-82.5157,8.3176,11.5807],[-82.5021,8.3142,7.6268],[-82.5028,8.3122,11.0023],[-82.5088,8.3105,17.1997],[-82.5088,8.3061,11.1164],[-82.5044,8.3042,14.8227],[-82.5032,8.3012,0.9117],[-82.5018,8.3021,0.0],[-82.501,8.3096,1.8588],[-82.5004,8.2999,0.0],[-82.4896,8.2979,8.3527],[-82.4788,8.2993,0.0],[-82.479,8.3051,0.0],[-82.4812,8.3082,4.9237],[-82.4757,8.3082,4.7477],[-82.4767,8.3197,3.4546],[-82.4792,8.3194,5.6422],[-82.4796,8.3266,3.9919],[-82.482,8.3311,3.5899],[-82.4746,8.341,4.8389],[-82.4793,8.3416,4.8073],[-82.4842,8.347,5.9366],[-82.4898,8.3447,5.5391],[-82.4896,8.3538,6.6265],[-82.5017,8.3523,6.5179],[-82.5072,8.3556,8.3343],[-82.5089,8.3595,11.2569],[-82.5091,8.3824,22.3292],[-82.5132,8.3951,30.9996],[-82.5383,8.3888,18.4351],[-82.5387,8.3842,17.1966],[-82.5345,8.3767,13.5804],[-82.5384,8.374,16.536],[-82.5403,8.3667,15.8926]]]]}
,"properties": {"GID_3": "PAN.2.1.6_1","GID_0": "PAN","country": "Panama","GID_1": "PAN.2_1","province": "Chiriquí","NL_NAME_1": "NA","GID_2": "PAN.2.1_1","county": "Alanje","NL_NAME_2": "NA","city": "Querévalo","VARNAME_3": "NA","NL_NAME_3": "NA","TYPE_3": "Corregimiento","ENGTYPE_3": "Municipality","CC_3": "NA","HASC_3": "NA","name": "Querévalo.city","area_km2": 36.22855,"hist_schema_id": "Elevation0-9000","hist_area_km2": {"0": 18.92225,"25": 17.3063}}}