{"type": "Feature","bbox": [-80.217,8.9557,-79.9998,9.2825],"geometry": {"type": "MultiPolygon","coordinates": [[[[-80.1389,8.962,84.9125],[-80.1349,8.9667,255.72559999999999],[-80.1157,8.9732,157.257],[-80.0922,9.0032,136.6991],[-80.1084,9.0152,145.2051],[-80.1067,9.0197,170.4901],[-80.1104,9.0251,106.0097],[-80.1108,9.0283,82.1583],[-80.109,9.0348,66.6751],[-80.1045,9.0412,50.8966],[-80.1135,9.0586,65.0236],[-80.1125,9.0608,45.7265],[-80.0775,9.0736,68.4587],[-80.0685,9.0827,51.818],[-80.0629,9.0836,50.5719],[-80.0609,9.0925,61.4391],[-80.0572,9.095,26.0807],[-80.0577,9.101,64.0887],[-80.0519,9.107,26.3254],[-80.0431,9.1444,101.6756],[-80.0349,9.1627,91.2229],[-80.0358,9.1656,58.748],[-80.0454,9.1753,128.5624],[-80.0448,9.179,43.3557],[-80.0379,9.1854,7.9521],[-80.0332,9.1868,9.8345],[-80.0255,9.1823,15.8007],[-80.0261,9.1698,48.308],[-80.0219,9.1647,29.4868],[-80.0144,9.1636,88.4416],[-79.9998,9.1669,21.089],[-80.0001,9.1736,25.366],[-80.0094,9.2003,15.0332],[-80.0106,9.2172,30.9038],[-80.0142,9.229,86.727],[-80.0143,9.2572,93.2929],[-80.0125,9.2703,45.2861],[-80.0177,9.2784,58.1607],[-80.0254,9.2825,17.7875],[-80.0296,9.2816,22.8264],[-80.0358,9.2753,18.6793],[-80.0417,9.277,11.6047],[-80.0444,9.2735,7.0096],[-80.0491,9.272,24.2637],[-80.0537,9.274,0.0],[-80.0612,9.266,4.5384],[-80.0663,9.2635,5.3721],[-80.0668,9.2601,6.1413],[-80.0701,9.256,0.0],[-80.0799,9.2479,5.7339],[-80.0799,9.2449,3.3299],[-80.084,9.2426,4.2742],[-80.0874,9.2385,3.0036],[-80.086,9.2337,5.9151],[-80.0882,9.2318,9.8355],[-80.1079,9.2224,0.0],[-80.111,9.2193,4.7095],[-80.121,9.2185,6.2662],[-80.1251,9.2162,1.8028],[-80.1263,9.2126,1.3961],[-80.1304,9.2087,2.8426],[-80.1457,9.2076,1.8388],[-80.1499,9.2087,4.8722],[-80.1532,9.2074,0.0],[-80.1551,9.2035,4.1097],[-80.1585,9.2024,0.0],[-80.1604,9.199,3.9474],[-80.1724,9.1987,3.4632],[-80.1757,9.1938,0.0],[-80.1796,9.1926,1.3211],[-80.1882,9.1921,0.4532],[-80.1899,9.1943,0.0],[-80.1979,9.1949,6.6691],[-80.2007,9.1935,0.0],[-80.201,9.1907,0.0],[-80.2049,9.1899,2.8688],[-80.2057,9.1879,8.8397],[-80.2091,9.1639,17.3679],[-80.2042,9.1594,36.3644],[-80.2083,9.1526,25.2247],[-80.2037,9.1432,60.687],[-80.2101,9.1367,65.1512],[-80.2086,9.1287,104.6878],[-80.217,9.1172,76.6495],[-80.2159,9.1137,50.1554],[-80.2095,9.109,95.2817],[-80.2064,9.1005,113.1709],[-80.2064,9.0923,86.9587],[-80.2021,9.0902,71.9172],[-80.2037,9.0848,112.3055],[-80.199,9.0771,23.4403],[-80.2008,9.0713,80.8802],[-80.2101,9.064,55.5331],[-80.2003,9.0518,19.2495],[-80.1977,9.0447,48.4601],[-80.1906,9.0413,19.6229],[-80.1886,9.0333,69.1177],[-80.1827,9.0269,20.7301],[-80.1857,9.0246,69.2037],[-80.1865,9.018,41.1381],[-80.1831,9.0144,56.5524],[-80.1845,9.0081,15.648],[-80.1828,9.0025,17.9471],[-80.1784,8.9969,18.2107],[-80.1804,8.9941,20.1871],[-80.1777,8.9918,15.7886],[-80.1796,8.9858,20.6583],[-80.1715,8.9821,17.0611],[-80.1741,8.9736,17.1175],[-80.1735,8.9697,16.7961],[-80.1664,8.9728,46.5933],[-80.1616,8.9669,22.2372],[-80.1546,8.9666,27.4951],[-80.1496,8.9616,40.3023],[-80.1468,8.9557,27.5598],[-80.1438,8.9567,37.1458],[-80.1389,8.962,84.9125]]]]}
,"properties": {"GID_2": "PAN.4.1_1","GID_0": "PAN","country": "Panama","GID_1": "PAN.4_1","province": "Colón","NL_NAME_1": "NA","county": "Chagres","VARNAME_2": "NA","NL_NAME_2": "NA","TYPE_2": "Distrito","ENGTYPE_2": "District","CC_2": "NA","HASC_2": "PA.CL.CR","name": "Chagres.county","area_km2": 437.6613,"hist_schema_id": "Elevation0-9000","hist_area_km2": {"0": 40.0195,"25": 118.3952,"50": 104.2719,"75": 78.9456,"100": 55.0377,"125": 31.2138,"150": 7.6627,"175": 1.4449,"200": 0.4188,"225": 0.0838,"250": 0.0838,"275": 0.0838}}}