{"type": "Feature","bbox": [-82.5476,8.4361,-82.4222,8.6338],"geometry": {"type": "MultiPolygon","coordinates": [[[[-82.5325,8.504,178.2852],[-82.5153,8.5049,195.0414],[-82.5001,8.5028,237.3046],[-82.493,8.4977,205.1947],[-82.475,8.4934,176.5687],[-82.4648,8.4869,173.0046],[-82.4634,8.4755,68.5861],[-82.4563,8.4697,57.9963],[-82.4494,8.4677,52.365],[-82.4466,8.4634,59.2901],[-82.4496,8.4535,43.3149],[-82.4455,8.4477,40.1962],[-82.4441,8.4361,42.2285],[-82.4309,8.4367,51.9843],[-82.4232,8.4478,66.441],[-82.4222,8.4534,71.3374],[-82.4251,8.4695,101.2465],[-82.4233,8.4733,106.2153],[-82.4256,8.4774,100.3444],[-82.4326,8.4798,157.2921],[-82.4348,8.4881,104.8971],[-82.4385,8.4912,129.1632],[-82.4413,8.4889,110.9903],[-82.4468,8.4898,126.5398],[-82.4539,8.4927,130.924],[-82.4613,8.4932,147.2527],[-82.4731,8.4985,165.4931],[-82.4808,8.4994,177.8158],[-82.489,8.5078,195.4636],[-82.4959,8.5197,227.7501],[-82.4978,8.5269,244.0645],[-82.5061,8.5433,291.786],[-82.5118,8.5522,333.6453],[-82.5158,8.5742,422.5069],[-82.5228,8.5912,500.0732],[-82.5249,8.6011,549.2229],[-82.5244,8.6084,577.3691],[-82.5268,8.614,613.8802],[-82.533,8.6224,666.6625],[-82.5357,8.6293,699.0634],[-82.5476,8.6338,729.4936],[-82.543,8.6063,583.4924],[-82.5366,8.5847,486.9849],[-82.5373,8.5775,456.7534],[-82.5305,8.5452,314.5225],[-82.5315,8.5362,282.6953],[-82.5298,8.5322,270.1427],[-82.5305,8.5119,196.3601],[-82.5325,8.504,178.2852]]]]}
,"properties": {"GID_3": "PAN.2.6.8_1","GID_0": "PAN","country": "Panama","GID_1": "PAN.2_1","province": "Chiriquí","NL_NAME_1": "NA","GID_2": "PAN.2.6_1","county": "David","NL_NAME_2": "NA","city": "SanCarlos","VARNAME_3": "NA","NL_NAME_3": "NA","TYPE_3": "Corregimiento","ENGTYPE_3": "Municipality","CC_3": "NA","HASC_3": "NA","name": "San_Carlos.city","area_km2": 56.25705,"hist_schema_id": "Elevation0-9000","hist_area_km2": {"25": 0.83889,"50": 7.15135,"75": 3.41831,"100": 1.40502,"125": 2.26479,"150": 1.6776,"175": 1.86629,"200": 3.12441,"225": 6.39542,"250": 4.15168,"275": 2.95643,"300": 2.45317,"325": 1.6354,"350": 1.5515,"375": 1.38375,"400": 1.55146,"425": 1.38371,"450": 1.29983,"475": 1.21595,"500": 0.98533,"525": 1.04821,"550": 1.11108,"575": 1.13203,"600": 1.06913,"625": 0.92237,"650": 0.81755,"675": 0.77561,"700": 0.58694,"725": 0.08385}}}