{"type":"Feature","properties":{"GID_3":"PAN.2.7.6_1","GID_0":"PAN","country":"Panama","GID_1":"PAN.2_1","province":"Chiriquí","NL_NAME_1":"NA","GID_2":"PAN.2.7_1","county":"Dolega","NL_NAME_2":"NA","city":"Rovira","VARNAME_3":"NA","NL_NAME_3":"NA","TYPE_3":"Corregimiento","ENGTYPE_3":"Municipality","CC_3":"NA","HASC_3":"NA","name":"Rovira.city"},
"geometry":{"type": "MultiPolygon","coordinates": [[[[-82.5693,8.7585,1831.0105],[-82.5629,8.7566,1834.9778],[-82.5449,8.7463,1366.9397],[-82.543,8.7424,1432.2124],[-82.5438,8.7257,1312.3267],[-82.5413,8.7202,1260.5721],[-82.5439,8.7089,1182.5846],[-82.5401,8.6956,1077.1119],[-82.543,8.6902,1042.1771],[-82.5429,8.6872,1030.8467],[-82.5348,8.6771,954.011],[-82.5284,8.6574,814.5041],[-82.5309,8.6508,787.7834],[-82.5302,8.6457,773.1838],[-82.5187,8.6274,663.6039],[-82.511,8.6025,535.5099],[-82.49,8.6185,558.4534],[-82.486,8.6169,539.3041],[-82.4794,8.6068,480.1063],[-82.4738,8.6093,486.0281],[-82.4731,8.6185,502.2016],[-82.4851,8.6257,564.4454],[-82.4902,8.6309,602.6047],[-82.5029,8.6542,747.8967],[-82.51,8.6702,848.5706],[-82.5088,8.6822,934.7349],[-82.5161,8.7096,1160.3672],[-82.5331,8.7302,1510.8314],[-82.5349,8.742,1645.7034],[-82.5315,8.7458,1686.4771],[-82.5322,8.7525,1887.2622],[-82.5261,8.7654,2186.2964],[-82.5466,8.7664,1862.545],[-82.5648,8.7622,2063.0068],[-82.569,8.7601,1908.0284],[-82.5693,8.7585,1831.0105]]]]}}