{"type":"Feature","properties":{"GID_3":"PAN.13.4.1_1","GID_0":"PAN","country":"Panama","GID_1":"PAN.13_1","province":"Veraguas","NL_NAME_1":"NA","GID_2":"PAN.13.4_1","county":"LaMesa","NL_NAME_2":"NA","city":"Bisvalles","VARNAME_3":"NA","NL_NAME_3":"NA","TYPE_3":"Corregimiento","ENGTYPE_3":"Municipality","CC_3":"NA","HASC_3":"NA","name":"Bisvalles.city"},
"geometry":{"type": "MultiPolygon","coordinates": [[[[-81.2682,8.2704,90.661],[-81.27,8.2621,83.1331],[-81.2484,8.2391,240.7588],[-81.2477,8.2329,116.2929],[-81.2429,8.2237,78.5336],[-81.2393,8.2112,78.2816],[-81.2418,8.1943,76.0509],[-81.2422,8.1718,105.3012],[-81.2293,8.1721,123.0683],[-81.2167,8.1756,82.1118],[-81.1976,8.178,179.5849],[-81.1895,8.1857,173.9362],[-81.1784,8.1908,145.9097],[-81.1768,8.1957,144.2219],[-81.1815,8.216,139.4052],[-81.1778,8.2209,136.3919],[-81.1665,8.2228,149.8955],[-81.1637,8.2265,136.1876],[-81.164,8.266,141.5771],[-81.1834,8.2649,302.5969],[-81.1982,8.2759,339.9087],[-81.2039,8.2771,371.2626],[-81.2344,8.2751,124.4716],[-81.2392,8.2733,125.2622],[-81.2682,8.2704,90.661]]]]}}