{"type":"Feature","properties":{"GID_3":"PAN.9.2.4_1","GID_0":"PAN","country":"Panama","GID_1":"PAN.9_1","province":"LosSantos","NL_NAME_1":"NA","GID_2":"PAN.9.2_1","county":"LasTablas","NL_NAME_2":"NA","city":"ElCocal","VARNAME_3":"NA","NL_NAME_3":"NA","TYPE_3":"Corregimiento","ENGTYPE_3":"Municipality","CC_3":"NA","HASC_3":"NA","name":"El_Cocal.city"},
"geometry":{"type": "MultiPolygon","coordinates": [[[[-80.278,7.7247,82.4641],[-80.2752,7.7171,86.3835],[-80.2616,7.7293,90.2132],[-80.2691,7.7512,49.156],[-80.2757,7.7561,45.2696],[-80.2805,7.7437,69.9973],[-80.2905,7.7411,82.0304],[-80.2862,7.7347,56.0664],[-80.2874,7.7306,57.1395],[-80.278,7.7247,82.4641]]]]}}