{"type": "Feature","bbox": [-78.9088,8.8126,-78.7171,8.9777],"geometry": {"type": "MultiPolygon","coordinates": [[[[-78.9088,8.912,5.1137],[-78.9065,8.9107,10.5593],[-78.9063,8.9082,0.0],[-78.8988,8.9074,17.5024],[-78.8988,8.9038,10.6651],[-78.896,8.9043,12.0442],[-78.8921,8.9026,19.9159],[-78.8893,8.8976,7.1309],[-78.8896,8.894,2.81],[-78.8846,8.8935,23.5534],[-78.8807,8.8774,0.0],[-78.8779,8.8751,7.9545],[-78.8801,8.8679,2.7602],[-78.8757,8.8662,14.2497],[-78.8737,8.854,9.8017],[-78.8685,8.8435,0.0],[-78.8651,8.8412,12.9439],[-78.8649,8.8337,0.0],[-78.8624,8.829,1.2188],[-78.8599,8.8282,0.0],[-78.8582,8.8296,8.035],[-78.8493,8.8193,17.1182],[-78.8385,8.8126,7.0409],[-78.8349,8.8129,1.4196],[-78.8296,8.8201,3.248],[-78.819,8.8185,0.0],[-78.8163,8.8196,0.0],[-78.8149,8.8176,0.0],[-78.8088,8.8218,17.3215],[-78.7995,8.8215,5.3328],[-78.7964,8.8198,12.3001],[-78.788,8.8204,21.5939],[-78.7864,8.8232,16.5003],[-78.7897,8.8266,16.5826],[-78.7923,8.8416,0.0],[-78.7727,8.8459,12.2038],[-78.7677,8.8485,21.5935],[-78.7568,8.861,81.2214],[-78.7492,8.8649,53.3089],[-78.7418,8.8714,51.9471],[-78.7385,8.8826,185.279],[-78.7205,8.8941,116.7506],[-78.7171,8.8988,162.0667],[-78.7176,8.9019,130.8276],[-78.7233,8.9095,107.3389],[-78.7227,8.913,96.0461],[-78.7263,8.9154,101.1733],[-78.7337,8.9152,92.0227],[-78.7405,8.9104,90.1426],[-78.7623,8.9162,301.1083],[-78.7656,8.9265,357.1183],[-78.7807,8.9573,527.4761],[-78.7869,8.9658,325.6673],[-78.7917,8.9767,284.0035],[-78.7936,8.9777,252.0542],[-78.8007,8.9759,206.515],[-78.8116,8.9637,154.6384],[-78.8194,8.9604,155.7179],[-78.8288,8.9517,222.213],[-78.8365,8.9476,113.3367],[-78.8677,8.9417,164.2532],[-78.8859,8.9407,61.3812],[-78.8976,8.9269,11.6264],[-78.9002,8.9201,7.6682],[-78.9006,8.9143,8.5966],[-78.9088,8.912,5.1137]]]]}
,"properties": {"GID_3": "PAN.12.3.4_1","GID_0": "PAN","country": "Panama","GID_1": "PAN.12_1","province": "Panamá","NL_NAME_1": "NA","GID_2": "PAN.12.3_1","county": "Chimán","NL_NAME_2": "NA","city": "Pasiga","VARNAME_3": "NA","NL_NAME_3": "NA","TYPE_3": "Corregimiento","ENGTYPE_3": "Municipality","CC_3": "NA","HASC_3": "NA","name": "Pasiga.city","area_km2": 204.5089,"hist_schema_id": "Elevation0-9000","hist_area_km2": {"0": 40.6828,"25": 55.3464,"50": 14.663,"75": 11.8559,"100": 11.2064,"125": 9.5726,"150": 8.8184,"175": 7.9595,"200": 6.6189,"225": 5.0689,"250": 4.9012,"275": 3.7492,"300": 3.6445,"325": 3.5816,"350": 2.8904,"375": 2.0526,"400": 1.8013,"425": 1.6128,"450": 1.4452,"475": 1.2567,"500": 1.2357,"525": 0.5655,"550": 0.5655,"575": 0.3979,"600": 0.4398,"625": 0.4608,"650": 0.4817,"675": 0.5446,"700": 0.3979,"725": 0.4189,"750": 0.1885,"775": 0.0628,"800": 0.0209}}}