{"type": "Feature","bbox": [-78.8145,8.7062,-78.5594,8.9271],"geometry": {"type": "MultiPolygon","coordinates": [[[[-78.7624,8.8118,0.0],[-78.7635,8.8107,0.0],[-78.761,8.8082,0.0],[-78.7604,8.8104,0.0],[-78.7624,8.8118,0.0]]],
[[[-78.7241,8.9162,123.3183],[-78.7263,8.9154,101.1733],[-78.7227,8.913,96.0461],[-78.7226,8.9081,151.499],[-78.7176,8.9019,130.8276],[-78.7181,8.8963,154.3434],[-78.7385,8.8826,185.279],[-78.7418,8.8714,51.9471],[-78.7492,8.8649,53.3089],[-78.7568,8.861,81.2214],[-78.7677,8.8485,21.5935],[-78.7727,8.8459,12.2038],[-78.7923,8.8416,0.0],[-78.7913,8.8329,15.3716],[-78.7895,8.826,16.5826],[-78.7864,8.8232,16.5003],[-78.7872,8.8214,22.2077],[-78.7905,8.8197,22.8808],[-78.8088,8.8218,17.3215],[-78.8145,8.8181,2.6109],[-78.8101,8.8165,6.1773],[-78.8107,8.8143,0.0],[-78.8079,8.8135,0.3162],[-78.8071,8.8096,0.0],[-78.8112,8.801,0.0],[-78.8096,8.8013,3.5975],[-78.8096,8.7965,0.0],[-78.8079,8.7957,3.3105],[-78.8049,8.799,12.7451],[-78.7996,8.7993,0.0],[-78.7985,8.8015,6.1522],[-78.7918,8.804,0.0],[-78.7838,8.8135,0.0],[-78.7849,8.8171,0.0],[-78.7832,8.8199,0.0],[-78.7854,8.8254,1.7664],[-78.7838,8.8293,5.285],[-78.7843,8.834,2.4563],[-78.781,8.8324,0.0],[-78.779,8.8346,0.0],[-78.7732,8.8354,0.0],[-78.7729,8.8337,17.7304],[-78.7787,8.8324,0.0],[-78.7812,8.829,0.0],[-78.7824,8.8221,0.0],[-78.7812,8.8204,0.0],[-78.7712,8.8188,12.434],[-78.7588,8.8099,0.0],[-78.756,8.8113,0.0],[-78.7537,8.8157,19.6501],[-78.7549,8.821,4.8465],[-78.7529,8.8193,17.5176],[-78.7529,8.8137,14.1618],[-78.7571,8.8074,0.0],[-78.7554,8.804,1.5058],[-78.7582,8.8013,4.6398],[-78.7562,8.7857,0.0],[-78.754,8.7849,0.0],[-78.7549,8.781,1.0424],[-78.7535,8.7799,0.0],[-78.7549,8.7771,11.9357],[-78.7524,8.7754,6.383],[-78.7529,8.774,6.383],[-78.7465,8.7751,0.0],[-78.7438,8.769,3.2351],[-78.7407,8.7699,0.5788],[-78.7412,8.7643,1.3931],[-78.7343,8.764,11.5137],[-78.7332,8.7612,0.5967],[-78.7296,8.7587,0.0],[-78.7271,8.7593,3.89],[-78.7254,8.7568,0.0],[-78.7232,8.7582,6.7179],[-78.7129,8.7562,1.1697],[-78.7124,8.7612,18.0375],[-78.711,8.7602,0.0],[-78.7112,8.7557,1.6713],[-78.7046,8.7582,0.0],[-78.7049,8.7507,4.2782],[-78.7012,8.7488,4.6067],[-78.6868,8.7474,1.5668],[-78.684,8.7501,0.0],[-78.6815,8.7571,2.306],[-78.6813,8.7474,0.0],[-78.6762,8.7474,5.0876],[-78.6768,8.744,0.0],[-78.6738,8.7424,3.773],[-78.6751,8.7396,0.0],[-78.6712,8.7379,2.8647],[-78.6751,8.7349,0.0],[-78.6751,8.731,0.0],[-78.664,8.7324,3.3624],[-78.6635,8.7343,0.0],[-78.666,8.7388,2.3189],[-78.6626,8.7362,0.0],[-78.6624,8.734,0.0],[-78.6637,8.7312,14.5851],[-78.6738,8.7296,4.0288],[-78.6749,8.7262,0.0],[-78.6826,8.7224,11.4964],[-78.6762,8.7188,6.1388],[-78.676,8.7168,0.0],[-78.6629,8.7062,0.0],[-78.6615,8.7082,0.0],[-78.6654,8.7149,17.545],[-78.6624,8.716,5.4894],[-78.6549,8.7276,2.3598],[-78.6487,8.7318,1.4518],[-78.646,8.731,0.0],[-78.6443,8.7326,5.6753],[-78.6387,8.7299,0.0],[-78.6368,8.7304,3.0904],[-78.6359,8.7285,0.0],[-78.6357,8.7321,11.4462],[-78.6249,8.7405,0.0],[-78.6245,8.7462,16.8209],[-78.63,8.7513,24.2756],[-78.6262,8.7802,20.6399],[-78.6193,8.7857,16.7517],[-78.6024,8.7933,38.105],[-78.5945,8.8003,24.1519],[-78.5931,8.8044,34.4031],[-78.5943,8.8132,76.5001],[-78.5919,8.8249,70.9583],[-78.5801,8.8327,225.2702],[-78.5722,8.8436,394.269],[-78.5594,8.8737,521.96],[-78.56,8.877,601.1356],[-78.5637,8.8808,678.3074],[-78.5837,8.8883,289.0154],[-78.5904,8.8993,230.4766],[-78.6054,8.9051,341.2481],[-78.6102,8.9135,370.6128],[-78.609,8.9237,398.7359],[-78.611,8.9266,467.9421],[-78.6201,8.9271,829.7478],[-78.6397,8.917,635.8655],[-78.6451,8.9184,366.1806],[-78.6512,8.925,696.0935],[-78.6555,8.9266,727.9243],[-78.6606,8.9253,503.7198],[-78.6673,8.9209,255.1366],[-78.6782,8.9197,198.2537],[-78.6963,8.9128,161.2679],[-78.7022,8.913,159.7827],[-78.7212,8.9183,174.0876],[-78.7241,8.9162,123.3183]]]]}
,"properties": {"GID_3": "PAN.12.3.5_1","GID_0": "PAN","country": "Panama","GID_1": "PAN.12_1","province": "Panamá","NL_NAME_1": "NA","GID_2": "PAN.12.3_1","county": "Chimán","NL_NAME_2": "NA","city": "UniónSanteña","VARNAME_3": "NA","NL_NAME_3": "NA","TYPE_3": "Corregimiento","ENGTYPE_3": "Municipality","CC_3": "NA","HASC_3": "NA","name": "Unión_Santeña.city","area_km2": 343.4667,"hist_schema_id": "Elevation0-9000","hist_area_km2": {"0": 30.1728,"25": 101.8311,"50": 34.8206,"75": 27.3821,"100": 24.3226,"125": 20.5511,"150": 17.0106,"175": 14.0149,"200": 11.4381,"225": 8.191,"250": 7.2273,"275": 5.4676,"300": 4.0849,"325": 3.8335,"350": 3.3307,"375": 2.9955,"400": 2.6394,"425": 2.3252,"450": 2.7232,"475": 1.9691,"500": 1.6758,"525": 1.4663,"550": 1.2568,"575": 1.4663,"600": 1.3616,"625": 1.0893,"650": 0.9217,"675": 1.215,"700": 1.0683,"725": 0.9845,"750": 0.9636,"775": 0.8589,"800": 0.9426,"825": 0.6494,"850": 0.3142,"875": 0.2514,"900": 0.1047,"925": 0.1257,"950": 0.1047,"975": 0.1676,"1000": 0.0838,"1025": 0.0419,"1050": 0.0209}}}