{"type":"Feature","properties":{"GID_3":"PAN.9.6.5_1","GID_0":"PAN","country":"Panama","GID_1":"PAN.9_1","province":"LosSantos","NL_NAME_1":"NA","GID_2":"PAN.9.6_1","county":"Pocrí","NL_NAME_2":"NA","city":"Pocrí","VARNAME_3":"NA","NL_NAME_3":"NA","TYPE_3":"Corregimiento","ENGTYPE_3":"Municipality","CC_3":"NA","HASC_3":"NA","name":"Pocrí.city"},
"geometry":{"type": "MultiPolygon","coordinates": [[[[-80.0654,7.6435,2.3299],[-80.0668,7.6457,1.3287],[-80.069,7.6446,15.5485],[-80.0685,7.6504,19.5434],[-80.084,7.6665,0.0],[-80.0896,7.679,1.7453],[-80.1001,7.6879,5.6858],[-80.1071,7.6985,5.0358],[-80.1124,7.6996,3.4288],[-80.1102,7.6947,15.8555],[-80.1113,7.6936,26.6304],[-80.1098,7.6875,16.5061],[-80.1171,7.6831,8.8729],[-80.1257,7.6685,16.5468],[-80.1344,7.6607,20.3094],[-80.1511,7.6567,39.6302],[-80.1585,7.6505,38.067],[-80.1682,7.637,58.5768],[-80.1508,7.6332,39.2437],[-80.1471,7.6307,39.7002],[-80.1464,7.6268,37.0913],[-80.144,7.6242,32.5934],[-80.1379,7.6217,30.4575],[-80.134,7.618,35.3748],[-80.1289,7.6177,30.2214],[-80.1294,7.6145,27.4319],[-80.1266,7.6122,26.2185],[-80.1149,7.6083,22.0701],[-80.1014,7.6129,13.411],[-80.0954,7.6127,19.5918],[-80.0863,7.6174,28.8079],[-80.082,7.6214,23.003],[-80.0769,7.6311,8.9148],[-80.0656,7.6415,17.9236],[-80.0654,7.6435,2.3299]]]]}}