{"type":"Feature","properties":{"GID_3":"PAN.2.2.1_1","GID_0":"PAN","country":"Panama","GID_1":"PAN.2_1","province":"Chiriquí","NL_NAME_1":"NA","GID_2":"PAN.2.2_1","county":"Barú","NL_NAME_2":"NA","city":"Baco","VARNAME_3":"NA","NL_NAME_3":"NA","TYPE_3":"Corregimiento","ENGTYPE_3":"Municipality","CC_3":"NA","HASC_3":"NA","name":"Baco.city"},
"geometry":{"type": "MultiPolygon","coordinates": [[[[-82.7005,8.3282,0.0],[-82.7005,8.3282,0.0],[-82.701,8.3286,0.0],[-82.701,8.3282,0.0],[-82.7005,8.3282,0.0]]],
[[[-82.7011,8.3289,0.0],[-82.7012,8.3287,0.0],[-82.701,8.3287,0.0],[-82.7011,8.3289,0.0]]],
[[[-82.7015,8.3296,0.0],[-82.7015,8.329,0.0],[-82.7012,8.3291,0.0],[-82.7015,8.3296,0.0]]],
[[[-82.7015,8.3296,0.0],[-82.7018,8.3301,0.0],[-82.7018,8.3301,0.0],[-82.7018,8.3296,0.0],[-82.7015,8.3296,0.0]]],
[[[-82.7024,8.3313,0.0],[-82.7024,8.331,0.0],[-82.7022,8.331,0.0],[-82.7024,8.3313,0.0]]],
[[[-82.7051,8.3373,10.2522],[-82.7074,8.3378,16.7482],[-82.7035,8.3351,4.7826],[-82.7044,8.3366,3.7592],[-82.7051,8.3373,10.2522]]],
[[[-82.8066,8.4238,27.6938],[-82.8205,8.4124,15.201599999999999],[-82.8207,8.4099,14.5453],[-82.8166,8.4037,20.5437],[-82.8205,8.4021,16.3647],[-82.8232,8.3985,18.5999],[-82.8204,8.3917,18.6056],[-82.824,8.3899,14.453],[-82.8254,8.3853,15.188],[-82.8297,8.3797,13.7437],[-82.8124,8.3638,11.8027],[-82.795,8.3437,8.5777],[-82.7761,8.3312,6.8366],[-82.7712,8.3238,4.6937],[-82.769,8.3124,1.6301],[-82.7501,8.316,4.1903],[-82.7379,8.3207,3.5901],[-82.7351,8.3237,3.1012],[-82.7285,8.3265,7.4118],[-82.7118,8.326,3.4421],[-82.7063,8.3296,15.4779],[-82.7049,8.3349,1.6197],[-82.7128,8.3388,11.8578],[-82.7155,8.345,3.2051],[-82.7214,8.3469,3.2428],[-82.7346,8.3558,7.8546],[-82.7373,8.3609,7.8005],[-82.7469,8.3626,7.1083],[-82.754,8.3663,8.6967],[-82.7609,8.3732,9.6586],[-82.7735,8.3811,11.0816],[-82.7753,8.3847,9.8645],[-82.7739,8.3894,8.5739],[-82.7801,8.3951,13.2142],[-82.7788,8.3983,12.0125],[-82.7812,8.4015,12.8815],[-82.7804,8.4051,13.724],[-82.7886,8.4116,14.9836],[-82.7894,8.416,14.8961],[-82.7996,8.4204,20.3063],[-82.8001,8.4258,21.0729],[-82.8066,8.4238,27.6938]]]]}}