{"type": "Feature","bbox": [-81.5805,8.1459,-81.1327,8.6458],"geometry": {"type": "MultiPolygon","coordinates": [[[[-81.5762,8.1943,110.9156],[-81.5805,8.1864,131.316],[-81.5791,8.1833,50.4879],[-81.5785,8.1707,261.1294],[-81.5729,8.1666,315.2415],[-81.5733,8.1606,400.2485],[-81.5697,8.1555,604.5261],[-81.5506,8.1549,320.6843],[-81.537,8.1564,214.3533],[-81.5297,8.1523,210.5077],[-81.5283,8.1459,224.4239],[-81.5179,8.1482,284.5602],[-81.4964,8.1613,195.7196],[-81.4952,8.1667,220.7266],[-81.4961,8.1768,305.9904],[-81.5051,8.1885,338.7679],[-81.5153,8.1963,333.0985],[-81.5236,8.1975,313.0309],[-81.5253,8.1877,315.3803],[-81.535,8.1805,283.6254],[-81.5406,8.1896,162.3895],[-81.5583,8.1859,119.1463],[-81.5684,8.1963,80.0812],[-81.5762,8.1943,110.9156]]],
[[[-81.534,8.2194,234.0132],[-81.5321,8.2161,226.4197],[-81.5288,8.2174,192.4217],[-81.5296,8.2212,204.4244],[-81.5162,8.2286,334.9714],[-81.5116,8.2323,428.0616],[-81.5086,8.2374,420.1797],[-81.508,8.2464,308.4009],[-81.5059,8.2491,352.9583],[-81.5078,8.2525,310.7072],[-81.5134,8.2556,238.1442],[-81.514,8.2593,214.8525],[-81.518,8.2613,136.6483],[-81.5199,8.2582,125.2677],[-81.5194,8.2536,165.1424],[-81.5132,8.2485,200.7818],[-81.5191,8.2448,218.9392],[-81.5197,8.2364,358.0098],[-81.5221,8.2339,339.1815],[-81.5256,8.2334,231.4563],[-81.5358,8.2393,175.4621],[-81.538,8.2384,109.1572],[-81.5376,8.2335,121.1125],[-81.5323,8.2294,132.1187],[-81.534,8.2194,234.0132]]],
[[[-81.4552,8.2563,149.203],[-81.448,8.2579,141.2825],[-81.4374,8.2734,197.4865],[-81.4371,8.2797,257.4366],[-81.4582,8.2903,220.0067],[-81.4582,8.3049,330.2003],[-81.4718,8.3204,279.323],[-81.4895,8.2872,203.5387],[-81.4924,8.2752,230.848],[-81.5024,8.2741,243.1667],[-81.5069,8.2715,186.2659],[-81.5021,8.2639,282.7325],[-81.4979,8.2611,324.9982],[-81.4893,8.2437,218.6239],[-81.4761,8.2566,249.711],[-81.4727,8.2476,197.3925],[-81.4614,8.2424,211.4713],[-81.456,8.2476,162.5269],[-81.4552,8.2563,149.203]]],
[[[-81.326,8.359,307.0314],[-81.3196,8.3654,203.4367],[-81.3175,8.3872,248.1002],[-81.3384,8.3752,359.8729],[-81.3421,8.3749,440.0233],[-81.3474,8.3778,422.1593],[-81.3536,8.3876,446.3735],[-81.3683,8.3867,373.7935],[-81.3764,8.3838,394.1845],[-81.3794,8.3873,379.4366],[-81.3804,8.3967,348.7203],[-81.3837,8.3993,414.779],[-81.3904,8.3963,407.9865],[-81.3917,8.389,275.2776],[-81.3977,8.3822,248.5359],[-81.3994,8.3653,227.4986],[-81.4006,8.3638,227.4986],[-81.4065,8.3634,319.8793],[-81.4125,8.3582,338.0065],[-81.4158,8.3577,336.0379],[-81.4307,8.371,179.6064],[-81.4347,8.3703,186.8647],[-81.4379,8.365,205.2186],[-81.4315,8.3517,171.3809],[-81.4283,8.3555,195.9887],[-81.4212,8.3498,273.7936],[-81.4163,8.3506,333.9148],[-81.3962,8.339,221.3904],[-81.3923,8.3405,268.726],[-81.3884,8.3362,324.9905],[-81.3845,8.3348,353.1822],[-81.3797,8.3285,275.8],[-81.3759,8.3277,276.4653],[-81.3731,8.3294,286.1929],[-81.3739,8.3493,306.7269],[-81.3586,8.3322,256.2122],[-81.3516,8.3373,261.8102],[-81.3476,8.3337,288.2802],[-81.3371,8.3556,314.4482],[-81.3347,8.3575,289.0004],[-81.326,8.359,307.0314]]],
[[[-81.5305,8.4619,451.9899],[-81.53,8.4549,440.0441],[-81.534,8.4244,416.9408],[-81.5161,8.4133,420.2531],[-81.5003,8.4084,415.982],[-81.4836,8.411,346.6246],[-81.4755,8.4081,312.5088],[-81.4736,8.4099,345.6035],[-81.4664,8.4002,357.1805],[-81.4594,8.3977,320.414],[-81.4566,8.3987,331.6919],[-81.4583,8.4042,292.5982],[-81.4574,8.4082,356.5566],[-81.4487,8.4162,478.9823],[-81.4506,8.4211,556.1777],[-81.4591,8.4229,467.6662],[-81.4612,8.4262,446.6055],[-81.4611,8.4302,450.5968],[-81.4516,8.4309,543.9546],[-81.4476,8.436,452.1404],[-81.4426,8.4313,368.641],[-81.4358,8.4288,340.9218],[-81.4299,8.4183,302.4228],[-81.4249,8.4242,404.2685],[-81.4237,8.4319,386.3922],[-81.425,8.4365,355.0819],[-81.4154,8.4364,425.6778],[-81.4125,8.4383,452.0156],[-81.413,8.4452,453.7082],[-81.4197,8.4589,468.6048],[-81.4201,8.463,542.8105],[-81.4074,8.4719,726.7528],[-81.402,8.4888,450.3728],[-81.3982,8.4966,604.6177],[-81.3955,8.4987,670.0989],[-81.3875,8.4982,792.4033],[-81.3817,8.4931,635.2643],[-81.3687,8.4717,520.5154],[-81.3661,8.4615,409.0781],[-81.3633,8.4587,425.8163],[-81.3642,8.4514,285.4937],[-81.3507,8.4412,260.2309],[-81.3453,8.4449,282.4134],[-81.3454,8.4576,402.5625],[-81.3467,8.4636,465.8256],[-81.3487,8.466,509.601],[-81.3564,8.4689,367.7672],[-81.3575,8.4757,454.2257],[-81.3561,8.4782,470.2849],[-81.3495,8.4801,492.3659],[-81.3367,8.4786,683.2657],[-81.33,8.4797,676.105],[-81.3188,8.4734,580.1012],[-81.3151,8.474,594.4263],[-81.314,8.4759,578.1471],[-81.3165,8.4806,703.2361],[-81.3315,8.4864,721.4116],[-81.3411,8.4955,721.2894],[-81.355,8.4929,536.2156],[-81.3599,8.4942,428.7355],[-81.3626,8.4974,470.5176],[-81.3626,8.5094,717.11],[-81.358,8.5152,726.9353],[-81.3495,8.522,763.6965],[-81.3451,8.5298,893.0526],[-81.3429,8.5381,864.0133],[-81.34,8.5396,895.0824],[-81.3364,8.5366,1052.7703],[-81.3269,8.5209,878.243],[-81.3301,8.5076,1009.8495],[-81.3397,8.4964,721.2894],[-81.3327,8.5007,1056.5417],[-81.3313,8.4995,1043.1243],[-81.3272,8.4998,1061.334],[-81.3244,8.5016,1153.6301],[-81.3173,8.5128,1264.4872],[-81.3141,8.5275,1067.7526],[-81.3085,8.5331,1216.6067],[-81.3047,8.5328,1283.3545],[-81.2918,8.5206,1300.4308],[-81.2849,8.5067,1471.1758],[-81.2829,8.4968,1078.2999],[-81.2857,8.4911,1035.9684],[-81.2954,8.4934,933.4189],[-81.2977,8.4923,852.0198],[-81.3001,8.4874,808.337],[-81.3019,8.4763,635.8296],[-81.2976,8.47,555.6147],[-81.2929,8.4697,693.6116],[-81.2816,8.4756,825.678],[-81.2773,8.4748,872.4866],[-81.2636,8.4673,738.2782],[-81.2596,8.4704,713.1145],[-81.259,8.4721,715.0047],[-81.264,8.4871,972.422],[-81.2757,8.5038,1505.6759],[-81.2745,8.5098,1627.1665],[-81.277,8.5164,1707.7542],[-81.269,8.5168,1600.8867],[-81.2666,8.5135,1499.2274],[-81.2582,8.5105,1428.7272],[-81.2541,8.5061,1341.6238],[-81.2473,8.4825,676.5117],[-81.2328,8.4578,436.0884],[-81.2227,8.4581,463.6616],[-81.2116,8.4551,504.0519],[-81.194,8.4552,401.2289],[-81.1721,8.4722,770.9523],[-81.1669,8.4679,700.938],[-81.1631,8.4565,647.4772],[-81.1487,8.4519,442.9057],[-81.1327,8.4361,444.6423],[-81.1381,8.4555,587.4918],[-81.1509,8.4636,606.5835],[-81.1645,8.4759,789.3549],[-81.1709,8.4844,738.2662],[-81.1743,8.5111,1020.8887],[-81.1775,8.5132,876.9505],[-81.1889,8.5126,826.6239],[-81.2032,8.5142,826.0151],[-81.2108,8.5125,1158.6023],[-81.22,8.5146,1185.8068],[-81.2311,8.5137,1318.5095],[-81.2414,8.5209,1634.0972],[-81.2508,8.5328,1567.5046],[-81.2542,8.5343,1368.0807],[-81.2637,8.5338,1054.3588],[-81.2729,8.5356,981.3935],[-81.2951,8.5316,1311.8958],[-81.3022,8.5397,1314.9761],[-81.3074,8.5508,1466.3296],[-81.3113,8.5555,1635.2662],[-81.3283,8.5688,1609.4443],[-81.3358,8.5722,1785.296],[-81.3456,8.5809,1770.079],[-81.3523,8.5844,1496.6697],[-81.3625,8.5842,1302.7229],[-81.375,8.5933,925.4176],[-81.3877,8.5999,690.0829],[-81.4089,8.6063,615.5714],[-81.4156,8.6116,622.2266],[-81.4182,8.6163,538.2431],[-81.4275,8.6233,712.8523],[-81.4359,8.6227,469.3539],[-81.4498,8.6283,625.1502],[-81.4582,8.6344,561.4724],[-81.4779,8.6354,960.6097],[-81.4891,8.6458,1137.6431],[-81.492,8.6262,1141.6254],[-81.4919,8.6116,1378.3544],[-81.4898,8.6034,1457.5861],[-81.4979,8.594,1647.4534],[-81.502,8.5862,1287.1328],[-81.5063,8.5698,1425.7461],[-81.5038,8.5647,1190.4583],[-81.5041,8.5618,1047.9143],[-81.5137,8.5468,1111.0298],[-81.519,8.5342,1079.1636],[-81.5281,8.5235,901.6976],[-81.5327,8.5076,857.4932],[-81.5355,8.4779,862.7768],[-81.5305,8.4619,451.9899]]]]}
,"properties": {"GID_2": "PAN.10.7_1","GID_0": "PAN","country": "Panama","GID_1": "PAN.10_1","province": "NgöbeBuglé","NL_NAME_1": "NA","county": "Ñürüm","VARNAME_2": "NA","NL_NAME_2": "NA","TYPE_2": "Distrito","ENGTYPE_2": "District","CC_2": "NA","HASC_2": "PA.NB.NR","name": "Ñürüm.county","area_km2": 592.1184,"hist_schema_id": "Elevation0-9000","hist_area_km2": {"50": 0.8604,"75": 1.469,"100": 1.4061,"125": 2.2035,"150": 4.8053,"175": 9.568,"200": 13.3025,"225": 10.7846,"250": 12.6931,"275": 12.5459,"300": 15.797,"325": 17.7473,"350": 16.4669,"375": 14.5785,"400": 12.9629,"425": 10.7387,"450": 11.8499,"475": 11.8285,"500": 11.5763,"525": 11.5342,"550": 11.2192,"575": 10.9255,"600": 11.4706,"625": 12.0993,"650": 11.3442,"675": 11.5748,"700": 10.8407,"725": 11.2391,"750": 11.0713,"775": 10.484,"800": 10.5259,"825": 10.9662,"850": 9.9597,"875": 10.0855,"900": 10.2113,"925": 9.7081,"950": 9.4355,"975": 10.2113,"1000": 10.2532,"1025": 10.0015,"1050": 10.1692,"1075": 10.253,"1100": 9.2675,"1125": 8.4078,"1150": 8.303,"1175": 8.0723,"1200": 8.2609,"1225": 8.7222,"1250": 7.5061,"1275": 8.4496,"1300": 8.3028,"1325": 7.2544,"1350": 7.527,"1375": 6.9609,"1400": 7.3173,"1425": 7.0657,"1450": 6.9399,"1475": 6.4367,"1500": 5.7867,"1525": 4.8852,"1550": 4.3191,"1575": 3.3546,"1600": 2.8933,"1625": 2.2015,"1650": 1.6773,"1675": 1.237,"1700": 0.8806,"1725": 0.6499,"1750": 0.2097,"1775": 0.1468,"1800": 0.1468,"1825": 0.1048,"1850": 0.0629}}}