{"type": "Feature","bbox": [-79.7847,8.8646,-79.733,8.9107],"geometry": {"type": "MultiPolygon","coordinates": [[[[-79.7615,8.9068,18.0322],[-79.7683,8.9021,46.7207],[-79.7751,8.9016,66.216],[-79.7847,8.8948,45.8164],[-79.7847,8.891,57.4928],[-79.7833,8.8848,65.9074],[-79.772,8.8716,64.0075],[-79.7613,8.8646,67.5489],[-79.7509,8.8809,44.3528],[-79.733,8.9008,19.2774],[-79.7391,8.907,16.449],[-79.7459,8.9107,15.1385],[-79.7615,8.9068,18.0322]]]]}
,"properties": {"GID_3": "PAN.11.4.4_1","GID_0": "PAN","country": "Panama","GID_1": "PAN.11_1","province": "PanamáOeste","NL_NAME_1": "NA","GID_2": "PAN.11.4_1","county": "LaChorrera","NL_NAME_2": "NA","city": "BarrioColón","VARNAME_3": "NA","NL_NAME_3": "NA","TYPE_3": "Corregimiento","ENGTYPE_3": "Municipality","CC_3": "NA","HASC_3": "NA","name": "Barrio_Colón.city","area_km2": 15.77344,"hist_schema_id": "Elevation0-9000","hist_area_km2": {"0": 0.02095,"25": 1.57101,"50": 8.46278,"75": 5.32072,"100": 0.398}}}