{"type":"Feature","properties":{"GID_2":"PAN.3.4_1","GID_0":"PAN","country":"Panama","GID_1":"PAN.3_1","province":"Coclé","NL_NAME_1":"NA","county":"Natá","VARNAME_2":"NA","NL_NAME_2":"NA","TYPE_2":"Distrito","ENGTYPE_2":"District","CC_2":"NA","HASC_2":"PA.CC.NT","name":"Natá.county"},
"geometry":{"type": "MultiPolygon","coordinates": [[[[-80.4688,8.2235,0.0],[-80.4691,8.2233,0.0],[-80.4693,8.2232,0.0],[-80.4688,8.2232,0.0],[-80.4688,8.2235,0.0]]],
[[[-80.4909,8.2471,7.1727],[-80.4921,8.2403,4.8444],[-80.4909,8.2391,1.8026],[-80.4786,8.2399,6.6291],[-80.4725,8.2371,10.5814],[-80.4702,8.2335,10.7029],[-80.4686,8.2235,0.0],[-80.4626,8.2243,11.1599],[-80.4604,8.2285,14.9197],[-80.454,8.229,9.6677],[-80.4507,8.2365,10.9765],[-80.4451,8.2407,0.0],[-80.4471,8.2487,14.4398],[-80.4437,8.2521,15.6083],[-80.439,8.2524,10.1855],[-80.434,8.256,0.0],[-80.4276,8.2721,7.6066],[-80.4207,8.2754,0.0],[-80.4132,8.2838,3.28],[-80.4101,8.2896,18.6194],[-80.4074,8.291,13.5893],[-80.3938,8.2907,11.4631],[-80.3926,8.2987,0.0],[-80.3962,8.3107,2.816],[-80.3946,8.3196,8.8091],[-80.3876,8.3237,3.4621],[-80.3874,8.3296,13.7346],[-80.3865,8.3293,8.7381],[-80.3857,8.3276,0.0],[-80.3857,8.3249,0.0],[-80.3879,8.3225,3.4621],[-80.3859,8.3225,6.433],[-80.381,8.3255,16.8231],[-80.3789,8.3299,24.1747],[-80.3894,8.3323,4.5484],[-80.3878,8.3303,13.7346],[-80.3909,8.3252,25.4298],[-80.3931,8.3237,21.2765],[-80.3961,8.3243,4.3294],[-80.3936,8.33,12.5332],[-80.4011,8.3329,22.7885],[-80.4012,8.3347,5.134],[-80.3965,8.3435,9.9982],[-80.3973,8.3496,10.6008],[-80.4072,8.3478,1.7612],[-80.4116,8.3447,1.9405],[-80.4177,8.3449,4.4103],[-80.4242,8.3365,3.0211],[-80.432,8.3411,6.1238],[-80.4423,8.3378,4.4579],[-80.4559,8.3399,59.4225],[-80.4653,8.3339,12.3601],[-80.4563,8.3296,17.1739],[-80.4639,8.3261,7.5517],[-80.4685,8.3264,8.1758],[-80.4714,8.3298,12.9972],[-80.4808,8.3332,10.5895],[-80.4848,8.3388,7.1119],[-80.4865,8.343,7.1176],[-80.4869,8.3536,7.6246],[-80.4849,8.3622,10.0411],[-80.4916,8.37,8.8742],[-80.4908,8.381,10.1422],[-80.4952,8.3887,10.4336],[-80.5,8.3889,10.5369],[-80.4999,8.3964,11.5757],[-80.506,8.406,15.6762],[-80.507,8.4138,17.9171],[-80.5047,8.4217,22.1736],[-80.5135,8.4406,25.6097],[-80.5132,8.4492,30.4042],[-80.5157,8.4627,43.3287],[-80.5195,8.4703,77.1974],[-80.5306,8.4841,89.1806],[-80.5375,8.5018,80.8206],[-80.5374,8.5086,64.7265],[-80.54,8.5179,62.1721],[-80.5473,8.5323,113.9011],[-80.5436,8.5554,87.81],[-80.5459,8.5641,141.7416],[-80.5543,8.567,110.0287],[-80.5659,8.5746,142.9982],[-80.5731,8.5714,201.1213],[-80.5787,8.5744,234.0827],[-80.5942,8.5882,372.0722],[-80.6033,8.5864,208.3795],[-80.6085,8.5886,241.3097],[-80.6129,8.5965,458.0948],[-80.6182,8.601,606.2546],[-80.6266,8.6002,396.804],[-80.6384,8.5923,472.6908],[-80.635,8.5627,555.1935],[-80.6272,8.5594,532.7516],[-80.6076,8.544,341.1771],[-80.5857,8.5222,131.2005],[-80.5852,8.5133,148.6597],[-80.5873,8.5002,267.0742],[-80.5853,8.4872,254.5816],[-80.577,8.4869,326.1317],[-80.5745,8.4758,373.2638],[-80.5758,8.4651,82.5767],[-80.5711,8.4555,49.6852],[-80.562,8.4473,96.5903],[-80.5606,8.4443,94.1298],[-80.5612,8.4376,33.234],[-80.5761,8.4119,41.891],[-80.5735,8.4,35.2188],[-80.5914,8.367,66.8103],[-80.5959,8.3633,120.6535],[-80.6622,8.3839,223.6095],[-80.6691,8.3916,348.1603],[-80.6781,8.4068,232.5273],[-80.6887,8.415,266.0498],[-80.696,8.4185,202.5282],[-80.7032,8.4278,190.8442],[-80.7183,8.451,258.5426],[-80.7267,8.4797,366.2386],[-80.7291,8.5045,686.1349],[-80.7268,8.5434,1335.6084],[-80.7278,8.5484,1360.7804],[-80.7331,8.5563,1211.4515],[-80.7479,8.5537,1291.6965],[-80.7593,8.5566,1148.2529],[-80.7819,8.5497,1522.2678],[-80.79,8.5518,1332.9382],[-80.8057,8.5659,1350.1628],[-80.8116,8.5659,1543.4884],[-80.8214,8.5618,1467.0879],[-80.8229,8.5468,945.4868],[-80.803,8.5318,639.9194],[-80.7931,8.5222,691.9437],[-80.7855,8.5131,666.6365],[-80.7753,8.4964,407.765],[-80.7744,8.4752,430.9919],[-80.7596,8.4649,441.0833],[-80.7448,8.4507,325.1846],[-80.7359,8.4126,193.2811],[-80.7129,8.3876,149.8187],[-80.7104,8.3757,181.0436],[-80.7115,8.3533,146.4957],[-80.7087,8.3441,120.1747],[-80.7057,8.3399,105.3493],[-80.6966,8.3327,123.6278],[-80.6878,8.3289,139.8384],[-80.6576,8.3212,113.0395],[-80.6345,8.314,83.5973],[-80.6291,8.3101,76.5588],[-80.6246,8.3093,91.6757],[-80.6136,8.2959,60.9697],[-80.5998,8.3008,89.1818],[-80.5966,8.3004,116.5337],[-80.5919,8.2957,143.4068],[-80.5852,8.2923,123.5965],[-80.5826,8.2816,33.3126],[-80.5713,8.2774,27.3043],[-80.5636,8.2672,26.2627],[-80.5514,8.27,14.1276],[-80.5457,8.2692,16.4348],[-80.5411,8.2665,13.2818],[-80.534,8.2692,8.4351],[-80.528,8.2752,9.0776],[-80.5225,8.2765,5.9928],[-80.5138,8.2756,4.6341],[-80.5085,8.283,3.8256],[-80.5012,8.2844,6.6139],[-80.4979,8.2831,10.7134],[-80.4876,8.2747,7.3125],[-80.4913,8.2674,5.3018],[-80.4853,8.2561,3.822],[-80.4906,8.251,6.5171],[-80.4909,8.2471,7.1727]]]]}}