{"type":"Feature","properties":{"GID_3":"PAN.10.1.4_1","GID_0":"PAN","country":"Panama","GID_1":"PAN.10_1","province":"NgöbeBuglé","NL_NAME_1":"NA","GID_2":"PAN.10.1_1","county":"Besiko","NL_NAME_2":"NA","city":"CerroDePatena","VARNAME_3":"NA","NL_NAME_3":"NA","TYPE_3":"Corregimiento","ENGTYPE_3":"Municipality","CC_3":"NA","HASC_3":"NA","name":"Cerro_De_Patena.city"},
"geometry":{"type": "MultiPolygon","coordinates": [[[[-81.9562,8.3999,460.127],[-81.9455,8.4068,377.0492],[-81.9417,8.407,341.0303],[-81.9333,8.4001,236.1757],[-81.9244,8.3899,206.8667],[-81.9151,8.3978,168.8717],[-81.9093,8.4054,237.0299],[-81.9072,8.4123,294.8752],[-81.8969,8.424,246.0442],[-81.9007,8.4346,360.7255],[-81.8931,8.449,502.7287],[-81.8964,8.4694,701.8411],[-81.9067,8.4768,868.5033],[-81.9251,8.4793,890.7147],[-81.9305,8.4876,951.6514],[-81.9446,8.4965,975.7758],[-81.9438,8.4788,716.3213],[-81.9418,8.4725,678.175],[-81.9452,8.4628,708.4438],[-81.9572,8.4468,502.9671],[-81.9699,8.4333,331.1317],[-81.9504,8.4373,427.718],[-81.9459,8.4349,597.7122],[-81.9463,8.4232,510.219],[-81.9569,8.415,405.9755],[-81.9562,8.3999,460.127]]]]}}