{"type": "Feature","bbox": [-79.5008,9.0648,-79.4698,9.0897],"geometry": {"type": "MultiPolygon","coordinates": [[[[-79.5008,9.0767,69.2216],[-79.4954,9.0679,72.1689],[-79.4886,9.0648,89.1396],[-79.4698,9.0734,89.986],[-79.4747,9.0824,54.8959],[-79.481,9.0897,50.6925],[-79.4893,9.0871,58.9356],[-79.495,9.08,64.0693],[-79.5008,9.0767,69.2216]]]]}
,"properties": {"GID_3": "PAN.12.7.3_1","GID_0": "PAN","country": "Panama","GID_1": "PAN.12_1","province": "Panamá","NL_NAME_1": "NA","GID_2": "PAN.12.7_1","county": "SanMiguelito","NL_NAME_2": "NA","city": "BelisarioFrías","VARNAME_3": "NA","NL_NAME_3": "NA","TYPE_3": "Corregimiento","ENGTYPE_3": "Municipality","CC_3": "NA","HASC_3": "NA","name": "Belisario_Frías.city","area_km2": 5.443546,"hist_schema_id": "Elevation0-9000","hist_area_km2": {"50": 0.900267,"75": 3.475497,"100": 0.921225,"125": 0.104684,"150": 0.041874}}}