{"type":"Feature","properties":{"GID_3":"PAN.13.4.5_1","GID_0":"PAN","country":"Panama","GID_1":"PAN.13_1","province":"Veraguas","NL_NAME_1":"NA","GID_2":"PAN.13.4_1","county":"LaMesa","NL_NAME_2":"NA","city":"SanBartolo","VARNAME_3":"NA","NL_NAME_3":"NA","TYPE_3":"Corregimiento","ENGTYPE_3":"Municipality","CC_3":"NA","HASC_3":"NA","name":"San_Bartolo.city"},
"geometry":{"type": "MultiPolygon","coordinates": [[[[-81.3858,8.2613,152.0629],[-81.3944,8.2386,95.0367],[-81.3901,8.229,121.8023],[-81.3841,8.2256,152.3712],[-81.373,8.2138,122.1551],[-81.3729,8.2059,80.9001],[-81.3769,8.1967,79.4118],[-81.3742,8.1862,147.4572],[-81.3559,8.1922,268.5276],[-81.3399,8.2064,199.3847],[-81.3211,8.2089,161.9551],[-81.299,8.2157,181.7049],[-81.2934,8.215,98.2241],[-81.2889,8.2091,133.1185],[-81.285,8.2073,93.1142],[-81.2602,8.2075,87.6331],[-81.2393,8.2112,78.2816],[-81.2429,8.2237,78.5336],[-81.2477,8.2329,116.2929],[-81.2484,8.2391,240.7588],[-81.27,8.2621,83.1331],[-81.2682,8.2704,90.661],[-81.366,8.2643,121.8829],[-81.3858,8.2613,152.0629]]]]}}