{"type":"Feature","properties":{"GID_2":"PAN.10.5_1","GID_0":"PAN","country":"Panama","GID_1":"PAN.10_1","province":"NgöbeBuglé","NL_NAME_1":"NA","county":"Müna","VARNAME_2":"NA","NL_NAME_2":"NA","TYPE_2":"Distrito","ENGTYPE_2":"District","CC_2":"NA","HASC_2":"PA.NB.MU","name":"Müna.county"},
"geometry":{"type": "MultiPolygon","coordinates": [[[[-81.5889,8.2578,365.1692],[-81.5933,8.2584,403.9265],[-81.6013,8.2552,478.5853],[-81.5986,8.2408,180.255],[-81.5938,8.2382,281.0453],[-81.5789,8.2363,358.6915],[-81.5761,8.2307,297.9343],[-81.5664,8.2338,210.8378],[-81.563,8.2424,197.7621],[-81.5663,8.2518,384.7543],[-81.5704,8.2497,384.1147],[-81.5718,8.245,393.799],[-81.5779,8.2435,305.2249],[-81.5956,8.2463,270.275],[-81.5981,8.2503,348.0092],[-81.5892,8.2543,431.391],[-81.5799,8.2535,410.7255],[-81.5761,8.2561,399.863],[-81.5656,8.258,399.8293],[-81.5624,8.2559,398.5877],[-81.5677,8.2634,343.7557],[-81.5709,8.2631,412.3466],[-81.5723,8.2607,398.0294],[-81.58,8.2608,417.7436],[-81.5839,8.258,493.0188],[-81.5889,8.2578,365.1692]]],
[[[-81.605,8.2608,672.2952],[-81.6071,8.2558,488.8861],[-81.6035,8.2464,225.842],[-81.6029,8.2509,299.6024],[-81.6057,8.2541,386.8309],[-81.6028,8.2556,537.3806],[-81.6007,8.2621,551.2225],[-81.5969,8.2641,504.0768],[-81.5995,8.2679,462.7125],[-81.5949,8.2681,397.1111],[-81.593,8.2702,268.8368],[-81.592,8.2763,233.2174],[-81.597,8.2752,258.7228],[-81.605,8.2608,672.2952]]],
[[[-81.5938,8.2945,273.5034],[-81.5943,8.2993,205.8486],[-81.597,8.2993,181.1938],[-81.6031,8.2959,196.4375],[-81.6046,8.2946,162.7488],[-81.6001,8.2913,143.031],[-81.6011,8.2875,177.6919],[-81.6057,8.2846,126.7316],[-81.6089,8.2847,127.9895],[-81.6091,8.2815,153.3036],[-81.6117,8.28,167.7665],[-81.6219,8.2779,181.493],[-81.6238,8.2758,167.7126],[-81.614,8.2687,226.0716],[-81.6091,8.2753,309.0634],[-81.6023,8.2753,306.2192],[-81.5995,8.2788,159.0967],[-81.5939,8.2812,238.0326],[-81.5974,8.2885,131.8218],[-81.5938,8.2945,273.5034]]],
[[[-81.5307,8.2653,175.0286],[-81.5295,8.2638,175.0286],[-81.5275,8.2722,265.2156],[-81.5117,8.2787,252.1987],[-81.5096,8.2762,209.6354],[-81.5154,8.3,208.9196],[-81.5213,8.3044,301.109],[-81.5343,8.3211,265.3226],[-81.5401,8.3245,327.6506],[-81.5404,8.3304,365.8629],[-81.5347,8.3366,346.8383],[-81.5351,8.3403,359.7045],[-81.5457,8.346,361.8528],[-81.5543,8.358,285.67],[-81.5567,8.3561,303.6413],[-81.5593,8.3477,460.0325],[-81.5627,8.3457,448.0284],[-81.5652,8.3461,408.7012],[-81.5709,8.3525,381.8038],[-81.5697,8.3611,330.1632],[-81.5709,8.3652,320.6951],[-81.5748,8.3607,268.4236],[-81.5772,8.3521,233.6011],[-81.5822,8.3427,326.2343],[-81.5762,8.3316,271.2693],[-81.5741,8.3199,335.1413],[-81.5862,8.3153,336.5243],[-81.5946,8.3276,262.5192],[-81.6094,8.3305,318.8503],[-81.6111,8.3292,303.6902],[-81.6109,8.3268,291.3895],[-81.5998,8.3137,249.2182],[-81.5971,8.3074,239.8761],[-81.5989,8.3015,142.4804],[-81.597,8.2993,181.1938],[-81.575,8.315,374.6341],[-81.5758,8.3118,379.0766],[-81.5837,8.3081,420.9976],[-81.5852,8.3052,357.6968],[-81.5823,8.2971,363.854],[-81.5788,8.2939,369.0645],[-81.5745,8.2929,351.9749],[-81.5667,8.2977,353.2183],[-81.567,8.301,439.6746],[-81.5715,8.3,414.1735],[-81.5752,8.3035,471.0486],[-81.5713,8.312,450.194],[-81.5704,8.3175,407.7323],[-81.5715,8.321,366.1061],[-81.565,8.3292,455.5966],[-81.5535,8.3318,513.2556],[-81.5486,8.3272,376.3965],[-81.5424,8.3122,228.7393],[-81.5534,8.2996,343.8753],[-81.5535,8.2945,316.0271],[-81.5583,8.2878,359.9387],[-81.5578,8.2816,262.7663],[-81.5545,8.2777,233.3934],[-81.5497,8.2781,255.2707],[-81.548,8.2726,199.6087],[-81.5434,8.2721,259.0863],[-81.5363,8.2742,307.7562],[-81.5314,8.2684,210.9708],[-81.5307,8.2653,175.0286]]],
[[[-81.7294,8.2625,71.8001],[-81.729,8.2577,68.991],[-81.7194,8.2588,141.183],[-81.7155,8.2611,235.4916],[-81.7151,8.2675,206.4628],[-81.7192,8.2719,124.0525],[-81.72,8.2778,167.7385],[-81.7164,8.2829,229.5396],[-81.716,8.2899,309.7896],[-81.7114,8.2903,358.5241],[-81.7083,8.2942,375.5112],[-81.7061,8.2946,456.9767],[-81.7012,8.3131,416.131],[-81.6947,8.3107,505.3839],[-81.6927,8.3083,575.8038],[-81.6952,8.2956,461.3307],[-81.6927,8.2948,456.4682],[-81.6935,8.297,461.3307],[-81.6912,8.298,399.6548],[-81.6885,8.2971,370.6581],[-81.6899,8.2876,328.6066],[-81.6913,8.2876,328.6066],[-81.6927,8.2848,356.32],[-81.6886,8.2848,296.1539],[-81.687,8.2876,310.2861],[-81.6787,8.2892,409.0223],[-81.675,8.2873,382.8618],[-81.6658,8.2947,378.2704],[-81.6603,8.2942,372.8764],[-81.6651,8.287,414.7485],[-81.6648,8.273,448.7905],[-81.6548,8.2793,422.7406],[-81.6538,8.2843,310.8515],[-81.6463,8.2937,214.0936],[-81.6447,8.2992,421.0379],[-81.6424,8.3015,415.732],[-81.6344,8.3011,379.9922],[-81.6291,8.3051,368.1846],[-81.6291,8.2954,372.9631],[-81.627,8.2936,416.70119999999997],[-81.6283,8.2892,273.1793],[-81.6223,8.2908,396.9057],[-81.6205,8.303,359.6104],[-81.6249,8.3042,353.8463],[-81.625,8.3113,355.2776],[-81.6214,8.3136,236.9692],[-81.6221,8.3167,335.0734],[-81.6183,8.3218,181.6745],[-81.6203,8.3289,275.3517],[-81.6166,8.3332,316.7155],[-81.6161,8.3368,335.0246],[-81.6178,8.3392,347.91],[-81.6157,8.3421,397.4099],[-81.6155,8.3494,500.0812],[-81.6125,8.3546,389.6902],[-81.6025,8.3582,402.3824],[-81.5991,8.3654,247.6559],[-81.6015,8.3695,271.923],[-81.6001,8.3717,262.3851],[-81.5968,8.3729,275.6204],[-81.5961,8.3768,348.5975],[-81.5917,8.3818,323.7232],[-81.5869,8.3801,273.9886],[-81.5818,8.3712,269.4827],[-81.5709,8.3652,320.6951],[-81.5628,8.3699,338.9792],[-81.5567,8.378,387.7064],[-81.5505,8.3768,303.7846],[-81.544,8.384,349.0814],[-81.5327,8.3853,278.7529],[-81.5325,8.3904,279.6823],[-81.5273,8.3913,273.9999],[-81.5292,8.3964,315.0396],[-81.5345,8.4026,431.7513],[-81.5354,8.4078,465.3746],[-81.5286,8.4108,337.898],[-81.5224,8.4166,331.2543],[-81.5334,8.4239,416.9408],[-81.5344,8.426,385.0486],[-81.5319,8.4352,442.866],[-81.5299,8.4569,437.4716],[-81.5355,8.4779,862.7768],[-81.5329,8.5063,904.7538],[-81.5281,8.5235,901.6976],[-81.519,8.5342,1079.1636],[-81.5137,8.5468,1111.0298],[-81.5041,8.5618,1047.9143],[-81.5038,8.5647,1190.4583],[-81.5063,8.5698,1425.7461],[-81.502,8.5862,1287.1328],[-81.4979,8.594,1647.4534],[-81.4898,8.6034,1457.5861],[-81.4919,8.6116,1378.3544],[-81.492,8.6262,1141.6254],[-81.4894,8.6472,1089.5337],[-81.5031,8.6443,1210.446],[-81.515,8.6444,927.7646],[-81.54,8.6332,1284.4469],[-81.5655,8.626,1580.0186],[-81.5707,8.6272,1700.4558],[-81.5887,8.6247,1461.0208],[-81.5903,8.6137,1297.3431],[-81.5934,8.6097,1337.6331],[-81.6149,8.6066,1466.7689],[-81.6223,8.5965,1571.0033],[-81.6254,8.583,1651.2729],[-81.6329,8.5741,1776.2546],[-81.6389,8.5747,1538.8855],[-81.6604,8.5605,1862.4854],[-81.6626,8.5403,1704.2231],[-81.6695,8.5285,1418.5696],[-81.6709,8.5194,1525.7349],[-81.6751,8.5117,1611.8577],[-81.6877,8.5069,1607.7604],[-81.6994,8.509,1771.3126],[-81.7074,8.5081,1744.9976],[-81.7118,8.5037,1632.1226],[-81.7169,8.5067,1596.6248],[-81.7176,8.5001,1550.3684],[-81.7357,8.4805,1197.5043],[-81.7426,8.4606,827.7088],[-81.7474,8.4404,659.9153],[-81.7462,8.4337,649.5153],[-81.7517,8.429,676.7347],[-81.7424,8.4163,580.97],[-81.7406,8.4047,522.4249],[-81.7438,8.3893,565.439],[-81.7482,8.3842,704.9861],[-81.7597,8.3603,562.4915],[-81.7636,8.3391,426.8414],[-81.7627,8.3284,324.1235],[-81.7638,8.3187,280.1937],[-81.758,8.3156,318.3624],[-81.7516,8.3061,181.4955],[-81.7483,8.2986,247.6815],[-81.7457,8.2857,129.939],[-81.7397,8.2766,77.0092],[-81.746,8.2606,233.0485],[-81.7377,8.2627,160.7244],[-81.7356,8.2681,100.351],[-81.7316,8.2719,69.8713],[-81.729,8.2671,96.8824],[-81.7294,8.2625,71.8001]]]]}}