{"type":"Feature","properties":{"GID_3":"PAN.11.3.7_1","GID_0":"PAN","country":"Panama","GID_1":"PAN.11_1","province":"PanamáOeste","NL_NAME_1":"NA","GID_2":"PAN.11.3_1","county":"Chame","NL_NAME_2":"NA","city":"LasLajas","VARNAME_3":"NA","NL_NAME_3":"NA","TYPE_3":"Corregimiento","ENGTYPE_3":"Municipality","CC_3":"NA","HASC_3":"NA","name":"Las_Lajas.city"},
"geometry":{"type": "MultiPolygon","coordinates": [[[[-79.9601,8.5602,142.9259],[-79.9463,8.5533,83.6178],[-79.9325,8.5536,79.5127],[-79.9073,8.542,38.1781],[-79.8976,8.5307,25.1561],[-79.8947,8.5226,5.2924],[-79.8751,8.5304,0.0],[-79.8776,8.5349,4.1408],[-79.8776,8.5421,8.1058],[-79.8872,8.5461,22.8645],[-79.8922,8.5504,29.4601],[-79.8944,8.563,32.5539],[-79.898,8.5663,31.716],[-79.9143,8.5606,70.9509],[-79.9156,8.5583,57.8312],[-79.9208,8.5578,63.3213],[-79.939,8.5681,99.7678],[-79.9434,8.5687,105.0966],[-79.9601,8.5602,142.9259]]]]}}