{"type":"Feature","properties":{"GID_3":"PAN.2.5.6_1","GID_0":"PAN","country":"Panama","GID_1":"PAN.2_1","province":"Chiriquí","NL_NAME_1":"NA","GID_2":"PAN.2.5_1","county":"Bugaba","NL_NAME_2":"NA","city":"LaConcepción","VARNAME_3":"NA","NL_NAME_3":"NA","TYPE_3":"Corregimiento","ENGTYPE_3":"Municipality","CC_3":"NA","HASC_3":"NA","name":"La_Concepción.city"},
"geometry":{"type": "MultiPolygon","coordinates": [[[[-82.6156,8.5402,292.9937],[-82.6182,8.5396,286.3313],[-82.6226,8.5433,306.9046],[-82.6303,8.5646,386.886],[-82.6312,8.5722,426.7627],[-82.639,8.5873,459.3132],[-82.6366,8.5987,528.1342],[-82.6299,8.6109,598.5545],[-82.6315,8.6238,679.2265],[-82.6291,8.6553,856.5729],[-82.6311,8.6635,942.5701],[-82.6281,8.6657,962.6212],[-82.6153,8.6668,915.6407],[-82.6162,8.6834,973.2521],[-82.6267,8.705,1072.9402],[-82.6344,8.705,1042.4153],[-82.6465,8.7112,1040.6841],[-82.654,8.7014,1032.592],[-82.6579,8.6781,920.1945],[-82.6511,8.6621,812.5092],[-82.6525,8.6413,707.6815],[-82.6448,8.6388,788.5037],[-82.6434,8.6322,746.8064],[-82.6399,8.6282,701.3496],[-82.6375,8.6201,629.7542],[-82.6378,8.6157,591.0911],[-82.6428,8.6106,581.5007],[-82.6443,8.5721,430.1962],[-82.6382,8.5621,392.376],[-82.6375,8.5552,337.4365],[-82.6326,8.5431,309.5194],[-82.6337,8.5412,300.8712],[-82.6367,8.5405,329.4453],[-82.6535,8.5412,315.7892],[-82.6643,8.5213,226.5382],[-82.6642,8.5176,215.0755],[-82.6529,8.5065,177.8441],[-82.6481,8.4991,167.3913],[-82.6375,8.5001,163.9088],[-82.6208,8.4949,173.7286],[-82.6178,8.4996,184.0531],[-82.6169,8.5127,216.1617],[-82.6044,8.507,201.5089],[-82.6026,8.5136,206.4696],[-82.6073,8.5309,256.1814],[-82.6156,8.5402,292.9937]]]]}}