{"type":"Feature","properties":{"GID_3":"PAN.9.2.7_1","GID_0":"PAN","country":"Panama","GID_1":"PAN.9_1","province":"LosSantos","NL_NAME_1":"NA","GID_2":"PAN.9.2_1","county":"LasTablas","NL_NAME_2":"NA","city":"ElPedregoso","VARNAME_3":"NA","NL_NAME_3":"NA","TYPE_3":"Corregimiento","ENGTYPE_3":"Municipality","CC_3":"NA","HASC_3":"NA","name":"El_Pedregoso.city"},
"geometry":{"type": "MultiPolygon","coordinates": [[[[-80.3169,7.724,189.4657],[-80.3238,7.7191,119.9535],[-80.3279,7.7055,186.1804],[-80.3283,7.6955,168.5619],[-80.3337,7.686,211.3148],[-80.3225,7.6781,202.9684],[-80.319,7.6786,198.4177],[-80.3175,7.6805,183.6207],[-80.314,7.6942,152.8644],[-80.3143,7.6986,132.3374],[-80.3171,7.7016,152.1695],[-80.3111,7.7123,191.7421],[-80.311,7.7203,119.9548],[-80.3169,7.724,189.4657]]]]}}