{"type": "Feature","bbox": [-81.9233,8.6726,-81.7491,8.8925],"geometry": {"type": "MultiPolygon","coordinates": [[[[-81.9152,8.8738,4.2926],[-81.9099,8.8674,8.0696],[-81.9038,8.8631,9.53],[-81.9007,8.8577,9.0516],[-81.9008,8.8416,22.8282],[-81.9041,8.8226,35.4885],[-81.9165,8.8086,81.9979],[-81.9158,8.8051,73.9413],[-81.9119,8.8006,81.7809],[-81.912,8.7984,95.5529],[-81.9165,8.795,121.6531],[-81.9224,8.7874,128.1578],[-81.9233,8.7816,140.479],[-81.9141,8.7662,203.5775],[-81.9011,8.7518,360.7223],[-81.8987,8.733,388.688],[-81.8843,8.7238,480.91],[-81.8789,8.7186,588.5255],[-81.8769,8.7099,631.3329],[-81.8663,8.6983,870.903],[-81.8625,8.6757,1453.2974],[-81.8558,8.6726,1653.1562],[-81.8531,8.6781,1508.1182],[-81.8541,8.7504,1166.2114],[-81.7885,8.8063,67.3046],[-81.7598,8.8148,376.3845],[-81.7506,8.8214,420.3674],[-81.7491,8.8255,355.8258],[-81.7491,8.8334,281.3138],[-81.7519,8.8385,270.8399],[-81.7501,8.8428,126.1586],[-81.7522,8.843,122.0423],[-81.7541,8.8493,90.4295],[-81.7538,8.8781,108.7648],[-81.7618,8.8747,108.6634],[-81.7654,8.8715,102.6296],[-81.7706,8.8489,80.1361],[-81.7739,8.8439,111.414],[-81.7761,8.843,100.3443],[-81.7797,8.8441,137.1161],[-81.7842,8.8484,133.8715],[-81.7863,8.857,121.8119],[-81.7902,8.862,122.1717],[-81.805,8.8663,109.1918],[-81.8165,8.8726,91.8034],[-81.8277,8.8858,66.904],[-81.8396,8.8925,55.3498],[-81.844,8.8921,28.4862],[-81.8593,8.8807,20.4122],[-81.8709,8.8779,11.3435],[-81.8783,8.8742,11.597],[-81.8974,8.8757,7.6333],[-81.9152,8.8738,4.2926]]]]}
,"properties": {"GID_3": "PAN.10.2.5_1","GID_0": "PAN","country": "Panama","GID_1": "PAN.10_1","province": "NgöbeBuglé","NL_NAME_1": "NA","GID_2": "PAN.10.2_1","county": "Kankintú","NL_NAME_2": "NA","city": "Kankintú","VARNAME_3": "NA","NL_NAME_3": "NA","TYPE_3": "Corregimiento","ENGTYPE_3": "Municipality","CC_3": "NA","HASC_3": "NA","name": "Kankintú.city","area_km2": 210.7566,"hist_schema_id": "Elevation0-9000","hist_area_km2": {"0": 10.3698,"25": 26.3121,"50": 11.292,"75": 8.6734,"100": 12.3397,"125": 15.6082,"150": 11.6279,"175": 6.7883,"200": 6.055,"225": 4.6932,"250": 4.3371,"275": 3.5409,"300": 3.5828,"325": 3.1219,"350": 2.7238,"375": 2.7029,"400": 2.5353,"425": 2.4096,"450": 2.3468,"475": 2.4935,"500": 2.6611,"525": 2.2211,"550": 2.7449,"575": 2.8916,"600": 2.703,"625": 2.8078,"650": 2.6402,"675": 2.5774,"700": 2.4097,"725": 2.3679,"750": 2.0954,"775": 2.1793,"800": 2.2421,"825": 1.9697,"850": 2.1583,"875": 1.8231,"900": 1.9488,"925": 1.9488,"950": 2.0326,"975": 1.6135,"1000": 1.9488,"1025": 1.6555,"1050": 1.5717,"1075": 1.5926,"1100": 1.3202,"1125": 1.3202,"1150": 0.7963,"1175": 0.9011,"1200": 0.8173,"1225": 0.7335,"1250": 0.6916,"1275": 0.6497,"1300": 0.7335,"1325": 0.7545,"1350": 0.5658,"1375": 0.4611,"1400": 0.5658,"1425": 0.6287,"1450": 0.4191,"1475": 0.3772,"1500": 0.4401,"1525": 0.3563,"1550": 0.3563,"1575": 0.3563,"1600": 0.3353,"1625": 0.3563,"1650": 0.1467,"1675": 0.1467,"1700": 0.0419,"1725": 0.0629,"1750": 0.0419,"1775": 0.021}}}