{"type": "Feature","bbox": [-81.7963,8.3721,-81.7406,8.443],"geometry": {"type": "MultiPolygon","coordinates": [[[[-81.7906,8.3721,615.0416],[-81.7825,8.3807,605.5459],[-81.7693,8.3801,733.6482],[-81.7482,8.3842,704.9861],[-81.7438,8.3893,565.439],[-81.7406,8.406,485.654],[-81.7424,8.4163,580.97],[-81.7517,8.429,676.7347],[-81.7481,8.4308,670.2393],[-81.746,8.435,620.5236],[-81.7474,8.4404,659.9153],[-81.7507,8.4426,783.5278],[-81.7541,8.443,791.555],[-81.7817,8.4357,765.5338],[-81.7943,8.4262,392.8969],[-81.7929,8.4111,486.7884],[-81.7963,8.3893,378.3893],[-81.7953,8.383,458.5083],[-81.7906,8.3721,615.0416]]]]}
,"properties": {"GID_3": "PAN.10.6.2_1","GID_0": "PAN","country": "Panama","GID_1": "PAN.10_1","province": "NgöbeBuglé","NL_NAME_1": "NA","GID_2": "PAN.10.6_1","county": "NoleDuima","NL_NAME_2": "NA","city": "HatoChamí","VARNAME_3": "NA","NL_NAME_3": "NA","TYPE_3": "Corregimiento","ENGTYPE_3": "Municipality","CC_3": "NA","HASC_3": "NA","name": "Hato_Chamí.city","area_km2": 34.92221,"hist_schema_id": "Elevation0-9000","hist_area_km2": {"350": 0.12585,"375": 0.27267,"400": 0.48241,"425": 0.818,"450": 0.77605,"475": 0.79702,"500": 1.02775,"525": 1.15359,"550": 1.38432,"575": 1.42626,"600": 1.46821,"625": 1.32139,"650": 1.65697,"675": 1.78281,"700": 2.01351,"725": 2.05547,"750": 2.07645,"775": 1.9506,"800": 1.82476,"825": 1.78281,"850": 1.65696,"875": 1.92962,"900": 1.25846,"925": 1.17455,"950": 0.94384,"975": 0.56631,"1000": 0.48243,"1025": 0.20975,"1050": 0.18878,"1075": 0.12585,"1100": 0.12585,"1125": 0.06293}}}