{"type":"Feature","properties":{"GID_3":"PAN.9.2.10_1","GID_0":"PAN","country":"Panama","GID_1":"PAN.9_1","province":"LosSantos","NL_NAME_1":"NA","GID_2":"PAN.9.2_1","county":"LasTablas","NL_NAME_2":"NA","city":"LaPalma","VARNAME_3":"NA","NL_NAME_3":"NA","TYPE_3":"Corregimiento","ENGTYPE_3":"Municipality","CC_3":"NA","HASC_3":"NA","name":"La_Palma.city"},
"geometry":{"type": "MultiPolygon","coordinates": [[[[-80.197,7.6808,24.1712],[-80.193,7.6827,37.1901],[-80.1789,7.6803,46.5537],[-80.175,7.6819,59.659],[-80.179,7.6914,58.6734],[-80.1873,7.6989,29.4397],[-80.1861,7.7049,21.1129],[-80.1817,7.7111,8.0283],[-80.1834,7.7248,23.1943],[-80.1969,7.7185,12.3738],[-80.2091,7.703,26.0916],[-80.209,7.7008,9.4783],[-80.2014,7.6924,34.4932],[-80.197,7.6808,24.1712]]]]}}