{"type":"Feature","properties":{"GID_3":"PAN.13.5.10_1","GID_0":"PAN","country":"Panama","GID_1":"PAN.13_1","province":"Veraguas","NL_NAME_1":"NA","GID_2":"PAN.13.5_1","county":"LasPalmas","NL_NAME_2":"NA","city":"SanMartíndePorres","VARNAME_3":"NA","NL_NAME_3":"NA","TYPE_3":"Corregimiento","ENGTYPE_3":"Municipality","CC_3":"NA","HASC_3":"NA","name":"San_Martínde_Porres.city"},
"geometry":{"type": "MultiPolygon","coordinates": [[[[-81.5684,8.1963,80.0812],[-81.5583,8.1859,119.1463],[-81.5406,8.1896,162.3895],[-81.535,8.1805,283.6254],[-81.5253,8.1877,315.3803],[-81.5236,8.1975,313.0309],[-81.5153,8.1963,333.0985],[-81.5051,8.1885,338.7679],[-81.4923,8.1984,306.4862],[-81.4974,8.2093,345.4125],[-81.5064,8.2171,259.0729],[-81.5102,8.2228,320.2464],[-81.5209,8.2267,350.1156],[-81.5296,8.2212,204.4244],[-81.5288,8.2174,192.4217],[-81.5321,8.2161,226.4197],[-81.534,8.2194,234.0132],[-81.5322,8.2287,142.796],[-81.5376,8.2335,121.1125],[-81.5386,8.2449,243.6214],[-81.5468,8.2473,277.9901],[-81.5573,8.2335,206.6323],[-81.5564,8.2267,113.7138],[-81.5586,8.2171,78.9016],[-81.5551,8.2105,139.7552],[-81.5549,8.2063,101.0646],[-81.567,8.1988,172.5517],[-81.5684,8.1963,80.0812]]]]}}