{"type":"Feature","properties":{"GID_3":"PAN.9.2.19_1","GID_0":"PAN","country":"Panama","GID_1":"PAN.9_1","province":"LosSantos","NL_NAME_1":"NA","GID_2":"PAN.9.2_1","county":"LasTablas","NL_NAME_2":"NA","city":"SanJosé","VARNAME_3":"NA","NL_NAME_3":"NA","TYPE_3":"Corregimiento","ENGTYPE_3":"Municipality","CC_3":"NA","HASC_3":"NA","name":"San_José.city"},
"geometry":{"type": "MultiPolygon","coordinates": [[[[-80.2368,7.6251,125.6217],[-80.233,7.6338,121.0165],[-80.2247,7.6354,95.7232],[-80.2168,7.6412,92.7357],[-80.2167,7.6455,67.3659],[-80.2215,7.6532,85.6611],[-80.2191,7.6646,41.8842],[-80.2069,7.6694,35.0986],[-80.197,7.6808,24.1712],[-80.2014,7.6924,34.4932],[-80.209,7.7008,9.4783],[-80.2091,7.703,26.0916],[-80.1969,7.7185,12.3738],[-80.1834,7.7248,23.1943],[-80.2071,7.7248,5.0707],[-80.2222,7.7165,23.1105],[-80.2265,7.7123,21.0016],[-80.2485,7.704,31.0188],[-80.2567,7.7043,27.2442],[-80.259,7.7069,30.8071],[-80.2684,7.6999,45.3203],[-80.2739,7.6997,35.7313],[-80.283,7.7024,41.2485],[-80.2821,7.6961,51.3585],[-80.2848,7.6864,58.2543],[-80.2797,7.6817,98.8757],[-80.2765,7.6737,67.3898],[-80.2675,7.6622,125.1086],[-80.2587,7.6436,143.121],[-80.2589,7.6354,140.3251],[-80.2623,7.6282,157.5982],[-80.2418,7.6282,151.0641],[-80.2368,7.6251,125.6217]]]]}}