{"type":"Feature","properties":{"GID_3":"PAN.3.3.5_1","GID_0":"PAN","country":"Panama","GID_1":"PAN.3_1","province":"Coclé","NL_NAME_1":"NA","GID_2":"PAN.3.3_1","county":"LaPintada","NL_NAME_2":"NA","city":"LlanoGrande","VARNAME_3":"NA","NL_NAME_3":"NA","TYPE_3":"Corregimiento","ENGTYPE_3":"Municipality","CC_3":"NA","HASC_3":"NA","name":"Llano_Grande.city"},
"geometry":{"type": "MultiPolygon","coordinates": [[[[-80.4083,8.6186,145.3194],[-80.408,8.6297,140.2013],[-80.4048,8.6408,157.6038],[-80.3929,8.6583,213.808],[-80.3843,8.6611,209.2908],[-80.3817,8.6692,219.4016],[-80.3863,8.6918,294.1872],[-80.3915,8.6983,365.127],[-80.3947,8.7006,432.1587],[-80.4281,8.7114,477.2966],[-80.4413,8.7309,433.5842],[-80.4406,8.735,277.8257],[-80.4229,8.7706,177.1771],[-80.4221,8.7823,111.7447],[-80.4214,8.8425,117.8169],[-80.4261,8.8714,107.0815],[-80.4339,8.8977,46.6746],[-80.4466,8.9027,41.7645],[-80.4562,8.9169,50.4414],[-80.466,8.924,99.1263],[-80.4707,8.9223,171.7259],[-80.4722,8.9238,171.292],[-80.4762,8.923,73.4926],[-80.4789,8.9249,92.2549],[-80.4841,8.9248,75.8993],[-80.487799999999993,8.9226,54.1033],[-80.4969,8.93,51.927],[-80.5045,8.9276,72.8838],[-80.5064,8.9319,57.7509],[-80.5121,8.9307,18.0731],[-80.5136,8.936,84.571],[-80.525,8.9354,52.2103],[-80.531,8.9474,40.431],[-80.5445,8.9432,112.4048],[-80.5473,8.9418,73.1451],[-80.5448,8.9282,43.6574],[-80.5469,8.9202,24.8144],[-80.5525,8.9145,58.4397],[-80.5518,8.9038,18.805],[-80.5551,8.9022,19.7227],[-80.5558,8.8982,51.1931],[-80.5601,8.897,83.2022],[-80.5628,8.8943,78.6733],[-80.5598,8.8901,77.3469],[-80.5583,8.8819,33.5436],[-80.5557,8.8809,46.7717],[-80.5552,8.8828,39.1207],[-80.5526,8.884,42.6322],[-80.5521,8.8812,54.364],[-80.5544,8.8789,43.3141],[-80.5546,8.876,42.8227],[-80.5503,8.8714,27.3553],[-80.552,8.8682,61.6116],[-80.5505,8.8541,55.1407],[-80.5545,8.8476,57.3864],[-80.5521,8.8418,65.7616],[-80.5538,8.8335,75.9245],[-80.5526,8.8222,51.6927],[-80.5639,8.8081,53.1984],[-80.5618,8.807,48.2988],[-80.5579,8.7999,48.4331],[-80.5588,8.7885,70.9442],[-80.555,8.7739,70.338],[-80.5554,8.7697,78.1121],[-80.5517,8.766,60.5924],[-80.5418,8.767,168.1024],[-80.5307,8.7528,104.4786],[-80.5129,8.7539,162.2736],[-80.5066,8.7558,232.7539],[-80.5033,8.7526,292.1035],[-80.5028,8.7489,302.0746],[-80.5091,8.7299,208.3514],[-80.4992,8.7004,422.4385],[-80.4989,8.6582,370.3306],[-80.497,8.6496,310.9303],[-80.4897,8.6473,222.3668],[-80.4702,8.6344,126.8862],[-80.4542,8.6266,112.124],[-80.4497,8.6232,86.4721],[-80.4469,8.6182,77.9459],[-80.4337,8.6108,80.4733],[-80.4275,8.6161,116.5605],[-80.4168,8.6145,98.1897],[-80.4083,8.6186,145.3194]]]]}}