{"type":"Feature","properties":{"GID_3":"PAN.4.3.4_1","GID_0":"PAN","country":"Panama","GID_1":"PAN.4_1","province":"Colón","NL_NAME_1":"NA","GID_2":"PAN.4.3_1","county":"Donoso","NL_NAME_2":"NA","city":"MigueldelaBorda","VARNAME_3":"NA","NL_NAME_3":"NA","TYPE_3":"Corregimiento","ENGTYPE_3":"Municipality","CC_3":"NA","HASC_3":"NA","name":"Migueldela_Borda.city"},
"geometry":{"type": "MultiPolygon","coordinates": [[[[-80.444,9.0276,72.0463],[-80.4392,9.0307,111.4846],[-80.4212,9.035,93.7619],[-80.4204,9.038,187.2306],[-80.4242,9.0454,146.2759],[-80.4185,9.0489,203.391],[-80.4112,9.0575,320.4944],[-80.3946,9.0589,292.8594],[-80.3871,9.0686,295.0184],[-80.3779,9.0703,347.4265],[-80.3679,9.0746,329.851],[-80.3657,9.0732,229.6296],[-80.3645,9.0675,219.1866],[-80.3614,9.0665,208.4057],[-80.3568,9.0669,212.6335],[-80.3481,9.0713,112.3749],[-80.3394,9.065,78.2206],[-80.3284,9.0692,13.0186],[-80.323,9.0685,71.0744],[-80.3111,9.0626,48.191],[-80.3052,9.0556,12.5954],[-80.3017,9.0572,36.9494],[-80.2974,9.0632,26.4036],[-80.2947,9.0637,23.9236],[-80.2812,9.0538,38.6114],[-80.2765,9.0471,54.7159],[-80.267,9.0393,39.776],[-80.2567,9.0395,73.1538],[-80.2449,9.0348,124.8362],[-80.2307,9.0234,106.7969],[-80.22,9.0232,129.2808],[-80.2199,9.0257,125.1792],[-80.226,9.0389,87.4994],[-80.2245,9.0531,73.0823],[-80.2316,9.0628,56.7593],[-80.2382,9.077,105.8705],[-80.2385,9.0872,89.3674],[-80.2369,9.0936,95.312],[-80.2404,9.1079,42.5425],[-80.2628,9.1303,30.3964],[-80.265,9.1396,29.1696],[-80.2729,9.1463,34.0372],[-80.2764,9.1599,27.1523],[-80.2754,9.1674,3.0353],[-80.2818,9.1687,7.2436],[-80.2849,9.1674,3.0],[-80.2846,9.1635,3.4153],[-80.2882,9.1599,3.8304],[-80.2946,9.1557,3.6021],[-80.3054,9.1557,0.0],[-80.3071,9.1518,3.9748],[-80.309,9.1571,0.0],[-80.3196,9.1582,7.3874],[-80.339,9.1551,7.5037],[-80.346,9.1504,13.5114],[-80.3551,9.1485,11.6294],[-80.3579,9.1438,12.2543],[-80.4079,9.1443,0.0],[-80.4149,9.1407,1.6346],[-80.4163,9.1393,2.2111],[-80.4154,9.1368,14.3996],[-80.4204,9.1343,0.0],[-80.4232,9.131,6.0113],[-80.4376,9.1287,1.5055],[-80.4379,9.1268,11.2451],[-80.4407,9.1254,7.6126],[-80.4529,9.1265,2.6173],[-80.4543,9.1249,14.0116],[-80.4576,9.1251,5.4698],[-80.4621,9.1235,2.3756],[-80.461,9.121,1.9704],[-80.4654,9.1165,6.0764],[-80.4746,9.1146,3.9131],[-80.4954,9.1171,0.0],[-80.4957,9.1154,12.6547],[-80.5007,9.1129,4.7014],[-80.5068,9.1115,0.0],[-80.509,9.1085,12.0187],[-80.5207,9.1051,16.6227],[-80.5265,9.1057,0.0],[-80.5315,9.104,0.0],[-80.5318,9.0985,13.0311],[-80.5294,9.0955,31.1584],[-80.529,9.0921,39.7831],[-80.5319,9.0872,37.1809],[-80.539,9.0815,44.6563],[-80.5397,9.0781,50.0239],[-80.5273,9.0558,11.6103],[-80.5231,9.0545,18.6096],[-80.5141,9.0562,47.5822],[-80.4993,9.063,56.0648],[-80.4845,9.0551,124.4907],[-80.4855,9.0456,162.3174],[-80.4928,9.0335,217.8249],[-80.491,9.0273,209.0175],[-80.494,9.0181,211.4236],[-80.4924,9.0138,165.5314],[-80.4839,9.0094,148.4688],[-80.4734,9.0097,146.8613],[-80.444,9.0276,72.0463]]]]}}