{"type":"Feature","properties":{"GID_2":"PAN.7.1_1","GID_0":"PAN","country":"Panama","GID_1":"PAN.7_1","province":"Herrera","NL_NAME_1":"NA","county":"Chitré","VARNAME_2":"NA","NL_NAME_2":"NA","TYPE_2":"Distrito","ENGTYPE_2":"District","CC_2":"NA","HASC_2":"PA.HE.CT","name":"Chitré.county"},
"geometry":{"type": "MultiPolygon","coordinates": [[[[-80.4032,7.9505,8.4351],[-80.3974,7.953,6.7952],[-80.3972,7.9584,7.7471],[-80.3836,7.9725,4.8421],[-80.3848,7.9764,2.9547],[-80.3924,7.9802,4.7986],[-80.3938,7.9876,7.1191],[-80.3858,7.9945,8.8973],[-80.3723,7.9998,21.393],[-80.3701,8.0032,13.9013],[-80.3662,8.004,0.0],[-80.3715,8.0049,1.7043],[-80.3737,8.0024,6.139],[-80.3796,8.001,0.0],[-80.3826,7.9974,11.0187],[-80.3851,7.9982,0.0],[-80.3876,7.9962,2.1592],[-80.3868,7.9979,5.864],[-80.3932,8.0029,3.3818],[-80.399,8.0037,8.4439],[-80.4004,8.0018,7.1334],[-80.4032,8.0015,2.9864],[-80.4054,8.0062,3.9285],[-80.4157,8.0101,13.2469],[-80.4165,8.0121,0.0],[-80.424,8.0154,9.9793],[-80.4268,8.0196,0.0],[-80.4332,8.0224,0.0],[-80.4443,8.0224,1.2544],[-80.4465,8.0257,2.5003],[-80.4507,8.0165,3.0998],[-80.4554,8.0145,1.5],[-80.4569,8.017,6.2797],[-80.4545,8.022,2.0331],[-80.4574,8.0247,11.0435],[-80.4615,8.0155,19.2892],[-80.459,8.0121,1.5],[-80.4629,8.0113,20.8674],[-80.4674,8.0076,34.8843],[-80.4696,8.0023,2.9682],[-80.4728,8.0022,3.2612],[-80.4763,7.9991,5.1255],[-80.4769,7.996,4.0812],[-80.4855,7.9847,7.16],[-80.4841,7.9805,6.4596],[-80.487,7.9783,4.7944],[-80.4893,7.9785,4.1488],[-80.4908,7.9724,10.4259],[-80.4971,7.9704,12.1317],[-80.5068,7.9234,19.7627],[-80.5042,7.9207,19.9528],[-80.4994,7.9203,33.7959],[-80.4989,7.9186,30.959],[-80.488,7.9243,25.517],[-80.4765,7.9365,26.6995],[-80.4699,7.938,19.7958],[-80.4617,7.9343,14.7165],[-80.4553,7.9226,17.7353],[-80.4549,7.9359,52.1118],[-80.4527,7.9358,16.0677],[-80.4464,7.9303,45.417],[-80.4428,7.9299,49.6651],[-80.438,7.9345,19.2541],[-80.4314,7.9344,15.1053],[-80.4201,7.9408,9.1926],[-80.4158,7.9388,14.0823],[-80.4104,7.9475,6.5],[-80.4032,7.9505,8.4351]]]]}}