{"type":"Feature","properties":{"GID_3":"PAN.2.13.1_1","GID_0":"PAN","country":"Panama","GID_1":"PAN.2_1","province":"Chiriquí","NL_NAME_1":"NA","GID_2":"PAN.2.13_1","county":"Tolé","NL_NAME_2":"NA","city":"BellaVista","VARNAME_3":"NA","NL_NAME_3":"NA","TYPE_3":"Corregimiento","ENGTYPE_3":"Municipality","CC_3":"NA","HASC_3":"NA","name":"Bella_Vista.city"},
"geometry":{"type": "MultiPolygon","coordinates": [[[[-81.5708,8.1953,69.7823],[-81.5735,8.2117,171.2637],[-81.5809,8.2159,94.6977],[-81.5849,8.2212,177.6943],[-81.5911,8.2237,185.3495],[-81.5997,8.2414,179.7269],[-81.6127,8.2432,102.158],[-81.6202,8.2389,239.2],[-81.6333,8.2348,205.1936],[-81.633,8.2302,256.0424],[-81.6289,8.219,175.9167],[-81.6427,8.1986,371.2714],[-81.6454,8.1871,535.2497],[-81.6363,8.1838,364.6569],[-81.6277,8.1863,429.8553],[-81.622,8.1847,366.2612],[-81.6124,8.1749,299.1134],[-81.6132,8.165,333.7759],[-81.6118,8.1586,170.5046],[-81.6079,8.1644,164.427],[-81.6008,8.1662,82.0193],[-81.5983,8.1688,61.8322],[-81.5983,8.1759,285.5881],[-81.5963,8.1788,267.1273],[-81.5805,8.1864,131.316],[-81.5762,8.1943,110.9156],[-81.5708,8.1953,69.7823]]]]}}