{"type":"Feature","properties":{"GID_3":"PAN.2.8.4_1","GID_0":"PAN","country":"Panama","GID_1":"PAN.2_1","province":"Chiriquí","NL_NAME_1":"NA","GID_2":"PAN.2.8_1","county":"Gualaca","NL_NAME_2":"NA","city":"PajadeSombrero","VARNAME_3":"NA","NL_NAME_3":"NA","TYPE_3":"Corregimiento","ENGTYPE_3":"Municipality","CC_3":"NA","HASC_3":"NA","name":"Pajade_Sombrero.city"},
"geometry":{"type": "MultiPolygon","coordinates": [[[[-82.3334,8.6008,261.3584],[-82.327,8.5948,263.5891],[-82.3238,8.5888,249.7117],[-82.317,8.5964,317.8456],[-82.3068,8.6026,270.5613],[-82.3021,8.6132,419.0847],[-82.2902,8.6223,333.1747],[-82.2769,8.6237,424.9298],[-82.2741,8.6217,371.159],[-82.27,8.6147,371.476],[-82.2627,8.6216,507.3083],[-82.2572,8.6332,605.4778],[-82.2509,8.638,764.6558],[-82.2448,8.6405,813.1662],[-82.2403,8.6371,826.1578],[-82.2318,8.6353,687.3878],[-82.2258,8.6362,786.6028],[-82.2228,8.6384,868.1057],[-82.2312,8.6425,904.3336],[-82.2376,8.6596,769.795],[-82.2486,8.6701,644.415],[-82.2523,8.676,688.9456],[-82.2572,8.6789,777.3872],[-82.2824,8.6843,448.7153],[-82.3085,8.6777,477.3851],[-82.3124,8.6727,484.2263],[-82.3259,8.6697,528.0415],[-82.3272,8.6623,559.6342],[-82.3306,8.657,416.5344],[-82.3291,8.6512,357.4838],[-82.3175,8.6397,489.2119],[-82.3156,8.636,560.9054],[-82.3186,8.63,649.0875],[-82.3251,8.6312,627.0113],[-82.3333,8.6288,517.127],[-82.3354,8.6265,490.2269],[-82.3365,8.6176,382.0424],[-82.3386,8.6136,291.0867],[-82.3334,8.6008,261.3584]]]]}}