{"type":"Feature","properties":{"GID_3":"PAN.9.2.9_1","GID_0":"PAN","country":"Panama","GID_1":"PAN.9_1","province":"LosSantos","NL_NAME_1":"NA","GID_2":"PAN.9.2_1","county":"LasTablas","NL_NAME_2":"NA","city":"LaMiel","VARNAME_3":"NA","NL_NAME_3":"NA","TYPE_3":"Corregimiento","ENGTYPE_3":"Municipality","CC_3":"NA","HASC_3":"NA","name":"La_Miel.city"},
"geometry":{"type": "MultiPolygon","coordinates": [[[[-80.3009,7.5716,133.473],[-80.3047,7.5841,133.3385],[-80.3101,7.5885,139.6397],[-80.3136,7.5893,146.6894],[-80.3279,7.5846,201.7849],[-80.3385,7.5856,176.1041],[-80.371,7.5706,380.6609],[-80.3811,7.568,510.8474],[-80.3613,7.5446,482.6025],[-80.3473,7.5411,462.6299],[-80.3395,7.5427,416.2915],[-80.3358,7.5502,376.1348],[-80.3291,7.5535,268.7495],[-80.3275,7.5521,268.7495],[-80.325,7.5417,401.7385],[-80.3107,7.5347,226.417],[-80.2941,7.5412,167.2305],[-80.2899,7.5459,123.9353],[-80.2812,7.5482,106.8634],[-80.2764,7.552,81.856],[-80.2874,7.555,99.7541],[-80.2985,7.5605,119.0424],[-80.3024,7.5691,120.3329],[-80.3009,7.5716,133.473]]]]}}