{"type": "Feature","bbox": [-79.5843,9.3447,-79.0803,9.6046],"geometry": {"type": "MultiPolygon","coordinates": [[[[-79.2574,9.5574,0.0],[-79.2635,9.5593,0.0],[-79.2635,9.5568,6.3281],[-79.2646,9.5568,6.3281],[-79.2685,9.5629,0.0],[-79.2746,9.5668,3.6325],[-79.2815,9.569,0.0],[-79.2829,9.5668,20.861],[-79.2862,9.5662,1.3254],[-79.2926,9.5707,0.0],[-79.294,9.5696,8.392],[-79.2926,9.5665,1.0404],[-79.2954,9.5643,3.7612],[-79.3071,9.5662,1.2656],[-79.3107,9.5621,6.7788],[-79.3082,9.5682,0.0],[-79.326,9.581,0.0],[-79.3271,9.5793,5.87],[-79.3346,9.579,0.0],[-79.3371,9.5754,4.5339],[-79.3482,9.5796,8.1203],[-79.3493,9.5763,4.524],[-79.3546,9.5754,1.5144],[-79.3551,9.5737,7.6499],[-79.3565,9.5757,0.0],[-79.361,9.5735,3.7886],[-79.3712,9.5782,1.2321],[-79.3751,9.5776,0.0],[-79.3757,9.5818,0.0],[-79.3774,9.5824,0.0],[-79.3829,9.5768,5.7025],[-79.394,9.5832,4.5476],[-79.404,9.5843,0.0],[-79.4068,9.5829,1.2514],[-79.4149,9.5849,3.0663],[-79.4174,9.5874,0.0],[-79.4282,9.5874,2.8556],[-79.4321,9.5938,0.0],[-79.4368,9.5951,4.8875],[-79.4365,9.599,5.5779],[-79.4385,9.6038,0.0],[-79.4413,9.5982,3.4488],[-79.4451,9.6001,3.9203],[-79.4474,9.5979,2.9896],[-79.4504,9.5999,1.3774],[-79.4551,9.5979,2.6733],[-79.4576,9.6001,4.7867],[-79.4587,9.6046,0.0],[-79.464,9.6046,0.6434],[-79.4626,9.5993,9.7372],[-79.4696,9.5926,0.1761],[-79.4671,9.5915,0.0],[-79.4668,9.5865,4.594],[-79.4729,9.5824,1.4642],[-79.4779,9.584,1.2367],[-79.4788,9.5874,1.046],[-79.4765,9.5896,0.0],[-79.479,9.591,0.0],[-79.4854,9.5913,2.4595],[-79.4863,9.5887,7.4816],[-79.4935,9.5876,0.0],[-79.4974,9.5899,0.0],[-79.5021,9.5893,4.4253],[-79.5054,9.5924,0.0],[-79.5113,9.591,0.7205],[-79.514,9.5932,1.328],[-79.5174,9.5899,0.0],[-79.5168,9.5874,0.0],[-79.5196,9.5843,0.0],[-79.519,9.5796,0.7939],[-79.5204,9.5779,2.5863],[-79.5246,9.5799,6.9004],[-79.5241,9.5849,0.0],[-79.5313,9.5788,16.7561],[-79.5419,9.577,17.427],[-79.5497,9.5671,22.6939],[-79.5645,9.568,97.641],[-79.5686,9.5655,71.9031],[-79.5773,9.5643,18.3519],[-79.5843,9.5542,81.8105],[-79.5748,9.5537,99.8148],[-79.5697,9.5506,80.3973],[-79.5528,9.5457,72.5648],[-79.5437,9.546,84.8276],[-79.5359,9.5435,205.7798],[-79.5324,9.5406,177.3642],[-79.5244,9.5283,184.0843],[-79.5229,9.5125,144.2245],[-79.5247,9.5051,314.906],[-79.5293,9.4978,332.1322],[-79.5287,9.4957,338.1953],[-79.5258,9.4939,226.5411],[-79.5205,9.4954,254.8169],[-79.516,9.5001,162.6358],[-79.5094,9.5024,147.4713],[-79.4984,9.4965,130.9717],[-79.4889,9.4887,201.2947],[-79.4836,9.4883,199.4597],[-79.4741,9.4949,155.5947],[-79.4662,9.5094,83.9546],[-79.4527,9.5233,85.0166],[-79.4374,9.5086,237.9456],[-79.4228,9.5035,424.6428],[-79.4199,9.5041,426.1522],[-79.4186,9.5064,248.313],[-79.418,9.5146,180.5342],[-79.4084,9.5158,214.1012],[-79.4048,9.5187,201.9868],[-79.3937,9.5135,122.7434],[-79.3873,9.5084,138.1158],[-79.3757,9.5072,140.4398],[-79.3867,9.501,190.5215],[-79.3954,9.4891,374.5911],[-79.3941,9.4865,347.0168],[-79.3828,9.4803,191.2285],[-79.3774,9.4726,111.1278],[-79.3803,9.4616,281.8334],[-79.3809,9.444,238.2364],[-79.3797,9.441,196.2645],[-79.3838,9.4397,221.0152],[-79.3911,9.4327,387.8729],[-79.4003,9.4318,381.539],[-79.4042,9.4281,444.6986],[-79.4109,9.4286,375.2559],[-79.4135,9.4216,419.6562],[-79.4058,9.4201,508.3386],[-79.4055,9.4219,515.7794],[-79.3793,9.4295,270.8068],[-79.3733,9.4385,132.2363],[-79.3621,9.444,144.6672],[-79.3549,9.4403,169.2655],[-79.3544,9.4339,283.0375],[-79.3519,9.4314,234.1936],[-79.3492,9.4299,269.7012],[-79.3447,9.4302,275.8085],[-79.3361,9.434,535.6339],[-79.3295,9.4411,613.9231],[-79.3268,9.4469,439.8297],[-79.3203,9.4486,460.2856],[-79.3164,9.4526,409.1338],[-79.3096,9.4545,389.812],[-79.3059,9.4541,499.4273],[-79.2982,9.4497,257.95],[-79.2849,9.4351,380.2389],[-79.2815,9.4347,283.1515],[-79.2794,9.4367,368.9288],[-79.2724,9.4377,396.4734],[-79.2704,9.4403,344.1578],[-79.2685,9.4361,407.4147],[-79.2636,9.4326,436.4412],[-79.2615,9.4245,643.058],[-79.2711,9.4096,456.0892],[-79.2763,9.3934,533.0423],[-79.2756,9.3918,549.3967],[-79.2586,9.3986,440.706],[-79.2553,9.3986,404.4169],[-79.2536,9.3965,449.2772],[-79.2577,9.3754,521.9051],[-79.2651,9.361,513.3405],[-79.2594,9.3513,644.2726],[-79.2511,9.3447,643.0848],[-79.245,9.3539,543.7974],[-79.2337,9.3591,452.2211],[-79.224,9.3696,377.4756],[-79.2085,9.3815,339.8649],[-79.1979,9.3875,189.6804],[-79.1871,9.3857,184.2836],[-79.1831,9.3865,166.3791],[-79.1713,9.393,193.3119],[-79.1547,9.4278,26.714],[-79.1545,9.4341,30.9185],[-79.1498,9.4454,23.3361],[-79.1463,9.4486,30.0633],[-79.1403,9.4597,29.4834],[-79.1326,9.4677,19.4804],[-79.1262,9.4696,24.0248],[-79.114,9.4809,21.4022],[-79.1014,9.4869,11.9775],[-79.0989,9.4868,10.2285],[-79.0959,9.4794,10.3554],[-79.0901,9.4794,12.2149],[-79.0803,9.5582,3.1033],[-79.0893,9.5618,1.8156],[-79.1076,9.5554,5.1229],[-79.114,9.5585,0.0],[-79.1132,9.5565,4.5784],[-79.1188,9.5576,1.1993],[-79.1212,9.5554,12.497],[-79.1282,9.5543,0.0],[-79.1354,9.556,0.7199],[-79.1415,9.5615,1.1124],[-79.1451,9.561,0.0],[-79.1499,9.5588,0.0],[-79.1504,9.5568,1.7359],[-79.154,9.556,1.8516],[-79.1543,9.554,0.0],[-79.1507,9.5499,0.0],[-79.1535,9.5457,2.8475],[-79.1563,9.5454,0.0],[-79.1579,9.541,0.0],[-79.1626,9.5454,7.5212],[-79.1568,9.5468,0.0],[-79.1549,9.5493,0.0],[-79.1565,9.5526,5.0949],[-79.1582,9.554,0.0],[-79.1604,9.5535,6.8947],[-79.1618,9.556,0.0],[-79.1657,9.5551,9.1356],[-79.1682,9.5574,0.0],[-79.1751,9.5557,0.0],[-79.179,9.5504,3.3114],[-79.186,9.5476,0.0],[-79.1907,9.5421,3.4633],[-79.1974,9.5407,0.0],[-79.1968,9.5379,1.8105],[-79.1993,9.5412,0.0],[-79.2107,9.5432,4.0481],[-79.2138,9.5463,0.0],[-79.2138,9.5499,0.0],[-79.2174,9.5454,4.3727],[-79.2318,9.5457,0.0],[-79.2446,9.5504,2.3121],[-79.2513,9.5557,0.0],[-79.2543,9.5546,7.3058],[-79.2574,9.5574,0.0]]]]}
,"properties": {"GID_2": "PAN.4.6_1","GID_0": "PAN","country": "Panama","GID_1": "PAN.4_1","province": "Colón","NL_NAME_1": "NA","county": "SantaIsabel","VARNAME_2": "NA","NL_NAME_2": "NA","TYPE_2": "Distrito","ENGTYPE_2": "District","CC_2": "NA","HASC_2": "PA.CL.SI","name": "Santa_Isabel.county","area_km2": 658.0993,"hist_schema_id": "Elevation0-9000","hist_area_km2": {"0": 49.4464,"25": 115.7934,"50": 97.3339,"75": 74.9227,"100": 59.3473,"125": 48.3699,"150": 38.3117,"175": 30.2819,"200": 23.9457,"225": 18.7806,"250": 16.6268,"275": 13.1134,"300": 10.8338,"325": 9.5581,"350": 8.4916,"375": 7.3204,"400": 5.8145,"425": 5.3963,"450": 4.5179,"475": 3.9951,"500": 3.2003,"525": 3.4096,"550": 3.1378,"575": 2.5102,"600": 1.7572,"625": 1.0878,"650": 0.6276,"675": 0.1046,"700": 0.0628}}}