{"type": "Feature","bbox": [-80.7532,8.0252,-80.6859,8.0752],"geometry": {"type": "MultiPolygon","coordinates": [[[[-80.6867,8.0366,49.7103],[-80.6859,8.0395,42.8763],[-80.6935,8.0502,43.3579],[-80.702,8.056,33.5581],[-80.7067,8.0634,28.8812],[-80.7235,8.0661,22.9392],[-80.731,8.0752,29.4136],[-80.7324,8.0699,30.3053],[-80.7379,8.0642,36.4908],[-80.7446,8.0495,51.5456],[-80.7465,8.0491,45.7395],[-80.7499,8.0527,66.0665],[-80.7532,8.0471,38.9191],[-80.7524,8.0381,89.2203],[-80.7388,8.0286,55.223],[-80.7335,8.0321,41.5727],[-80.728,8.0332,41.9661],[-80.7234,8.0283,47.4218],[-80.7144,8.0252,37.5468],[-80.7044,8.0304,30.62],[-80.6867,8.0366,49.7103]]]]}
,"properties": {"GID_3": "PAN.7.7.2_1","GID_0": "PAN","country": "Panama","GID_1": "PAN.7_1","province": "Herrera","NL_NAME_1": "NA","GID_2": "PAN.7.7_1","county": "SantaMaría","NL_NAME_2": "NA","city": "ElLimón","VARNAME_3": "NA","NL_NAME_3": "NA","TYPE_3": "Corregimiento","ENGTYPE_3": "Municipality","CC_3": "NA","HASC_3": "NA","name": "El_Limón.city","area_km2": 22.77792,"hist_schema_id": "Elevation0-9000","hist_area_km2": {"25": 12.76393,"50": 8.50243,"75": 1.28062,"100": 0.20994,"125": 0.02099}}}