{"type": "Feature","bbox": [-79.5277,8.9797,-79.4972,9.0286],"geometry": {"type": "MultiPolygon","coordinates": [[[[-79.5112,8.9934,18.9875],[-79.5142,8.9989,42.9576],[-79.5154,9.0064,37.7169],[-79.5118,9.0122,45.6657],[-79.5117,9.0196,51.2413],[-79.4972,9.0231,16.0677],[-79.5017,9.024,19.222],[-79.5023,9.0286,35.8335],[-79.5174,9.0212,43.7581],[-79.5215,9.0122,35.2624],[-79.5203,8.9993,20.5234],[-79.5277,8.9853,27.2973],[-79.5265,8.9797,16.2175],[-79.5112,8.9934,18.9875]]]]}
,"properties": {"GID_3": "PAN.12.6.13_1","GID_0": "PAN","country": "Panama","GID_1": "PAN.12_1","province": "Panamá","NL_NAME_1": "NA","GID_2": "PAN.12.6_1","county": "Panamá","NL_NAME_2": "NA","city": "PuebloNuevo","VARNAME_3": "NA","NL_NAME_3": "NA","TYPE_3": "Corregimiento","ENGTYPE_3": "Municipality","CC_3": "NA","HASC_3": "NA","name": "Pueblo_Nuevo.city","area_km2": 4.460408,"hist_schema_id": "Elevation0-9000","hist_area_km2": {"0": 0.083767,"25": 3.371508,"50": 0.942312,"75": 0.062821}}}