{"type": "Feature","bbox": [-78.3219,8.4362,-78.1553,8.673],"geometry": {"type": "MultiPolygon","coordinates": [[[[-78.1553,8.559,21.2921],[-78.1759,8.5795,63.2758],[-78.1763,8.596,142.7414],[-78.1782,8.5999,155.1094],[-78.1872,8.6009,188.4945],[-78.2026,8.5958,86.8827],[-78.2147,8.5944,84.0922],[-78.2234,8.5962,101.1508],[-78.2415,8.6048,28.1845],[-78.244,8.6114,36.7664],[-78.237,8.6343,29.8573],[-78.2372,8.6433,28.5081],[-78.2388,8.6475,27.96],[-78.249,8.6573,47.3235],[-78.254,8.667,40.8673],[-78.259,8.6705,50.4075],[-78.272,8.673,247.2607],[-78.2858,8.6691,297.8745],[-78.2912,8.6375,147.5508],[-78.297,8.6315,303.5007],[-78.3052,8.6268,328.4447],[-78.3089,8.6213,373.114],[-78.313,8.5839,245.5515],[-78.3216,8.5663,47.5373],[-78.3219,8.5604,34.3773],[-78.3182,8.5481,40.0771],[-78.2999,8.5301,48.7542],[-78.2906,8.5127,24.4053],[-78.2729,8.4991,5.2222],[-78.2688,8.4971,0.0],[-78.2663,8.4987,0.0],[-78.2632,8.4974,0.0],[-78.2582,8.4896,1.5959],[-78.2554,8.4882,0.0],[-78.2549,8.484,5.6265],[-78.2462,8.4849,3.1495],[-78.2429,8.4832,0.0],[-78.2429,8.4815,5.7316],[-78.2551,8.481,0.0],[-78.2607,8.4738,12.9214],[-78.2688,8.4674,5.2736],[-78.2696,8.4643,5.8891],[-78.2674,8.4546,0.0],[-78.2582,8.4557,6.9527],[-78.2543,8.4526,1.7384],[-78.2496,8.4524,7.5798],[-78.2424,8.4396,14.5902],[-78.234,8.4362,0.0],[-78.2312,8.4388,10.508],[-78.2301,8.4507,0.0],[-78.2326,8.4601,7.3713],[-78.2326,8.4721,1.3013],[-78.2218,8.4896,0.0],[-78.2187,8.5057,7.7873],[-78.221,8.5101,6.0478],[-78.2335,8.5151,4.5457],[-78.2335,8.5168,0.0],[-78.2407,8.5207,0.0],[-78.2426,8.5257,4.1064],[-78.2412,8.5315,0.462],[-78.2435,8.5365,0.8221],[-78.2401,8.5329,0.0],[-78.2387,8.5332,0.0],[-78.2382,8.5385,0.8583],[-78.2357,8.5399,0.0],[-78.2354,8.5429,0.0],[-78.2337,8.5426,2.2922],[-78.2346,8.5365,0.0],[-78.2318,8.5363,1.1611],[-78.2335,8.5329,1.9731],[-78.2279,8.5249,0.0],[-78.2254,8.5265,0.7816],[-78.2251,8.5327,4.2181],[-78.2228,8.5326,0.0],[-78.2054,8.5236,13.6049],[-78.1874,8.5229,12.8015],[-78.1779,8.5284,30.1138],[-78.1704,8.5405,58.9994],[-78.1608,8.5505,86.5782],[-78.1553,8.559,21.2921]]]]}
,"properties": {"GID_3": "PAN.5.1.4_1","GID_0": "PAN","country": "Panama","GID_1": "PAN.5_1","province": "Darién","NL_NAME_1": "NA","GID_2": "PAN.5.1_1","county": "Chepigana","NL_NAME_2": "NA","city": "Cucunatí","VARNAME_3": "NA","NL_NAME_3": "NA","TYPE_3": "Corregimiento","ENGTYPE_3": "Municipality","CC_3": "NA","HASC_3": "NA","name": "Cucunatí.city","area_km2": 216.2201,"hist_schema_id": "Elevation0-9000","hist_area_km2": {"0": 35.2685,"25": 54.7877,"50": 28.7432,"75": 20.6714,"100": 17.8199,"125": 14.4862,"150": 8.8678,"175": 7.8195,"200": 6.5407,"225": 5.3458,"250": 4.3395,"275": 2.893,"300": 2.4946,"325": 1.7819,"350": 1.2369,"375": 1.0901,"400": 0.6709,"425": 0.566,"450": 0.3144,"475": 0.2725,"500": 0.0629,"525": 0.0839,"550": 0.021,"575": 0.0419}}}