{"type": "Feature","bbox": [-79.0154,8.2983,-78.9009,8.383],"geometry": {"type": "MultiPolygon","coordinates": [[[[-78.9863,8.3379,0.0],[-78.9887,8.3385,4.2882],[-78.989,8.3374,4.2882],[-78.9865,8.3371,0.0],[-78.9863,8.3379,0.0]]],
[[[-78.9138,8.3696,94.8606],[-78.9062,8.383,150.5082],[-78.9271,8.375,105.2622],[-78.9391,8.3639,73.5933],[-78.9456,8.3623,51.7111],[-78.9494,8.3591,44.3509],[-78.9557,8.3499,0.0],[-78.9532,8.3429,1.0759],[-78.9501,8.3435,1.6415],[-78.9485,8.3421,1.6415],[-78.9524,8.341,5.7628],[-78.9535,8.339,5.0271],[-78.9571,8.3393,0.0],[-78.9571,8.3326,0.0],[-78.9563,8.3265,1.2883],[-78.9526,8.3271,5.4593],[-78.9454,8.3207,4.8472],[-78.9504,8.3218,5.1745],[-78.9529,8.3246,0.0],[-78.9554,8.3226,0.0],[-78.9554,8.3171,0.0],[-78.9599,8.3163,2.3005],[-78.9618,8.3199,1.9854],[-78.9615,8.3274,4.9035],[-78.9599,8.3299,1.6834],[-78.9624,8.3315,2.7506],[-78.9621,8.3282,4.9035],[-78.9657,8.3276,0.0],[-78.964,8.3257,5.1718],[-78.9662,8.3201,1.2275],[-78.9646,8.3126,6.4799],[-78.9718,8.3096,2.8832],[-78.9713,8.3049,0.0],[-78.9641,8.3009,12.3197],[-78.9556,8.3011,31.1898],[-78.9485,8.2988,38.4256],[-78.9387,8.2983,27.4802],[-78.9345,8.3008,42.3735],[-78.9299,8.308,40.6138],[-78.9277,8.3218,40.1597],[-78.9205,8.3262,32.7374],[-78.9113,8.3378,57.5663],[-78.9085,8.3359,68.8905],[-78.907,8.3377,63.047],[-78.9009,8.3387,77.9742],[-78.902,8.3428,79.0452],[-78.9084,8.346,80.6851],[-78.9236,8.3444,29.3808],[-78.9245,8.3397,36.637],[-78.9283,8.3387,34.8502],[-78.93,8.3397,39.1562],[-78.9291,8.3434,24.0944],[-78.9245,8.3453,22.0733],[-78.914,8.3599,92.8444],[-78.9138,8.3696,94.8606]]],
[[[-79.0018,8.3337,0.0],[-79.0035,8.3349,0.0],[-79.0049,8.3318,0.0],[-79.0024,8.3312,0.0],[-79.0018,8.3337,0.0]]],
[[[-79.0046,8.3349,6.3527],[-79.0071,8.3357,0.0],[-79.0082,8.3338,0.0],[-79.0074,8.3332,0.0],[-79.0046,8.3349,6.3527]]],
[[[-79.0104,8.3635,3.7858],[-79.0113,8.3649,25.6391],[-79.0154,8.3626,10.1311],[-79.0132,8.3621,8.1108],[-79.0104,8.3635,3.7858]]]]}
,"properties": {"GID_3": "PAN.12.1.3_1","GID_0": "PAN","country": "Panama","GID_1": "PAN.12_1","province": "Panamá","NL_NAME_1": "NA","GID_2": "PAN.12.1_1","county": "Balboa","NL_NAME_2": "NA","city": "LaGuinea","VARNAME_3": "NA","NL_NAME_3": "NA","TYPE_3": "Corregimiento","ENGTYPE_3": "Municipality","CC_3": "NA","HASC_3": "NA","name": "La_Guinea.city","area_km2": 32.78892,"hist_schema_id": "Elevation0-9000","hist_area_km2": {"0": 3.14677,"25": 15.73406,"50": 6.67109,"75": 4.19543,"100": 1.84593,"125": 0.96491,"150": 0.18878,"175": 0.04195}}}