{"type": "Feature","bbox": [-79.2763,9.3447,-79.1505,9.5576],"geometry": {"type": "MultiPolygon","coordinates": [[[[-79.2588,9.5576,0.0],[-79.2631,9.5552,17.3297],[-79.2644,9.5514,20.1111],[-79.2612,9.5134,46.2488],[-79.2577,9.5103,36.4913],[-79.2408,9.5069,95.2609],[-79.2331,9.4974,79.5581],[-79.2299,9.489,113.0922],[-79.2333,9.4825,140.3552],[-79.2414,9.4748,150.5482],[-79.2521,9.4726,218.62],[-79.2682,9.459,280.5024],[-79.2703,9.455,304.5351],[-79.2704,9.4403,344.1578],[-79.2685,9.4361,407.4147],[-79.2636,9.4326,436.4412],[-79.2615,9.4245,643.058],[-79.2711,9.4096,456.0892],[-79.2763,9.3934,533.0423],[-79.2756,9.3918,549.3967],[-79.2586,9.3986,440.706],[-79.2553,9.3986,404.4169],[-79.2536,9.3965,449.2772],[-79.2577,9.3754,521.9051],[-79.2651,9.361,513.3405],[-79.2594,9.3513,644.2726],[-79.2511,9.3447,643.0848],[-79.245,9.3539,543.7974],[-79.2337,9.3591,452.2211],[-79.224,9.3696,377.4756],[-79.2085,9.3815,339.8649],[-79.1979,9.3875,189.6804],[-79.1871,9.3857,184.2836],[-79.1831,9.3865,166.3791],[-79.1713,9.393,193.3119],[-79.1547,9.4278,26.714],[-79.1545,9.4341,30.9185],[-79.1505,9.4439,20.1568],[-79.1648,9.4415,137.4471],[-79.1709,9.4382,141.6442],[-79.1761,9.4376,181.1836],[-79.1814,9.4409,164.0135],[-79.1887,9.4524,125.9883],[-79.1897,9.4595,150.2388],[-79.1833,9.4703,135.8837],[-79.1882,9.481,127.2383],[-79.1803,9.5007,94.0399],[-79.181,9.5174,27.1685],[-79.1789,9.524,19.4481],[-79.1815,9.529,15.5912],[-79.1817,9.5363,16.1322],[-79.1907,9.5424,3.4633],[-79.1974,9.5407,0.0],[-79.1968,9.5379,1.8105],[-79.1993,9.5412,0.0],[-79.2087,9.5424,0.0],[-79.2132,9.5451,0.5255],[-79.2138,9.5499,0.0],[-79.2174,9.5454,4.3727],[-79.2318,9.5457,0.0],[-79.2446,9.5504,2.3121],[-79.2513,9.5557,0.0],[-79.2543,9.5546,7.3058],[-79.2588,9.5576,0.0]]]]}
,"properties": {"GID_3": "PAN.4.6.5_1","GID_0": "PAN","country": "Panama","GID_1": "PAN.4_1","province": "Colón","NL_NAME_1": "NA","GID_2": "PAN.4.6_1","county": "SantaIsabel","NL_NAME_2": "NA","city": "Palmira","VARNAME_3": "NA","NL_NAME_3": "NA","TYPE_3": "Corregimiento","ENGTYPE_3": "Municipality","CC_3": "NA","HASC_3": "NA","name": "Palmira.city","area_km2": 175.4085,"hist_schema_id": "Elevation0-9000","hist_area_km2": {"0": 5.6664,"25": 19.7809,"50": 14.5331,"75": 10.1219,"100": 11.0638,"125": 11.7539,"150": 11.6076,"175": 10.2273,"200": 8.9098,"225": 8.5335,"250": 8.3453,"275": 7.2577,"300": 5.8564,"325": 5.2917,"350": 4.5807,"375": 4.2042,"400": 3.1166,"425": 3.2631,"450": 3.033,"475": 3.3677,"500": 2.5729,"525": 3.2214,"550": 3.075,"575": 2.4475,"600": 1.7153,"625": 1.0669,"650": 0.6276,"675": 0.1046,"700": 0.0628}}}