{"type": "Feature","bbox": [-82.6725,8.529,-82.6326,8.6413],"geometry": {"type": "MultiPolygon","coordinates": [[[[-82.6525,8.6413,707.6815],[-82.6585,8.6196,565.5842],[-82.6664,8.6083,510.214],[-82.6677,8.5976,481.591],[-82.6725,8.5843,410.8867],[-82.667,8.5664,362.9079],[-82.6658,8.5521,293.4438],[-82.6679,8.5434,287.3488],[-82.6662,8.5341,267.312],[-82.6606,8.529,250.1432],[-82.6535,8.5412,315.7892],[-82.6367,8.5405,329.4453],[-82.6337,8.5412,300.8712],[-82.6326,8.5431,309.5194],[-82.6375,8.5552,337.4365],[-82.6382,8.5621,392.376],[-82.6443,8.5721,430.1962],[-82.6428,8.6106,581.5007],[-82.6378,8.6157,591.0911],[-82.6375,8.6201,629.7542],[-82.6399,8.6282,701.3496],[-82.6434,8.6322,746.8064],[-82.6448,8.6388,788.5037],[-82.6525,8.6413,707.6815]]]]}
,"properties": {"GID_3": "PAN.2.5.12_1","GID_0": "PAN","country": "Panama","GID_1": "PAN.2_1","province": "Chiriquí","NL_NAME_1": "NA","GID_2": "PAN.2.5_1","county": "Bugaba","NL_NAME_2": "NA","city": "Sortová","VARNAME_3": "NA","NL_NAME_3": "NA","TYPE_3": "Corregimiento","ENGTYPE_3": "Municipality","CC_3": "NA","HASC_3": "NA","name": "Sortová.city","area_km2": 30.4409,"hist_schema_id": "Elevation0-9000","hist_area_km2": {"250": 0.35645,"275": 1.19513,"300": 0.8177,"325": 0.83866,"350": 2.26438,"375": 3.81586,"400": 3.27065,"425": 2.55775,"450": 1.76104,"475": 1.71909,"500": 2.05448,"525": 1.80289,"550": 1.5513,"575": 1.48838,"600": 1.23681,"625": 1.04813,"650": 0.92235,"675": 0.71271,"700": 0.50309,"725": 0.39828,"750": 0.08385,"775": 0.04192}}}