{"type":"Feature","properties":{"GID_3":"PAN.10.1.7_1","GID_0":"PAN","country":"Panama","GID_1":"PAN.10_1","province":"NgöbeBuglé","NL_NAME_1":"NA","GID_2":"PAN.10.1_1","county":"Besiko","NL_NAME_2":"NA","city":"Niba","VARNAME_3":"NA","NL_NAME_3":"NA","TYPE_3":"Corregimiento","ENGTYPE_3":"Municipality","CC_3":"NA","HASC_3":"NA","name":"Niba.city"},
"geometry":{"type": "MultiPolygon","coordinates": [[[[-82.0214,8.5083,422.9778],[-81.9909,8.5045,680.0327],[-81.9741,8.5044,851.5698],[-81.9707,8.5023,953.0687],[-81.9644,8.4916,870.726],[-81.9446,8.4965,975.7758],[-81.9305,8.4876,951.6514],[-81.9251,8.4793,890.7147],[-81.9067,8.4768,868.5033],[-81.9043,8.6547,2023.5712],[-81.918,8.6477,1536.8779],[-81.9269,8.6484,1240.6051],[-81.931,8.6504,1059.2581],[-81.937,8.6589,879.1763],[-81.9401,8.6602,895.73],[-81.9603,8.6503,1460.0509],[-81.9618,8.6395,1394.3192],[-81.9613,8.6274,1221.7921],[-81.9654,8.6143,1296.9373],[-81.9815,8.6005,1336.6371],[-81.9904,8.5886,759.1605],[-81.9864,8.5715,477.9138],[-81.9789,8.5609,520.3064],[-81.9823,8.5534,373.5849],[-81.9895,8.5454,446.3525],[-81.9896,8.5309,759.4404],[-81.9926,8.5274,727.6392],[-82.0019,8.5233,497.141],[-82.0214,8.5083,422.9778]]]]}}