{"type":"Feature","properties":{"GID_3":"PAN.10.5.9_1","GID_0":"PAN","country":"Panama","GID_1":"PAN.10_1","province":"NgöbeBuglé","NL_NAME_1":"NA","GID_2":"PAN.10.5_1","county":"Müna","NL_NAME_2":"NA","city":"PeñaBlanca","VARNAME_3":"NA","NL_NAME_3":"NA","TYPE_3":"Corregimiento","ENGTYPE_3":"Municipality","CC_3":"NA","HASC_3":"NA","name":"Peña_Blanca.city"},
"geometry":{"type": "MultiPolygon","coordinates": [[[[-81.6604,8.5605,1862.4854],[-81.6626,8.5403,1704.2231],[-81.6695,8.5285,1418.5696],[-81.6709,8.5194,1525.7349],[-81.6751,8.5117,1611.8577],[-81.6877,8.5069,1607.7604],[-81.6994,8.509,1771.3126],[-81.7074,8.5081,1744.9976],[-81.7118,8.5037,1632.1226],[-81.7169,8.5067,1596.6248],[-81.7171,8.5008,1521.9757],[-81.7322,8.4858,1305.2119],[-81.7385,8.4732,1107.5249],[-81.7474,8.4404,659.9153],[-81.7387,8.4466,697.8344],[-81.7308,8.4362,684.8967],[-81.727,8.4201,615.748],[-81.7254,8.4014,429.8666],[-81.7174,8.3935,406.8865],[-81.717,8.4116,455.838],[-81.7146,8.4201,577.0095],[-81.7114,8.4197,719.0159],[-81.6909,8.4044,598.8632],[-81.6829,8.4052,656.2216],[-81.6794,8.4084,565.9982],[-81.6681,8.4267,900.4756],[-81.6561,8.4337,782.691],[-81.6347,8.4509,617.3863],[-81.6388,8.4591,588.8477],[-81.6397,8.4664,540.9407],[-81.6335,8.4833,774.5059],[-81.627,8.4949,996.8712],[-81.633,8.5053,1025.1833],[-81.6362,8.5212,1384.8088],[-81.6329,8.5741,1776.2546],[-81.6389,8.5747,1538.8855],[-81.6604,8.5605,1862.4854]]]]}}