{"type": "Feature","bbox": [-79.3551,9.5344,-79.3167,9.581],"geometry": {"type": "MultiPolygon","coordinates": [[[[-79.3207,9.5768,0.9465],[-79.326,9.581,0.0],[-79.3271,9.5793,5.87],[-79.3346,9.579,0.0],[-79.3371,9.5754,4.5339],[-79.3459,9.5788,0.4523],[-79.3551,9.5654,16.1156],[-79.3545,9.5607,13.8842],[-79.3495,9.5628,51.8935],[-79.3379,9.5578,29.8079],[-79.337,9.5404,104.0192],[-79.3342,9.5344,60.0341],[-79.327,9.5457,44.7804],[-79.326,9.552,49.729],[-79.3198,9.5539,41.2146],[-79.3167,9.5584,12.1424],[-79.3168,9.5609,12.8987],[-79.3252,9.5715,33.2443],[-79.3239,9.5755,15.1254],[-79.3207,9.5768,0.9465]]]]}
,"properties": {"GID_3": "PAN.4.6.2_1","GID_0": "PAN","country": "Panama","GID_1": "PAN.4_1","province": "Colón","NL_NAME_1": "NA","GID_2": "PAN.4.6_1","county": "SantaIsabel","NL_NAME_2": "NA","city": "Miramar","VARNAME_3": "NA","NL_NAME_3": "NA","TYPE_3": "Corregimiento","ENGTYPE_3": "Municipality","CC_3": "NA","HASC_3": "NA","name": "Miramar.city","area_km2": 10.035647,"hist_schema_id": "Elevation0-9000","hist_area_km2": {"0": 1.40077,"25": 4.745968,"50": 2.822569,"75": 1.003613,"100": 0.062727}}}