{"type":"Feature","properties":{"GID_3":"PAN.7.2.4_1","GID_0":"PAN","country":"Panama","GID_1":"PAN.7_1","province":"Herrera","NL_NAME_1":"NA","GID_2":"PAN.7.2_1","county":"LasMinas","NL_NAME_2":"NA","city":"LasMinas","VARNAME_3":"NA","NL_NAME_3":"NA","TYPE_3":"Corregimiento","ENGTYPE_3":"Municipality","CC_3":"NA","HASC_3":"NA","name":"Las_Minas.city"},
"geometry":{"type": "MultiPolygon","coordinates": [[[[-80.7795,7.8122,254.6992],[-80.7806,7.8074,287.995],[-80.7828,7.8053,333.774],[-80.793,7.8015,397.9916],[-80.7889,7.7916,307.2205],[-80.7665,7.7789,342.3977],[-80.7663,7.7734,373.9968],[-80.7701,7.77,347.6775],[-80.7672,7.7623,363.5899],[-80.7786,7.7477,643.5277],[-80.781,7.7419,613.9489],[-80.7944,7.7359,649.7825],[-80.7945,7.7346,629.6404],[-80.7733,7.7276,640.7693],[-80.7704,7.7307,593.2481],[-80.7664,7.7282,582.0896],[-80.7583,7.731,611.0956],[-80.7556,7.7384,447.4389],[-80.7503,7.7405,474.3544],[-80.7458,7.7447,367.368],[-80.7343,7.7431,400.0125],[-80.7215,7.7479,421.9687],[-80.7102,7.7425,386.3624],[-80.7041,7.7375,336.8078],[-80.7006,7.7658,272.0862],[-80.7033,7.7709,350.9912],[-80.6987,7.7747,306.4558],[-80.6966,7.7837,266.2021],[-80.6965,7.7903,302.3439],[-80.7003,7.7945,365.3884],[-80.6993,7.8005,216.0397],[-80.7004,7.8052,209.3673],[-80.7196,7.8155,265.4359],[-80.7266,7.8034,334.3894],[-80.7339,7.7987,411.3013],[-80.7346,7.7924,324.4734],[-80.7372,7.7885,323.2359],[-80.7406,7.7901,314.2483],[-80.7511,7.7873,351.3714],[-80.7555,7.7985,340.6044],[-80.7608,7.8053,347.2115],[-80.7795,7.8122,254.6992]]]]}}