{"type": "Feature","bbox": [-79.9088,9.3527,-79.8896,9.3671],"geometry": {"type": "MultiPolygon","coordinates": [[[[-79.8896,9.3527,4.764],[-79.8904,9.3574,0.0],[-79.8951,9.3624,3.822],[-79.8949,9.3663,0.3005],[-79.8979,9.3654,4.03],[-79.9029,9.3671,0.0],[-79.9088,9.3643,0.7661],[-79.9054,9.3565,0.0],[-79.9056,9.3533,2.7681],[-79.8896,9.3527,4.764]]]]}
,"properties": {"GID_3": "PAN.4.2.1_1","GID_0": "PAN","country": "Panama","GID_1": "PAN.4_1","province": "Colón","NL_NAME_1": "NA","GID_2": "PAN.4.2_1","county": "Colón","NL_NAME_2": "NA","city": "BarrioNorte","VARNAME_3": "NA","NL_NAME_3": "NA","TYPE_3": "Corregimiento","ENGTYPE_3": "Municipality","CC_3": "NA","HASC_3": "NA","name": "Barrio_Norte.city","area_km2": 2.259356,"hist_schema_id": "Elevation0-9000","hist_area_km2": {"0": 2.259356}}}