{"type": "Feature","bbox": [-81.538,8.2161,-81.5059,8.2613],"geometry": {"type": "MultiPolygon","coordinates": [[[[-81.5296,8.2212,204.4244],[-81.5162,8.2286,334.9714],[-81.5116,8.2323,428.0616],[-81.5086,8.2374,420.1797],[-81.508,8.2464,308.4009],[-81.5059,8.2491,352.9583],[-81.5078,8.2525,310.7072],[-81.5134,8.2556,238.1442],[-81.514,8.2593,214.8525],[-81.518,8.2613,136.6483],[-81.5199,8.2582,125.2677],[-81.5194,8.2536,165.1424],[-81.5132,8.2485,200.7818],[-81.5191,8.2448,218.9392],[-81.5197,8.2364,358.0098],[-81.5221,8.2339,339.1815],[-81.5256,8.2334,231.4563],[-81.5358,8.2393,175.4621],[-81.538,8.2384,109.1572],[-81.5376,8.2335,121.1125],[-81.5323,8.2294,132.1187],[-81.534,8.2194,234.0132],[-81.5321,8.2161,226.4197],[-81.5288,8.2174,192.4217],[-81.5296,8.2212,204.4244]]]]}
,"properties": {"GID_3": "PAN.10.7.7_1","GID_0": "PAN","country": "Panama","GID_1": "PAN.10_1","province": "NgöbeBuglé","NL_NAME_1": "NA","GID_2": "PAN.10.7_1","county": "Ñürüm","NL_NAME_2": "NA","city": "ElPiro","VARNAME_3": "NA","NL_NAME_3": "NA","TYPE_3": "Corregimiento","ENGTYPE_3": "Municipality","CC_3": "NA","HASC_3": "NA","name": "El_Piro.city","area_km2": 5.854384,"hist_schema_id": "Elevation0-9000","hist_area_km2": {"125": 0.5036,"150": 0.692451,"175": 0.377699,"200": 0.608527,"225": 0.50360799999999994,"250": 0.335733,"275": 0.230811,"300": 0.293763,"325": 0.35672,"350": 0.39869,"375": 0.272786,"400": 0.377704,"425": 0.398687,"450": 0.230818,"475": 0.272786}}}