{"type":"Feature","properties":{"GID_3":"PAN.9.1.5_1","GID_0":"PAN","country":"Panama","GID_1":"PAN.9_1","province":"LosSantos","NL_NAME_1":"NA","GID_2":"PAN.9.1_1","county":"Guararé","NL_NAME_2":"NA","city":"GuararéArriba","VARNAME_3":"NA","NL_NAME_3":"NA","TYPE_3":"Corregimiento","ENGTYPE_3":"Municipality","CC_3":"NA","HASC_3":"NA","name":"Guararé_Arriba.city"},
"geometry":{"type": "MultiPolygon","coordinates": [[[[-80.3477,7.8155,73.2661],[-80.3595,7.8117,56.6012],[-80.3638,7.8017,24.4175],[-80.3623,7.7969,21.9841],[-80.3525,7.7869,32.9053],[-80.3543,7.7654,154.4975],[-80.3436,7.776,123.4826],[-80.3372,7.7797,31.2072],[-80.3339,7.7845,31.7535],[-80.3336,7.7888,17.5816],[-80.3394,7.7908,18.3417],[-80.3423,7.7946,16.1986],[-80.3431,7.8023,31.3937],[-80.3477,7.8155,73.2661]]]]}}