{"type": "Feature","bbox": [-81.0708,8.0541,-80.9532,8.1556],"geometry": {"type": "MultiPolygon","coordinates": [[[[-81.0693,8.0695,42.3437],[-81.0644,8.0585,40.1766],[-81.0642,8.0541,44.0512],[-81.0569,8.058,27.3136],[-81.039,8.079,58.6896],[-81.0298,8.0871,99.1942],[-81.0206,8.09,95.7571],[-80.9802,8.1116,72.4979],[-80.9762,8.1167,91.9417],[-80.9667,8.1395,86.9407],[-80.9532,8.1486,74.9944],[-80.9863,8.1529,86.8477],[-80.9984,8.1444,101.9163],[-81.0057,8.142,117.7369],[-81.0307,8.1556,98.1474],[-81.0411,8.1329,89.5504],[-81.0565,8.1335,66.5029],[-81.0659,8.1287,54.2162],[-81.0708,8.1279,59.2399],[-81.0672,8.1001,82.7798],[-81.0693,8.0695,42.3437]]]]}
,"properties": {"GID_3": "PAN.13.10.5_1","GID_0": "PAN","country": "Panama","GID_1": "PAN.13_1","province": "Veraguas","NL_NAME_1": "NA","GID_2": "PAN.13.10_1","county": "Santiago","NL_NAME_2": "NA","city": "LosAlgarrobos","VARNAME_3": "NA","NL_NAME_3": "NA","TYPE_3": "Corregimiento","ENGTYPE_3": "Municipality","CC_3": "NA","HASC_3": "NA","name": "Los_Algarrobos.city","area_km2": 67.46164,"hist_schema_id": "Elevation0-9000","hist_area_km2": {"25": 2.07824,"50": 6.88513,"75": 14.14716,"100": 32.49213,"125": 11.46019,"150": 0.35682,"175": 0.04198}}}