{"type":"Feature","properties":{"GID_2":"PAN.13.9_1","GID_0":"PAN","country":"Panama","GID_1":"PAN.13_1","province":"Veraguas","NL_NAME_1":"NA","county":"SantaFe","VARNAME_2":"NA","NL_NAME_2":"NA","TYPE_2":"Distrito","ENGTYPE_2":"District","CC_2":"NA","HASC_2":"PA.VR.SE","name":"Santa_Fe.county"},
"geometry":{"type": "MultiPolygon","coordinates": [[[[-81.137,8.4536,501.967],[-81.1327,8.4361,444.6423],[-81.1198,8.4299,274.9766],[-81.1031,8.4084,235.4671],[-81.0907,8.4187,287.0018],[-81.0797,8.4253,592.2562],[-81.073,8.4268,356.1392],[-81.0455,8.4223,212.9316],[-81.0366,8.4228,236.915],[-81.0028,8.4151,401.4458],[-80.945,8.4168,410.2608],[-80.9346,8.4185,222.7022],[-80.917,8.4321,239.0562],[-80.9029,8.4376,314.6251],[-80.8998,8.4427,478.6838],[-80.9009,8.4462,361.6551],[-80.9058,8.4501,365.4618],[-80.9075,8.4536,453.6371],[-80.9046,8.4599,501.8701],[-80.8999,8.4652,493.0106],[-80.9076,8.5002,617.0331],[-80.9295,8.5258,819.5704],[-80.9323,8.5334,739.6476],[-80.9324,8.5389,779.927],[-80.9218,8.5543,710.326],[-80.9099,8.5657,827.3438],[-80.8792,8.6006,1592.1589],[-80.8707,8.5967,1349.0166],[-80.8643,8.5905,1161.239],[-80.8602,8.5766,1183.333],[-80.8622,8.5636,1311.0386],[-80.8588,8.5576,1362.9713],[-80.8461,8.5465,1259.5371],[-80.8328,8.5486,1327.1792],[-80.8229,8.5468,945.4868],[-80.8214,8.5618,1467.0879],[-80.8095,8.5662,1533.3696],[-80.8057,8.5659,1350.1628],[-80.79,8.5518,1332.9382],[-80.7856,8.5502,1536.3953],[-80.7819,8.5497,1522.2678],[-80.774,8.5547,1569.3375],[-80.7608,8.5723,965.6687],[-80.7556,8.5912,1252.8568],[-80.746,8.6059,1616.5461],[-80.7433,8.6397,1262.6602],[-80.739,8.6452,1063.6862],[-80.7273,8.6543,774.8229],[-80.7239,8.6626,659.7484],[-80.7283,8.6835,436.1897],[-80.735,8.6919,596.2296],[-80.7462,8.6992,703.6029],[-80.7525,8.7141,337.6224],[-80.755,8.7246,370.3265],[-80.7512,8.7352,547.8597],[-80.7433,8.7412,317.4814],[-80.7273,8.7473,114.352],[-80.7252,8.7503,176.5019],[-80.7253,8.7551,124.7353],[-80.7351,8.7726,92.8343],[-80.7467,8.7847,124.1778],[-80.7535,8.7957,92.767],[-80.7592,8.8011,93.1306],[-80.7624,8.8089,57.6614],[-80.7671,8.8127,146.6296],[-80.7728,8.8143,40.7169],[-80.7849,8.8132,69.5583],[-80.7944,8.8089,64.0526],[-80.7993,8.8088,81.2822],[-80.8222,8.8166,18.2104],[-80.8287,8.8225,77.817],[-80.8408,8.8246,51.6436],[-80.8592,8.8341,23.3538],[-80.864,8.8391,17.7609],[-80.8658,8.846,2.2483],[-80.874,8.8534,0.9829],[-80.8738,8.8757,0.0],[-80.8766,8.8815,11.7243],[-80.874,8.8823,0.0],[-80.8715,8.8865,0.0],[-80.8885,8.8882,3.0047],[-80.9018,8.8801,0.0],[-80.9029,8.8738,0.8674],[-80.9071,8.8704,2.1269],[-80.9129,8.8618,1.1306],[-80.914,8.8626,1.6487],[-80.9104,8.8662,1.7279],[-80.911,8.8679,0.7074],[-80.9307,8.8662,5.3687],[-80.9407,8.8671,0.0],[-80.9449,8.8632,0.0],[-80.9512,8.8615,1.4734],[-80.9538,8.8554,11.366],[-80.9685,8.849,4.3055],[-80.9682,8.8474,8.6679],[-80.9735,8.8407,4.9966],[-80.9732,8.836,3.3148],[-80.9746,8.8371,4.804],[-80.9737,8.8446,0.0],[-80.9751,8.8432,5.4732],[-80.9846,8.8443,0.0],[-80.9887,8.8429,8.4306],[-80.9935,8.8351,6.5532],[-80.9962,8.8357,0.0],[-81.0038,8.8332,7.5553],[-81.026,8.8332,1.8823],[-81.0296,8.8276,5.3354],[-81.0376,8.8279,0.0],[-81.0421,8.8196,4.7356],[-81.0432,8.8229,3.7484],[-81.0563,8.8238,0.0],[-81.0574,8.8218,33.6367],[-81.0615,8.8204,5.4724],[-81.0685,8.8115,2.7957],[-81.0835,8.8088,1.2348],[-81.081,8.806,0.0],[-81.0771,8.8068,0.2158],[-81.0754,8.8035,2.4811],[-81.0774,8.806,0.2158],[-81.0813,8.8046,5.0332],[-81.0857,8.8101,0.0],[-81.0918,8.8115,0.0],[-81.0935,8.8113,0.0],[-81.0937,8.8085,5.6519],[-81.096,8.8079,18.3112],[-81.099,8.809,0.0],[-81.1085,8.8074,17.1011],[-81.114,8.809,0.0],[-81.1157,8.8071,0.0],[-81.1218,8.8062,0.0],[-81.1232,8.8043,0.7541],[-81.126,8.8049,15.1146],[-81.1282,8.8029,5.979],[-81.131,8.8035,18.9842],[-81.1421,8.8001,12.9584],[-81.1476,8.796,2.3597],[-81.1585,8.7971,0.0],[-81.1615,8.7954,36.9899],[-81.169,8.7949,8.8615],[-81.1771,8.7968,3.3408],[-81.1782,8.7954,24.7727],[-81.1871,8.794,0.0],[-81.1904,8.791,8.9767],[-81.1957,8.791,0.0],[-81.1985,8.7876,13.4324],[-81.2021,8.7865,9.6543],[-81.2107,8.7888,0.0],[-81.2131,8.7856,6.7224],[-81.2227,8.7818,18.1258],[-81.2238,8.7773,6.1188],[-81.2212,8.764,55.0041],[-81.2277,8.7542,13.768],[-81.2258,8.7445,83.2909],[-81.2199,8.7438,16.668],[-81.2251,8.7313,61.5385],[-81.2227,8.7204,62.6834],[-81.2283,8.7113,93.0556],[-81.2257,8.707,70.5956],[-81.2166,8.7041,34.5685],[-81.2157,8.7004,80.922],[-81.2209,8.6947,91.0916],[-81.2214,8.6882,69.8944],[-81.2288,8.6842,130.244],[-81.231,8.6775,77.1778],[-81.229,8.6708,82.0243],[-81.2311,8.6643,165.054],[-81.2272,8.6595,195.9751],[-81.2347,8.6508,176.6489],[-81.2354,8.6258,261.5116],[-81.2314,8.6176,296.5724],[-81.2351,8.5981,304.258],[-81.2324,8.5882,437.96],[-81.2285,8.5813,440.5497],[-81.2106,8.5564,434.1472],[-81.2018,8.5315,577.6934],[-81.2005,8.5307,645.4683],[-81.1836,8.534,457.7394],[-81.1776,8.5317,586.5483],[-81.1716,8.5245,692.7314],[-81.1708,8.5209,686.9533],[-81.1775,8.5132,876.9505],[-81.1743,8.5111,1020.8887],[-81.1709,8.4844,738.2662],[-81.1645,8.4759,789.3549],[-81.137,8.4536,501.967]]],
[[[-80.8707,8.8846,0.0],[-80.8704,8.8833,0.0],[-80.8604,8.8862,0.0],[-80.8668,8.8868,0.449],[-80.8707,8.8846,0.0]]],
[[[-81.0001,9.0001,0.0],[-81.0001,8.9999,0.0],[-80.9999,8.9999,0.0],[-80.9999,9.0001,0.0],[-81.0001,9.0001,0.0]]]]}}