{"type": "Feature","bbox": [-78.2574,7.9828,-78.202,8.0657],"geometry": {"type": "MultiPolygon","coordinates": [[[[-78.2574,7.9961,21.668],[-78.2398,7.9866,13.545],[-78.2262,7.9831,26.7237],[-78.2178,7.9828,11.7004],[-78.2109,7.9852,12.151],[-78.202,8.0013,9.9026],[-78.2027,8.0066,6.7648],[-78.2101,8.016,4.2399],[-78.212,8.0209,3.7742],[-78.2092,8.0396,11.2238],[-78.2202,8.0487,5.0418],[-78.2346,8.0532,20.682],[-78.2354,8.0554,20.1507],[-78.2332,8.0593,13.1402],[-78.2337,8.0657,22.8528],[-78.2448,8.0606,22.1982],[-78.2472,8.0573,8.8818],[-78.2482,8.0274,7.4426],[-78.2422,8.0123,17.3874],[-78.243,8.006,11.9296],[-78.2574,7.9961,21.668]]]]}
,"properties": {"GID_3": "PAN.5.1.12_1","GID_0": "PAN","country": "Panama","GID_1": "PAN.5_1","province": "Darién","NL_NAME_1": "NA","GID_2": "PAN.5.1_1","county": "Chepigana","NL_NAME_2": "NA","city": "Sambú","VARNAME_3": "NA","NL_NAME_3": "NA","TYPE_3": "Corregimiento","ENGTYPE_3": "Municipality","CC_3": "NA","HASC_3": "NA","name": "Sambú.city","area_km2": 32.58412,"hist_schema_id": "Elevation0-9000","hist_area_km2": {"0": 14.3183,"25": 17.7829,"50": 0.48291}}}