{"type":"Feature","properties":{"GID_3":"PAN.11.6.6_1","GID_0":"PAN","country":"Panama","GID_1":"PAN.11_1","province":"PanamáOeste","NL_NAME_1":"NA","GID_2":"PAN.11.6_1","county":"SanCarlos","NL_NAME_2":"NA","city":"LasUvas","VARNAME_3":"NA","NL_NAME_3":"NA","TYPE_3":"Corregimiento","ENGTYPE_3":"Municipality","CC_3":"NA","HASC_3":"NA","name":"Las_Uvas.city"},
"geometry":{"type": "MultiPolygon","coordinates": [[[[-80.0087,8.4519,38.0752],[-80.007,8.4425,31.4589],[-80.0076,8.4366,24.1509],[-80.0054,8.4324,0.0],[-80.0013,8.4371,9.7311],[-79.9932,8.4418,0.0],[-79.9785,8.449,17.2418],[-79.9757,8.449,5.7162],[-79.974,8.4526,15.9421],[-79.969,8.456,0.0],[-79.9838,8.4683,42.6161],[-79.9867,8.4777,46.4086],[-79.9871,8.4931,61.978],[-79.9909,8.5019,79.1659],[-79.9964,8.5016,109.8745],[-80.0019,8.4971,94.0949],[-80.0046,8.486,58.8249],[-80.0044,8.4783,70.0832],[-80.0072,8.4686,57.6317],[-80.0087,8.4519,38.0752]]]]}}