{"type": "Feature","bbox": [-80.5928,7.7279,-80.5554,7.794],"geometry": {"type": "MultiPolygon","coordinates": [[[[-80.5729,7.7279,156.094],[-80.5589,7.7284,77.1427],[-80.5554,7.7301,98.0195],[-80.5568,7.7448,111.9176],[-80.5615,7.7532,84.0511],[-80.5611,7.7719,60.2926],[-80.5642,7.7773,81.0727],[-80.5661,7.7918,75.6629],[-80.5696,7.794,80.1512],[-80.583,7.7899,83.3017],[-80.5836,7.7876,80.9252],[-80.5928,7.7798,147.391],[-80.5925,7.7739,71.8462],[-80.5892,7.7708,70.1217],[-80.5921,7.7665,87.8338],[-80.5892,7.7593,86.6912],[-80.5859,7.7534,126.4024],[-80.5794,7.7531,132.2102],[-80.5763,7.7485,145.8513],[-80.5779,7.7402,129.9911],[-80.5749,7.7397,112.1097],[-80.5728,7.7439,114.8413],[-80.5684,7.7416,149.591],[-80.5733,7.7365,130.696],[-80.5729,7.7279,156.094]]]]}
,"properties": {"GID_3": "PAN.9.4.3_1","GID_0": "PAN","country": "Panama","GID_1": "PAN.9_1","province": "LosSantos","NL_NAME_1": "NA","GID_2": "PAN.9.4_1","county": "Macaracas","NL_NAME_2": "NA","city": "Chupá","VARNAME_3": "NA","NL_NAME_3": "NA","TYPE_3": "Corregimiento","ENGTYPE_3": "Municipality","CC_3": "NA","HASC_3": "NA","name": "Chupá.city","area_km2": 17.81473,"hist_schema_id": "Elevation0-9000","hist_area_km2": {"50": 0.10504,"75": 9.20139,"100": 4.30666,"125": 2.16385,"150": 1.26052,"175": 0.29411,"200": 0.10503,"225": 0.16805,"250": 0.14705,"275": 0.02101,"300": 0.04201}}}