{"type":"Feature","properties":{"GID_3":"PAN.5.1.13_1","GID_0":"PAN","country":"Panama","GID_1":"PAN.5_1","province":"Darién","NL_NAME_1":"NA","GID_2":"PAN.5.1_1","county":"Chepigana","NL_NAME_2":"NA","city":"SantaFé","VARNAME_3":"NA","NL_NAME_3":"NA","TYPE_3":"Corregimiento","ENGTYPE_3":"Municipality","CC_3":"NA","HASC_3":"NA","name":"Santa_Fé.city"},
"geometry":{"type": "MultiPolygon","coordinates": [[[[-78.1268,8.5318,3.5974],[-78.1276,8.5315,0.0],[-78.1274,8.529,0.0],[-78.1254,8.5296,0.9884],[-78.1268,8.5318,3.5974]]],
[[[-78.1215,8.5321,0.0],[-78.1235,8.5318,0.0],[-78.121,8.5301,0.0],[-78.1207,8.5313,0.0],[-78.1215,8.5321,0.0]]],
[[[-78.1296,8.5346,0.0],[-78.1304,8.5332,0.0],[-78.1293,8.5324,0.0],[-78.1282,8.5332,0.0],[-78.1296,8.5346,0.0]]],
[[[-78.134,8.5368,0.0],[-78.1338,8.5368,0.0],[-78.1338,8.5371,0.0],[-78.134,8.5368,0.0]]],
[[[-78.3046,8.778,280.9287],[-78.3117,8.7785,459.6862],[-78.3092,8.7668,490.0756],[-78.3021,8.763,245.4247],[-78.3005,8.7588,300.4763],[-78.3019,8.7513,299.412],[-78.3072,8.7405,557.98],[-78.3075,8.7278,501.4129],[-78.3048,8.7197,414.2118],[-78.2914,8.7006,377.5747],[-78.286,8.6902,322.7425],[-78.2858,8.6691,297.8745],[-78.272,8.673,247.2607],[-78.259,8.6705,50.4075],[-78.254,8.667,40.8673],[-78.249,8.6573,47.3235],[-78.2388,8.6475,27.96],[-78.2372,8.6433,28.5081],[-78.237,8.6343,29.8573],[-78.244,8.6114,36.7664],[-78.2415,8.6048,28.1845],[-78.2234,8.5962,101.1508],[-78.2147,8.5944,84.0922],[-78.2026,8.5958,86.8827],[-78.1872,8.6009,188.4945],[-78.1782,8.5999,155.1094],[-78.1763,8.596,142.7414],[-78.1759,8.5795,63.2758],[-78.1553,8.559,21.2921],[-78.1485,8.5581,14.753],[-78.1415,8.5526,43.396],[-78.1333,8.5411,11.9209],[-78.1338,8.5371,0.0],[-78.1324,8.5374,8.2917],[-78.1312,8.539,0.0],[-78.1326,8.5443,9.7374],[-78.1318,8.556,9.8028],[-78.1332,8.5585,2.3905],[-78.1371,8.5604,1.2904],[-78.1413,8.5668,1.4302],[-78.1429,8.5743,0.0],[-78.1499,8.5843,0.0],[-78.1524,8.5982,21.1546],[-78.1507,8.5987,0.0],[-78.1476,8.5849,10.7316],[-78.1371,8.5676,5.7447],[-78.1288,8.5599,10.8427],[-78.1268,8.5485,9.3567],[-78.1282,8.5399,0.0],[-78.1263,8.5351,0.0],[-78.1237,8.5326,0.0],[-78.1229,8.5351,0.0],[-78.1218,8.5349,0.0],[-78.1093,8.5251,0.0],[-78.1026,8.5224,7.2697],[-78.099,8.5176,0.0],[-78.0987,8.5115,1.9799],[-78.1021,8.5071,5.0905],[-78.1029,8.5021,0.0],[-78.1115,8.4927,15.1098],[-78.1018,8.4982,23.4906],[-78.0937,8.4957,19.1668],[-78.0864,8.4965,7.6395],[-78.08,8.5108,10.9376],[-78.0807,8.5216,11.7335],[-78.0864,8.5359,25.7511],[-78.0864,8.5505,20.5031],[-78.0838,8.5569,21.9844],[-78.0777,8.5631,21.7382],[-78.0739,8.5947,63.622],[-78.0692,8.6136,59.6216],[-78.063,8.6246,55.6902],[-78.0576,8.6411,67.9111],[-78.0485,8.6599,65.7895],[-78.0483,8.675,56.2239],[-78.0533,8.6828,66.7075],[-78.065,8.7117,64.9312],[-78.066,8.7294,70.5134],[-78.0691,8.7397,76.1696],[-78.0734,8.7467,73.3356],[-78.0729,8.7493,84.8688],[-78.068,8.7506,62.8974],[-78.0611,8.7493,60.4327],[-78.0468,8.7369,64.947],[-78.0413,8.7305,76.2299],[-78.032,8.7139,63.0237],[-78.0162,8.6959,43.1993],[-77.9752,8.6892,36.3617],[-77.9641,8.6819,33.4518],[-77.9566,8.684,30.1352],[-77.954,8.6874,33.7268],[-77.9551,8.6981,36.2049],[-77.952,8.7069,35.5802],[-77.956,8.7168,36.4596],[-77.9547,8.7247,62.2901],[-77.9558,8.7292,43.964],[-77.9614,8.7304,45.1916],[-77.9739,8.7396,34.109],[-77.976,8.7346,33.4262],[-77.9802,8.7324,41.7706],[-77.9981,8.7386,46.2658],[-78.0112,8.7515,42.1705],[-78.0132,8.7566,44.416],[-78.014,8.7669,45.1702],[-78.0169,8.7711,47.1036],[-78.0288,8.7782,61.6906],[-78.0385,8.7782,56.9718],[-78.0494,8.7816,55.2758],[-78.0613,8.7891,69.0074],[-78.0696,8.8081,73.7304],[-78.0776,8.8114,77.4336],[-78.0835,8.8115,68.1911],[-78.0993,8.8044,73.557],[-78.1074,8.8026,77.963],[-78.1228,8.7736,76.4263],[-78.1287,8.7697,88.1482],[-78.137,8.7694,91.2155],[-78.1478,8.7654,76.5488],[-78.1598,8.7653,61.0662],[-78.1922,8.7706,43.4668],[-78.1972,8.7744,41.6576],[-78.1965,8.7965,61.6597],[-78.1976,8.7995,60.8254],[-78.2043,8.7995,69.9584],[-78.2159,8.7964,54.1057],[-78.2231,8.7983,53.1952],[-78.2261,8.8016,52.8272],[-78.2317,8.8041,52.5148],[-78.2382,8.7994,56.7111],[-78.2415,8.7896,86.1529],[-78.2511,8.7828,70.2718],[-78.2551,8.7777,68.048],[-78.2713,8.7712,98.2947],[-78.2793,8.7699,95.6631],[-78.2855,8.773,95.9252],[-78.3046,8.778,280.9287]]]]}}