{"type":"Feature","properties":{"featurecla":"River","scalerank":12,"rivernum":22173,"dissolve":"22173River","name":"null970","name_alt":null,"note":"ID is link back to CEC data","name_full":null,"min_zoom":7.0,"strokeweig":0.2,"uident":2066001,"min_label":8.0},
"geometry":{"type": "LineString","coordinates": [[-78.977365689187067,9.1451276713482059,14.2362],[-78.964833137103739,9.1926537130148773,18.868],[-78.938343879291239,9.2062442078065345,26.0752],[-78.814442512103739,9.2136904968690345,55.5]]}}