{"type": "Feature","bbox": [-79.9489,8.8419,-79.8508,8.9077],"geometry": {"type": "MultiPolygon","coordinates": [[[[-79.852,8.865,99.8489],[-79.8525,8.8722,93.1703],[-79.8508,8.8745,100.2887],[-79.8633,8.8756,101.8489],[-79.8864,8.8845,101.4024],[-79.8974,8.8893,147.9292],[-79.906,8.8963,154.9775],[-79.9198,8.8956,110.3577],[-79.9276,8.9046,137.0748],[-79.9316,8.9067,143.5038],[-79.945,8.9077,123.8054],[-79.9463,8.9062,123.8384],[-79.9489,8.8975,152.6798],[-79.9439,8.8913,218.395],[-79.9428,8.8866,202.0554],[-79.9392,8.8841,159.2061],[-79.9311,8.885,132.8401],[-79.9258,8.8829,105.8822],[-79.9103,8.859,91.5794],[-79.8962,8.8459,106.5521],[-79.8916,8.8435,91.3002],[-79.8863,8.8419,126.561],[-79.8781,8.8458,93.3922],[-79.8663,8.8478,87.2467],[-79.852,8.865,99.8489]]]]}
,"properties": {"GID_3": "PAN.11.4.18_1","GID_0": "PAN","country": "Panama","GID_1": "PAN.11_1","province": "PanamáOeste","NL_NAME_1": "NA","GID_2": "PAN.11.4_1","county": "LaChorrera","NL_NAME_2": "NA","city": "SantaRita","VARNAME_3": "NA","NL_NAME_3": "NA","TYPE_3": "Corregimiento","ENGTYPE_3": "Municipality","CC_3": "NA","HASC_3": "NA","name": "Santa_Rita.city","area_km2": 34.64871,"hist_schema_id": "Elevation0-9000","hist_area_km2": {"75": 4.88109,"100": 11.62666,"125": 10.24365,"150": 4.39907,"175": 1.86435,"200": 1.17305,"225": 0.46084}}}