{"type":"Feature","properties":{"GID_3":"PAN.13.11.2_1","GID_0":"PAN","country":"Panama","GID_1":"PAN.13_1","province":"Veraguas","NL_NAME_1":"NA","GID_2":"PAN.13.11_1","county":"Soná","NL_NAME_2":"NA","city":"Calidonia","VARNAME_3":"NA","NL_NAME_3":"NA","TYPE_3":"Corregimiento","ENGTYPE_3":"Municipality","CC_3":"NA","HASC_3":"NA","name":"Calidonia.city"},
"geometry":{"type": "MultiPolygon","coordinates": [[[[-81.4665,7.9059,357.4734],[-81.474,7.8996,427.7261],[-81.4795,7.8923,372.1443],[-81.4871,7.869,102.2646],[-81.5085,7.8519,418.1533],[-81.5227,7.8362,437.7617],[-81.5148,7.8253,316.7471],[-81.4925,7.8132,327.9979],[-81.463,7.8102,421.5182],[-81.4639,7.8324,89.9955],[-81.4619,7.8382,173.9448],[-81.4308,7.8434,327.7074],[-81.425,7.8458,232.5731],[-81.4229,7.859,353.0139],[-81.4129,7.8663,268.8707],[-81.4096,7.8728,284.0552],[-81.4053,7.9114,234.211],[-81.3905,7.9171,209.0094],[-81.3726,7.9412,175.5816],[-81.3562,7.9518,167.1776],[-81.3539,7.9664,71.568],[-81.3469,7.9823,115.8039],[-81.346,7.9938,129.9342],[-81.3418,8.0039,36.8262],[-81.3422,8.0097,41.3324],[-81.3569,8.0202,50.7264],[-81.3669,8.0235,83.1281],[-81.3729,8.0225,110.7051],[-81.3774,8.0191,176.2469],[-81.3807,8.0053,183.2001],[-81.3846,8.0026,177.4036],[-81.3892,8.0032,162.0583],[-81.4065,8.011,148.5947],[-81.4111,7.9917,288.9101],[-81.4185,7.9761,210.3696],[-81.4212,7.9732,250.2931],[-81.4345,7.9673,356.7776],[-81.4386,7.9638,360.8763],[-81.4517,7.926,367.8941],[-81.4665,7.9059,357.4734]]]]}}