{"type": "Feature","bbox": [-81.2262,7.8187,-81.0571,8.0954],"geometry": {"type": "MultiPolygon","coordinates": [[[[-81.0829,7.8404,1.7662],[-81.0862,7.841,0.0],[-81.0915,7.839,0.0],[-81.0982,7.8293,4.7156],[-81.0979,7.8257,1.8662],[-81.0912,7.8187,0.0],[-81.0776,7.8207,10.4005],[-81.074,7.8235,0.0],[-81.0754,7.834,0.0],[-81.0788,7.839,0.0],[-81.0829,7.8404,1.7662]]],
[[[-81.1157,7.8735,0.0],[-81.114,7.8851,3.4329],[-81.1193,7.8907,0.0],[-81.1232,7.8999,1.5132],[-81.1218,7.9038,1.309],[-81.1226,7.9071,2.8643],[-81.1199,7.911,0.0],[-81.1204,7.9143,0.0],[-81.1237,7.9151,4.8409],[-81.1229,7.9179,2.2972],[-81.1168,7.9193,2.7024],[-81.1154,7.9182,0.0],[-81.1162,7.9165,0.0],[-81.1132,7.9151,0.7982],[-81.1093,7.9196,1.7232],[-81.106,7.9193,1.4468],[-81.106,7.914,0.0],[-81.114,7.9085,0.0],[-81.1143,7.9049,0.0],[-81.1074,7.9021,3.2574],[-81.101,7.9043,1.5471],[-81.1026,7.9004,1.5632],[-81.1001,7.8976,0.4286],[-81.096,7.9018,0.5155],[-81.0979,7.8915,0.0],[-81.0954,7.8926,0.7473],[-81.0946,7.8899,0.0],[-81.0901,7.8907,5.7655],[-81.0918,7.8879,0.0],[-81.0901,7.8888,3.864],[-81.0901,7.8865,2.7186],[-81.0937,7.8879,0.0],[-81.0926,7.884,0.6807],[-81.0954,7.8851,0.0],[-81.0935,7.881,1.6687],[-81.089,7.8801,0.0],[-81.0885,7.8788,0.0],[-81.0918,7.8796,0.0],[-81.0932,7.8785,4.8237],[-81.0963,7.8835,0.5404],[-81.0971,7.8815,0.0],[-81.0943,7.8768,7.307],[-81.0949,7.8757,0.0],[-81.0982,7.8763,0.0],[-81.0982,7.8874,0.0],[-81.0996,7.8863,0.0],[-81.0987,7.8835,0.0],[-81.1004,7.8826,0.6618],[-81.1004,7.889,0.0],[-81.1032,7.8907,0.0],[-81.109,7.8896,9.6148],[-81.1115,7.8876,0.0],[-81.1113,7.8701,0.0],[-81.109,7.8657,22.5198],[-81.106,7.8635,0.0],[-81.089,7.8579,0.0],[-81.0765,7.8735,13.9811],[-81.0765,7.8829,14.1615],[-81.0687,7.8996,3.7697],[-81.0604,7.9035,2.4062],[-81.0574,7.9074,0.0],[-81.0571,7.9149,0.0],[-81.061,7.9193,3.3646],[-81.0651,7.9199,7.8419],[-81.0676,7.9226,1.5],[-81.0776,7.9187,16.302],[-81.0801,7.9199,6.8638],[-81.0738,7.9207,7.6412],[-81.0685,7.9237,6.7565],[-81.0617,7.9207,9.5385],[-81.0583,7.9341,12.4756],[-81.0628,7.9393,45.9358],[-81.0715,7.9451,16.5763],[-81.079,7.9601,44.4459],[-81.0871,7.9678,29.6853],[-81.0958,8.0221,25.8953],[-81.0793,8.0366,36.4571],[-81.0703,8.0373,39.1988],[-81.0669,8.0395,47.0007],[-81.0644,8.0585,40.1766],[-81.0693,8.0695,42.3437],[-81.0731,8.069,50.3719],[-81.0834,8.0728,52.7773],[-81.083,8.0782,43.8882],[-81.0865,8.0887,40.6378],[-81.0917,8.0943,41.0687],[-81.0962,8.0954,38.1842],[-81.1103,8.091,71.5979],[-81.1218,8.0909,48.7603],[-81.1349,8.0883,82.1103],[-81.1564,8.0687,37.1981],[-81.1754,8.0638,60.0033],[-81.187,8.0537,60.1426],[-81.1946,8.039,83.3859],[-81.1951,8.0334,76.073],[-81.1906,8.0227,49.2136],[-81.1912,8.0191,43.6854],[-81.196,8.0153,49.7246],[-81.2064,8.0107,87.7176],[-81.2163,8.0108,131.4461],[-81.2222,8.0092,130.8963],[-81.2246,8.0065,126.2054],[-81.2262,8.0005,103.8717],[-81.2249,7.9943,143.8849],[-81.2182,7.9841,77.8196],[-81.2182,7.96,91.9689],[-81.2148,7.9337,15.914],[-81.2038,7.9237,16.4189],[-81.1879,7.9187,7.2788],[-81.1833,7.9133,134.1214],[-81.1835,7.9031,35.5754],[-81.2074,7.9005,0.0],[-81.2093,7.8826,0.0],[-81.1992,7.876,3.1494],[-81.1925,7.8639,29.4993],[-81.183,7.8532,0.0],[-81.1796,7.8543,0.0],[-81.1762,7.8607,3.5862],[-81.171,7.8607,5.3871],[-81.1646,7.8554,0.0],[-81.1576,7.8529,0.0],[-81.1501,7.8526,0.0],[-81.1407,7.8579,7.6023],[-81.1415,7.8563,15.9591],[-81.1471,7.854,2.2272],[-81.1476,7.8504,0.0],[-81.1457,7.8474,16.4848],[-81.1396,7.8446,0.0],[-81.1349,7.8462,6.4813],[-81.1257,7.846,0.0],[-81.1229,7.8482,0.0],[-81.1188,7.8485,3.7854],[-81.1185,7.8504,0.0],[-81.1171,7.849,9.9194],[-81.1188,7.8454,0.0],[-81.1165,7.8437,0.0],[-81.1096,7.8426,0.0],[-81.0926,7.8451,0.0],[-81.0904,7.8479,0.0],[-81.0921,7.8515,0.0],[-81.1096,7.8615,20.1476],[-81.1137,7.8679,11.567],[-81.1185,7.8718,10.4754],[-81.1182,7.8768,0.0],[-81.1176,7.8732,0.0],[-81.1157,7.8735,0.0]]],
[[[-81.1093,7.8987,2.0811],[-81.1129,7.8996,0.0],[-81.1157,7.8982,0.0],[-81.1179,7.8938,0.0],[-81.116,7.8893,0.8975],[-81.1137,7.8888,3.2409],[-81.1115,7.8929,2.9806],[-81.1043,7.8951,0.4906],[-81.1068,7.8982,0.0],[-81.1093,7.8987,2.0811]]],
[[[-81.0604,7.9007,2.4966],[-81.0607,7.9021,2.4062],[-81.0649,7.8976,0.0],[-81.0629,7.8976,1.2666],[-81.0604,7.9007,2.4966]]],
[[[-81.1087,7.9151,0.0],[-81.109,7.9171,0.0],[-81.1115,7.9163,0.5247],[-81.1115,7.9129,0.0],[-81.1101,7.9157,1.1336],[-81.1087,7.9151,0.0]]],
[[[-81.1151,7.9149,0.7982],[-81.1174,7.9149,0.0],[-81.116,7.9101,0.0],[-81.1143,7.9118,1.2531],[-81.1151,7.9149,0.7982]]]]}
,"properties": {"GID_2": "PAN.13.7_1","GID_0": "PAN","country": "Panama","GID_1": "PAN.13_1","province": "Veraguas","NL_NAME_1": "NA","county": "RíodeJesús","VARNAME_2": "NA","NL_NAME_2": "NA","TYPE_2": "Distrito","ENGTYPE_2": "District","CC_2": "NA","HASC_2": "PA.VR.RJ","name": "Ríode_Jesús.county","area_km2": 350.557,"hist_schema_id": "Elevation0-9000","hist_area_km2": {"0": 52.1669,"25": 105.3322,"50": 97.9854,"75": 57.2148,"100": 24.839,"125": 8.7136,"150": 1.9949,"175": 0.966,"200": 0.42,"225": 0.336,"250": 0.231,"275": 0.168,"300": 0.147,"325": 0.042}}}