{"type": "Feature","bbox": [-78.1154,8.1613,-77.8291,8.6136],"geometry": {"type": "MultiPolygon","coordinates": [[[[-77.856,8.1912,0.0],[-77.8601,8.191,0.0],[-77.8604,8.1899,0.0],[-77.8557,8.1904,0.0],[-77.856,8.1912,0.0]]],
[[[-77.8332,8.1636,21.2961],[-77.8291,8.1613,22.0502],[-77.8313,8.1645,25.41],[-77.838,8.1858,12.2289],[-77.8409,8.2009,9.7399],[-77.8501,8.232,6.8648],[-77.8518,8.2457,12.3427],[-77.8726,8.3099,407.4797],[-77.8812,8.3495,402.0184],[-77.8848,8.3535,498.9454],[-77.8942,8.356,275.1074],[-77.9074,8.3653,174.0217],[-77.9169,8.4105,66.4028],[-77.9212,8.4143,67.6474],[-77.9295,8.4182,74.2341],[-77.9365,8.4314,72.8944],[-77.941,8.435,80.8472],[-77.9637,8.4363,364.4285],[-77.995,8.4603,192.3015],[-78.0145,8.4717,188.531],[-78.0188,8.4712,279.7525],[-78.0337,8.4647,227.6495],[-78.0386,8.4646,165.5707],[-78.0464,8.4689,252.9643],[-78.0556,8.4808,205.1446],[-78.0571,8.4868,180.4233],[-78.0563,8.4926,199.5779],[-78.0516,8.4992,320.888],[-78.0504,8.5043,399.0288],[-78.0534,8.5258,332.7118],[-78.0597,8.5356,292.9566],[-78.062,8.5429,279.9598],[-78.0583,8.5472,123.2386],[-78.0543,8.5486,86.2598],[-78.0422,8.5468,72.0902],[-78.0401,8.5478,78.7954],[-78.0372,8.5554,66.244],[-78.0385,8.57,69.2392],[-78.0294,8.5846,57.2383],[-78.0358,8.5909,55.0345],[-78.0493,8.5944,74.2794],[-78.0509,8.6041,50.5533],[-78.0692,8.6136,59.6216],[-78.0739,8.5947,63.622],[-78.0777,8.5631,21.7382],[-78.0838,8.5569,21.9844],[-78.0864,8.5505,20.5031],[-78.0864,8.5359,25.7511],[-78.0807,8.5216,11.7335],[-78.08,8.5108,10.9376],[-78.0864,8.4965,7.6395],[-78.0937,8.4957,19.1668],[-78.1031,8.4979,21.2072],[-78.1118,8.4926,15.1098],[-78.1146,8.489,0.0],[-78.1154,8.4813,0.0],[-78.1113,8.4724,7.3017],[-78.0943,8.456,0.0],[-78.0851,8.4429,21.5981],[-78.0799,8.4337,6.4891],[-78.0776,8.4263,8.4196],[-78.0693,8.4235,17.1498],[-78.0682,8.4171,13.6145],[-78.066,8.4168,0.0],[-78.061,8.4229,12.8362],[-78.0574,8.4249,13.5723],[-78.0532,8.424,21.5551],[-78.0468,8.4201,0.0],[-78.0335,8.4182,0.0],[-78.0282,8.4135,10.5428],[-78.026,8.4085,0.0],[-78.021,8.4032,2.3082],[-78.0224,8.4018,11.837],[-78.0293,8.4085,1.6749],[-78.0279,8.4093,0.0],[-78.0304,8.4143,1.7173],[-78.0351,8.4176,0.0],[-78.0468,8.4182,10.9408],[-78.0526,8.4215,13.9968],[-78.0582,8.4224,0.0],[-78.0626,8.4151,10.96],[-78.0671,8.4146,1.8277],[-78.0707,8.4151,17.3004],[-78.076,8.4199,2.9776],[-78.0776,8.4196,2.9776],[-78.0788,8.4046,0.0],[-78.0715,8.3921,17.1189],[-78.0699,8.3846,0.0],[-78.0707,8.3818,0.0],[-78.0571,8.3607,18.2946],[-78.0504,8.3357,29.2992],[-78.0479,8.3335,10.3988],[-78.0468,8.3293,6.997],[-78.0385,8.3215,10.776],[-78.036,8.3118,0.0],[-78.031,8.309,5.6511],[-78.031,8.2943,0.0],[-78.0257,8.2712,0.0],[-78.0093,8.2571,10.3905],[-78.0038,8.2546,0.0],[-77.9901,8.2565,6.1417],[-77.9732,8.2521,4.1636],[-77.951,8.251,8.3067],[-77.9401,8.2465,4.8182],[-77.9274,8.2376,0.0],[-77.9163,8.2363,9.5998],[-77.8907,8.2271,14.2362],[-77.8835,8.2226,4.4983],[-77.8774,8.216,2.9704],[-77.8668,8.1965,0.0],[-77.8574,8.1962,13.2992],[-77.8501,8.1915,0.0],[-77.846,8.1854,0.0],[-77.8437,8.1763,0.0],[-77.839,8.1746,14.1076],[-77.8384,8.1707,8.8612],[-77.8332,8.1636,21.2961]]]]}
,"properties": {"GID_3": "PAN.5.1.11_1","GID_0": "PAN","country": "Panama","GID_1": "PAN.5_1","province": "Darién","NL_NAME_1": "NA","GID_2": "PAN.5.1_1","county": "Chepigana","NL_NAME_2": "NA","city": "RíoIglesias","VARNAME_3": "NA","NL_NAME_3": "NA","TYPE_3": "Corregimiento","ENGTYPE_3": "Municipality","CC_3": "NA","HASC_3": "NA","name": "Río_Iglesias.city","area_km2": 503.5399,"hist_schema_id": "Elevation0-9000","hist_area_km2": {"0": 150.2795,"25": 171.546,"50": 56.3966,"75": 33.2205,"100": 20.4288,"125": 12.8363,"150": 9.69,"175": 7.7184,"200": 7.4246,"225": 6.1242,"250": 5.2643,"275": 4.4674,"300": 4.4254,"325": 3.23,"350": 2.4749,"375": 1.7619,"400": 1.4263,"425": 1.0698,"450": 1.1538,"475": 0.8181,"500": 0.7552,"525": 0.5245,"550": 0.4405,"575": 0.0629}}}