{"type": "Feature","bbox": [-82.5714,8.6912,-82.4388,8.8077],"geometry": {"type": "MultiPolygon","coordinates": [[[[-82.5714,8.7653,1994.2996],[-82.569,8.7601,1908.0284],[-82.5466,8.7664,1862.545],[-82.5261,8.7654,2186.2964],[-82.5158,8.7702,2192.585],[-82.5122,8.7693,2063.812],[-82.5037,8.7592,1671.4398],[-82.5008,8.7468,1414.7263],[-82.4907,8.7432,1305.3416],[-82.4828,8.7324,1030.2891],[-82.4714,8.7268,920.1375],[-82.4672,8.7139,859.35],[-82.4545,8.6912,753.9108],[-82.4494,8.7055,814.3659],[-82.44,8.7191,958.2537],[-82.4408,8.7374,1065.1095],[-82.4393,8.7391,1070.4878],[-82.4388,8.7516,1140.125],[-82.4442,8.7597,1190.6251],[-82.4459,8.7672,1265.1998],[-82.4704,8.7791,1488.3073],[-82.4936,8.7802,1795.3799],[-82.5079,8.7986,2362.3831],[-82.513,8.8007,2585.1855],[-82.5217,8.8077,2876.542],[-82.5363,8.805,3262.6372],[-82.5505,8.7946,2693.1675],[-82.5523,8.784,2419.4363],[-82.5577,8.7763,2204.8799],[-82.5647,8.7691,2330.0442],[-82.5714,8.7653,1994.2996]]]]}
,"properties": {"GID_3": "PAN.2.4.6_1","GID_0": "PAN","country": "Panama","GID_1": "PAN.2_1","province": "Chiriquí","NL_NAME_1": "NA","GID_2": "PAN.2.4_1","county": "Boquete","NL_NAME_2": "NA","city": "Palmira","VARNAME_3": "NA","NL_NAME_3": "NA","TYPE_3": "Corregimiento","ENGTYPE_3": "Municipality","CC_3": "NA","HASC_3": "NA","name": "Palmira.city","area_km2": 65.27443,"hist_schema_id": "Elevation0-9000","hist_area_km2": {"725": 0.02096,"750": 0.10479,"775": 0.16767,"800": 0.33533,"825": 0.29341,"850": 0.64969,"875": 0.79639,"900": 0.88022,"925": 0.96404,"950": 1.29934,"975": 1.46699,"1000": 1.34123,"1025": 1.23644,"1050": 1.42504,"1075": 1.65554,"1100": 1.80222,"1125": 1.425,"1150": 1.92793,"1175": 1.57167,"1200": 1.59261,"1225": 1.57165,"1250": 1.50878,"1275": 1.34113,"1300": 1.36207,"1325": 1.32016,"1350": 1.46684,"1375": 1.21538,"1400": 0.83819,"1425": 0.922,"1450": 0.85914,"1475": 1.00582,"1500": 0.79627,"1525": 0.60768,"1550": 0.62863,"1575": 0.54481,"1600": 0.461,"1625": 0.461,"1650": 0.39813,"1675": 0.54481,"1700": 0.18859,"1725": 0.2305,"1750": 0.25145,"1775": 0.37718,"1800": 0.20954,"1825": 0.16763,"1850": 0.23049,"1875": 0.2724,"1900": 0.31431,"1925": 0.31431,"1950": 0.2724,"1975": 0.35622,"2000": 0.41908,"2025": 0.58672,"2050": 0.46099,"2075": 0.56576,"2100": 0.41908,"2125": 0.46099,"2150": 0.5448,"2175": 0.5029,"2200": 0.62862,"2225": 0.67053,"2250": 0.79625,"2275": 0.71244,"2300": 0.64957,"2325": 0.81721,"2350": 0.64957,"2375": 0.56576,"2400": 0.60766,"2425": 0.58671,"2450": 0.5448,"2475": 0.69147,"2500": 0.69147,"2525": 0.60765,"2550": 0.62861,"2575": 0.64956,"2600": 0.79623,"2625": 0.92195,"2650": 0.6286,"2675": 0.50288,"2700": 0.39811,"2725": 0.44001,"2750": 0.29334,"2775": 0.27239,"2800": 0.33525,"2825": 0.20953,"2850": 0.37715,"2875": 0.27239,"2900": 0.31429,"2925": 0.25143,"2950": 0.46096,"2975": 0.37715,"3000": 0.18858,"3025": 0.27239,"3050": 0.3562,"3075": 0.04191,"3100": 0.27238,"3125": 0.23048,"3150": 0.14667,"3175": 0.08381,"3200": 0.10476,"3250": 0.12572,"3275": 0.06286,"3300": 0.06286,"3325": 0.02095}}}