{"type":"Feature","properties":{"GID_3":"PAN.2.3.7_1","GID_0":"PAN","country":"Panama","GID_1":"PAN.2_1","province":"Chiriquí","NL_NAME_1":"NA","GID_2":"PAN.2.3_1","county":"Boquerón","NL_NAME_2":"NA","city":"Pedregal","VARNAME_3":"NA","NL_NAME_3":"NA","TYPE_3":"Corregimiento","ENGTYPE_3":"Municipality","CC_3":"NA","HASC_3":"NA","name":"Pedregal.city"},
"geometry":{"type": "MultiPolygon","coordinates": [[[[-82.5885,8.4569,100.4263],[-82.5888,8.4654,112.7263],[-82.5913,8.4736,121.6013],[-82.5907,8.4855,145.8875],[-82.5941,8.4972,176.4261],[-82.5914,8.4978,176.5167],[-82.5772,8.4881,152.2739],[-82.5783,8.511,211.2051],[-82.5807,8.5140999999999991,222.8892],[-82.5888,8.5181,225.4333],[-82.5946,8.525,242.8083],[-82.6061,8.5324,261.2596],[-82.6073,8.5309,256.1814],[-82.6025,8.5143,211.498],[-82.6044,8.507,201.5089],[-82.6046,8.4924,169.3019],[-82.6074,8.483,147.9908],[-82.611,8.4787,142.3079],[-82.6116,8.4736,127.6169],[-82.6143,8.4695,120.5166],[-82.6191,8.467,113.5247],[-82.6214,8.4578,96.77],[-82.6012,8.4561,100.9406],[-82.5885,8.4569,100.4263]]]]}}