{"type": "Feature","bbox": [-80.7237,7.8052,-80.5925,7.8912],"geometry": {"type": "MultiPolygon","coordinates": [[[[-80.7196,7.8155,265.4359],[-80.7004,7.8052,209.3673],[-80.6801,7.8145,216.5866],[-80.674,7.8144,253.8629],[-80.6715,7.8174,181.726],[-80.6625,7.8196,173.5477],[-80.6608,7.8249,144.2076],[-80.6531,7.8263,131.6357],[-80.644,7.8326,110.5263],[-80.6302,7.8333,85.642],[-80.6277,7.8391,74.7754],[-80.6278,7.8487,73.2908],[-80.5925,7.8747,77.8099],[-80.6006,7.8815,65.878],[-80.6107,7.8816,82.9163],[-80.6223,7.888,100.9419],[-80.6281,7.8862,116.6816],[-80.6334,7.8761,121.9631],[-80.6393,7.8826,126.6115],[-80.646,7.8855,117.1688],[-80.6516,7.8912,77.7917],[-80.6627,7.8869,88.4969],[-80.6686,7.8833,112.5577],[-80.6691,7.8779,117.1446],[-80.6659,7.8736,138.7244],[-80.6666,7.8686,171.377],[-80.6804,7.8567,144.4983],[-80.6913,7.8543,139.6262],[-80.7012,7.8549,175.4003],[-80.7056,7.8491,149.2908],[-80.7142,7.8506,149.5924],[-80.7105,7.8418,144.7253],[-80.7154,7.8283,173.3669],[-80.7172,7.8262,193.0056],[-80.7204,7.8275,220.743],[-80.7237,7.8263,225.032],[-80.7196,7.8155,265.4359]]]]}
,"properties": {"GID_3": "PAN.7.6.8_1","GID_0": "PAN","country": "Panama","GID_1": "PAN.7_1","province": "Herrera","NL_NAME_1": "NA","GID_2": "PAN.7.6_1","county": "Pesé","NL_NAME_2": "NA","city": "Sabanagrande","VARNAME_3": "NA","NL_NAME_3": "NA","TYPE_3": "Corregimiento","ENGTYPE_3": "Municipality","CC_3": "NA","HASC_3": "NA","name": "Sabanagrande.city","area_km2": 62.77969,"hist_schema_id": "Elevation0-9000","hist_area_km2": {"50": 0.18903,"75": 8.0442,"100": 16.04643,"125": 13.35813,"150": 10.18676,"175": 6.88936,"200": 4.51598,"225": 2.10047,"250": 0.92421,"275": 0.29407,"300": 0.12603,"325": 0.08402,"350": 0.021}}}