{"type": "Feature","bbox": [-79.5316,8.9698,-79.5082,8.9934],"geometry": {"type": "MultiPolygon","coordinates": [[[[-79.5193,8.9751,2.7774],[-79.5109,8.9823,12.0777],[-79.5085,8.9866,15.2151],[-79.5082,8.9901,16.019],[-79.5112,8.9934,18.9875],[-79.5316,8.9754,16.5572],[-79.5289,8.9729,8.3793],[-79.5302,8.9716,5.4784],[-79.526,8.9698,2.0644],[-79.5268,8.9732,3.5992],[-79.5254,8.9754,5.6296],[-79.5193,8.9751,2.7774]]]]}
,"properties": {"GID_3": "PAN.12.6.2_1","GID_0": "PAN","country": "Panama","GID_1": "PAN.12_1","province": "Panamá","NL_NAME_1": "NA","GID_2": "PAN.12.6_1","county": "Panamá","NL_NAME_2": "NA","city": "BellaVista","VARNAME_3": "NA","NL_NAME_3": "NA","TYPE_3": "Corregimiento","ENGTYPE_3": "Municipality","CC_3": "NA","HASC_3": "NA","name": "Bella_Vista.city","area_km2": 2.387412,"hist_schema_id": "Elevation0-9000","hist_area_km2": {"0": 1.005232,"25": 1.38218}}}