{"type":"Feature","properties":{"GID_3":"PAN.2.3.8_1","GID_0":"PAN","country":"Panama","GID_1":"PAN.2_1","province":"Chiriquí","NL_NAME_1":"NA","GID_2":"PAN.2.3_1","county":"Boquerón","NL_NAME_2":"NA","city":"Tijeras","VARNAME_3":"NA","NL_NAME_3":"NA","TYPE_3":"Corregimiento","ENGTYPE_3":"Municipality","CC_3":"NA","HASC_3":"NA","name":"Tijeras.city"},
"geometry":{"type": "MultiPolygon","coordinates": [[[[-82.538,8.4421,61.6672],[-82.5391,8.4566,83.9733],[-82.5452,8.4672,103.6353],[-82.5914,8.4978,176.5167],[-82.5939,8.4978,176.4261],[-82.5907,8.4855,145.8875],[-82.5913,8.4736,121.6013],[-82.5888,8.4654,112.7263],[-82.5885,8.4569,100.4263],[-82.538,8.4421,61.6672]]]]}}