{"type":"Feature","properties":{"GID_3":"PAN.9.2.1_1","GID_0":"PAN","country":"Panama","GID_1":"PAN.9_1","province":"LosSantos","NL_NAME_1":"NA","GID_2":"PAN.9.2_1","county":"LasTablas","NL_NAME_2":"NA","city":"BajoCorral","VARNAME_3":"NA","NL_NAME_3":"NA","TYPE_3":"Corregimiento","ENGTYPE_3":"Municipality","CC_3":"NA","HASC_3":"NA","name":"Bajo_Corral.city"},
"geometry":{"type": "MultiPolygon","coordinates": [[[[-80.2764,7.552,81.856],[-80.2695,7.5554,75.2324],[-80.2686,7.5507,94.1764],[-80.2641,7.547,68.8563],[-80.2565,7.5483,67.4431],[-80.2486,7.5534,56.7636],[-80.2441,7.5528,73.2168],[-80.223,7.5393,45.092],[-80.2188,7.5315,47.9632],[-80.2117,7.5455,98.2942],[-80.2075,7.5484,116.2209],[-80.2065,7.5549,143.3131],[-80.2118,7.5634,184.8154],[-80.2134,7.5633,163.9497],[-80.2169,7.5589,137.761],[-80.2284,7.5574,120.9478],[-80.2303,7.5587,120.9478],[-80.2337,7.6066,176.6496],[-80.2389,7.6163,173.6936],[-80.2368,7.6251,125.6217],[-80.2397,7.6277,145.013],[-80.2623,7.6282,157.5982],[-80.2787,7.6324,233.799],[-80.2917,7.6206,312.559],[-80.2914,7.6142,217.0846],[-80.2835,7.6095,189.553],[-80.2894,7.5999,313.5697],[-80.2852,7.5887,286.6712],[-80.3023,7.5708,133.473],[-80.3024,7.5691,120.3329],[-80.298,7.5601,98.2605],[-80.2874,7.555,99.7541],[-80.2764,7.552,81.856]]]]}}