{"type": "Feature","bbox": [-81.9813,8.3191,-81.9161,8.3781],"geometry": {"type": "MultiPolygon","coordinates": [[[[-81.9265,8.3235,52.336],[-81.9257,8.33,70.0515],[-81.9302,8.3334,182.5216],[-81.9332,8.3483,253.8805],[-81.9263,8.3614,364.745],[-81.9161,8.3716,453.135],[-81.9327,8.3749,454.008],[-81.9367,8.3781,324.965],[-81.9462,8.3646,314.3981],[-81.9606,8.3543,156.1298],[-81.9647,8.3451,186.139],[-81.9813,8.3353,85.6661],[-81.9748,8.3191,76.1586],[-81.969,8.3287,125.1429],[-81.9664,8.3286,83.0001],[-81.9625,8.3247,101.7007],[-81.947,8.3253,109.0843],[-81.9467,8.3267,119.1266],[-81.9419,8.3288,44.1107],[-81.9414,8.3319,55.5763],[-81.939,8.3326,61.6584],[-81.9329,8.3256,165.606],[-81.9265,8.3235,52.336]]]]}
,"properties": {"GID_3": "PAN.10.4.2_1","GID_0": "PAN","country": "Panama","GID_1": "PAN.10_1","province": "NgöbeBuglé","NL_NAME_1": "NA","GID_2": "PAN.10.4_1","county": "Mironó","NL_NAME_2": "NA","city": "HatoCorotú","VARNAME_3": "NA","NL_NAME_3": "NA","TYPE_3": "Corregimiento","ENGTYPE_3": "Municipality","CC_3": "NA","HASC_3": "NA","name": "Hato_Corotú.city","area_km2": 20.43224,"hist_schema_id": "Elevation0-9000","hist_area_km2": {"25": 0.02098,"50": 0.10489,"75": 1.09088,"100": 1.04892,"125": 1.36359,"150": 1.82511,"175": 1.99292,"200": 1.38455,"225": 1.74116,"250": 1.57333,"275": 1.53136,"300": 1.4684,"325": 1.57327,"350": 1.32154,"375": 1.02787,"400": 0.56637,"425": 0.29367,"450": 0.31465,"475": 0.14683,"500": 0.04195}}}