{"type": "Feature","bbox": [-81.1031,8.2398,-80.9722,8.4084],"geometry": {"type": "MultiPolygon","coordinates": [[[[-81.0611,8.2819,134.8487],[-81.0608,8.2671,101.6142],[-81.0582,8.2583,186.8429],[-81.055,8.2544,99.7832],[-81.0205,8.2398,127.0238],[-81.0082,8.2446,62.8127],[-80.9919,8.2478,114.6615],[-80.9722,8.2683,150.0836],[-80.9852,8.2713,137.0423],[-81.0094,8.2824,136.1682],[-81.0312,8.2853,188.5076],[-81.0316,8.2878,142.0353],[-81.0265,8.2941,118.2977],[-81.0285,8.3136,146.1114],[-81.0382,8.3235,229.6847],[-81.0545,8.3256,481.452],[-81.0716,8.3343,254.3216],[-81.072,8.338,228.5948],[-81.0684,8.3495,255.4119],[-81.0728,8.3522,319.3272],[-81.0822,8.3524,185.2219],[-81.0887,8.3579,155.2358],[-81.0921,8.3649,196.503],[-81.0914,8.3782,171.2616],[-81.0994,8.3955,193.8482],[-81.1031,8.4084,235.4671],[-81.098,8.3601,240.7135],[-81.0933,8.3442,148.2313],[-81.0931,8.335,143.334],[-81.09,8.3299,217.7278],[-81.0892,8.3213,258.7463],[-81.0822,8.313,258.1987],[-81.0696,8.3099,222.4415],[-81.0636,8.3013,192.3898],[-81.0585,8.2981,190.6924],[-81.0611,8.2819,134.8487]]]]}
,"properties": {"GID_3": "PAN.13.8.3_1","GID_0": "PAN","country": "Panama","GID_1": "PAN.13_1","province": "Veraguas","NL_NAME_1": "NA","GID_2": "PAN.13.8_1","county": "SanFrancisco","NL_NAME_2": "NA","city": "Remance","VARNAME_3": "NA","NL_NAME_3": "NA","TYPE_3": "Corregimiento","ENGTYPE_3": "Municipality","CC_3": "NA","HASC_3": "NA","name": "Remance.city","area_km2": 65.52205,"hist_schema_id": "Elevation0-9000","hist_area_km2": {"50": 0.23081,"75": 6.98714,"100": 7.55352,"125": 8.62336,"150": 7.84671,"175": 7.86757,"200": 9.00033,"225": 6.48262,"250": 3.90213,"275": 2.09787,"300": 1.27968,"325": 0.8811,"350": 0.60839,"375": 0.60839,"400": 0.52447,"425": 0.50349,"450": 0.35664,"475": 0.16783}}}