{"type": "Feature","bbox": [-81.0958,7.9182,-80.9776,8.0871],"geometry": {"type": "MultiPolygon","coordinates": [[[[-81.0426,7.9371,1.0],[-81.0468,7.9371,5.1766],[-81.0482,7.9343,1.0],[-81.0457,7.9337,7.4384],[-81.0426,7.9371,1.0]]],
[[[-81.0382,7.9399,11.9686],[-81.0382,7.9396,11.9686],[-81.0381,7.9399,11.9686],[-81.0382,7.9399,11.9686]]],
[[[-81.0393,7.9457,5.3547],[-81.0401,7.9446,11.3884],[-81.0387,7.9432,1.5],[-81.0387,7.9446,12.5467],[-81.0393,7.9457,5.3547]]],
[[[-81.0167,7.96,12.4141],[-81.0034,7.9771,30.0157],[-80.9967,8.0047,49.0771],[-80.9929,8.0089,77.4098],[-80.9796,8.0174,96.8944],[-80.9776,8.0223,86.9471],[-80.9791,8.0267,77.8752],[-81.0067,8.038,60.348],[-81.0168,8.0401,69.0883],[-81.0213,8.044,33.0975],[-81.0243,8.0501,18.113],[-81.0246,8.0594,87.0118],[-81.0298,8.0871,99.1942],[-81.039,8.079,58.6896],[-81.0569,8.058,27.3136],[-81.0642,8.0541,44.0512],[-81.0663,8.041,42.7653],[-81.068,8.0383,38.4968],[-81.0793,8.0366,36.4571],[-81.0958,8.0221,25.8953],[-81.0871,7.9678,29.6853],[-81.079,7.9601,44.4459],[-81.0705,7.944,16.5763],[-81.0587,7.9353,12.4756],[-81.0617,7.9207,9.5385],[-81.0593,7.9182,0.125],[-81.0554,7.9185,0.0],[-81.0554,7.9268,0.5],[-81.0493,7.9318,7.9765],[-81.0488,7.9368,1.0],[-81.046,7.9382,5.1766],[-81.041,7.9382,11.0299],[-81.0387,7.9404,11.9686],[-81.041,7.9438,11.3884],[-81.0407,7.9476,11.9437],[-81.0379,7.9446,12.5467],[-81.0376,7.9406,3.0849],[-81.0346,7.9443,19.776],[-81.0202,7.9545,19.7805],[-81.0167,7.96,12.4141]],
[[-81.0603,7.959,35.5137],[-81.0621,7.9593,24.6943],[-81.0638,7.963,23.5104],[-81.0656,7.974,18.5604],[-81.0646,7.98,38.3909],[-81.055,7.9871,44.0334],[-81.0388,7.9881,19.3677],[-81.0479,7.9686,22.6429],[-81.0603,7.959,35.5137]]]]}
,"properties": {"GID_3": "PAN.13.6.6_1","GID_0": "PAN","country": "Panama","GID_1": "PAN.13_1","province": "Veraguas","NL_NAME_1": "NA","GID_2": "PAN.13.6_1","county": "Montijo","NL_NAME_2": "NA","city": "Montijo","VARNAME_3": "NA","NL_NAME_3": "NA","TYPE_3": "Corregimiento","ENGTYPE_3": "Municipality","CC_3": "NA","HASC_3": "NA","name": "Montijo.city","area_km2": 113.10362,"hist_schema_id": "Elevation0-9000","hist_area_km2": {"0": 10.93921,"25": 57.82299,"50": 29.70826,"75": 9.44751,"100": 4.51381,"125": 0.62984,"150": 0.04199}}}