{"type":"Feature","properties":{"GID_3":"PAN.3.1.4_1","GID_0":"PAN","country":"Panama","GID_1":"PAN.3_1","province":"Coclé","NL_NAME_1":"NA","GID_2":"PAN.3.1_1","county":"Aguadulce","NL_NAME_2":"NA","city":"ElRoble","VARNAME_3":"NA","NL_NAME_3":"NA","TYPE_3":"Corregimiento","ENGTYPE_3":"Municipality","CC_3":"NA","HASC_3":"NA","name":"El_Roble.city"},
"geometry":{"type": "MultiPolygon","coordinates": [[[[-80.5959,8.1909,5.9932],[-80.601,8.2019,7.7371],[-80.5992,8.209,15.2309],[-80.6002,8.2113,17.2591],[-80.618,8.2096,9.9619],[-80.632,8.2023,27.9041],[-80.637,8.2021,25.7566],[-80.6403,8.2034,17.9527],[-80.6454,8.2107,24.1301],[-80.6501,8.2134,20.7038],[-80.6536,8.218,23.4519],[-80.663,8.2237,31.9149],[-80.6727,8.236,36.6381],[-80.6715,8.2562,82.4107],[-80.6776,8.2755,137.1596],[-80.6891,8.2574,102.2644],[-80.6843,8.24,42.5947],[-80.687,8.2258,56.2664],[-80.6958,8.1991,53.0237],[-80.7095,8.1661,14.9223],[-80.6945,8.153,14.2929],[-80.6872,8.1412,15.6405],[-80.6768,8.1354,11.0241],[-80.6702,8.1226,7.8749],[-80.6713,8.1191,11.215],[-80.6739,8.1178,15.5977],[-80.6679,8.1179,10.1083],[-80.6656,8.1202,8.4475],[-80.6548,8.1222,16.7985],[-80.6524,8.1193,11.1991],[-80.651,8.1132,12.2113],[-80.6468,8.1123,11.3551],[-80.6467,8.1071,9.4262],[-80.6413,8.1117,9.0184],[-80.6382,8.1113,9.9185],[-80.6346,8.115,13.9082],[-80.6291,8.1136,12.2947],[-80.6251,8.1185,10.9245],[-80.6232,8.1184,10.2131],[-80.6147,8.1245,4.7579],[-80.5906,8.126,6.1007],[-80.5855,8.1313,6.2911],[-80.5815,8.1317,6.232],[-80.5799,8.1302,4.3018],[-80.5803,8.1278,4.2435],[-80.5833,8.1241,4.2299],[-80.588,8.1239,6.0319],[-80.589,8.1192,6.7045],[-80.5785,8.116,2.7912],[-80.5723,8.125,3.0968],[-80.5678,8.1188,3.0837],[-80.5638,8.1202,2.7999],[-80.5625,8.1151,3.0525],[-80.5549,8.1074,5.839],[-80.5598,8.0933,8.116],[-80.5559,8.0871,2.7171],[-80.5505,8.0974,6.8297],[-80.5503,8.1032,3.1061],[-80.5467,8.1038,3.029],[-80.5402,8.1015,2.6903],[-80.538,8.1042,6.6531],[-80.5384,8.1104,2.6767],[-80.5356,8.1119,2.7338],[-80.5327,8.1106,2.2928],[-80.534,8.1051,4.863],[-80.5296,8.1059,2.2739],[-80.5265,8.1089,2.4259],[-80.5272,8.1128,2.5099],[-80.526,8.1139,2.5844],[-80.5237,8.1117,2.2925],[-80.5251,8.1024,3.5621],[-80.5189,8.103,3.1749],[-80.5191,8.099,8.1654],[-80.5174,8.0968,11.628],[-80.5138,8.0966,8.2588],[-80.511,8.0983,10.5049],[-80.5103,8.1013,1.6338],[-80.5115,8.1013,1.6338],[-80.509,8.1049,7.3846],[-80.5113,8.1101,2.621],[-80.5062,8.1129,1.5249],[-80.504,8.1107,1.7014],[-80.506,8.109,3.1064],[-80.5054,8.1062,9.8764],[-80.4979,8.1032,9.6344],[-80.4985,8.0971,7.8257],[-80.496,8.0938,7.3833],[-80.4854,8.0921,5.7936],[-80.4826,8.0935,0.0],[-80.479,8.099,0.0],[-80.4785,8.1035,0.0],[-80.4868,8.1312,2.1651],[-80.489,8.1568,0.0],[-80.4874,8.1765,0.0],[-80.4923,8.1724,3.1007],[-80.5002,8.1748,13.1908],[-80.5044,8.1788,2.8462],[-80.5075,8.1756,0.0],[-80.5134,8.1763,3.4384],[-80.5196,8.1731,0.4576],[-80.5249,8.1734,2.2007],[-80.5259,8.1704,8.6878],[-80.5235,8.1666,3.1066],[-80.5274,8.1619,10.9618],[-80.524,8.1606,10.7124],[-80.5232,8.1629,11.7742],[-80.5207,8.163,5.2275],[-80.5205,8.1583,0.9659],[-80.5246,8.1563,15.1134],[-80.5246,8.1521,0.0],[-80.5272,8.1517,0.0],[-80.5285,8.1522,0.0],[-80.528,8.1556,5.3652],[-80.5303,8.1559,19.4863],[-80.5312,8.1534,0.0],[-80.5337,8.1548,1.5997],[-80.5332,8.161,8.4338],[-80.535,8.1663,4.9867],[-80.5382,8.1699,1.2024],[-80.5414,8.1701,3.3521],[-80.5456,8.1661,8.0798],[-80.5505,8.165,1.8117],[-80.5545,8.1676,2.4923],[-80.5643,8.1666,2.3358],[-80.5732,8.1722,2.4981],[-80.5813,8.1734,66.9352],[-80.5836,8.1786,14.8068],[-80.5915,8.1789,4.0663],[-80.5945,8.1804,4.6405],[-80.5962,8.185,7.4126],[-80.5959,8.1909,5.9932]]]]}}