{"type":"Feature","properties":{"GID_3":"PAN.13.5.12_1","GID_0":"PAN","country":"Panama","GID_1":"PAN.13_1","province":"Veraguas","NL_NAME_1":"NA","GID_2":"PAN.13.5_1","county":"LasPalmas","NL_NAME_2":"NA","city":"Zapotillo","VARNAME_3":"NA","NL_NAME_3":"NA","TYPE_3":"Corregimiento","ENGTYPE_3":"Municipality","CC_3":"NA","HASC_3":"NA","name":"Zapotillo.city"},
"geometry":{"type": "MultiPolygon","coordinates": [[[[-81.4819,8.0715,342.786],[-81.4749,8.0865,544.6559],[-81.4757,8.0902,521.2241],[-81.4794,8.0921,496.3629],[-81.495,8.0849,436.0493],[-81.5022,8.0774,276.4899],[-81.5216,8.0691,198.8616],[-81.5184,8.0429,567.058],[-81.5284,8.016,116.3918],[-81.5319,8.01,69.9933],[-81.5429,8.0036,10.6033],[-81.5535,8.0003,6.3108],[-81.5718,8.0011,11.3474],[-81.5843,8.0075,67.0573],[-81.592,8.0075,3.9709],[-81.6026,7.9994,12.311],[-81.6074,7.9901,5.1104],[-81.6199,7.9807,3.4219],[-81.6243,7.979,0.0],[-81.6265,7.9696,10.3331],[-81.626,7.9668,0.0],[-81.6229,7.964,5.709],[-81.6185,7.9726,3.4847],[-81.6124,7.9749,3.7759],[-81.6115,7.9768,9.6376],[-81.6124,7.9737,21.5864],[-81.6182,7.9721,3.4847],[-81.6201,7.9671,11.5317],[-81.6193,7.9629,1.7577],[-81.6174,7.9635,1.7577],[-81.6165,7.966,12.7921],[-81.6118,7.9521,0.0],[-81.6132,7.9446,0.0],[-81.6085,7.939,7.4945],[-81.6038,7.9349,0.0],[-81.5993,7.9351,0.0],[-81.5979,7.9382,4.2444],[-81.6004,7.9424,27.0815],[-81.5963,7.936,2.569],[-81.5885,7.9354,12.3277],[-81.5735,7.9172,25.3998],[-81.5636,7.911,12.3002],[-81.5592,7.9062,13.1507],[-81.5517,7.9023,9.2543],[-81.5418,7.8928,20.4848],[-81.5314,7.8877,33.2234],[-81.5211,7.8856,32.2283],[-81.5052,7.876,56.2976],[-81.502,7.8715,73.2685],[-81.4985,7.8608,277.1242],[-81.4871,7.869,102.2646],[-81.4795,7.8923,372.1443],[-81.474,7.8996,427.7261],[-81.4665,7.9059,357.4734],[-81.4742,7.9199,404.8239],[-81.476,7.9378,182.5616],[-81.4807,7.9506,137.0071],[-81.4975,7.9629,106.2203],[-81.4985,7.9655,135.5835],[-81.4973,7.9682,150.904],[-81.4922,7.9721,160.4336],[-81.4727,7.9793,201.4147],[-81.4699,7.9861,360.4416],[-81.4699,7.9929,373.3971],[-81.4732,7.9981,248.268],[-81.4879,8.0011,183.1339],[-81.491,8.0031,146.193],[-81.4926,8.0068,120.4581],[-81.4901,8.0122,70.5974],[-81.4722,8.0285,193.3677],[-81.4657,8.0431,219.1179],[-81.468,8.0517,278.4579],[-81.4786,8.0641,326.1676],[-81.4819,8.0715,342.786]]]]}}