{"type": "Feature","bbox": [-81.8538,8.1299,-81.7246,8.3101],"geometry": {"type": "MultiPolygon","coordinates": [[[[-81.7607,8.1704,0.0],[-81.7624,8.1713,0.0],[-81.7643,8.1693,0.0],[-81.7601,8.1685,0.0],[-81.7607,8.1704,0.0]]],
[[[-81.7569,8.2129,10.7656],[-81.7567,8.2167,21.3424],[-81.7546,8.2176,29.987],[-81.7499,8.2152,12.9659],[-81.744,8.216,30.6685],[-81.741,8.2093,38.5328],[-81.7388,8.2086,54.1737],[-81.7341,8.215,39.468],[-81.728,8.2174,16.816],[-81.7257,8.2214,40.4812],[-81.7246,8.2307,182.271],[-81.7257,8.2396,145.1629],[-81.7295,8.2511,82.0152],[-81.7289,8.2662,72.0466],[-81.7316,8.2719,69.8713],[-81.7356,8.2681,100.351],[-81.7377,8.2627,160.7244],[-81.7453,8.2603,244.9308],[-81.746,8.2618,233.0485],[-81.7428,8.2662,176.4855],[-81.7395,8.2761,77.0092],[-81.7405,8.277,77.0092],[-81.7492,8.2745,185.6722],[-81.7614,8.2645,282.5522],[-81.7619,8.2618,329.9608],[-81.7584,8.2611,273.8591],[-81.7599,8.2585,248.324],[-81.7622,8.2581,245.1594],[-81.7636,8.2598,284.9088],[-81.7681,8.2603,295.1507],[-81.7686,8.2635,260.1702],[-81.7713,8.2663,165.6449],[-81.7668,8.2706,207.1158],[-81.7666,8.2727,206.2143],[-81.7685,8.2743,230.129],[-81.7756,8.2727,122.3635],[-81.7791,8.2735,198.6818],[-81.7832,8.2718,208.4776],[-81.7841,8.2688,208.5105],[-81.7859,8.2686,237.532],[-81.794,8.2712,125.3337],[-81.8026,8.2713,123.8315],[-81.8167,8.2872,114.407],[-81.8154,8.2916,132.3785],[-81.8109,8.2969,201.6098],[-81.8116,8.2991,270.8406],[-81.8171,8.3006,343.898],[-81.8242,8.2962,269.4082],[-81.8293,8.296,237.9946],[-81.8391,8.3026,158.4044],[-81.8385,8.3101,218.1857],[-81.8469,8.3075,109.7202],[-81.8496,8.2972,116.3271],[-81.849,8.2755,79.9149],[-81.8526,8.2709,60.6706],[-81.8538,8.2611,55.9123],[-81.8495,8.2512,38.8046],[-81.8455,8.2458,32.67],[-81.8425,8.245,33.1629],[-81.8419,8.2418,31.131],[-81.8311,8.2382,45.483],[-81.827,8.2398,23.4692],[-81.8247,8.2337,35.3983],[-81.8306,8.2269,42.46],[-81.8305,8.2253,41.2328],[-81.8209,8.2142,27.1526],[-81.8157,8.2016,16.7724],[-81.8155,8.1977,14.6189],[-81.8086,8.1906,14.2804],[-81.809,8.1867,12.9019],[-81.8137,8.18,6.4251],[-81.8227,8.1786,3.5724],[-81.8277,8.1719,3.6505],[-81.8284,8.1677,3.2824],[-81.8264,8.1604,13.6792],[-81.8293,8.1574,2.692],[-81.8068,8.1501,0.8498],[-81.8071,8.1524,0.0],[-81.8104,8.1532,0.8241],[-81.8135,8.1571,4.5874],[-81.8118,8.1574,7.001],[-81.804,8.1515,2.4864],[-81.8046,8.1488,3.1311],[-81.8024,8.1479,0.0],[-81.7999,8.1426,0.5273],[-81.7935,8.1371,3.9072],[-81.786,8.1332,0.7853],[-81.7743,8.1299,2.2779],[-81.7624,8.1315,1.0692],[-81.7582,8.1412,0.0],[-81.7601,8.1404,0.7938],[-81.7613,8.1382,0.5069],[-81.7637,8.139,1.0491],[-81.7643,8.1365,5.0357],[-81.7654,8.1382,0.0],[-81.761,8.1429,0.0],[-81.7615,8.1493,2.7639],[-81.7599,8.154,1.7411],[-81.7582,8.1557,2.0838],[-81.7562,8.1546,0.7944],[-81.7529,8.1596,0.0],[-81.751,8.1643,0.0],[-81.7515,8.169,0.0],[-81.7526,8.1699,0.0],[-81.7554,8.1676,0.0],[-81.7607,8.1668,0.0],[-81.7693,8.1674,0.0],[-81.7793,8.1763,1.3947],[-81.7679,8.1687,0.0],[-81.7632,8.1724,0.5049],[-81.7618,8.1799,0.0],[-81.7629,8.1854,1.8373],[-81.7596,8.1954,0.0],[-81.7623,8.1985,0.0],[-81.7621,8.202,2.3943],[-81.7588,8.2052,4.085],[-81.7569,8.2129,10.7656]]],
[[[-81.7515,8.1538,0.0],[-81.7532,8.1557,0.0],[-81.7546,8.1521,0.0],[-81.7515,8.1521,0.0],[-81.7515,8.1538,0.0]]],
[[[-81.7549,8.1879,0.9816],[-81.7571,8.1888,0.0],[-81.7593,8.1846,0.0],[-81.7579,8.1804,0.0],[-81.756,8.1801,0.4215],[-81.7576,8.1774,0.0],[-81.7543,8.1785,0.0],[-81.7549,8.1879,0.9816]]],
[[[-81.7593,8.1899,0.0],[-81.7607,8.1899,0.0],[-81.7613,8.1846,0.0],[-81.7596,8.1868,0.0],[-81.7593,8.1899,0.0]]]]}
,"properties": {"GID_2": "PAN.2.9_1","GID_0": "PAN","country": "Panama","GID_1": "PAN.2_1","province": "Chiriquí","NL_NAME_1": "NA","county": "Remedios","VARNAME_2": "NA","NL_NAME_2": "NA","TYPE_2": "Distrito","ENGTYPE_2": "District","CC_2": "NA","HASC_2": "PA.CH.RM","name": "Remedios.county","area_km2": 145.1902,"hist_schema_id": "Elevation0-9000","hist_area_km2": {"0": 52.0464,"25": 29.4619,"50": 15.2757,"75": 10.6592,"100": 9.2951,"125": 8.2879,"150": 6.0429,"175": 4.5741,"200": 3.2313,"225": 2.8746,"250": 1.6156,"275": 1.0071,"300": 0.4406,"325": 0.2728,"350": 0.1049}}}