{"type":"Feature","properties":{"GID_3":"PAN.13.9.6_1","GID_0":"PAN","country":"Panama","GID_1":"PAN.13_1","province":"Veraguas","NL_NAME_1":"NA","GID_2":"PAN.13.9_1","county":"SantaFe","NL_NAME_2":"NA","city":"RíoLuis","VARNAME_3":"NA","NL_NAME_3":"NA","TYPE_3":"Corregimiento","ENGTYPE_3":"Municipality","CC_3":"NA","HASC_3":"NA","name":"Río_Luis.city"},
"geometry":{"type": "MultiPolygon","coordinates": [[[[-81.2288,8.6842,130.244],[-81.2311,8.6766,68.693],[-81.2291,8.6701,91.1049],[-81.2312,8.6651,165.054],[-81.2272,8.6595,195.9751],[-81.2347,8.6508,176.6489],[-81.2354,8.6258,261.5116],[-81.2314,8.6176,296.5724],[-81.2351,8.5981,304.258],[-81.2324,8.5882,437.96],[-81.2285,8.5813,440.5497],[-81.2122,8.5594,501.7492],[-81.2051,8.5433,633.1887],[-81.2025,8.5328,564.16],[-81.2005,8.5307,645.4683],[-81.1836,8.534,457.7394],[-81.1776,8.5317,586.5483],[-81.1724,8.5256,681.41],[-81.1639,8.5341,733.5066],[-81.1615,8.5388,675.8864],[-81.1621,8.5429,667.3089],[-81.1684,8.5544,596.8631],[-81.1678,8.5634,746.1537],[-81.1642,8.57,819.2603],[-81.1479,8.5749,929.0584],[-81.1374,8.5853,851.3748],[-81.1247,8.5901,1167.7732],[-81.105,8.6028,1306.4562],[-81.0836,8.6094,1306.4508],[-81.077,8.6136,1187.7513],[-81.0446,8.6249,809.7222],[-81.0303,8.6279,1006.7713],[-81.0238,8.6276,934.9401],[-81.0239,8.6365,998.8331],[-81.0279,8.644,767.1151],[-81.0463,8.6576,574.0336],[-81.0657,8.6611,435.1347],[-81.0747,8.6709,403.6198],[-81.0875,8.703,174.436],[-81.0998,8.7176,200.6727],[-81.1028,8.7338,189.3394],[-81.1053,8.7359,70.3353],[-81.1299,8.728,238.898],[-81.141,8.7196,458.7778],[-81.1888,8.7332,223.8132],[-81.2048,8.7355,149.8952],[-81.2199,8.7438,16.668],[-81.2251,8.7313,61.5385],[-81.2227,8.7204,62.6834],[-81.2283,8.7113,93.0556],[-81.2257,8.707,70.5956],[-81.2166,8.7041,34.5685],[-81.2157,8.7004,80.922],[-81.2209,8.6947,91.0916],[-81.2214,8.6882,69.8944],[-81.2288,8.6842,130.244]]]]}}