{"type":"Feature","properties":{"GID_1":"PAN.7_1","GID_0":"PAN","country":"Panama","province":"Herrera","VARNAME_1":"NA","NL_NAME_1":"NA","TYPE_1":"Provincia","ENGTYPE_1":"Province","CC_1":"NA","HASC_1":"PA.HE","ISO_1":"PA-6","name":"Herrera.province"},
"geometry":{"type": "MultiPolygon","coordinates": [[[[-80.6157,7.6549,158.3852],[-80.6045,7.6512,136.2613],[-80.6015,7.6529,128.696],[-80.6003,7.6604,147.6469],[-80.5978,7.6625,145.1998],[-80.5937,7.6634,129.7225],[-80.5858,7.6612,120.5952],[-80.5784,7.6763,115.3434],[-80.5763,7.6863,114.9746],[-80.5687,7.6893,147.6137],[-80.5676,7.6977,184.4651],[-80.5639,7.7056,122.2391],[-80.5636,7.7123,85.9077],[-80.5662,7.7192,192.3043],[-80.5729,7.7279,156.094],[-80.5733,7.7365,130.696],[-80.569,7.74,154.9613],[-80.5686,7.7421,137.3575],[-80.5732,7.7438,114.8413],[-80.5745,7.74,112.1097],[-80.5776,7.7397,129.9911],[-80.5765,7.7489,137.3296],[-80.5798,7.7533,132.2102],[-80.5859,7.7534,126.4024],[-80.5919,7.7655,87.8338],[-80.5918,7.768,79.5124],[-80.5892,7.7708,70.1217],[-80.5925,7.7739,71.8462],[-80.5928,7.7802,147.391],[-80.5836,7.7876,80.9252],[-80.5838,7.789,83.3017],[-80.5866,7.7922,61.0636],[-80.5877,7.7967,60.946],[-80.5964,7.7937,129.1591],[-80.6002,7.8021,77.4102],[-80.592,7.8083,65.1721],[-80.5902,7.8143,58.1199],[-80.5872,7.8179,60.2169],[-80.583,7.8196,58.7917],[-80.5744,7.8174,63.7312],[-80.5721,7.8238,58.9518],[-80.5654,7.8242,59.5169],[-80.5625,7.8259,59.8228],[-80.5587,7.8345,64.2016],[-80.5549,7.8335,61.1846],[-80.5506,7.8295,53.7246],[-80.5372,7.8315,53.6733],[-80.541,7.8397,54.1156],[-80.5376,7.8465,38.907],[-80.538,7.8526,35.6111],[-80.5338,7.8584,47.337],[-80.5307,7.877,30.5725],[-80.5288,7.8798,32.5734],[-80.5236,7.8805,46.0629],[-80.522,7.8823,46.3456],[-80.5243,7.8892,31.5029],[-80.5227,7.8946,22.4106],[-80.5027,7.9092,38.8152],[-80.5019,7.9148,32.8619],[-80.4993,7.9183,30.959],[-80.488,7.9243,25.517],[-80.4757,7.937,26.6995],[-80.4699,7.938,19.7958],[-80.4624,7.9349,14.7165],[-80.4553,7.9226,17.7353],[-80.4549,7.9359,52.1118],[-80.4436,7.9298,49.6651],[-80.4398,7.9314,60.0268],[-80.438,7.9345,19.2541],[-80.4314,7.9344,15.1053],[-80.4201,7.9408,9.1926],[-80.4158,7.9388,14.0823],[-80.4104,7.9475,6.5],[-80.3974,7.953,6.7952],[-80.3972,7.9584,7.7471],[-80.3838,7.9718,5.5838],[-80.3848,7.9764,2.9547],[-80.3924,7.9802,4.7986],[-80.3938,7.9876,7.1191],[-80.3858,7.9945,8.8973],[-80.3723,7.9998,21.393],[-80.3701,8.0032,13.9013],[-80.3662,8.004,0.0],[-80.3715,8.0049,1.7043],[-80.3737,8.0024,6.139],[-80.3796,8.001,0.0],[-80.3826,7.9974,11.0187],[-80.3851,7.9982,0.0],[-80.3876,7.9962,2.1592],[-80.3868,7.9979,5.864],[-80.3932,8.0029,3.3818],[-80.399,8.0037,8.4439],[-80.4004,8.0018,7.1334],[-80.4032,8.0015,2.9864],[-80.4054,8.0062,3.9285],[-80.4157,8.0101,13.2469],[-80.4165,8.0121,0.0],[-80.424,8.0154,9.9793],[-80.4243,8.0176,1.9119],[-80.4296,8.0213,1.8477],[-80.4371,8.0215,5.4609],[-80.4393,8.0232,2.2278],[-80.4443,8.0224,1.2544],[-80.4493,8.0276,5.6834],[-80.449,8.0307,2.316],[-80.4576,8.0393,6.4293],[-80.4651,8.051,19.6196],[-80.4696,8.076,0.0],[-80.4737,8.0774,3.0609],[-80.4807,8.084,0.0],[-80.4832,8.0846,7.3904],[-80.4854,8.0896,0.0],[-80.4957,8.0918,0.9696],[-80.4996,8.0965,10.7677],[-80.499,8.1029,9.6344],[-80.506,8.1051,1.1884],[-80.5065,8.111,4.9206],[-80.5101,8.1099,8.2921],[-80.5085,8.1029,1.9633],[-80.5113,8.0979,10.5049],[-80.5146,8.0965,12.1146],[-80.5189,8.0984,15.8222],[-80.5189,8.103,3.1749],[-80.5251,8.1024,3.5621],[-80.5237,8.1102,1.4178],[-80.5248,8.1135,1.416],[-80.527,8.1135,2.5099],[-80.5264,8.1093,2.4259],[-80.5277,8.1072,2.4462],[-80.5326,8.105,2.2165],[-80.5344,8.106,5.1887],[-80.5329,8.1111,3.0193],[-80.5373,8.1115,3.5103],[-80.5387,8.1093,2.6767],[-80.5381,8.1038,6.6531],[-80.5398,8.1018,2.6903],[-80.5423,8.1012,2.7738],[-80.5471,8.1039,3.029],[-80.5506,8.103,3.1061],[-80.5505,8.0974,6.8297],[-80.5559,8.0871,2.7171],[-80.5598,8.0933,8.116],[-80.5549,8.1074,5.839],[-80.5625,8.1151,3.0525],[-80.5638,8.1202,2.7999],[-80.5678,8.1188,3.0837],[-80.5723,8.125,3.0968],[-80.5785,8.116,2.7912],[-80.589,8.1192,6.7045],[-80.588,8.1239,6.0319],[-80.5833,8.1241,4.2299],[-80.5803,8.1278,4.2435],[-80.5799,8.1302,4.3018],[-80.5815,8.1317,6.232],[-80.5855,8.1313,6.2911],[-80.5906,8.126,6.1007],[-80.6147,8.1245,4.7579],[-80.6232,8.1184,10.2131],[-80.6251,8.1185,10.9245],[-80.6291,8.1136,12.2947],[-80.6346,8.115,13.9082],[-80.6382,8.1113,9.9185],[-80.6413,8.1117,9.0184],[-80.6467,8.1071,9.4262],[-80.6468,8.1123,11.3551],[-80.651,8.1132,12.2113],[-80.6524,8.1193,11.1991],[-80.6552,8.1223,16.7985],[-80.6656,8.1202,8.4475],[-80.6682,8.1178,10.1083],[-80.6812,8.1169,21.116],[-80.7007,8.1254,22.159],[-80.7081,8.1263,20.9552],[-80.7198,8.121,32.5398],[-80.7258,8.1122,35.3772],[-80.7322,8.0914,47.3356],[-80.7355,8.089,47.1312],[-80.7456,8.0863,50.7927],[-80.7537,8.0744,61.4011],[-80.7689,8.0734,45.0129],[-80.7941,8.0623,69.1648],[-80.7979,8.0636,66.4917],[-80.8047,8.0627,45.1805],[-80.8111,8.0687,39.2453],[-80.8163,8.0676,37.7216],[-80.8192,8.0648,34.305],[-80.8228,8.0671,32.7827],[-80.8286,8.0646,41.6974],[-80.8357,8.0664,34.8499],[-80.8388,8.06,39.317],[-80.8423,8.0582,43.9459],[-80.8412,8.0524,39.4824],[-80.8369,8.0453,46.6668],[-80.8366,8.0401,49.5872],[-80.8342,8.0381,53.038],[-80.8358,8.0296,71.7868],[-80.8287,8.0273,55.4161],[-80.8256,8.0209,62.9413],[-80.8213,8.017,69.9508],[-80.8186,8.0047,86.3893],[-80.815,7.9991,90.0166],[-80.8285,7.9965,85.4228],[-80.8315,7.9913,75.0538],[-80.8344,7.9797,131.2384],[-80.8386,7.9803,132.7668],[-80.8398,7.9789,146.5909],[-80.8428,7.9634,153.4725],[-80.8548,7.9602,161.7543],[-80.8555,7.9571,165.7493],[-80.8663,7.9422,180.3199],[-80.8665,7.9374,187.4551],[-80.8687,7.9353,176.9461],[-80.8704,7.9287,174.9463],[-80.8706,7.9232,175.5373],[-80.8797,7.9247,179.3855],[-80.8918,7.9213,188.3687],[-80.9027,7.9268,204.6996],[-80.912,7.9229,220.8939],[-80.9157,7.923,234.1256],[-80.9195,7.9202,221.0334],[-80.9235,7.923,170.7984],[-80.9299,7.9232,128.6244],[-80.93,7.9198,136.0711],[-80.9282,7.9174,121.7052],[-80.9226,7.916,99.9794],[-80.919,7.9124,93.463],[-80.9155,7.9114,91.7715],[-80.9143,7.9089,101.5965],[-80.9206,7.9018,106.5743],[-80.9229,7.8862,83.6067],[-80.9257,7.8839,109.3089],[-80.9304,7.8736,141.2704],[-80.9322,7.8537,394.2226],[-80.9389,7.8297,395.7805],[-80.9373,7.8203,347.5767],[-80.9481,7.7993,151.8006],[-80.949,7.7785,165.247],[-80.9524,7.772,90.3105],[-80.9606,7.7714,85.1982],[-80.9633,7.765,81.0759],[-80.9602,7.7595,95.0526],[-80.9587,7.7607,85.9713],[-80.9258,7.7608,246.693],[-80.9005,7.744,319.4689],[-80.9006,7.7351,266.3656],[-80.9074,7.7311,203.6838],[-80.8995,7.6866,333.5586],[-80.8227,7.5575,330.9416],[-80.8086,7.5487,318.6183],[-80.7815,7.5422,561.5132],[-80.7707,7.5427,254.4516],[-80.7652,7.5412,477.7045],[-80.7562,7.5343,450.4529],[-80.7481,7.5201,637.0875],[-80.7361,7.5126,873.9518],[-80.7346,7.5101,816.6859],[-80.7294,7.5109,1048.8081],[-80.7265,7.5135,933.0363],[-80.6742,7.5772,241.2085],[-80.6399,7.6339,231.1667],[-80.6391,7.6429,217.7324],[-80.6336,7.6454,190.4732],[-80.6285,7.6513,191.8551],[-80.6216,7.6522,174.0727],[-80.6157,7.6549,158.3852]]]]}}