{"type": "Feature","id": "1338","bbox": [-80.94699,7.52959,-80.3755,8.13855],"geometry": {"type": "Polygon","coordinates": [[[-80.54947,8.10612,3.4818],[-80.55849,8.11284,6.8054],[-80.57732,8.13281,4.5565],[-80.59123,8.13855,3.7877],[-80.60973,8.13731,6.4008],[-80.64642,8.12529,6.3569],[-80.66275,8.12405,8.359],[-80.68701,8.1326,14.1331],[-80.70975,8.13072,15.51],[-80.71876,8.13297,23.9988],[-80.73238,8.13335,22.448],[-80.74204,8.12979,24.6045],[-80.7647,8.10255,35.0218],[-80.78096,8.08796,28.8191],[-80.81703,8.07362,34.3393],[-80.85356,8.05995,37.7342],[-80.83798,8.01589,69.0903],[-80.83919,8.00036,77.1426],[-80.84994,7.98083,98.2748],[-80.85777,7.96957,157.4375],[-80.88635,7.94435,129.7578],[-80.90741,7.92187,165.0145],[-80.93291,7.91541,112.8353],[-80.93774,7.91107,78.4602],[-80.94343,7.90146,85.7571],[-80.94699,7.78841,87.9302],[-80.94275,7.76583,109.9918],[-80.9195,7.7718,165.3358],[-80.90947,7.76769,135.0063],[-80.90477,7.76327,179.7914],[-80.89756,7.75325,308.8768],[-80.89167,7.73744,352.4169],[-80.88493,7.70865,475.4369],[-80.87922,7.69532,344.941],[-80.80206,7.58117,759.755],[-80.7723,7.56365,695.6919],[-80.75186,7.55923,520.9386],[-80.74574,7.55574,453.4524],[-80.71969,7.52959,572.1716],[-80.66461,7.58318,373.62],[-80.61394,7.6631,167.8721],[-80.6081,7.66824,133.2417],[-80.59528,7.66969,117.8701],[-80.58815,7.6725,110.4025],[-80.57988,7.67894,120.1209],[-80.56735,7.6908,145.5235],[-80.55678,7.70888,113.4033],[-80.55286,7.72206,112.4852],[-80.55311,7.73356,107.2351],[-80.55428,7.74116,96.6928],[-80.55758,7.74891,122.5949],[-80.57053,7.76606,67.7132],[-80.57329,7.77351,71.2709],[-80.57482,7.7825,154.0921],[-80.57451,7.78965,184.2886],[-80.57539,7.80531,83.3663],[-80.57996,7.81131,71.4005],[-80.57877,7.81526,67.1129],[-80.57378,7.82146,70.8084],[-80.56066,7.82952,57.602],[-80.54624,7.84133,52.9143],[-80.53454,7.85583,38.0459],[-80.5042,7.91122,37.8985],[-80.49141,7.92342,29.7997],[-80.45901,7.93257,8.9003],[-80.42751,7.93125,15.7565],[-80.41475,7.93396,17.05],[-80.40447,7.94187,15.6048],[-80.39307,7.95693,3.7444],[-80.38868,7.97522,3.3498],[-80.38196,7.98347,4.3757],[-80.37553,7.99716,15.6342],[-80.3755,7.99722,15.6342],[-80.3826,7.99934,0.3684],[-80.39428,8.00764,0.0],[-80.4324,8.02424,0.0],[-80.44717,8.02729,0.0],[-80.45608,8.0362,14.2268],[-80.46093,8.05573,0.0],[-80.46817,8.07486,0.0],[-80.48441,8.08255,27.1078],[-80.47846,8.09138,0.0],[-80.47845,8.0914,0.0],[-80.49144,8.09519,27.1575],[-80.51456,8.11051,2.3973],[-80.52645,8.11638,2.5524],[-80.53218,8.11534,9.123],[-80.54355,8.10674,3.7907],[-80.54947,8.10612,3.4818]]]}
,"properties": {"ISO3166-1-Alpha-3": "PAN","country": "Panama","fill": "#F0F","name": "Herrera","area_km2": 2378.201,"hist_schema_id": "Elevation0-9000","hist_area_km2": {"0": 180.246,"25": 299.679,"50": 282.783,"75": 221.056,"100": 136.738,"125": 148.293,"150": 123.558,"175": 93.992,"200": 72.154,"225": 62.179,"250": 58.757,"275": 61.301,"300": 67.73,"325": 67.478,"350": 63.865,"375": 49.098,"400": 41.326,"425": 34.583,"450": 31.433,"475": 30.488,"500": 29.795,"525": 28.03,"550": 27.737,"575": 25.825,"600": 23.387,"625": 21.58,"650": 19.311,"675": 16.684,"700": 14.373,"725": 10.717,"750": 9.057,"775": 7.796,"800": 6.473,"825": 4.434,"850": 2.291,"875": 1.408,"900": 0.82,"925": 0.462,"950": 0.357,"975": 0.336,"1000": 0.336,"1025": 0.189,"1050": 0.063}}}