{"type":"Feature","properties":{"GID_3":"PAN.10.4.3_1","GID_0":"PAN","country":"Panama","GID_1":"PAN.10_1","province":"NgöbeBuglé","NL_NAME_1":"NA","GID_2":"PAN.10.4_1","county":"Mironó","NL_NAME_2":"NA","city":"HatoCulantro","VARNAME_3":"NA","NL_NAME_3":"NA","TYPE_3":"Corregimiento","ENGTYPE_3":"Municipality","CC_3":"NA","HASC_3":"NA","name":"Hato_Culantro.city"},
"geometry":{"type": "MultiPolygon","coordinates": [[[[-81.8969,8.424,246.0442],[-81.8862,8.4172,370.9438],[-81.881,8.4157,447.6796],[-81.8596,8.4215,920.6712],[-81.839,8.4175,701.8788],[-81.8366,8.4208,839.7351],[-81.8238,8.4197,721.9631],[-81.8121,8.4227,355.6761],[-81.8008,8.4234,315.9333],[-81.7943,8.4262,392.8969],[-81.805,8.4433,545.8182],[-81.8161,8.4512,303.6033],[-81.8469,8.4897,584.1906],[-81.8512,8.4922,626.7405],[-81.8612,8.4927,674.1448],[-81.869,8.4982,616.9561],[-81.8819,8.4966,768.4227],[-81.889,8.4934,984.5523],[-81.9067,8.4768,868.5033],[-81.8953,8.4683,704.3195],[-81.8933,8.4476,498.1663],[-81.9007,8.4346,360.7255],[-81.8969,8.424,246.0442]]]]}}