{"type":"Feature","properties":{"GID_3":"PAN.13.2.1_1","GID_0":"PAN","country":"Panama","GID_1":"PAN.13_1","province":"Veraguas","NL_NAME_1":"NA","GID_2":"PAN.13.2_1","county":"Calobre","NL_NAME_2":"NA","city":"Barnizal","VARNAME_3":"NA","NL_NAME_3":"NA","TYPE_3":"Corregimiento","ENGTYPE_3":"Municipality","CC_3":"NA","HASC_3":"NA","name":"Barnizal.city"},
"geometry":{"type": "MultiPolygon","coordinates": [[[[-80.7393,8.4262,201.8949],[-80.7798,8.4328,448.5858],[-80.7861,8.4306,540.0295],[-80.7896,8.4265,659.6704],[-80.7926,8.4214,604.8623],[-80.7808,8.4101,310.3376],[-80.7783,8.4051,326.0711],[-80.7786,8.4012,325.8909],[-80.785,8.3858,181.0695],[-80.7811,8.3667,186.6966],[-80.7523,8.3852,178.6855],[-80.7129,8.3876,149.8187],[-80.7359,8.4126,193.2811],[-80.7393,8.4262,201.8949]]]]}}