{"type": "Feature","bbox": [-79.3434,9.485,-79.2759,9.5768],"geometry": {"type": "MultiPolygon","coordinates": [[[[-79.3207,9.5768,0.9465],[-79.3239,9.5755,15.1254],[-79.3252,9.5715,33.2443],[-79.3168,9.5609,12.8987],[-79.3173,9.5571,15.376],[-79.3198,9.5539,41.2146],[-79.326,9.552,49.729],[-79.327,9.5457,44.7804],[-79.3342,9.5344,60.0341],[-79.3348,9.5281,82.7491],[-79.3368,9.5275,82.3491],[-79.3425,9.5298,129.9074],[-79.3434,9.5287,119.9523],[-79.3377,9.5109,116.3214],[-79.3316,9.4992,193.2876],[-79.3338,9.485,160.265],[-79.3266,9.4876,138.6467],[-79.3234,9.4911,134.3568],[-79.3177,9.4933,105.5295],[-79.3086,9.5001,129.8426],[-79.3004,9.4988,57.9915],[-79.2962,9.5027,65.8632],[-79.2901,9.504,34.2057],[-79.286,9.5116,32.835],[-79.2792,9.5124,79.015],[-79.2788,9.5189,30.0799],[-79.2759,9.5265,57.3811],[-79.277,9.5342,47.5834],[-79.2946,9.5495,33.8286],[-79.3047,9.5657,1.0346],[-79.3082,9.5657,1.2656],[-79.3107,9.5621,6.7788],[-79.3082,9.5682,0.0],[-79.3207,9.5768,0.9465]]]]}
,"properties": {"GID_3": "PAN.4.6.1_1","GID_0": "PAN","country": "Panama","GID_1": "PAN.4_1","province": "Colón","NL_NAME_1": "NA","GID_2": "PAN.4.6_1","county": "SantaIsabel","NL_NAME_2": "NA","city": "Cuango","VARNAME_3": "NA","NL_NAME_3": "NA","TYPE_3": "Corregimiento","ENGTYPE_3": "Municipality","CC_3": "NA","HASC_3": "NA","name": "Cuango.city","area_km2": 39.14305,"hist_schema_id": "Elevation0-9000","hist_area_km2": {"0": 5.28977,"25": 10.18269,"50": 7.44386,"75": 5.18575,"100": 3.72209,"125": 2.61385,"150": 1.77745,"175": 1.02465,"200": 0.89919,"225": 0.52279,"250": 0.31367,"275": 0.16729}}}