{"type":"Feature","properties":{"GID_3":"PAN.11.4.13_1","GID_0":"PAN","country":"Panama","GID_1":"PAN.11_1","province":"PanamáOeste","NL_NAME_1":"NA","GID_2":"PAN.11.4_1","county":"LaChorrera","NL_NAME_2":"NA","city":"LosDíaz","VARNAME_3":"NA","NL_NAME_3":"NA","TYPE_3":"Corregimiento","ENGTYPE_3":"Municipality","CC_3":"NA","HASC_3":"NA","name":"Los_Díaz.city"},
"geometry":{"type": "MultiPolygon","coordinates": [[[[-79.9226,8.8208,226.0531],[-79.9107,8.8078,126.1056],[-79.9051,8.8084,221.8249],[-79.8998,8.8146,108.7284],[-79.8969,8.8148,114.1923],[-79.8863,8.8419,126.561],[-79.8962,8.8459,106.5521],[-79.9103,8.859,91.5794],[-79.9258,8.8829,105.8822],[-79.9311,8.885,132.8401],[-79.9392,8.8841,159.2061],[-79.939,8.8714,191.2648],[-79.9448,8.8579,170.1899],[-79.9383,8.835,169.3682],[-79.939,8.8206,180.3798],[-79.934,8.8185,213.1027],[-79.9226,8.8208,226.0531]]]]}}