{"type": "Feature","bbox": [-81.8105,8.2147,-81.7605,8.2794],"geometry": {"type": "MultiPolygon","coordinates": [[[[-81.7688,8.2612,299.4339],[-81.7681,8.2624,260.1702],[-81.7713,8.2665,165.6449],[-81.7668,8.2706,207.1158],[-81.7666,8.2727,206.2143],[-81.7685,8.2743,230.129],[-81.7756,8.2727,122.3635],[-81.7791,8.2735,198.6818],[-81.7832,8.2718,208.4776],[-81.7841,8.2688,208.5105],[-81.7873,8.2686,235.0589],[-81.794,8.2712,125.3337],[-81.8026,8.2713,123.8315],[-81.8101,8.2794,122.0157],[-81.8092,8.2689,84.4089],[-81.8048,8.262,41.9156],[-81.8021,8.2526,39.0769],[-81.8088,8.2447,22.1382],[-81.808,8.2321,49.5632],[-81.8105,8.2175,5.3728],[-81.8046,8.2169,9.5404],[-81.8021,8.2147,7.2891],[-81.7977,8.227,12.7822],[-81.7857,8.2318,16.3754],[-81.7773,8.2227,9.1944],[-81.7738,8.2212,6.9529],[-81.7717,8.2215,6.4818],[-81.7679,8.2272,12.2783],[-81.7628,8.223,3.5544],[-81.7605,8.226,12.2059],[-81.7606,8.2287,7.8295],[-81.7631,8.2324,8.8086],[-81.766,8.2331,16.3483],[-81.772,8.2522,120.2835],[-81.7688,8.2612,299.4339]]]]}
,"properties": {"GID_3": "PAN.2.9.5_1","GID_0": "PAN","country": "Panama","GID_1": "PAN.2_1","province": "Chiriquí","NL_NAME_1": "NA","GID_2": "PAN.2.9_1","county": "Remedios","NL_NAME_2": "NA","city": "SantaLucía","VARNAME_3": "NA","NL_NAME_3": "NA","TYPE_3": "Corregimiento","ENGTYPE_3": "Municipality","CC_3": "NA","HASC_3": "NA","name": "Santa_Lucía.city","area_km2": 22.97633,"hist_schema_id": "Elevation0-9000","hist_area_km2": {"0": 3.52529,"25": 5.56063,"50": 3.63006,"75": 3.06347,"100": 2.392,"125": 2.03527,"150": 0.79731,"175": 0.67142,"200": 0.54553,"225": 0.39866,"250": 0.14687,"275": 0.12589,"300": 0.04196,"325": 0.04196}}}