{"type": "Feature","bbox": [-80.3141,8.2957,-80.2342,8.5038],"geometry": {"type": "MultiPolygon","coordinates": [[[[-80.2518,8.3015,4.9946],[-80.256,8.3077,8.9131],[-80.2566,8.3122,7.0953],[-80.2521,8.3167,5.8703],[-80.2518,8.3197,2.666],[-80.2549,8.3231,3.2349],[-80.2535,8.3343,6.1967],[-80.2521,8.336,9.7554],[-80.2541,8.3391,7.6622],[-80.2535,8.3453,9.2574],[-80.2557,8.3481,10.0804],[-80.2518,8.3495,10.5575],[-80.2414,8.3489,10.4186],[-80.2412,8.3517,10.3652],[-80.2437,8.3556,11.0485],[-80.2414,8.3565,11.2029],[-80.2417,8.3609,12.9645],[-80.2367,8.3615,13.7648],[-80.2342,8.3744,21.159],[-80.2353,8.3803,16.4928],[-80.2471,8.3909,24.3898],[-80.2496,8.3999,31.198],[-80.2482,8.4047,31.9001],[-80.2392,8.4064,42.0165],[-80.2381,8.408,42.1564],[-80.2395,8.4128,49.2974],[-80.2347,8.4156,49.332],[-80.2386,8.4246,49.8564],[-80.2347,8.4288,52.7372],[-80.2353,8.4498,68.8547],[-80.237799999999993,8.4512,67.9875],[-80.2368,8.454,74.4849],[-80.2411,8.4575,44.2709],[-80.2401,8.4668,85.7977],[-80.2433,8.4739,91.6371],[-80.2393,8.4853,104.9791],[-80.2375,8.5038,138.4691],[-80.2451,8.4975,118.0463],[-80.2495,8.4967,110.2817],[-80.25,8.4938,106.3405],[-80.2535,8.4907,107.8945],[-80.2617,8.4883,97.5273],[-80.263,8.473,80.5058],[-80.2687,8.4686,68.9586],[-80.27,8.465,53.9371],[-80.2652,8.4562,68.8738],[-80.2728,8.4476,51.5554],[-80.2744,8.4373,40.5962],[-80.2725,8.4316,46.8321],[-80.2778,8.4255,41.0523],[-80.2736,8.4205,42.4623],[-80.28,8.4104,33.8241],[-80.2804,8.4023,27.2434],[-80.2849,8.3964,22.1313],[-80.2812,8.3798,21.9721],[-80.2846,8.3762,17.9],[-80.2869,8.3702,19.392],[-80.2923,8.3668,15.1124],[-80.2953,8.3589,12.083],[-80.3092,8.3483,8.1425],[-80.3135,8.3243,7.7829],[-80.3127,8.3118,18.7143],[-80.3141,8.3046,0.0],[-80.3068,8.3051,0.0],[-80.3057,8.3071,4.8466],[-80.3037,8.3054,0.0],[-80.2946,8.3049,1.9407],[-80.2885,8.3021,11.4045],[-80.2899,8.2985,0.0],[-80.3015,8.3001,3.3567],[-80.3043,8.2971,3.3571],[-80.3063,8.2982,3.0765],[-80.3046,8.2963,1.5879],[-80.2971,8.2957,0.0],[-80.2832,8.2979,0.0],[-80.2724,8.3015,0.0],[-80.2671,8.3007,3.2992],[-80.2635,8.3018,4.872],[-80.2599,8.2999,0.0],[-80.2518,8.3015,4.9946]]]]}
,"properties": {"GID_3": "PAN.3.2.1_1","GID_0": "PAN","country": "Panama","GID_1": "PAN.3_1","province": "Coclé","NL_NAME_1": "NA","GID_2": "PAN.3.2_1","county": "Antón","NL_NAME_2": "NA","city": "Antón","VARNAME_3": "NA","NL_NAME_3": "NA","TYPE_3": "Corregimiento","ENGTYPE_3": "Municipality","CC_3": "NA","HASC_3": "NA","name": "Antón.city","area_km2": 101.43866,"hist_schema_id": "Elevation0-9000","hist_area_km2": {"0": 32.20179,"25": 40.14866,"50": 16.65249,"75": 7.40289,"100": 3.92144,"125": 1.09042,"150": 0.02097}}}