{"type":"Feature","properties":{"GID_3":"PAN.10.1.5_1","GID_0":"PAN","country":"Panama","GID_1":"PAN.10_1","province":"NgöbeBuglé","NL_NAME_1":"NA","GID_2":"PAN.10.1_1","county":"Besiko","NL_NAME_2":"NA","city":"EmplanadadeChorcha","VARNAME_3":"NA","NL_NAME_3":"NA","TYPE_3":"Corregimiento","ENGTYPE_3":"Municipality","CC_3":"NA","HASC_3":"NA","name":"Emplanadade_Chorcha.city"},
"geometry":{"type": "MultiPolygon","coordinates": [[[[-82.1802,8.4717,153.2525],[-82.1758,8.463,282.2453],[-82.1846,8.4499,235.4],[-82.1822,8.4442,183.9106],[-82.1711,8.4429,98.4021],[-82.162,8.4447,134.6337],[-82.1578,8.4479,130.3886],[-82.1497,8.4474,198.8315],[-82.1445,8.4495,161.8168],[-82.1388,8.4476,216.9328],[-82.1366,8.4509,156.5088],[-82.1297,8.4496,197.1625],[-82.1228,8.4546,229.2417],[-82.1206,8.4639,322.7117],[-82.1257,8.4793,647.6285],[-82.1324,8.5283,502.8205],[-82.1311,8.5365,517.8057],[-82.1266,8.5447,544.7215],[-82.132,8.5475,551.1768],[-82.1351,8.5517,475.4438],[-82.1388,8.5509,405.224],[-82.1411,8.5465,410.8024],[-82.1446,8.5445,333.6873],[-82.1475,8.5339,302.485],[-82.1504,8.5295,268.0107],[-82.1614,8.5288,493.928],[-82.1612,8.5308,499.1903],[-82.1659,8.5311,499.6064],[-82.1536,8.5201,293.7339],[-82.1524,8.512,272.6756],[-82.1541,8.5082,227.2154],[-82.164,8.5026,318.9653],[-82.1663,8.4946,295.3059],[-82.1768,8.4847,183.8075],[-82.1802,8.4717,153.2525]]],
[[[-82.1607,8.5711,821.2347],[-82.1614,8.5689,788.6628],[-82.1481,8.5653,438.0328],[-82.1443,8.555,337.2908],[-82.1418,8.5556,380.6918],[-82.1375,8.5607,509.3406],[-82.1301,8.5627,612.8518],[-82.1277,8.5589,708.0396],[-82.1266,8.5447,544.7215],[-82.1226,8.5505,529.6387],[-82.1159,8.5799,746.7916],[-82.1207,8.5963,1229.7737],[-82.1188,8.6088,1522.2246],[-82.1214,8.6204,1760.4207],[-82.1191,8.6351,1811.3933],[-82.1133,8.6475,1935.1083],[-82.1184,8.6559,1516.7809],[-82.1189,8.6596,1468.0742],[-82.1122,8.6678,1629.2241],[-82.1085,8.6792,1433.4598],[-82.1125,8.6915,1619.3352],[-82.1114,8.6986,1618.9363],[-82.1099,8.7019,1595.3451],[-82.1016,8.7092,1133.9167],[-82.0951,8.7216,910.0334],[-82.0935,8.7279,988.1096],[-82.0934,8.7352,1069.8865],[-82.1007,8.7435,918.8241],[-82.101,8.7547,1130.6688],[-82.1284,8.7595,1211.2317],[-82.147,8.7598,1139.9274],[-82.1444,8.6561,1962.3651],[-82.1494,8.617,1048.2841],[-82.1467,8.6121,875.636],[-82.1466,8.6006,728.8207],[-82.1515,8.5855,543.9456],[-82.1582,8.5842,663.8329],[-82.1607,8.5711,821.2347]]]]}}