{"type":"Feature","properties":{"GID_3":"PAN.9.7.9_1","GID_0":"PAN","country":"Panama","GID_1":"PAN.9_1","province":"LosSantos","NL_NAME_1":"NA","GID_2":"PAN.9.7_1","county":"Tonosí","NL_NAME_2":"NA","city":"LaTronosa","VARNAME_3":"NA","NL_NAME_3":"NA","TYPE_3":"Corregimiento","ENGTYPE_3":"Municipality","CC_3":"NA","HASC_3":"NA","name":"La_Tronosa.city"},
"geometry":{"type": "MultiPolygon","coordinates": [[[[-80.6101,7.4675,89.6504],[-80.6054,7.4547,88.3579],[-80.6069,7.4503,97.0393],[-80.6056,7.4462,101.5534],[-80.6135,7.4337,232.2213],[-80.6166,7.4323,217.8626],[-80.6241,7.4331,138.9381],[-80.6266,7.4311,124.7909],[-80.6245,7.4131,179.8921],[-80.6167,7.4038,328.6497],[-80.6065,7.4014,576.9706],[-80.6087,7.3972,562.6497],[-80.6076,7.392,634.6723],[-80.6105,7.3858,885.9803],[-80.6095,7.3788,771.7464],[-80.6114,7.3702,635.1624],[-80.6011,7.372,466.8288],[-80.5835,7.3848,281.2234],[-80.5799,7.3913,420.721],[-80.5439,7.4299,122.3596],[-80.5423,7.4408,35.1076],[-80.5332,7.4421,36.2709],[-80.542,7.4692,123.9646],[-80.5253,7.4744,285.2353],[-80.5178,7.4807,383.1019],[-80.506,7.486,353.9239],[-80.5035,7.4888,371.5927],[-80.5233,7.4899,292.3342],[-80.53,7.4923,286.7662],[-80.5324,7.495,397.6947],[-80.5377,7.495,298.209],[-80.5511,7.4863,66.1531],[-80.5566,7.4854,81.5452],[-80.5607,7.4821,134.0605],[-80.5787,7.4746,62.8566],[-80.5873,7.4778,73.4418],[-80.5963,7.4736,81.8581],[-80.6045,7.4795,86.1385],[-80.6101,7.4675,89.6504]]]]}}