{"type": "Feature","bbox": [-80.4856,7.9653,-80.4124,8.0257],"geometry": {"type": "MultiPolygon","coordinates": [[[[-80.4423,7.9653,37.8517],[-80.4352,7.9705,34.4046],[-80.4284,7.9697,24.1703],[-80.4183,7.9784,16.6579],[-80.4164,7.9836,10.6558],[-80.4162,7.9966,8.3895],[-80.4124,8.009,3.3802],[-80.424,8.0154,9.9793],[-80.4243,8.0176,1.9119],[-80.4296,8.0213,1.8477],[-80.4371,8.0215,5.4609],[-80.4393,8.0232,2.2278],[-80.4443,8.0224,1.2544],[-80.4465,8.0257,2.5003],[-80.4507,8.0165,3.0998],[-80.4554,8.0145,1.5],[-80.4569,8.017,6.2797],[-80.4545,8.022,2.0331],[-80.4574,8.0247,11.0435],[-80.4615,8.0155,19.2892],[-80.459,8.0121,1.5],[-80.4625,8.0115,1.8458],[-80.4671,8.0079,34.8843],[-80.4696,8.0023,2.9682],[-80.4745,8.001,3.3329],[-80.4856,7.9837,6.957],[-80.4841,7.9805,6.4596],[-80.4814,7.9805,11.4027],[-80.4712,7.9926,7.263],[-80.466,7.9914,12.613],[-80.4637,7.9901,19.5975],[-80.4588,7.9796,25.7826],[-80.4423,7.9653,37.8517]]]]}
,"properties": {"GID_3": "PAN.7.1.4_1","GID_0": "PAN","country": "Panama","GID_1": "PAN.7_1","province": "Herrera","NL_NAME_1": "NA","GID_2": "PAN.7.1_1","county": "Chitré","NL_NAME_2": "NA","city": "Monagrillo","VARNAME_3": "NA","NL_NAME_3": "NA","TYPE_3": "Corregimiento","ENGTYPE_3": "Municipality","CC_3": "NA","HASC_3": "NA","name": "Monagrillo.city","area_km2": 29.81443,"hist_schema_id": "Elevation0-9000","hist_area_km2": {"0": 16.58658,"25": 12.34597,"50": 0.88188}}}