{"type":"Feature","properties":{"GID_3":"PAN.12.2.8_1","GID_0":"PAN","country":"Panama","GID_1":"PAN.12_1","province":"Panamá","NL_NAME_1":"NA","GID_2":"PAN.12.2_1","county":"Chepo","NL_NAME_2":"NA","city":"Tortí","VARNAME_3":"NA","NL_NAME_3":"NA","TYPE_3":"Corregimiento","ENGTYPE_3":"Municipality","CC_3":"NA","HASC_3":"NA","name":"Tortí.city"},
"geometry":{"type": "MultiPolygon","coordinates": [[[[-78.1189,8.9366,138.1883],[-78.109,8.9464,129.9025],[-78.1072,8.9632,151.3814],[-78.112799999999993,8.9778,192.6017],[-78.1074,8.9888,138.2388],[-78.1024,8.9931,148.3436],[-78.112799999999993,9.0087,176.1879],[-78.1206,9.0138,209.3287],[-78.1242,9.0131,170.9253],[-78.1293,9.009,197.6996],[-78.1707,8.9569,102.8468],[-78.1724,8.9381,110.5928],[-78.176,8.9289,119.6054],[-78.19,8.9191,108.2176],[-78.2049,8.9136,97.7597],[-78.2218,8.9177,112.8602],[-78.2388,8.9273,110.4996],[-78.2472,8.9291,109.3153],[-78.2673,8.9377,101.9984],[-78.2918,8.9404,108.8551],[-78.3065,8.936,90.6828],[-78.3172,8.9356,100.2859],[-78.3385,8.9382,94.2363],[-78.3524,8.9376,100.4771],[-78.3667,8.9417,116.5843],[-78.4269,8.9456,172.8413],[-78.4901,8.9732,147.3721],[-78.5185,8.991,93.1373],[-78.5234,8.9974,80.2762],[-78.5324,9.0036,73.7241],[-78.532,9.009,67.0655],[-78.5253,9.0162,71.8047],[-78.5254,9.0266,68.3317],[-78.529,9.0312,70.0271],[-78.5418,9.0391,78.1519],[-78.5433,9.0425,87.6952],[-78.5434,9.0503,74.7971],[-78.5471,9.0504,81.8102],[-78.5492,9.054,79.2494],[-78.5536,9.0569,70.2446],[-78.5527,9.0622,70.8554],[-78.5489,9.0671,68.1027],[-78.5518,9.0702,58.9808],[-78.5629,9.0691,55.5],[-78.5756,9.0723,71.9964],[-78.5811,9.0598,87.8038],[-78.5883,9.0619,89.2155],[-78.6242,9.0641,75.6483],[-78.6381,9.0744,85.9807],[-78.6529,9.0796,77.1743],[-78.6568,9.0721,83.3039],[-78.6604,9.0708,86.9275],[-78.667,9.0712,72.2864],[-78.6717,9.0751,80.0501],[-78.6731,9.0857,71.0816],[-78.6859,9.0934,67.2659],[-78.6957,9.0976,55.5],[-78.6954,9.0963,55.5],[-78.6965,9.0965,55.5],[-78.6979,9.0999,57.3913],[-78.6999,9.1001,58.2794],[-78.7007,9.0982,61.5075],[-78.7004,9.101,58.5387],[-78.7043,9.1043,55.5],[-78.7046,9.1021,57.9214],[-78.7079,9.1021,56.3442],[-78.706,9.1046,56.4177],[-78.7074,9.1099,55.5],[-78.7096,9.1107,55.5],[-78.7115,9.1085,56.779],[-78.711,9.1112,57.3617],[-78.7146,9.1135,55.5],[-78.7162,9.1132,55.5],[-78.7165,9.1087,58.2683],[-78.7182,9.109,55.5],[-78.7179,9.1126,55.5],[-78.7201,9.1124,63.8237],[-78.7174,9.1143,55.5],[-78.7207,9.1157,58.165],[-78.7221,9.1182,55.5],[-78.7224,9.1154,56.9724],[-78.7237,9.1151,56.9724],[-78.7229,9.1121,56.567],[-78.726,9.1129,55.5],[-78.7276,9.111,57.3206],[-78.7276,9.1149,56.406],[-78.7299,9.1174,56.0212],[-78.7249,9.1174,60.0369],[-78.724,9.1188,55.5],[-78.7279,9.1254,55.5],[-78.731,9.1249,55.5],[-78.7296,9.1238,55.5],[-78.731,9.1226,55.5],[-78.7299,9.1207,55.5],[-78.7324,9.1162,55.5],[-78.7301,9.1087,60.0817],[-78.7318,9.109,55.5],[-78.7326,9.1057,55.5],[-78.7307,9.1071,59.4716],[-78.7288,9.1062,56.3392],[-78.7315,9.1026,57.3039],[-78.7285,9.101,57.3278],[-78.7296,9.0976,56.0799],[-78.7251,9.0979,58.905],[-78.7254,9.0943,59.0479],[-78.7218,9.094,60.7919],[-78.7237,9.0904,55.5],[-78.7201,9.0913,59.6413],[-78.7215,9.0876,60.402],[-78.724,9.0885,62.5558],[-78.726,9.0846,69.5013],[-78.7246,9.0821,60.604],[-78.7215,9.0821,60.7302],[-78.7235,9.0818,59.2762],[-78.7254,9.0785,64.0747],[-78.7296,9.0779,58.7579],[-78.7288,9.0815,59.2624],[-78.7332,9.081,58.2197],[-78.7346,9.0854,60.2076],[-78.7371,9.0837,69.2038],[-78.7376,9.0865,57.1568],[-78.739,9.0865,58.6221],[-78.739,9.0918,57.67],[-78.741,9.0918,56.0128],[-78.7412,9.0879,55.9678],[-78.7363,9.0771,60.6307],[-78.7404,9.0812,56.4292],[-78.7407,9.0843,55.5],[-78.7438,9.0801,65.146],[-78.7465,9.0807,56.6894],[-78.7468,9.0849,57.5507],[-78.7507,9.0824,59.1889],[-78.7524,9.0846,55.5],[-78.7557,9.0851,60.0163],[-78.7604,9.0818,63.8448],[-78.7576,9.0793,60.2171],[-78.7576,9.0763,56.0492],[-78.7562,9.0763,62.2492],[-78.7587,9.0757,56.0492],[-78.7635,9.061,72.1118],[-78.764,9.0542,112.4878],[-78.7621,9.0465,61.4479],[-78.766,9.0386,91.4012],[-78.7663,9.0287,229.502],[-78.7699,9.0248,217.945],[-78.7788,9.0206,128.9851],[-78.7858,9.0087,174.7352],[-78.8106,8.9867,385.1251],[-78.7998,8.9866,307.9244],[-78.7923,8.9839,248.1095],[-78.7936,8.9777,252.0542],[-78.7917,8.9767,284.0035],[-78.7869,8.9658,325.6673],[-78.7807,8.9573,527.4761],[-78.7656,8.9265,357.1183],[-78.7633,8.9177,329.7848],[-78.7599,8.915,242.3007],[-78.7405,8.9104,90.1426],[-78.7352,8.9146,73.5769],[-78.7263,8.9154,101.1733],[-78.7212,8.9183,174.0876],[-78.6976,8.9126,184.1341],[-78.6763,8.9202,194.5768],[-78.6673,8.9209,255.1366],[-78.6572,8.9265,610.8134],[-78.6512,8.925,696.0935],[-78.6451,8.9184,366.1806],[-78.6411,8.917,440.9078],[-78.6368,8.9179,680.7421],[-78.6201,8.9271,829.7478],[-78.6099,8.926,440.7713],[-78.6102,8.9135,370.6128],[-78.6054,8.9051,341.2481],[-78.5897,8.8988,229.2527],[-78.5845,8.889,267.8732],[-78.5805,8.8863,302.3693],[-78.5654,8.8816,678.3074],[-78.5603,8.8779,679.4028],[-78.5533,8.8549,558.3486],[-78.5539,8.8315,493.2094],[-78.5521,8.827,576.4177],[-78.5415,8.8232,504.3306],[-78.5409,8.8273,470.662],[-78.5383,8.8269,537.7151],[-78.5353,8.8235,552.2298],[-78.5263,8.8188,366.108],[-78.5198,8.8177,326.6746],[-78.5151,8.8151,331.6548],[-78.5089,8.8193,280.5529],[-78.5058,8.8191,305.3643],[-78.4947,8.81,446.4453],[-78.4828,8.8049,818.4673],[-78.4561,8.8251,647.7259],[-78.4401,8.8283,483.5996],[-78.43,8.8269,367.2939],[-78.404,8.8376,204.5247],[-78.3964,8.8378,139.9071],[-78.3818,8.8339,100.4536],[-78.3618,8.8321,332.2511],[-78.3537,8.8285,401.2626],[-78.3483,8.8228,440.9955],[-78.3491,8.8063,653.3345],[-78.3455,8.7982,580.3146],[-78.3408,8.7957,622.9303],[-78.3317,8.7959,614.5186],[-78.3122,8.8047,600.9022],[-78.3026,8.8155,136.7254],[-78.302,8.8198,106.4819],[-78.3053,8.8263,113.2175],[-78.3049,8.8317,142.5332],[-78.2934,8.8478,195.7562],[-78.2874,8.849,146.1559],[-78.275,8.844,119.8028],[-78.2681,8.8467,97.8497],[-78.2632,8.8508,99.4636],[-78.2538,8.8648,119.2303],[-78.2401,8.8761,111.7481],[-78.2345,8.8763,115.261],[-78.2297,8.8719,111.7246],[-78.2215,8.877,123.3889],[-78.2078,8.877,119.4631],[-78.203,8.8747,117.0936],[-78.1933,8.8656,125.4789],[-78.1825,8.8604,117.1944],[-78.1752,8.861,120.855],[-78.1687,8.8645,114.0619],[-78.1636,8.8704,120.057],[-78.1665,8.8838,117.2815],[-78.16,8.8916,103.0691],[-78.157,8.9008,101.0945],[-78.151,8.9098,89.005],[-78.1537,8.9197,88.1671],[-78.1532,8.9248,90.2395],[-78.1405,8.9305,111.415],[-78.1234,8.9342,110.2229],[-78.1189,8.9366,138.1883]]],
[[[-78.7613,9.1057,55.5],[-78.7626,9.1057,55.5],[-78.7624,9.1026,56.4738],[-78.7657,9.1015,55.5],[-78.7613,9.0999,55.5],[-78.7621,9.0976,55.5],[-78.7568,9.0943,57.7228],[-78.7549,9.0918,57.7017],[-78.7546,9.0899,58.461],[-78.756,9.0893,55.5],[-78.754,9.0882,56.9758],[-78.7529,9.0907,56.3444],[-78.7507,9.0904,55.5],[-78.751,9.0924,57.309],[-78.7524,9.0946,55.5],[-78.7551,9.0938,57.7228],[-78.7549,9.096,55.5],[-78.7582,9.0974,59.5425],[-78.7568,9.0993,55.5],[-78.759,9.099,57.3991],[-78.7571,9.1035,58.392],[-78.7613,9.1057,55.5]]],
[[[-78.7332,9.104,55.5],[-78.7343,9.1046,55.5],[-78.7346,9.1029,55.5],[-78.7326,9.1007,57.2452],[-78.7324,9.1018,57.2452],[-78.7332,9.104,55.5]]]]}}