{"type":"Feature","properties":{"GID_3":"PAN.12.6.12_1","GID_0":"PAN","country":"Panama","GID_1":"PAN.12_1","province":"Panamá","NL_NAME_1":"NA","GID_2":"PAN.12.6_1","county":"Panamá","NL_NAME_2":"NA","city":"Pedregal","VARNAME_3":"NA","NL_NAME_3":"NA","TYPE_3":"Corregimiento","ENGTYPE_3":"Municipality","CC_3":"NA","HASC_3":"NA","name":"Pedregal.city"},
"geometry":{"type": "MultiPolygon","coordinates": [[[[-79.4134,9.0708,26.1786],[-79.4136,9.0771,39.8294],[-79.4098,9.0911,54.407],[-79.4117,9.1064,68.5148],[-79.4164,9.1108,90.4312],[-79.4249,9.1149,201.6276],[-79.4343,9.1248,226.2619],[-79.4362,9.1291,275.561],[-79.4445,9.136,412.2991],[-79.4487,9.1386,288.7535],[-79.4537,9.1388,290.7051],[-79.46,9.1185,133.3979],[-79.4558,9.0961,70.2814],[-79.4485,9.0873,51.3233],[-79.4406,9.0826,40.2415],[-79.4376,9.0753,33.7999],[-79.4332,9.0722,30.7438],[-79.4293,9.0595,23.507],[-79.4205,9.0629,36.5407],[-79.4134,9.0708,26.1786]]]]}}