{"type":"Feature","properties":{"GID_3":"PAN.2.6.6_1","GID_0":"PAN","country":"Panama","GID_1":"PAN.2_1","province":"Chiriquí","NL_NAME_1":"NA","GID_2":"PAN.2.6_1","county":"David","NL_NAME_2":"NA","city":"LasLomas","VARNAME_3":"NA","NL_NAME_3":"NA","TYPE_3":"Corregimiento","ENGTYPE_3":"Municipality","CC_3":"NA","HASC_3":"NA","name":"Las_Lomas.city"},
"geometry":{"type": "MultiPolygon","coordinates": [[[[-82.3291,8.434,49.1252],[-82.3453,8.4343,30.5672],[-82.3518,8.4427,107.6823],[-82.3582,8.4474,55.5948],[-82.3602,8.4539,64.0812],[-82.3595,8.4596,76.8763],[-82.3544,8.47,71.6795],[-82.3577,8.4817,104.4121],[-82.3637,8.4854,91.6445],[-82.3716,8.4835,101.5137],[-82.3773,8.4934,140.7555],[-82.3806,8.495,142.0842],[-82.3862,8.4925,157.408],[-82.3902,8.4978,177.6267],[-82.3936,8.4924,135.4972],[-82.3978,8.4909,98.0597],[-82.3978,8.4885,93.6466],[-82.3996,8.4889,95.506],[-82.4006,8.4815,106.3213],[-82.3965,8.4701,91.2021],[-82.4,8.4623,86.3089],[-82.399,8.4556,75.0139],[-82.4033,8.4497,60.6533],[-82.4043,8.4278,33.109],[-82.4084,8.4211,10.6812],[-82.4097,8.4152,18.5768],[-82.4082,8.4091,33.0527],[-82.3957,8.4076,12.2886],[-82.3898,8.4009,4.0796],[-82.3895,8.3964,4.8211],[-82.3875,8.3927,3.1217],[-82.3918,8.3882,4.1798],[-82.3919,8.3841,3.3635],[-82.3899,8.3817,3.4056],[-82.3926,8.3783,2.3813],[-82.3926,8.3649,1.9452],[-82.3851,8.3702,3.7009],[-82.3805,8.3817,4.7541],[-82.375,8.3747,2.7797],[-82.3713,8.3747,3.9855],[-82.3686,8.3823,6.6345],[-82.3638,8.3861,6.2206],[-82.3612,8.3932,7.8652],[-82.3577,8.397,8.8924],[-82.3501,8.3991,9.3613],[-82.3438,8.4034,12.0304],[-82.3332,8.4025,14.4894],[-82.3308,8.4038,17.1262],[-82.3242,8.4198,23.09],[-82.3164,8.4263,23.4749],[-82.3185,8.4289,28.9548],[-82.3283,8.432,48.2669],[-82.3291,8.434,49.1252]]]]}}