{"type": "Feature","bbox": [-79.9843,8.8302,-79.9383,8.9332],"geometry": {"type": "MultiPolygon","coordinates": [[[[-79.9383,8.835,169.3682],[-79.9448,8.8562,163.1181],[-79.939,8.8714,191.2648],[-79.9392,8.8841,159.2061],[-79.9428,8.8866,202.0554],[-79.9439,8.8913,218.395],[-79.9489,8.8975,152.6798],[-79.945,8.9077,123.8054],[-79.9448,8.9187,155.5435],[-79.9522,8.9169,174.2656],[-79.9545,8.918,147.1259],[-79.9551,8.9299,124.3041],[-79.9586,8.9332,118.782],[-79.9833,8.9256,223.9091],[-79.9843,8.9219,227.2819],[-79.9756,8.9064,191.0464],[-79.9802,8.8898,236.4447],[-79.98,8.8828,279.5505],[-79.9768,8.8688,261.0051],[-79.9772,8.8604,270.3685],[-79.971,8.8439,299.2534],[-79.9687,8.8397,252.7001],[-79.9603,8.8364,182.9237],[-79.9565,8.8321,181.65],[-79.9518,8.8302,183.1313],[-79.9481,8.8304,180.0459],[-79.9383,8.835,169.3682]]]]}
,"properties": {"GID_3": "PAN.11.4.15_1","GID_0": "PAN","country": "Panama","GID_1": "PAN.11_1","province": "PanamáOeste","NL_NAME_1": "NA","GID_2": "PAN.11.4_1","county": "LaChorrera","NL_NAME_2": "NA","city": "Obaldía","VARNAME_3": "NA","NL_NAME_3": "NA","TYPE_3": "Corregimiento","ENGTYPE_3": "Municipality","CC_3": "NA","HASC_3": "NA","name": "Obaldía.city","area_km2": 38.75376,"hist_schema_id": "Elevation0-9000","hist_area_km2": {"100": 0.06284,"125": 1.23581,"150": 4.27315,"175": 10.59986,"200": 10.03403,"225": 7.16424,"250": 3.60317,"275": 1.65497,"300": 0.10474,"325": 0.02095}}}