{"type": "Feature","bbox": [-80.2621,7.7043,-80.1647,7.7818],"geometry": {"type": "MultiPolygon","coordinates": [[[[-80.2621,7.7663,36.3596],[-80.2528,7.7631,36.619],[-80.2531,7.7611,36.1953],[-80.2588,7.7569,58.5104],[-80.2462,7.7487,33.5091],[-80.2386,7.7338,29.8154],[-80.2436,7.7235,43.1587],[-80.2511,7.719,58.9492],[-80.2569,7.7179,61.4355],[-80.2527,7.7126,19.4464],[-80.2567,7.7043,27.2442],[-80.2472,7.7043,31.0188],[-80.2265,7.7123,21.0016],[-80.2222,7.7165,23.1105],[-80.2071,7.7248,5.0707],[-80.1834,7.7248,23.1943],[-80.1798,7.7302,12.6587],[-80.1725,7.73,7.8102],[-80.1647,7.7328,13.8406],[-80.1654,7.7446,2.5],[-80.1674,7.7426,3.0],[-80.166,7.7401,3.8593],[-80.1751,7.7443,4.375],[-80.1776,7.744,9.9545],[-80.181,7.7404,8.9957],[-80.1776,7.7449,9.9545],[-80.174,7.7449,6.6491],[-80.1693,7.7429,7.7603],[-80.1665,7.746,2.125],[-80.1687,7.7543,4.6418],[-80.1674,7.7582,5.3744],[-80.1693,7.761,6.6216],[-80.1687,7.7649,4.5284],[-80.1701,7.7676,0.0],[-80.1899,7.7818,2.1096],[-80.1926,7.7801,4.7217],[-80.194,7.7812,4.6437],[-80.1927,7.7777,9.3672],[-80.1981,7.7652,12.3941],[-80.2039,7.7643,17.7251],[-80.2104,7.7591,32.7169],[-80.2412,7.7657,42.0672],[-80.2505,7.77,28.6557],[-80.2621,7.7663,36.3596]]]]}
,"properties": {"GID_3": "PAN.9.2.21_1","GID_0": "PAN","country": "Panama","GID_1": "PAN.9_1","province": "LosSantos","NL_NAME_1": "NA","GID_2": "PAN.9.2_1","county": "LasTablas","NL_NAME_2": "NA","city": "SantoDomingo","VARNAME_3": "NA","NL_NAME_3": "NA","TYPE_3": "Corregimiento","ENGTYPE_3": "Municipality","CC_3": "NA","HASC_3": "NA","name": "Santo_Domingo.city","area_km2": 47.8582,"hist_schema_id": "Elevation0-9000","hist_area_km2": {"0": 15.04229,"25": 28.06798,"50": 4.55885,"75": 0.16808,"100": 0.02101}}}