{"type":"Feature","properties":{"GID_3":"PAN.13.5.4_1","GID_0":"PAN","country":"Panama","GID_1":"PAN.13_1","province":"Veraguas","NL_NAME_1":"NA","GID_2":"PAN.13.5_1","county":"LasPalmas","NL_NAME_2":"NA","city":"ElPrado","VARNAME_3":"NA","NL_NAME_3":"NA","TYPE_3":"Corregimiento","ENGTYPE_3":"Municipality","CC_3":"NA","HASC_3":"NA","name":"El_Prado.city"},
"geometry":{"type": "MultiPolygon","coordinates": [[[[-81.5259,8.2242,168.4303],[-81.5267,8.2237,167.6462],[-81.5249,8.2247,168.4303],[-81.5259,8.2242,168.4303]]],
[[[-81.5338,8.2301,184.4727],[-81.5334,8.2297,184.4727],[-81.5322,8.2287,142.796],[-81.5323,8.2294,132.1187],[-81.5338,8.2301,184.4727]]],
[[[-81.5301,8.2613,137.3101],[-81.5356,8.2558,253.0752],[-81.5386,8.2449,243.6214],[-81.538,8.2384,109.1572],[-81.5358,8.2393,175.4621],[-81.5256,8.2334,231.4563],[-81.5221,8.2339,339.1815],[-81.5197,8.2364,358.0098],[-81.5191,8.2448,218.9392],[-81.5132,8.2485,200.7818],[-81.5194,8.2536,165.1424],[-81.5199,8.2582,125.2677],[-81.518,8.2613,136.6483],[-81.514,8.2593,214.8525],[-81.5134,8.2556,238.1442],[-81.5078,8.2525,310.7072],[-81.5059,8.2491,352.9583],[-81.508,8.2464,308.4009],[-81.5086,8.2374,420.1797],[-81.5116,8.2323,428.0616],[-81.5209,8.2267,350.1156],[-81.5102,8.2228,320.2464],[-81.5064,8.2171,259.0729],[-81.4977,8.2094,345.4125],[-81.4833,8.2076,451.134],[-81.4729,8.2026,418.4391],[-81.4655,8.2034,337.5785],[-81.4603,8.218,418.6218],[-81.4411,8.2223,262.5064],[-81.4353,8.2258,271.1056],[-81.4317,8.2321,202.835],[-81.432,8.2347,178.5391],[-81.4343,8.2367,203.2155],[-81.4419,8.2371,202.8677],[-81.4462,8.2334,247.6581],[-81.45,8.2328,252.8869],[-81.4593,8.2346,205.0794],[-81.4614,8.2424,211.4713],[-81.4727,8.2476,197.3925],[-81.4761,8.2566,249.711],[-81.4893,8.2437,218.6239],[-81.4979,8.2611,324.9982],[-81.5021,8.2639,282.7325],[-81.5069,8.2715,186.2659],[-81.5088,8.2717,176.6887],[-81.5117,8.2787,252.1987],[-81.5275,8.2722,265.2156],[-81.5301,8.2613,137.3101]]]]}}