{"type": "Feature","bbox": [-81.921,9.1294,-81.8276,9.1865],"geometry": {"type": "MultiPolygon","coordinates": [[[[-81.846,9.1329,47.266],[-81.8456,9.1299,53.4913],[-81.8393,9.1295,25.6945],[-81.8296,9.1294,3.6142],[-81.8307,9.1324,11.4916],[-81.8276,9.1324,0.0],[-81.8343,9.1365,15.9577],[-81.8432,9.1374,4.4015],[-81.8538,9.1435,7.4772],[-81.8562,9.1479,5.2343],[-81.8551,9.1504,0.0],[-81.8604,9.1535,11.9366],[-81.8607,9.156,2.9458],[-81.8649,9.1576,11.0697],[-81.8676,9.1632,1.2635],[-81.8671,9.1665,1.9718],[-81.8732,9.1687,8.1576],[-81.8732,9.1743,0.0],[-81.8787,9.1788,37.6347],[-81.8787,9.1815,10.084],[-81.8815,9.1843,0.0],[-81.8868,9.1824,0.0],[-81.8885,9.1832,1.8739],[-81.8882,9.1851,0.0],[-81.894,9.1865,2.1333],[-81.8993,9.186,0.0],[-81.904,9.1835,16.677],[-81.9076,9.1857,0.0],[-81.9129,9.186,0.0],[-81.921,9.1835,0.0],[-81.9185,9.1776,0.0],[-81.919,9.171,0.0],[-81.9168,9.1696,14.8983],[-81.916,9.1626,0.0],[-81.9135,9.1632,3.3927],[-81.9063,9.1579,0.0726],[-81.9026,9.1601,0.6081],[-81.8962,9.1607,6.151],[-81.8926,9.1574,8.2329],[-81.8885,9.1587,0.0],[-81.8826,9.1557,8.9086],[-81.8763,9.1568,0.0],[-81.8749,9.1549,0.0],[-81.8699,9.1549,3.802],[-81.8693,9.1507,4.0291],[-81.8729,9.1474,8.9074],[-81.8785,9.149,0.0],[-81.8812,9.1474,0.0],[-81.8807,9.1446,0.0],[-81.879,9.1446,0.0],[-81.8807,9.1388,0.0],[-81.8863,9.139,0.7681],[-81.8885,9.141,0.0],[-81.8903,9.14,6.0504],[-81.8817,9.1373,4.4724],[-81.8668,9.1418,14.4965],[-81.8556,9.1388,47.1132],[-81.846,9.1329,47.266]]]]}
,"properties": {"GID_3": "PAN.10.3.3_1","GID_0": "PAN","country": "Panama","GID_1": "PAN.10_1","province": "NgöbeBuglé","NL_NAME_1": "NA","GID_2": "PAN.10.3_1","county": "Kusapín","NL_NAME_2": "NA","city": "Kusapín","VARNAME_3": "NA","NL_NAME_3": "NA","TYPE_3": "Corregimiento","ENGTYPE_3": "Municipality","CC_3": "NA","HASC_3": "NA","name": "Kusapín.city","area_km2": 20.59675,"hist_schema_id": "Elevation0-9000","hist_area_km2": {"0": 4.50036,"25": 4.96085,"50": 5.14915,"75": 2.70018,"100": 1.73731,"125": 0.96283,"150": 0.46049,"175": 0.10466,"200": 0.02093}}}