{"type": "Feature","bbox": [-77.8737,8.0987,-77.6057,8.3368],"geometry": {"type": "MultiPolygon","coordinates": [[[[-77.8286,8.1611,21.0876],[-77.8206,8.1619,10.717],[-77.8202,8.1565,19.5499],[-77.8175,8.1565,11.0693],[-77.8172,8.1514,15.0013],[-77.8145,8.1513,6.5174],[-77.8142,8.1461,6.1237],[-77.8115,8.1461,5.6981],[-77.8112,8.1409,6.0085],[-77.7936,8.1403,4.5954],[-77.7893,8.1372,5.5763],[-77.7883,8.1331,5.0019],[-77.79,8.1283,6.12],[-77.7998,8.1138,27.2498],[-77.7965,8.1098,0.5],[-77.7837,8.1127,4.2352],[-77.7769,8.1186,6.951],[-77.7729,8.118,5.5185],[-77.7716,8.1061,18.3677],[-77.7777,8.1042,15.0542],[-77.7767,8.0987,0.5],[-77.7714,8.099,21.587],[-77.7678,8.1071,12.4506],[-77.7571,8.1116,7.1711],[-77.7565,8.115,4.8285],[-77.7592,8.1251,19.7217],[-77.7543,8.1299,25.8206],[-77.7529,8.1352,16.2625],[-77.7429,8.1378,13.5366],[-77.737799999999993,8.1412,14.3591],[-77.7335,8.1413,14.0723],[-77.7277,8.1378,24.9103],[-77.7229,8.1369,36.1569],[-77.7203,8.1379,50.5553],[-77.7173,8.1423,43.4455],[-77.7107,8.1437,21.9984],[-77.7062,8.1414,33.5122],[-77.7012,8.1325,15.833],[-77.6897,8.1446,52.8969],[-77.6851,8.1462,37.2998],[-77.6796,8.1449,34.9999],[-77.6713,8.1379,79.7992],[-77.6625,8.1343,29.5728],[-77.6592,8.1348,25.4015],[-77.6516,8.1405,40.7803],[-77.6393,8.1394,37.6542],[-77.6319,8.1438,45.4299],[-77.6278,8.1428,35.8514],[-77.6196,8.1371,18.0476],[-77.6133,8.1372,18.0084],[-77.6093,8.1416,22.6445],[-77.6101,8.15,42.8018],[-77.6057,8.1524,36.5569],[-77.6063,8.1566,49.0189],[-77.6094,8.157,60.231],[-77.611,8.1674,77.8493],[-77.6208,8.1969,20.3124],[-77.6264,8.2033,45.3425],[-77.6604,8.2293,22.1049],[-77.6941,8.2416,48.1252],[-77.7144,8.2509,19.9707],[-77.7244,8.251,15.3255],[-77.7292,8.253,8.8516],[-77.7324,8.2593,20.1915],[-77.7308,8.2649,20.8948],[-77.735,8.2739,31.978],[-77.7347,8.2785,20.8526],[-77.7309,8.285,18.6274],[-77.7313,8.2882,29.3166],[-77.7334,8.2892,15.9005],[-77.7473,8.2866,12.0422],[-77.7533,8.29,26.8911],[-77.7617,8.3087,8.5576],[-77.7701,8.3115,20.4947],[-77.7703,8.3144,29.7924],[-77.7656,8.3199,21.6063],[-77.7655,8.3228,11.0228],[-77.7805,8.327,32.8661],[-77.7813,8.3321,19.1624],[-77.8011,8.3335,14.5007],[-77.8153,8.3304,21.8063],[-77.8274,8.333,31.1298],[-77.8364,8.3368,36.3716],[-77.8473,8.3291,60.4197],[-77.8536,8.3214,93.7321],[-77.8737,8.3148,495.8491],[-77.8518,8.2457,12.3427],[-77.8501,8.232,6.8648],[-77.8409,8.2009,9.7399],[-77.838,8.1858,12.2289],[-77.8313,8.1645,25.41],[-77.8286,8.1611,21.0876]]]]}
,"properties": {"GID_3": "PAN.5.2.9_1","GID_0": "PAN","country": "Panama","GID_1": "PAN.5_1","province": "Darién","NL_NAME_1": "NA","GID_2": "PAN.5.2_1","county": "Pinogana","NL_NAME_2": "NA","city": "Yaviza","VARNAME_3": "NA","NL_NAME_3": "NA","TYPE_3": "Corregimiento","ENGTYPE_3": "Municipality","CC_3": "NA","HASC_3": "NA","name": "Yaviza.city","area_km2": 400.0069,"hist_schema_id": "Elevation0-9000","hist_area_km2": {"0": 95.8208,"25": 196.4966,"50": 64.3997,"75": 17.4381,"100": 7.1559,"125": 4.3019,"150": 3.2946,"175": 3.0636,"200": 1.7415,"225": 1.2798,"250": 1.1749,"275": 1.1329,"300": 0.9021,"325": 0.6294,"350": 0.5245,"375": 0.3567,"400": 0.1049,"425": 0.1049,"450": 0.042,"525": 0.042}}}