{"type": "Feature","bbox": [-81.7228,8.6063,-81.4591,9.1074],"geometry": {"type": "MultiPolygon","coordinates": [[[[-81.6168,8.6094,1368.0671],[-81.6144,8.6063,1466.7689],[-81.6063,8.6087,1328.236],[-81.5946,8.6091,1337.6331],[-81.5903,8.6137,1297.3431],[-81.5887,8.6247,1461.0208],[-81.5707,8.6272,1700.4558],[-81.5655,8.626,1580.0186],[-81.5419,8.6325,1215.7288],[-81.4962,8.6535,1077.6812],[-81.4956,8.657,946.4747],[-81.5035,8.6622,1098.7367],[-81.5034,8.671,1005.564],[-81.5074,8.679,1108.8688],[-81.5074,8.687,1178.2715],[-81.5015,8.7021,1175.3472],[-81.5032,8.7102,1322.9723],[-81.4999,8.7159,1239.3663],[-81.5003,8.7222,1018.8206],[-81.4985,8.7258,959.9032],[-81.4928,8.7293,918.4493],[-81.4876,8.7375,879.6972],[-81.4591,8.7554,661.6586],[-81.4599,8.7594,559.3944],[-81.4656,8.7687,284.8017],[-81.4795,8.7819,127.0892],[-81.4834,8.7911,48.8929],[-81.4826,8.794,37.2279],[-81.4796,8.7963,49.9166],[-81.4683,8.8004,67.6829],[-81.4671,8.8049,2.1712],[-81.4779,8.8093,0.0],[-81.486,8.8062,0.0],[-81.4885,8.8018,7.7592],[-81.4971,8.7996,4.9401],[-81.5174,8.8074,1.2663],[-81.5424,8.8249,1.9572],[-81.5485,8.8229,1.0017],[-81.5465,8.8188,3.4504],[-81.5462,8.8113,1.5048],[-81.5474,8.811,5.8828],[-81.5476,8.8179,0.9321],[-81.5496,8.8226,0.0],[-81.5515,8.8229,10.2968],[-81.5446,8.8271,0.0],[-81.569,8.8471,0.0],[-81.5715,8.8482,0.4478],[-81.5701,8.846,0.0],[-81.5718,8.8465,0.0],[-81.5749,8.8524,0.0],[-81.5862,8.8615,0.0],[-81.6193,8.8954,0.9752],[-81.6515,8.9321,0.0],[-81.6762,8.966,0.0],[-81.6937,8.9854,9.8115],[-81.7121,9.0121,0.0],[-81.7149,9.0129,0.6873],[-81.714,9.0151,0.0],[-81.7154,9.0168,1.685],[-81.7157,9.003,4.0851],[-81.7129,9.0012,0.9985],[-81.7176,8.9916,4.1585],[-81.718,8.9869,10.4287],[-81.7117,8.9735,2.1669],[-81.7137,8.9693,1.0],[-81.7228,8.9607,4.7175],[-81.7189,8.953,9.7996],[-81.722,8.9392,3.7645],[-81.7196,8.9369,2.2226],[-81.699,8.9292,4.7936],[-81.6956,8.9252,9.4821],[-81.6929,8.918,8.9323],[-81.687,8.915,2.8325],[-81.6858,8.9126,3.1013],[-81.6878,8.9077,4.2065],[-81.6979,8.9018,7.7339],[-81.7003,8.8914,3.4552],[-81.7081,8.8844,33.545],[-81.7093,8.8796,5.7679],[-81.6989,8.8664,7.5168],[-81.695,8.8507,67.4842],[-81.6952,8.8426,107.2296],[-81.6903,8.8337,136.2363],[-81.6891,8.8211,81.8292],[-81.6789,8.8104,336.1001],[-81.6722,8.8058,267.5218],[-81.6665,8.7969,543.3475],[-81.6671,8.7824,634.2551],[-81.663,8.7734,938.8547],[-81.6646,8.7674,680.3293],[-81.6684,8.7624,502.2244],[-81.6665,8.7366,890.0159],[-81.6682,8.7224,890.6054],[-81.6607,8.7196,1002.1199],[-81.638,8.7021,779.618],[-81.617,8.6749,682.21],[-81.6165,8.6583,850.7128],[-81.623,8.6452,997.7535],[-81.6237,8.6341,949.0032],[-81.6215,8.6257,991.6068],[-81.6206,8.6115,1281.9272],[-81.6168,8.6094,1368.0671]]],
[[[-81.5376,9.0896,0.0],[-81.5385,9.0882,0.0],[-81.5351,9.0876,0.0],[-81.5368,9.0893,0.0],[-81.5376,9.0896,0.0]]],
[[[-81.5535,9.1071,0.0],[-81.5557,9.1074,0.0],[-81.5576,9.1054,1.5573],[-81.5565,9.1043,1.5573],[-81.5596,9.1032,1.9866],[-81.569,9.1071,0.0],[-81.5701,9.1051,2.9032],[-81.576,9.1057,0.0],[-81.5765,9.1037,0.0],[-81.5726,9.0996,0.7442],[-81.5724,9.0918,0.0],[-81.5404,9.0888,0.0],[-81.5401,9.0904,0.0],[-81.5449,9.0954,7.1001],[-81.5421,9.0957,0.0],[-81.5449,9.0982,3.2269],[-81.5443,9.1001,0.0],[-81.546,9.1026,0.0],[-81.5501,9.1026,0.0],[-81.5535,9.1071,0.0]]]]}
,"properties": {"GID_3": "PAN.10.3.5_1","GID_0": "PAN","country": "Panama","GID_1": "PAN.10_1","province": "NgöbeBuglé","NL_NAME_1": "NA","GID_2": "PAN.10.3_1","county": "Kusapín","NL_NAME_2": "NA","city": "RíoChiriquí","VARNAME_3": "NA","NL_NAME_3": "NA","TYPE_3": "Corregimiento","ENGTYPE_3": "Municipality","CC_3": "NA","HASC_3": "NA","name": "Río_Chiriquí.city","area_km2": 541.3759,"hist_schema_id": "Elevation0-9000","hist_area_km2": {"0": 67.5156,"25": 112.2154,"50": 14.5615,"75": 15.2113,"100": 13.0325,"125": 12.1737,"150": 8.8005,"175": 8.5492,"200": 9.9323,"225": 10.4773,"250": 8.9477,"275": 9.2202,"300": 8.424,"325": 8.5288,"350": 9.451,"375": 9.3043,"400": 9.3673,"425": 8.9692,"450": 8.2148,"475": 8.5711,"500": 8.3826,"525": 8.1521,"550": 8.718,"575": 8.0894,"600": 7.8799,"625": 7.1255,"650": 8.0896,"675": 7.3142,"700": 7.5448,"725": 7.5448,"750": 6.3502,"775": 7.1049,"800": 6.0779,"825": 6.2666,"850": 6.8535,"875": 5.9104,"900": 5.4494,"925": 5.3657,"950": 4.5692,"975": 4.2968,"1000": 3.6681,"1025": 3.9405,"1050": 3.9825,"1075": 3.4584,"1100": 3.3537,"1125": 3.1651,"1150": 2.5782,"1175": 2.7878,"1200": 1.7817,"1225": 2.0332,"1250": 1.8865,"1275": 1.3834,"1300": 1.2996,"1325": 0.9433,"1350": 0.545,"1375": 0.6708,"1400": 0.566,"1425": 0.6498,"1450": 0.7756,"1475": 0.3564,"1500": 0.545,"1525": 0.3354,"1550": 0.3773,"1575": 0.3144,"1600": 0.1887,"1625": 0.1887,"1650": 0.1258,"1675": 0.2306,"1700": 0.1467,"1725": 0.2096,"1750": 0.2515,"1775": 0.0838}}}