{"type": "Feature","bbox": [-80.9096,8.2651,-80.8287,8.4036],"geometry": {"type": "MultiPolygon","coordinates": [[[[-80.8757,8.3453,286.063],[-80.8798,8.3465,302.754],[-80.8821,8.3548,264.7671],[-80.8808,8.3912,646.8556],[-80.8953,8.4036,597.7404],[-80.9009,8.4032,575.4859],[-80.9096,8.3948,532.3177],[-80.9091,8.3501,241.1099],[-80.9075,8.3337,159.2938],[-80.9043,8.3296,144.5051],[-80.8871,8.3223,136.4597],[-80.8815,8.3143,104.5922],[-80.8828,8.2996,157.9001],[-80.8957,8.2651,123.1176],[-80.8807,8.278,111.7245],[-80.8732,8.279,197.1762],[-80.8616,8.2844,117.3477],[-80.8378,8.3006,126.1663],[-80.8287,8.3108,105.1464],[-80.8288,8.3146,109.5359],[-80.8312,8.3183,105.724],[-80.8693,8.3314,152.5876],[-80.8757,8.3453,286.063]]]]}
,"properties": {"GID_3": "PAN.13.2.4_1","GID_0": "PAN","country": "Panama","GID_1": "PAN.13_1","province": "Veraguas","NL_NAME_1": "NA","GID_2": "PAN.13.2_1","county": "Calobre","NL_NAME_2": "NA","city": "ElCocla","VARNAME_3": "NA","NL_NAME_3": "NA","TYPE_3": "Corregimiento","ENGTYPE_3": "Municipality","CC_3": "NA","HASC_3": "NA","name": "El_Cocla.city","area_km2": 52.08918,"hist_schema_id": "Elevation0-9000","hist_area_km2": {"75": 0.25177,"100": 9.23112,"125": 10.55269,"150": 7.6155,"175": 4.53145,"200": 3.08373,"225": 2.64313,"250": 2.26549,"275": 1.51032,"300": 1.32153,"325": 0.92297,"350": 0.73418,"375": 0.33562,"400": 0.4405,"425": 0.48245,"450": 0.35659,"475": 0.41951,"500": 0.60829,"525": 0.50341,"550": 0.65024,"575": 0.83901,"600": 1.13265,"625": 0.54535,"650": 0.85998,"675": 0.2517}}}