{"type":"Feature","properties":{"GID_3":"PAN.13.5.5_1","GID_0":"PAN","country":"Panama","GID_1":"PAN.13_1","province":"Veraguas","NL_NAME_1":"NA","GID_2":"PAN.13.5_1","county":"LasPalmas","NL_NAME_2":"NA","city":"ElRincón","VARNAME_3":"NA","NL_NAME_3":"NA","TYPE_3":"Corregimiento","ENGTYPE_3":"Municipality","CC_3":"NA","HASC_3":"NA","name":"El_Rincón.city"},
"geometry":{"type": "MultiPolygon","coordinates": [[[[-81.4614,8.2424,211.4713],[-81.4593,8.2346,205.0794],[-81.4531,8.233,259.1496],[-81.4462,8.2334,247.6581],[-81.4411,8.2372,202.8677],[-81.4343,8.2367,203.2155],[-81.432,8.2347,178.5391],[-81.4325,8.2296,222.3933],[-81.4368,8.2246,244.9773],[-81.4459,8.2205,292.9255],[-81.4603,8.218,418.6218],[-81.4655,8.2034,337.5785],[-81.4411,8.1978,235.0417],[-81.4375,8.1936,220.5546],[-81.4326,8.1815,215.0109],[-81.4296,8.1787,160.4784],[-81.4256,8.1786,200.5389],[-81.4119,8.186,264.7509],[-81.4009,8.1819,233.9164],[-81.3742,8.1862,147.4572],[-81.3769,8.1967,79.4118],[-81.3729,8.2059,80.9001],[-81.373,8.2138,122.1551],[-81.3841,8.2256,152.3712],[-81.3901,8.229,121.8023],[-81.3944,8.2386,95.0367],[-81.3858,8.2613,152.0629],[-81.387,8.2793,129.1097],[-81.3893,8.2824,186.3872],[-81.399,8.2837,199.3296],[-81.4041,8.286,110.6386],[-81.4117,8.2842,148.23],[-81.4262,8.2681,140.4719],[-81.448,8.2579,141.2825],[-81.4552,8.2563,149.203],[-81.456,8.2476,162.5269],[-81.4614,8.2424,211.4713]]]]}}