{"type":"Feature","properties":{"GID_3":"PAN.7.7.4_1","GID_0":"PAN","country":"Panama","GID_1":"PAN.7_1","province":"Herrera","NL_NAME_1":"NA","GID_2":"PAN.7.7_1","county":"SantaMaría","NL_NAME_2":"NA","city":"LosCanelos","VARNAME_3":"NA","NL_NAME_3":"NA","TYPE_3":"Corregimiento","ENGTYPE_3":"Municipality","CC_3":"NA","HASC_3":"NA","name":"Los_Canelos.city"},
"geometry":{"type": "MultiPolygon","coordinates": [[[[-80.6739,8.1178,15.5977],[-80.6812,8.1169,21.116],[-80.7037,8.1262,18.693],[-80.7134,8.1249,24.8095],[-80.7198,8.121,32.5398],[-80.7258,8.1122,35.3772],[-80.7309,8.0933,45.035],[-80.7338,8.0899,52.2368],[-80.7379,8.0882,43.9099],[-80.734,8.0887,50.207],[-80.7321,8.087,47.1673],[-80.7266,8.0937,71.1628],[-80.719,8.0917,27.4635],[-80.7109,8.092,22.6214],[-80.7107,8.0881,19.2023],[-80.7152,8.0781,24.2394],[-80.7139,8.0643,22.4148],[-80.7067,8.0634,28.8812],[-80.702,8.056,33.5581],[-80.6925,8.0487,40.9981],[-80.685,8.0584,32.1101],[-80.6841,8.0623,33.1151],[-80.675,8.0691,24.0125],[-80.6688,8.0714,17.163],[-80.6721,8.0791,16.9443],[-80.6681,8.0822,12.9924],[-80.6589,8.1004,13.7637],[-80.6606,8.1061,17.8636],[-80.652,8.1172,11.6083],[-80.6534,8.1209,15.3461],[-80.6557,8.1224,16.7985],[-80.6656,8.1202,8.4475],[-80.6679,8.1179,10.1083],[-80.6739,8.1178,15.5977]]]]}}