{"type": "Feature","bbox": [-80.3903,7.6648,-80.3168,7.758],"geometry": {"type": "MultiPolygon","coordinates": [[[[-80.3882,7.6648,351.5052],[-80.3772,7.6655,343.59],[-80.3722,7.6721,260.3665],[-80.3642,7.6736,315.1151],[-80.358,7.6772,215.8383],[-80.3539,7.686,164.2705],[-80.3555,7.6971,137.3357],[-80.3504,7.7027,149.6428],[-80.3474,7.7023,149.2644],[-80.3415,7.6982,181.187],[-80.3362,7.6872,190.9785],[-80.3337,7.686,211.3148],[-80.3316,7.6884,170.2853],[-80.3283,7.6955,168.5619],[-80.3279,7.7055,186.1804],[-80.3238,7.7191,119.9535],[-80.3169,7.724,189.4657],[-80.3267,7.7359,186.8102],[-80.3231,7.747,90.5357],[-80.3168,7.758,29.5324],[-80.3281,7.7533,66.9376],[-80.3315,7.7459,134.6721],[-80.3346,7.745,156.6152],[-80.3418,7.7464,156.3928],[-80.3469,7.7374,75.2097],[-80.3583,7.7267,147.434],[-80.3606,7.7233,146.7645],[-80.3615,7.7166,158.7936],[-80.3653,7.7137,168.8824],[-80.3692,7.7067,210.7584],[-80.3745,7.7036,214.169],[-80.3827,7.6917,239.7035],[-80.3844,7.6858,241.7564],[-80.3898,7.6792,241.4832],[-80.3903,7.6738,247.1305],[-80.3882,7.6648,351.5052]]]]}
,"properties": {"GID_3": "PAN.9.2.18_1","GID_0": "PAN","country": "Panama","GID_1": "PAN.9_1","province": "LosSantos","NL_NAME_1": "NA","GID_2": "PAN.9.2_1","county": "LasTablas","NL_NAME_2": "NA","city": "RíoHondo","VARNAME_3": "NA","NL_NAME_3": "NA","TYPE_3": "Corregimiento","ENGTYPE_3": "Municipality","CC_3": "NA","HASC_3": "NA","name": "Río_Hondo.city","area_km2": 32.7346,"hist_schema_id": "Elevation0-9000","hist_area_km2": {"25": 0.16807,"50": 0.94541,"75": 1.76479,"100": 2.37409,"125": 3.88687,"150": 6.95446,"175": 4.95847,"200": 3.40378,"225": 2.47937,"250": 2.20624,"275": 1.57589,"300": 0.94555,"325": 0.42025,"350": 0.42025,"375": 0.23114}}}