{"type":"Feature","properties":{"GID_3":"PAN.12.6.5_1","GID_0":"PAN","country":"Panama","GID_1":"PAN.12_1","province":"Panamá","NL_NAME_1":"NA","GID_2":"PAN.12.6_1","county":"Panamá","NL_NAME_2":"NA","city":"Curundú","VARNAME_3":"NA","NL_NAME_3":"NA","TYPE_3":"Corregimiento","ENGTYPE_3":"Municipality","CC_3":"NA","HASC_3":"NA","name":"Curundú.city"},
"geometry":{"type": "MultiPolygon","coordinates": [[[[-79.5395,8.9657,14.0873],[-79.5345,8.9686,9.6158],[-79.5316,8.9754,16.5572],[-79.5265,8.9797,16.2175],[-79.5277,8.9853,27.2973],[-79.532,8.9845,33.0398],[-79.5391,8.9729,11.8504],[-79.5395,8.9657,14.0873]]]]}}