{"type": "Feature","bbox": [-79.6132,8.5826,-79.6023,8.6115],"geometry": {"type": "MultiPolygon","coordinates": [[[[-79.6126,8.586,0.0],[-79.6132,8.5835,0.0],[-79.6121,8.5826,0.0],[-79.611,8.5843,3.7006],[-79.6126,8.586,0.0]]],
[[[-79.6024,8.6016,41.5382],[-79.6023,8.6096,35.9804],[-79.6046,8.6096,14.7671],[-79.6062,8.6115,0.0],[-79.6054,8.6079,2.7686],[-79.6071,8.6054,0.0],[-79.6068,8.6018,18.0017],[-79.6118,8.6021,1.7972],[-79.6121,8.5943,0.0],[-79.6099,8.5912,0.0],[-79.6076,8.5924,0.0],[-79.6049,8.5974,22.087],[-79.6025,8.5974,2.3022],[-79.6024,8.6016,41.5382]]]]}
,"properties": {"GID_3": "PAN.11.7.1_1","GID_0": "PAN","country": "Panama","GID_1": "PAN.11_1","province": "PanamáOeste","NL_NAME_1": "NA","GID_2": "PAN.11.7_1","county": "Taboga","NL_NAME_2": "NA","city": "OtoqueOccidente","VARNAME_3": "NA","NL_NAME_3": "NA","TYPE_3": "Corregimiento","ENGTYPE_3": "Municipality","CC_3": "NA","HASC_3": "NA","name": "Otoque_Occidente.city","area_km2": 1.2787954,"hist_schema_id": "Elevation0-9000","hist_area_km2": {"0": 0.5660262,"25": 0.4402387,"50": 0.1886748,"75": 0.0628919,"100": 0.0209639}}}