{"type": "Feature","bbox": [-78.5125,8.3218,-78.2583,8.7082],"geometry": {"type": "MultiPolygon","coordinates": [[[[-78.3524,8.3465,16.0959],[-78.3551,8.3457,7.6043],[-78.3549,8.3429,2.6882],[-78.3437,8.3407,12.5466],[-78.3399,8.3371,14.928],[-78.3379,8.3376,11.5616],[-78.3318,8.3349,0.0],[-78.3399,8.3426,0.0],[-78.3524,8.3465,16.0959]]],
[[[-78.3457,8.3538,2.6321],[-78.3451,8.3549,0.0],[-78.3487,8.3538,0.0],[-78.349,8.3512,0.0],[-78.3468,8.3518,0.0],[-78.3457,8.3538,2.6321]]],
[[[-78.3632,8.379,0.0],[-78.3651,8.379,0.0],[-78.3649,8.3807,0.0],[-78.3674,8.3799,0.0],[-78.3657,8.3765,0.0],[-78.3626,8.3771,0.0],[-78.3632,8.379,0.0]]],
[[[-78.3282,8.4593,0.0],[-78.3301,8.4599,1.6963],[-78.3293,8.4571,4.3192],[-78.3282,8.4571,0.0],[-78.3282,8.4593,0.0]]],
[[[-78.2746,8.4685,1.6068],[-78.2774,8.4682,8.3113],[-78.2771,8.4649,0.0],[-78.274,8.4674,1.6068],[-78.2746,8.4685,1.6068]]],
[[[-78.3751,8.3237,0.0],[-78.3774,8.3251,0.0],[-78.3788,8.3224,0.0],[-78.3754,8.3218,0.0],[-78.3751,8.3237,0.0]]],
[[[-78.2897,8.6419,238.2024],[-78.2858,8.6691,297.8745],[-78.2965,8.6703,238.2891],[-78.3125,8.6751,233.1967],[-78.3244,8.6761,264.7102],[-78.3406,8.6819,450.6153],[-78.3606,8.6793,311.1619],[-78.3757,8.6838,117.4387],[-78.3789,8.6817,227.2298],[-78.3796,8.6745,192.3358],[-78.3825,8.6689,207.3501],[-78.3931,8.6617,37.3876],[-78.3969,8.6615,33.9872],[-78.408,8.6691,42.0561],[-78.4299,8.6753,76.3909],[-78.4358,8.6805,76.378],[-78.4414,8.6885,123.3763],[-78.4517,8.694,181.3992],[-78.4617,8.6969,171.4567],[-78.4735,8.7073,205.0203],[-78.4825,8.7082,220.594],[-78.5111,8.7039,248.5754],[-78.5125,8.6989,222.1392],[-78.5117,8.6915,136.6948],[-78.5067,8.6839,79.0031],[-78.5005,8.6823,127.9103],[-78.4965,8.6783,184.7188],[-78.4959,8.6618,146.4887],[-78.4916,8.6579,120.6935],[-78.482,8.6553,110.0488],[-78.4776,8.6469,134.2587],[-78.4728,8.6425,189.1685],[-78.475,8.6351,145.256],[-78.4737,8.6287,69.3668],[-78.4761,8.6106,50.1078],[-78.4801,8.606,47.224],[-78.49,8.6005,29.1409],[-78.487,8.5907,52.7497],[-78.4875,8.5727,62.6791],[-78.4844,8.5617,15.6703],[-78.4762,8.5481,28.2003],[-78.4752,8.5392,119.2534],[-78.4771,8.5343,88.4653],[-78.462,8.5169,50.0067],[-78.4604,8.4977,84.6047],[-78.4483,8.4825,97.5228],[-78.4417,8.4714,130.786],[-78.4361,8.4521,241.3319],[-78.4302,8.4385,299.6421],[-78.4251,8.4077,168.2458],[-78.4225,8.4013,179.0199],[-78.4206,8.369,85.6135],[-78.4184,8.3589,43.2594],[-78.4187,8.3503,30.9589],[-78.4208,8.3475,2.8451],[-78.4187,8.3457,9.736],[-78.4149,8.3462,0.0],[-78.4163,8.3482,7.9853],[-78.4137,8.3512,17.9435],[-78.4112,8.349,0.0],[-78.409,8.3529,9.3772],[-78.4024,8.3518,6.4009],[-78.4004,8.3507,22.9406],[-78.4012,8.3479,3.3411],[-78.3985,8.3471,30.8426],[-78.3971,8.3418,0.0],[-78.3907,8.3371,18.0004],[-78.3876,8.3365,0.0],[-78.3857,8.3429,6.5122],[-78.3868,8.3468,29.0849],[-78.3854,8.3501,4.1739],[-78.3857,8.3601,6.0996],[-78.3829,8.3643,0.0],[-78.3846,8.369,13.6954],[-78.3843,8.3757,0.0],[-78.3835,8.3774,3.9587],[-78.3787,8.3779,0.5869],[-78.379,8.3832,7.273],[-78.3776,8.386,6.7302],[-78.3712,8.3924,6.1913],[-78.3682,8.3923,3.9781],[-78.3671,8.3943,39.5135],[-78.3693,8.4102,11.5736],[-78.3857,8.4217,0.0],[-78.3911,8.4319,6.2531],[-78.3913,8.4419,0.0],[-78.3883,8.4573,0.0],[-78.3905,8.4843,0.0],[-78.401,8.5075,0.0],[-78.4054,8.5129,18.5583],[-78.4051,8.5171,0.0],[-78.4169,8.5287,6.0148],[-78.4163,8.5317,0.0],[-78.4109,8.5251,0.0],[-78.4087,8.5251,0.0],[-78.4085,8.5341,0.0],[-78.4105,8.5357,0.0],[-78.4113,8.5429,0.0],[-78.4074,8.5485,7.9653],[-78.4058,8.5625,16.8819],[-78.4032,8.5643,24.997],[-78.4026,8.5677,9.4032],[-78.4007,8.5679,24.4045],[-78.4008,8.5651,13.5329],[-78.4038,8.5615,0.0],[-78.4043,8.5555,0.0],[-78.4018,8.5607,9.9219],[-78.3998,8.5605,0.0],[-78.4013,8.5557,5.7106],[-78.4005,8.5453,11.0028],[-78.4016,8.5435,9.2138],[-78.3996,8.5309,1.7777],[-78.3972,8.5307,2.922],[-78.3971,8.5403,4.5916],[-78.3954,8.5407,3.6535],[-78.3941,8.5359,2.1109],[-78.3904,8.5359,0.0],[-78.3885,8.5407,0.0],[-78.3918,8.5407,0.0],[-78.3922,8.5421,4.4989],[-78.3901,8.5455,3.9322],[-78.3855,8.5475,0.0],[-78.3826,8.5453,0.0],[-78.3826,8.5385,0.0],[-78.3847,8.5393,0.0],[-78.3882,8.5377,0.0],[-78.3885,8.5335,0.0],[-78.3869,8.5317,0.0],[-78.3911,8.5227,0.0],[-78.3872,8.5163,0.0],[-78.3872,8.5085,0.0],[-78.3805,8.4957,0.0],[-78.3794,8.4771,0.0],[-78.3767,8.4717,0.0],[-78.3783,8.4655,7.8579],[-78.3766,8.4479,0.0],[-78.3771,8.4313,0.0],[-78.3743,8.4251,0.0],[-78.3676,8.4224,5.7082],[-78.3601,8.4313,8.1071],[-78.3568,8.4393,4.12],[-78.3549,8.4382,0.0],[-78.3532,8.4415,3.4283],[-78.349,8.4429,0.0],[-78.3496,8.4482,7.7298],[-78.3457,8.4493,4.837],[-78.3457,8.4518,8.5716],[-78.3435,8.4529,9.8053],[-78.3399,8.4529,0.0],[-78.3385,8.4554,0.0],[-78.3337,8.4524,5.4777],[-78.3343,8.4604,2.2302],[-78.3304,8.464,16.6818],[-78.3257,8.4632,1.1927],[-78.3235,8.4685,10.7108],[-78.3182,8.4688,7.5576],[-78.3138,8.4649,6.367],[-78.3126,8.461,0.0],[-78.3082,8.4615,2.2391],[-78.3099,8.454,3.2069],[-78.3076,8.4468,0.0],[-78.3051,8.4455,11.0652],[-78.3037,8.4413,1.9207],[-78.2979,8.441,3.8106],[-78.2929,8.4388,8.3103],[-78.2871,8.439,0.0],[-78.2879,8.4479,6.519],[-78.2848,8.4469,0.0],[-78.2822,8.4613,2.9695],[-78.279,8.4621,0.0],[-78.2783,8.4685,0.0],[-78.2808,8.4703,3.169],[-78.2762,8.4717,0.0],[-78.2721,8.4699,0.0],[-78.259,8.4805,0.0],[-78.2583,8.4857,0.0],[-78.2632,8.4939,9.6376],[-78.2729,8.4991,5.2222],[-78.2906,8.5127,24.4053],[-78.2999,8.5301,48.7542],[-78.3182,8.5481,40.0771],[-78.3215,8.5577,33.296],[-78.3216,8.5663,47.5373],[-78.313,8.5839,245.5515],[-78.3089,8.6213,373.114],[-78.3052,8.6268,328.4447],[-78.2928,8.6352,160.5375],[-78.2897,8.6419,238.2024]]],
[[[-78.4057,8.5337,9.0484],[-78.4074,8.5343,0.0],[-78.4074,8.5324,0.0],[-78.4049,8.5285,0.0],[-78.4035,8.5304,2.2628],[-78.4057,8.5337,9.0484]]],
[[[-78.394,8.5335,0.0],[-78.3962,8.5343,0.0],[-78.396,8.5299,0.0],[-78.3951,8.5326,0.0],[-78.394,8.5335,0.0]]],
[[[-78.4032,8.5515,4.6372],[-78.4049,8.5518,4.6372],[-78.406,8.5499,0.0],[-78.4065,8.5374,12.5646],[-78.4054,8.5357,0.0],[-78.4029,8.5376,2.439],[-78.4037,8.5443,7.0947],[-78.4021,8.5504,0.0],[-78.4032,8.5515,4.6372]]]]}
,"properties": {"GID_3": "PAN.5.1.9_1","GID_0": "PAN","country": "Panama","GID_1": "PAN.5_1","province": "Darién","NL_NAME_1": "NA","GID_2": "PAN.5.1_1","county": "Chepigana","NL_NAME_2": "NA","city": "RíoCongo","VARNAME_3": "NA","NL_NAME_3": "NA","TYPE_3": "Corregimiento","ENGTYPE_3": "Municipality","CC_3": "NA","HASC_3": "NA","name": "Río_Congo.city","area_km2": 546.383,"hist_schema_id": "Elevation0-9000","hist_area_km2": {"0": 61.1467,"25": 232.5133,"50": 65.8971,"75": 31.9511,"100": 20.2527,"125": 16.2902,"150": 17.3163,"175": 17.1689,"200": 16.4971,"225": 13.5832,"250": 11.8642,"275": 10.6276,"300": 7.1901,"325": 5.8901,"350": 4.7582,"375": 3.5844,"400": 3.1652,"425": 2.0752,"450": 1.7398,"475": 1.3206,"500": 0.7336,"525": 0.2725,"550": 0.1886,"575": 0.2096,"600": 0.1258,"625": 0.021}}}