{"type": "Feature","bbox": [-80.9632,7.7595,-80.8719,7.8959],"geometry": {"type": "MultiPolygon","coordinates": [[[[-80.915,7.78,151.2995],[-80.9153,7.7932,145.1763],[-80.9084,7.8009,130.6369],[-80.8855,7.8461,392.3134],[-80.8755,7.8607,215.7393],[-80.8719,7.8692,280.0803],[-80.8766,7.8807,118.4133],[-80.8927,7.8872,143.102],[-80.8961,7.8927,180.8075],[-80.9062,7.8959,179.9183],[-80.9098,7.895,154.8088],[-80.9184,7.8875,162.7934],[-80.9229,7.8862,83.6067],[-80.9281,7.8799,45.0802],[-80.9304,7.8736,141.2704],[-80.9322,7.8537,394.2226],[-80.9389,7.8297,395.7805],[-80.9377,7.8186,292.6396],[-80.9485,7.7972,132.9345],[-80.949,7.7785,165.247],[-80.9524,7.772,90.3105],[-80.9578,7.7726,104.1103],[-80.9612,7.7709,75.8016],[-80.9632,7.7643,81.0759],[-80.9602,7.7595,95.0526],[-80.9587,7.7607,85.9713],[-80.936,7.7601,233.2789],[-80.915,7.78,151.2995]]]]}
,"properties": {"GID_3": "PAN.7.4.2_1","GID_0": "PAN","country": "Panama","GID_1": "PAN.7_1","province": "Herrera","NL_NAME_1": "NA","GID_2": "PAN.7.4_1","county": "Ocú","NL_NAME_2": "NA","city": "ElTijera","VARNAME_3": "NA","NL_NAME_3": "NA","TYPE_3": "Corregimiento","ENGTYPE_3": "Municipality","CC_3": "NA","HASC_3": "NA","name": "El_Tijera.city","area_km2": 67.92831,"hist_schema_id": "Elevation0-9000","hist_area_km2": {"25": 0.04202,"50": 2.22675,"75": 4.43213,"100": 5.54527,"125": 6.59534,"150": 5.73416,"175": 6.25931,"200": 5.62918,"225": 4.99905,"250": 4.28483,"275": 3.48667,"300": 4.72594,"325": 4.43189,"350": 3.19262,"375": 2.1424,"400": 1.6173,"425": 0.96618,"450": 0.75614,"475": 0.29405,"500": 0.31506,"525": 0.18903,"550": 0.021,"575": 0.04201}}}