{"type":"Feature","properties":{"GID_3":"PAN.11.1.1_1","GID_0":"PAN","country":"Panama","GID_1":"PAN.11_1","province":"PanamáOeste","NL_NAME_1":"NA","GID_2":"PAN.11.1_1","county":"Arraiján","NL_NAME_2":"NA","city":"Arraiján","VARNAME_3":"NA","NL_NAME_3":"NA","TYPE_3":"Corregimiento","ENGTYPE_3":"Municipality","CC_3":"NA","HASC_3":"NA","name":"Arraiján.city"},
"geometry":{"type": "MultiPolygon","coordinates": [[[[-79.6949,8.8646,0.0],[-79.696,8.8649,0.0],[-79.6965,8.8621,0.0],[-79.6957,8.8593,0.0],[-79.6937,8.8585,0.0],[-79.6943,8.8646,0.0],[-79.6949,8.8646,0.0]]],
[[[-79.6412,9.0359,25.0],[-79.6451,9.0382,38.9884],[-79.6629,9.0382,198.9096],[-79.6665,9.0367,194.9668],[-79.6748,9.0255,189.6912],[-79.676,9.0143,167.8193],[-79.68,9.004,154.2974],[-79.6854,8.9999,146.5308],[-79.6931,9.0007,222.3948],[-79.6966,8.9992,186.1376],[-79.7021,8.991,140.287],[-79.7053,8.9817,93.6219],[-79.6973,8.9736,98.4473],[-79.6928,8.9653,52.0238],[-79.6856,8.9585,39.4041],[-79.6851,8.9526,38.289],[-79.6885,8.9379,67.2055],[-79.673,8.9169,30.51],[-79.6741,8.9144,31.1751],[-79.6918,8.8987,10.4834],[-79.6946,8.8917,22.0899],[-79.7026,8.8813,16.1079],[-79.7035,8.874,3.7714],[-79.7021,8.8729,0.0],[-79.7007,8.876,5.7247],[-79.699,8.8749,8.4949],[-79.6968,8.8713,7.2446],[-79.6976,8.869,0.0],[-79.6957,8.8676,0.0],[-79.6943,8.8701,0.0],[-79.6915,8.8707,8.1152],[-79.6904,8.8749,0.0],[-79.6826,8.8765,16.5564],[-79.6793,8.8699,1.7548],[-79.6807,8.8671,0.8704],[-79.6799,8.8643,1.1822],[-79.6718,8.8593,0.0],[-79.666,8.8638,5.5527],[-79.6671,8.8671,0.0],[-79.6701,8.8696,0.0],[-79.6693,8.8735,4.686],[-79.671,8.8754,18.6882],[-79.6704,8.8796,0.0],[-79.6721,8.8832,0.0],[-79.6685,8.8854,0.0],[-79.6687,8.889,11.2922],[-79.6657,8.8888,0.0],[-79.6665,8.8901,0.0],[-79.664,8.8901,0.0],[-79.6621,8.8937,0.0],[-79.6596,8.8937,1.4582],[-79.6585,8.8888,0.0],[-79.6579,8.8915,1.6368],[-79.6554,8.8921,5.4002],[-79.6554,8.8851,0.0],[-79.6515,8.8824,5.136],[-79.6524,8.8796,0.0],[-79.6499,8.8813,0.0],[-79.6471,8.8785,0.0],[-79.6446,8.879,0.0],[-79.6489,8.8839,32.6686],[-79.6499,8.8885,32.5713],[-79.6451,8.9002,213.0997],[-79.6522,8.9085,135.2348],[-79.6526,8.9148,63.423],[-79.6407,8.9219,114.5455],[-79.6196,8.9294,229.8497],[-79.616,8.9373,217.6702],[-79.619,8.9493,79.6028],[-79.617,8.9543,54.1705],[-79.5952,8.9572,33.7454],[-79.5812,8.9681,13.111],[-79.5804,8.9701,4.3862],[-79.5846,8.9768,-12.5812],[-79.5832,8.9771,-1.4873],[-79.5815,8.9743,-6.556],[-79.5796,8.976,1.0],[-79.5857,8.9888,2.5],[-79.5851,8.9913,3.7425],[-79.5801,8.986,6.0259],[-79.5776,8.9757,5.8877],[-79.5753,8.9802,9.079],[-79.5764,8.9886,17.5199],[-79.581,8.9947,20.2631],[-79.6046,9.0062,16.5238],[-79.608,9.0143,16.625],[-79.6122,9.0182,25.5268],[-79.6412,9.0359,25.0]]]]}}