{"type":"Feature","properties":{"GID_3":"PAN.4.5.2_1","GID_0":"PAN","country":"Panama","GID_1":"PAN.4_1","province":"Colón","NL_NAME_1":"NA","GID_2":"PAN.4.5_1","county":"Portobelo","NL_NAME_2":"NA","city":"Garrote","VARNAME_3":"NA","NL_NAME_3":"NA","TYPE_3":"Corregimiento","ENGTYPE_3":"Municipality","CC_3":"NA","HASC_3":"NA","name":"Garrote.city"},
"geometry":{"type": "MultiPolygon","coordinates": [[[[-79.6164,9.603,33.2768],[-79.6146,9.5993,81.6576],[-79.6032,9.594,133.2185],[-79.5921,9.5914,78.2323],[-79.5921,9.5852,25.8],[-79.5984,9.573,10.942],[-79.5917,9.5598,9.2251],[-79.587,9.5554,48.8051],[-79.5843,9.5542,81.8105],[-79.5773,9.5643,18.3519],[-79.5686,9.5655,71.9031],[-79.5645,9.568,97.641],[-79.5606,9.5852,27.9815],[-79.5643,9.6065,118.9032],[-79.5703,9.6121,89.3497],[-79.5723,9.6199,20.8413],[-79.5762,9.6182,0.3787],[-79.5765,9.6157,3.0323],[-79.5793,9.6146,0.0],[-79.5796,9.6118,16.4896],[-79.5821,9.6129,1.5566],[-79.5849,9.6107,2.5607],[-79.5865,9.6088,0.0],[-79.586,9.6062,9.4019],[-79.5879,9.6049,0.0],[-79.5918,9.6093,0.0],[-79.596,9.6085,6.6757],[-79.601,9.6146,5.3994],[-79.6068,9.6135,7.8934],[-79.6054,9.6107,0.7319],[-79.609,9.6093,1.9047],[-79.6126,9.6099,1.0808],[-79.6176,9.6154,35.1074],[-79.618,9.6077,16.3662],[-79.6164,9.603,33.2768]]],
[[[-79.5996,9.6193,0.0],[-79.6015,9.6193,2.2226],[-79.6024,9.6176,14.2201],[-79.6007,9.6171,0.0],[-79.5996,9.6193,0.0]]],
[[[-79.5804,9.6224,2.7708],[-79.5896,9.6207,0.0],[-79.5899,9.6187,0.0],[-79.5882,9.6174,10.2327],[-79.589,9.6149,0.0],[-79.5849,9.614,6.8799],[-79.581,9.6157,9.2432],[-79.5793,9.6174,2.1121],[-79.5815,9.6196,1.2368],[-79.5804,9.6224,2.7708]]],
[[[-79.5768,9.6268,0.0],[-79.5793,9.6265,0.0],[-79.5793,9.6249,0.0],[-79.5771,9.6243,0.0],[-79.5768,9.6268,0.0]]]]}}