{"type":"Feature","properties":{"GID_3":"PAN.3.2.2_1","GID_0":"PAN","country":"Panama","GID_1":"PAN.3_1","province":"Coclé","NL_NAME_1":"NA","GID_2":"PAN.3.2_1","county":"Antón","NL_NAME_2":"NA","city":"Caballero","VARNAME_3":"NA","NL_NAME_3":"NA","TYPE_3":"Corregimiento","ENGTYPE_3":"Municipality","CC_3":"NA","HASC_3":"NA","name":"Caballero.city"},
"geometry":{"type": "MultiPolygon","coordinates": [[[[-80.2368,8.454,74.4849],[-80.2274,8.4576,84.4665],[-80.2291,8.4667,68.6075],[-80.2226,8.4804,114.2313],[-80.1998,8.5140999999999991,232.2873],[-80.1948,8.5183,251.2496],[-80.1865,8.5216,253.2605],[-80.1784,8.5334,324.6081],[-80.17,8.5341,323.827],[-80.1667,8.5382,355.6938],[-80.1671,8.5433,366.5184],[-80.1642,8.551,406.8004],[-80.1571,8.5555,470.1391],[-80.1537,8.5618,500.2466],[-80.1596,8.5704,477.0391],[-80.1589,8.5772,557.1213],[-80.1664,8.5774,558.4843],[-80.1701,8.5758,533.5219],[-80.1796,8.5617,418.8169],[-80.1889,8.5558,349.829],[-80.1987,8.5541,333.3026],[-80.2052,8.5371,268.5796],[-80.2144,8.5284,229.7249],[-80.2199,8.5179,189.4084],[-80.2282,8.5105,163.4328],[-80.2371,8.5057,150.7028],[-80.2393,8.4853,104.9791],[-80.2433,8.4739,91.6371],[-80.2401,8.4668,85.7977],[-80.2411,8.4575,44.2709],[-80.2368,8.454,74.4849]]]]}}