{"type": "Feature","bbox": [-79.1907,9.4376,-79.0803,9.5618],"geometry": {"type": "MultiPolygon","coordinates": [[[[-79.1505,9.4439,20.1568],[-79.1348,9.4658,25.9391],[-79.1312,9.4686,19.2355],[-79.1252,9.4703,24.2541],[-79.114,9.4809,21.4022],[-79.0997,9.4871,10.1827],[-79.0959,9.4794,10.3554],[-79.0921,9.4785,11.4062],[-79.0894,9.4804,12.2149],[-79.0803,9.5582,3.1033],[-79.0893,9.5618,1.8156],[-79.1076,9.5554,5.1229],[-79.114,9.5585,0.0],[-79.1132,9.5565,4.5784],[-79.1188,9.5576,1.1993],[-79.1212,9.5554,12.497],[-79.1282,9.5543,0.0],[-79.1354,9.556,0.7199],[-79.1379,9.5596,1.4973],[-79.1424,9.5615,0.6088],[-79.154,9.556,1.8516],[-79.1543,9.554,0.0],[-79.1507,9.5499,0.0],[-79.1535,9.5457,2.8475],[-79.1563,9.5454,0.0],[-79.1579,9.541,0.0],[-79.1626,9.5454,7.5212],[-79.1568,9.5468,0.0],[-79.1551,9.5504,0.0],[-79.1582,9.554,0.0],[-79.1604,9.5535,6.8947],[-79.1618,9.556,0.0],[-79.1657,9.5551,9.1356],[-79.1674,9.5574,0.0],[-79.1743,9.5563,1.6469],[-79.179,9.5504,3.3114],[-79.186,9.5476,0.0],[-79.1899,9.544,0.0],[-79.1907,9.5424,3.4633],[-79.1811,9.5356,16.1322],[-79.1815,9.529,15.5912],[-79.1789,9.524,19.4481],[-79.181,9.5174,27.1685],[-79.1803,9.5007,94.0399],[-79.1883,9.4801,133.6296],[-79.1833,9.4703,135.8837],[-79.1897,9.4595,150.2388],[-79.1887,9.4524,125.9883],[-79.1814,9.4409,164.0135],[-79.1761,9.4376,181.1836],[-79.1709,9.4382,141.6442],[-79.1648,9.4415,137.4471],[-79.1505,9.4439,20.1568]]]]}
,"properties": {"GID_3": "PAN.4.6.7_1","GID_0": "PAN","country": "Panama","GID_1": "PAN.4_1","province": "Colón","NL_NAME_1": "NA","GID_2": "PAN.4.6_1","county": "SantaIsabel","NL_NAME_2": "NA","city": "SantaIsabel","VARNAME_3": "NA","NL_NAME_3": "NA","TYPE_3": "Corregimiento","ENGTYPE_3": "Municipality","CC_3": "NA","HASC_3": "NA","name": "Santa_Isabel.city","area_km2": 114.32028,"hist_schema_id": "Elevation0-9000","hist_area_km2": {"0": 11.60428,"25": 25.7829,"50": 20.63854,"75": 19.90753,"100": 15.8093,"125": 10.41428,"150": 5.6882,"175": 2.82321,"200": 1.12927,"225": 0.41823,"250": 0.10456}}}