{"type":"Feature","properties":{"GID_2":"PAN.10.3_1","GID_0":"PAN","country":"Panama","GID_1":"PAN.10_1","province":"NgöbeBuglé","NL_NAME_1":"NA","county":"Kusapín","VARNAME_2":"NA","NL_NAME_2":"NA","TYPE_2":"Distrito","ENGTYPE_2":"District","CC_2":"NA","HASC_2":"PA.NB.KS","name":"Kusapín.county"},
"geometry":{"type": "MultiPolygon","coordinates": [[[[-81.2311,8.6766,68.693],[-81.2288,8.6842,130.244],[-81.2214,8.6882,69.8944],[-81.2209,8.6947,91.0916],[-81.2157,8.7004,80.922],[-81.2175,8.7049,34.5685],[-81.2257,8.707,70.5956],[-81.2282,8.7105,93.0556],[-81.2227,8.7204,62.6834],[-81.2251,8.7313,61.5385],[-81.2199,8.7438,16.668],[-81.2258,8.7445,83.2909],[-81.2277,8.7542,13.768],[-81.2212,8.764,55.0041],[-81.2235,8.7805,18.1258],[-81.2212,8.7832,12.6952],[-81.2138,8.7854,20.0965],[-81.2174,8.7865,0.0],[-81.2135,8.7868,6.7224],[-81.2121,8.789,0.0],[-81.2265,8.7949,0.0],[-81.2449,8.7963,0.0],[-81.2557,8.7926,0.0],[-81.2646,8.7935,5.5323],[-81.269,8.7915,4.0626],[-81.2765,8.7913,2.3786],[-81.2843,8.7926,0.0],[-81.2877,8.7915,2.1984],[-81.2901,8.7854,7.2964],[-81.296,8.7818,4.8331],[-81.3026,8.7835,3.4206],[-81.3049,8.7821,3.1494],[-81.3088,8.7843,0.0],[-81.3151,8.784,1.5385],[-81.3215,8.7868,0.0],[-81.3301,8.7862,2.0118],[-81.3351,8.7829,4.3881],[-81.346,8.7851,22.0894],[-81.3512,8.7829,4.4901],[-81.3704,8.7913,5.1063],[-81.3812,8.799,0.0],[-81.3851,8.7971,27.3036],[-81.3835,8.7935,1.9186],[-81.3857,8.7896,1.2786],[-81.3851,8.7929,1.9128],[-81.3871,8.796,10.1582],[-81.3846,8.7996,1.0766],[-81.4101,8.8038,0.0],[-81.4126,8.8024,0.0],[-81.4163,8.7965,14.6544],[-81.4199,8.7951,15.585],[-81.431,8.7957,0.0],[-81.4535,8.8046,3.0606],[-81.4551,8.8065,4.4531],[-81.4593,8.8046,13.6225],[-81.464,8.8071,0.0],[-81.4671,8.8046,2.1712],[-81.4779,8.8093,0.0],[-81.486,8.8062,0.0],[-81.4885,8.8018,7.7592],[-81.4971,8.7996,4.9401],[-81.5174,8.8074,1.2663],[-81.5424,8.8249,1.9572],[-81.5485,8.8229,1.0017],[-81.5465,8.8188,3.4504],[-81.5462,8.8113,1.5048],[-81.5474,8.811,5.8828],[-81.5476,8.8179,0.9321],[-81.5496,8.8226,0.0],[-81.5515,8.8229,10.2968],[-81.5446,8.8271,0.0],[-81.569,8.8471,0.0],[-81.5715,8.8482,0.4478],[-81.5701,8.846,0.0],[-81.5718,8.8465,0.0],[-81.5749,8.8524,0.0],[-81.6046,8.8796,2.0447],[-81.6468,8.9263,6.0023],[-81.6762,8.966,0.0],[-81.6937,8.9854,9.8115],[-81.7121,9.0121,0.0],[-81.7149,9.0129,0.6873],[-81.7151,9.0224,0.0],[-81.7174,9.026,4.7012],[-81.7176,9.0301,3.9556],[-81.7226,9.0349,4.6235],[-81.7221,9.0379,0.0],[-81.7321,9.0357,0.0],[-81.7346,9.0371,5.6489],[-81.7363,9.0424,0.0],[-81.7393,9.0443,0.0],[-81.7421,9.044,0.0],[-81.7435,9.0463,0.0],[-81.7451,9.0451,0.0],[-81.7446,9.0437,22.0876],[-81.7479,9.0443,1.3684],[-81.7601,9.0549,1.8051],[-81.7607,9.0632,0.0],[-81.7621,9.0643,0.0],[-81.771,9.0618,5.6006],[-81.776,9.0635,1.0772],[-81.781,9.0629,7.1416],[-81.7818,9.0663,0.0],[-81.7874,9.0674,0.0],[-81.794,9.0643,4.9283],[-81.7988,9.0665,1.5617],[-81.8049,9.0654,3.5497],[-81.809,9.0693,2.1083],[-81.8063,9.0729,0.0],[-81.8071,9.0743,0.0],[-81.8099,9.069,2.1083],[-81.816,9.0654,1.8478],[-81.8196,9.0654,1.1956],[-81.819,9.0682,0.4956],[-81.8213,9.0693,0.0],[-81.8215,9.0638,0.212],[-81.8229,9.0638,0.212],[-81.8243,9.0668,0.7247],[-81.8221,9.0688,0.0],[-81.826,9.0757,2.0498],[-81.826,9.084,0.0],[-81.829,9.0854,2.0519],[-81.8304,9.0885,0.0],[-81.8301,9.0929,2.1763],[-81.8279,9.0965,0.0],[-81.836,9.0982,2.5746],[-81.8354,9.101,0.0],[-81.8385,9.1029,0.3416],[-81.8379,9.1071,0.8327],[-81.8399,9.1085,9.5771],[-81.8399,9.1112,1.0344],[-81.8426,9.1107,3.7235],[-81.8468,9.1151,0.0],[-81.8399,9.1168,0.0],[-81.8346,9.1151,0.0],[-81.8313,9.119,8.0097],[-81.8207,9.1213,0.0],[-81.8185,9.1235,0.0],[-81.8185,9.1257,0.0],[-81.8285,9.1262,1.0222],[-81.8307,9.1324,11.4916],[-81.8288,9.1318,0.0],[-81.8276,9.1332,0.0],[-81.8318,9.134,32.3835],[-81.8343,9.1365,15.9577],[-81.8432,9.1374,4.4015],[-81.8538,9.1435,7.4772],[-81.8562,9.1479,5.2343],[-81.8551,9.1504,0.0],[-81.8604,9.1535,11.9366],[-81.8607,9.156,2.9458],[-81.8649,9.1576,11.0697],[-81.8676,9.1632,1.2635],[-81.8671,9.1665,1.9718],[-81.8732,9.1687,8.1576],[-81.8732,9.1743,0.0],[-81.8787,9.1788,37.6347],[-81.8787,9.1815,10.084],[-81.8815,9.1843,0.0],[-81.8868,9.1824,0.0],[-81.8885,9.1832,1.8739],[-81.8882,9.1851,0.0],[-81.894,9.1865,2.1333],[-81.8993,9.186,0.0],[-81.904,9.1835,16.677],[-81.9076,9.1857,0.0],[-81.9129,9.186,0.0],[-81.921,9.1835,0.0],[-81.9185,9.1776,0.0],[-81.919,9.171,0.0],[-81.9168,9.1696,14.8983],[-81.916,9.1626,0.0],[-81.9135,9.1632,3.3927],[-81.9063,9.1579,0.0726],[-81.9026,9.1601,0.6081],[-81.8962,9.1607,6.151],[-81.8926,9.1574,8.2329],[-81.8885,9.1587,0.0],[-81.8826,9.1557,8.9086],[-81.8763,9.1568,0.0],[-81.8749,9.1549,0.0],[-81.8701,9.1551,3.802],[-81.8693,9.1507,4.0291],[-81.8729,9.1474,8.9074],[-81.8785,9.149,0.0],[-81.8812,9.1474,0.0],[-81.8807,9.1446,0.0],[-81.879,9.1446,0.0],[-81.8807,9.1388,0.0],[-81.8863,9.139,0.7681],[-81.8885,9.141,0.0],[-81.8924,9.1401,8.1569],[-81.8924,9.1438,0.0],[-81.9029,9.1468,7.8185],[-81.9057,9.1446,0.0],[-81.9021,9.1404,1.0047],[-81.9037,9.1382,6.9836],[-81.9068,9.1379,3.0626],[-81.9154,9.1429,0.0],[-81.9221,9.1504,7.9387],[-81.9257,9.1501,7.2662],[-81.9288,9.144,0.0],[-81.9388,9.1426,8.4949],[-81.9396,9.146,2.1771],[-81.9371,9.1504,9.5489],[-81.9401,9.1518,1.5558],[-81.9468,9.1426,0.0],[-81.9474,9.1365,0.0],[-81.9412,9.1354,0.0],[-81.939,9.1312,0.0],[-81.9346,9.1304,0.0],[-81.9301,9.1262,0.0],[-81.9229,9.1249,1.8932],[-81.9218,9.1224,6.0838],[-81.9157,9.1188,17.9381],[-81.9132,9.1138,0.2155],[-81.9107,9.1165,0.0],[-81.9024,9.1121,13.058],[-81.8971,9.1029,0.0],[-81.8899,9.1007,1.4571],[-81.8904,9.0957,0.3684],[-81.8874,9.0971,7.2833],[-81.8765,9.0896,3.787],[-81.8724,9.0829,13.1211],[-81.8724,9.0776,2.1309],[-81.8701,9.0757,3.6842],[-81.8668,9.0757,4.7853],[-81.8623,9.0704,0.0],[-81.8618,9.0663,6.0564],[-81.8649,9.0574,2.4799],[-81.861,9.0557,5.6414],[-81.8613,9.0535,0.0],[-81.8557,9.0532,5.581],[-81.8535,9.0476,2.7549],[-81.8476,9.0457,17.6776],[-81.8435,9.0424,10.6707],[-81.8426,9.0365,0.0],[-81.836,9.0324,3.7765],[-81.8346,9.0287,0.0],[-81.8321,9.0285,0.0],[-81.8279,9.0226,0.7874],[-81.8213,9.0226,1.7447],[-81.8154,9.0187,0.0],[-81.8074,9.0188,5.3403],[-81.8043,9.0149,0.0],[-81.7924,9.0126,2.2417],[-81.791,9.009,1.6094],[-81.7826,9.0082,0.0],[-81.779,9.0029,0.0],[-81.776,9.0015,0.0],[-81.774,8.9971,0.0],[-81.7749,8.9876,3.0668],[-81.7765,8.986,0.673],[-81.7757,8.9843,1.2984],[-81.7715,8.9824,5.7566],[-81.7696,8.9784,0.0],[-81.7664,8.9777,14.5778],[-81.7608,8.9783,20.8137],[-81.7554,8.9813,13.7665],[-81.7507,8.9692,30.3219],[-81.7553,8.9559,24.7221],[-81.7544,8.9414,38.9609],[-81.7428,8.9241,32.3958],[-81.754,8.9114,47.0204],[-81.7514,8.8986,52.8818],[-81.7538,8.8781,108.7648],[-81.7541,8.8493,90.4295],[-81.7522,8.843,122.0423],[-81.7501,8.8428,126.1586],[-81.7519,8.8385,270.8399],[-81.7491,8.8334,281.3138],[-81.7439,8.8316,154.8613],[-81.7408,8.8278,174.3801],[-81.7397,8.8167,341.4093],[-81.7345,8.8013,246.8393],[-81.7342,8.7885,246.4277],[-81.7201,8.7814,563.752],[-81.7184,8.7712,319.3765],[-81.7107,8.7653,572.4597],[-81.7012,8.7623,703.5817],[-81.6873,8.7624,969.8716],[-81.6809,8.7601,619.4145],[-81.679,8.7559,623.2546],[-81.6819,8.7503,763.703],[-81.6815,8.7466,837.7588],[-81.6682,8.7224,890.6054],[-81.6607,8.7196,1002.1199],[-81.638,8.7021,779.618],[-81.618,8.6771,632.9234],[-81.6163,8.6716,654.0782],[-81.6163,8.6599,795.3717],[-81.623,8.6452,997.7535],[-81.6237,8.6329,945.502],[-81.6215,8.6257,991.6068],[-81.6206,8.6115,1281.9272],[-81.6149,8.6066,1466.7689],[-81.5934,8.6097,1337.6331],[-81.5903,8.6137,1297.3431],[-81.5887,8.6247,1461.0208],[-81.5707,8.6272,1700.4558],[-81.5655,8.626,1580.0186],[-81.54,8.6332,1284.4469],[-81.515,8.6444,927.7646],[-81.5031,8.6443,1210.446],[-81.4894,8.6472,1089.5337],[-81.4787,8.6358,1010.5736],[-81.4582,8.6344,561.4724],[-81.4498,8.6283,625.1502],[-81.4359,8.6227,469.3539],[-81.4275,8.6233,712.8523],[-81.4182,8.6163,538.2431],[-81.4156,8.6116,622.2266],[-81.4089,8.6063,615.5714],[-81.3877,8.5999,690.0829],[-81.375,8.5933,925.4176],[-81.3625,8.5842,1302.7229],[-81.3523,8.5844,1496.6697],[-81.3456,8.5809,1770.079],[-81.3358,8.5722,1785.296],[-81.3283,8.5688,1609.4443],[-81.3113,8.5555,1635.2662],[-81.3074,8.5508,1466.3296],[-81.3022,8.5397,1314.9761],[-81.2951,8.5316,1311.8958],[-81.2729,8.5356,981.3935],[-81.2637,8.5338,1054.3588],[-81.2542,8.5343,1368.0807],[-81.2508,8.5328,1567.5046],[-81.2414,8.5209,1634.0972],[-81.2311,8.5137,1318.5095],[-81.22,8.5146,1185.8068],[-81.2108,8.5125,1158.6023],[-81.2032,8.5142,826.0151],[-81.1889,8.5126,826.6239],[-81.1775,8.5132,876.9505],[-81.1705,8.5217,691.6423],[-81.1733,8.5269,644.1646],[-81.1776,8.5317,586.5483],[-81.1836,8.534,457.7394],[-81.2005,8.5307,645.4683],[-81.2018,8.5315,577.6934],[-81.2057,8.5449,632.0396],[-81.2122,8.5594,501.7492],[-81.2277,8.5801,418.1655],[-81.2327,8.5891,343.2933],[-81.2352,8.5989,290.2219],[-81.2314,8.6185,296.5724],[-81.2354,8.6258,261.5116],[-81.2348,8.6501,166.0891],[-81.2272,8.6595,195.9751],[-81.2311,8.6643,165.054],[-81.229,8.6708,82.0243],[-81.2311,8.6766,68.693]]],
[[[-81.2138,8.786,6.7224],[-81.2138,8.7854,20.0965],[-81.2131,8.7856,6.7224],[-81.2136,8.786,6.7224],[-81.2138,8.786,6.7224]]],
[[[-81.5368,9.0893,0.0],[-81.5385,9.0899,0.0],[-81.5385,9.0882,0.0],[-81.5354,9.0874,0.0],[-81.5351,9.0879,0.0],[-81.5368,9.0893,0.0]]],
[[[-81.5529,9.1068,0.0],[-81.5557,9.1074,0.0],[-81.5576,9.1054,1.5573],[-81.5565,9.1043,1.5573],[-81.5596,9.1032,1.9866],[-81.569,9.1071,0.0],[-81.5701,9.1051,2.9032],[-81.576,9.1057,0.0],[-81.5765,9.1037,0.0],[-81.5726,9.0996,0.7442],[-81.5724,9.0918,0.0],[-81.5404,9.0888,0.0],[-81.5401,9.0904,0.0],[-81.5449,9.0954,7.1001],[-81.5421,9.0957,0.0],[-81.5449,9.0982,3.2269],[-81.5443,9.1001,0.0],[-81.546,9.1026,0.0],[-81.5501,9.1026,0.0],[-81.5529,9.1068,0.0]]],
[[[-81.8999,9.0985,0.0],[-81.9004,9.101,0.0],[-81.9032,9.101,0.0],[-81.9054,9.0974,0.0],[-81.9079,9.0968,0.0],[-81.9001,9.0915,0.0],[-81.8921,9.0929,0.0],[-81.8974,9.0968,0.8584],[-81.9004,9.096,0.0],[-81.8999,9.0985,0.0]]],
[[[-81.8096,9.1287,3.8812],[-81.8112,9.1293,0.0],[-81.8126,9.1271,3.8658],[-81.809,9.1262,0.0],[-81.8096,9.1287,3.8812]]],
[[[-81.801,9.1354,0.0],[-81.8021,9.136,0.0],[-81.8026,9.1335,13.0694],[-81.8068,9.1326,0.0],[-81.8068,9.1312,0.0],[-81.8043,9.1301,0.0],[-81.8001,9.131,0.0],[-81.7993,9.1321,0.0],[-81.801,9.1354,0.0]]],
[[[-81.9521,9.1515,0.0],[-81.9532,9.1526,0.0],[-81.9521,9.1488,0.0],[-81.951,9.1488,0.0],[-81.951,9.1496,0.0],[-81.9521,9.1515,0.0]]]]}}