{"type":"Feature","properties":{"GID_3":"PAN.3.6.8_1","GID_0":"PAN","country":"Panama","GID_1":"PAN.3_1","province":"Coclé","NL_NAME_1":"NA","GID_2":"PAN.3.6_1","county":"Penonomé","NL_NAME_2":"NA","city":"RíoIndio","VARNAME_3":"NA","NL_NAME_3":"NA","TYPE_3":"Corregimiento","ENGTYPE_3":"Municipality","CC_3":"NA","HASC_3":"NA","name":"Río_Indio.city"},
"geometry":{"type": "MultiPolygon","coordinates": [[[[-80.1571,8.7885,274.2345],[-80.162,8.8196,200.0581],[-80.1704,8.8317,182.9452],[-80.1641,8.8466,238.3129],[-80.1662,8.8672,176.1305],[-80.1653,8.8723,170.6356],[-80.169,8.8903,102.1146],[-80.16,8.8975,152.835],[-80.155,8.9036,75.4314],[-80.1541,8.9109,61.6764],[-80.1494,8.9105,55.8326],[-80.1475,8.9195,45.5462],[-80.139,8.9263,53.0788],[-80.1368,8.9347,35.0228],[-80.1423,8.9399,29.3294],[-80.145,8.9452,37.5777],[-80.1415,8.9567,36.9164],[-80.1362,8.9658,207.9924],[-80.1438,8.9567,37.1458],[-80.1468,8.9557,27.5598],[-80.1496,8.9616,40.3023],[-80.1546,8.9666,27.4951],[-80.1616,8.9669,22.2372],[-80.1664,8.9728,46.5933],[-80.1735,8.9697,16.7961],[-80.1741,8.9736,17.1175],[-80.1715,8.9821,17.0611],[-80.1796,8.9858,20.6583],[-80.1777,8.9918,15.7886],[-80.1804,8.9941,20.1871],[-80.1784,8.9969,18.2107],[-80.1828,9.0025,17.9471],[-80.1845,9.0081,15.648],[-80.1831,9.0144,56.5524],[-80.1865,9.018,41.1381],[-80.1857,9.0246,69.2037],[-80.1827,9.0269,20.7301],[-80.1886,9.0333,69.1177],[-80.1906,9.0413,19.6229],[-80.1977,9.0447,48.4601],[-80.2003,9.0518,19.2495],[-80.2101,9.064,55.5331],[-80.2147,9.0535,111.1986],[-80.213,9.0433,56.9456],[-80.2094,9.0362,74.1751],[-80.2106,9.0233,68.9446],[-80.2088,9.017,46.0025],[-80.2135,8.9723,97.3879],[-80.2193,8.9708,70.8753],[-80.2275,8.9719,116.3579],[-80.2291,8.9734,123.1633],[-80.2387,8.9694,130.3466],[-80.3567,8.9086,164.0048],[-80.3688,8.881,69.5799],[-80.3652,8.8809,64.3921],[-80.3567,8.8897,137.8318],[-80.3528,8.8891,125.1908],[-80.3441,8.8744,65.0345],[-80.3302,8.8731,161.8939],[-80.3241,8.8669,83.3213],[-80.3166,8.864,133.1434],[-80.3115,8.8574,76.6541],[-80.3036,8.8536,142.2181],[-80.2949,8.8456,124.9502],[-80.2923,8.846,141.0301],[-80.2874,8.8525,149.5488],[-80.2798,8.8542,146.8564],[-80.2749,8.8588,194.2614],[-80.2604,8.8563,162.8223],[-80.2514,8.8454,158.7559],[-80.2417,8.8392,179.8772],[-80.233,8.831,197.8139],[-80.2243,8.8181,175.0626],[-80.2206,8.8067,181.9036],[-80.2209,8.7945,222.9836],[-80.2164,8.7889,217.3255],[-80.2073,8.788,229.6019],[-80.1931,8.7835,223.4854],[-80.1926,8.7858,228.7087],[-80.19,8.7871,258.7316],[-80.176,8.7853,317.6337],[-80.1571,8.7885,274.2345]]]]}}