{"type":"Feature","properties":{"GID_3":"PAN.13.7.5_1","GID_0":"PAN","country":"Panama","GID_1":"PAN.13_1","province":"Veraguas","NL_NAME_1":"NA","GID_2":"PAN.13.7_1","county":"RíodeJesús","NL_NAME_2":"NA","city":"Utira","VARNAME_3":"NA","NL_NAME_3":"NA","TYPE_3":"Corregimiento","ENGTYPE_3":"Municipality","CC_3":"NA","HASC_3":"NA","name":"Utira.city"},
"geometry":{"type": "MultiPolygon","coordinates": [[[[-81.1803,7.929,29.0145],[-81.1834,7.9528,21.9178],[-81.1882,7.9734,35.443],[-81.1817,7.9902,81.8156],[-81.173,8.0051,86.9756],[-81.1613,8.0438,61.0225],[-81.1633,8.0495,70.6401],[-81.1754,8.0638,60.0033],[-81.187,8.0537,60.1426],[-81.1946,8.039,83.3859],[-81.1951,8.0334,76.073],[-81.1906,8.0227,49.2136],[-81.1912,8.0191,43.6854],[-81.196,8.0153,49.7246],[-81.2064,8.0107,87.7176],[-81.2163,8.0108,131.4461],[-81.2222,8.0092,130.8963],[-81.2246,8.0065,126.2054],[-81.2262,8.0005,103.8717],[-81.2249,7.9943,143.8849],[-81.2182,7.9841,77.8196],[-81.2182,7.96,91.9689],[-81.2148,7.9337,15.914],[-81.2038,7.9237,16.4189],[-81.1803,7.929,29.0145]]]]}}