{"type": "Feature","bbox": [-80.485,7.7331,-80.4066,7.851],"geometry": {"type": "MultiPolygon","coordinates": [[[[-80.4066,7.7919,50.1569],[-80.4102,7.8021,43.888],[-80.4076,7.8151,113.7016],[-80.4151,7.8289,105.3458],[-80.4232,7.8347,93.039],[-80.4231,7.842,87.8651],[-80.4455,7.851,143.3215],[-80.4525,7.8331,76.8692],[-80.4589,7.8274,70.5955],[-80.4623,7.8199,79.8996],[-80.4586,7.8139,79.3132],[-80.4464,7.8057,71.418],[-80.4464,7.7858,99.8356],[-80.4446,7.7808,124.379],[-80.4457,7.7775,161.829],[-80.461,7.7693,183.6388],[-80.466,7.7687,162.468],[-80.4715,7.7649,167.4755],[-80.485,7.761,173.4896],[-80.4424,7.7381,152.2132],[-80.4366,7.7331,148.7594],[-80.4352,7.746,178.7401],[-80.4323,7.751,113.5694],[-80.4334,7.7559,80.4699],[-80.4269,7.7649,93.9823],[-80.4254,7.7707,68.5873],[-80.426,7.7762,60.8699],[-80.424,7.7782,61.6874],[-80.4174,7.7786,84.3319],[-80.4132,7.7867,59.0982],[-80.4066,7.7919,50.1569]]]]}
,"properties": {"GID_3": "PAN.9.3.6_1","GID_0": "PAN","country": "Panama","GID_1": "PAN.9_1","province": "LosSantos","NL_NAME_1": "NA","GID_2": "PAN.9.3_1","county": "LosSantos","NL_NAME_2": "NA","city": "LasCruces","VARNAME_3": "NA","NL_NAME_3": "NA","TYPE_3": "Corregimiento","ENGTYPE_3": "Municipality","CC_3": "NA","HASC_3": "NA","name": "Las_Cruces.city","area_km2": 47.89441,"hist_schema_id": "Elevation0-9000","hist_area_km2": {"25": 0.08402,"50": 10.06182,"75": 16.13233,"100": 6.38581,"125": 4.49545,"150": 5.56704,"175": 4.05451,"200": 1.0504,"225": 0.06303}}}