{"type": "Feature","bbox": [-80.8229,8.0871,-80.0527,9.064],"geometry": {"type": "MultiPolygon","coordinates": [[[[-80.4688,8.2232,0.0],[-80.4626,8.2243,11.1599],[-80.4604,8.2285,14.9197],[-80.4535,8.2296,9.6677],[-80.4507,8.2365,10.9765],[-80.4451,8.2407,0.0],[-80.4471,8.2487,14.4398],[-80.4437,8.2521,15.6083],[-80.439,8.2524,10.1855],[-80.434,8.256,0.0],[-80.4276,8.2721,7.6066],[-80.4207,8.2754,0.0],[-80.4132,8.2838,3.28],[-80.4101,8.2896,18.6194],[-80.4074,8.291,13.5893],[-80.3938,8.2907,11.4631],[-80.3926,8.2987,0.0],[-80.3962,8.3129,5.7952],[-80.3946,8.3196,8.8091],[-80.3876,8.3237,3.4621],[-80.3874,8.3296,13.7346],[-80.3865,8.3293,8.7381],[-80.3857,8.3276,0.0],[-80.3857,8.3249,0.0],[-80.3882,8.3221,3.4621],[-80.3924,8.3199,20.1205],[-80.394,8.3129,0.0],[-80.3901,8.304,6.6943],[-80.3876,8.3026,2.196],[-80.3851,8.304,21.6416],[-80.3812,8.3032,6.6873],[-80.3868,8.3015,0.0],[-80.3835,8.2946,3.0401],[-80.3838,8.2899,0.7047],[-80.3771,8.2899,0.0],[-80.3712,8.2949,3.9394],[-80.3582,8.301,14.6224],[-80.3535,8.2999,0.0],[-80.3482,8.3021,22.0439],[-80.3368,8.3013,5.204],[-80.341,8.299,5.0248],[-80.3457,8.2993,0.0],[-80.3499,8.296,0.6023],[-80.3565,8.2974,0.0],[-80.3582,8.296,2.6707],[-80.3554,8.294,1.6146],[-80.3496,8.2946,0.0],[-80.319,8.304,18.523],[-80.3068,8.3051,0.0],[-80.3063,8.3071,4.8466],[-80.3037,8.3054,0.0],[-80.2946,8.3049,1.9407],[-80.2885,8.3021,11.4045],[-80.2885,8.2996,9.1559],[-80.2907,8.2982,0.5474],[-80.3015,8.3001,3.3567],[-80.3043,8.2971,3.3571],[-80.3063,8.2982,3.0765],[-80.3037,8.296,1.7241],[-80.2832,8.2979,0.0],[-80.2724,8.3015,0.0],[-80.2671,8.3007,3.2992],[-80.2635,8.3018,4.872],[-80.2574,8.2999,0.0],[-80.2474,8.3021,9.9602],[-80.2499,8.2996,0.0],[-80.2679,8.2987,3.8047],[-80.2651,8.2968,0.0],[-80.2485,8.299,0.0],[-80.2224,8.3082,0.0],[-80.2068,8.3165,0.9814],[-80.1868,8.3246,0.0],[-80.1687,8.3376,5.2302],[-80.1626,8.339,2.0731],[-80.1571,8.3424,5.6007999999999996],[-80.1474,8.3507,8.3981],[-80.1432,8.3504,0.0],[-80.1415,8.3538,4.7807],[-80.1382,8.3543,5.7162],[-80.1265,8.3638,12.5384],[-80.1212,8.366,14.4383],[-80.119,8.3649,0.0],[-80.1065,8.3743,7.9644],[-80.0813,8.3876,1.9759],[-80.0746,8.3935,3.438],[-80.0527,8.4057,34.0995],[-80.058,8.415,35.0338],[-80.0644,8.416,50.2421],[-80.0688,8.4257,68.9445],[-80.0721,8.4283,67.7332],[-80.0742,8.4412,89.2955],[-80.0848,8.4554,107.6202],[-80.0907,8.4592,125.0353],[-80.0931,8.4671,153.2937],[-80.0981,8.4709,132.6598],[-80.0998,8.4851,191.819],[-80.0922,8.5152,279.4836],[-80.0963,8.5195,282.2485],[-80.1016,8.5311,384.817],[-80.1073,8.535,397.9113],[-80.111,8.5417,427.2533],[-80.1095,8.5474,465.3539],[-80.1117,8.5546,509.1388],[-80.1221,8.5666,575.7341],[-80.1135,8.5665,572.1406],[-80.1041,8.5629,587.2928],[-80.1037,8.5746,588.132],[-80.1002,8.5871,793.9468],[-80.1057,8.6109,675.7585],[-80.1107,8.6115,670.2891],[-80.112799999999993,8.614,653.3525],[-80.1115,8.627,828.5816],[-80.1184,8.6429,823.9301],[-80.1183,8.6555,650.4899],[-80.112799999999993,8.664,887.0435],[-80.1109,8.6757,693.3364],[-80.1148,8.6878,533.0528],[-80.1138,8.697,499.2256],[-80.1165,8.7029,459.1071],[-80.1149,8.7123,395.8785],[-80.1198,8.7161,397.8233],[-80.1242,8.727,508.4845],[-80.1264,8.7461,302.7159],[-80.1304,8.7504,359.4503],[-80.1383,8.7535,478.4915],[-80.1435,8.759,401.0547],[-80.1491,8.7685,333.3265],[-80.151,8.7774,270.9922],[-80.1559,8.7812,310.308],[-80.162,8.8196,200.0581],[-80.1704,8.8317,182.9452],[-80.1641,8.8466,238.3129],[-80.1662,8.8672,176.1305],[-80.1653,8.8723,170.6356],[-80.169,8.8903,102.1146],[-80.16,8.8975,152.835],[-80.155,8.9036,75.4314],[-80.1541,8.9109,61.6764],[-80.1494,8.9105,55.8326],[-80.1475,8.9195,45.5462],[-80.139,8.9263,53.0788],[-80.1368,8.9347,35.0228],[-80.1423,8.9399,29.3294],[-80.145,8.9452,37.5777],[-80.1415,8.9567,36.9164],[-80.1362,8.9658,207.9924],[-80.1438,8.9567,37.1458],[-80.1468,8.9557,27.5598],[-80.1496,8.9616,40.3023],[-80.1546,8.9666,27.4951],[-80.1616,8.9669,22.2372],[-80.1664,8.9728,46.5933],[-80.1735,8.9697,16.7961],[-80.1741,8.9736,17.1175],[-80.1715,8.9821,17.0611],[-80.1796,8.9858,20.6583],[-80.1777,8.9918,15.7886],[-80.1804,8.9941,20.1871],[-80.1784,8.9969,18.2107],[-80.1828,9.0025,17.9471],[-80.1845,9.0081,15.648],[-80.1831,9.0144,56.5524],[-80.1865,9.018,41.1381],[-80.1857,9.0246,69.2037],[-80.1827,9.0269,20.7301],[-80.1886,9.0333,69.1177],[-80.1906,9.0413,19.6229],[-80.1977,9.0447,48.4601],[-80.2003,9.0518,19.2495],[-80.2101,9.064,55.5331],[-80.2147,9.0535,111.1986],[-80.213,9.0433,56.9456],[-80.2094,9.0362,74.1751],[-80.2106,9.0233,68.9446],[-80.2088,9.017,46.0025],[-80.2135,8.9723,97.3879],[-80.2193,8.9708,70.8753],[-80.2275,8.9719,116.3579],[-80.2291,8.9734,123.1633],[-80.2387,8.9694,130.3466],[-80.3567,8.9086,164.0048],[-80.3662,8.8848,110.1612],[-80.3695,8.8807,69.5799],[-80.3763,8.8872,125.1387],[-80.383,8.8888,126.6184],[-80.3919,8.8944,133.4135],[-80.3999,8.8961,94.0653],[-80.4238,8.8944,97.0167],[-80.445,8.9018,42.2201],[-80.4562,8.9169,50.4414],[-80.466,8.924,99.1263],[-80.4707,8.9223,171.7259],[-80.4722,8.9238,171.292],[-80.4762,8.923,73.4926],[-80.4789,8.9249,92.2549],[-80.4841,8.9248,75.8993],[-80.487799999999993,8.9226,54.1033],[-80.4969,8.93,51.927],[-80.5045,8.9276,72.8838],[-80.5064,8.9319,57.7509],[-80.5121,8.9307,18.0731],[-80.5136,8.936,84.571],[-80.525,8.9354,52.2103],[-80.531,8.9474,40.431],[-80.5473,8.9418,73.1451],[-80.5448,8.9282,43.6574],[-80.5472,8.9192,24.8144],[-80.5523,8.9152,58.4397],[-80.5518,8.9038,18.805],[-80.5551,8.9022,19.7227],[-80.5558,8.8982,51.1931],[-80.5601,8.897,83.2022],[-80.5628,8.8943,78.6733],[-80.5598,8.8901,77.3469],[-80.5583,8.8819,33.5436],[-80.5557,8.8809,46.7717],[-80.5552,8.8828,39.1207],[-80.5526,8.884,42.6322],[-80.5521,8.8812,54.364],[-80.5544,8.8789,43.3141],[-80.5546,8.876,42.8227],[-80.5503,8.8714,27.3553],[-80.552,8.8682,61.6116],[-80.5505,8.8541,55.1407],[-80.5545,8.8476,57.3864],[-80.5521,8.8418,65.7616],[-80.5538,8.8335,75.9245],[-80.5526,8.8222,51.6927],[-80.5639,8.8081,53.1984],[-80.5618,8.807,48.2988],[-80.5575,8.7979,49.0606],[-80.5737,8.7957,50.81],[-80.6221,8.7968,83.1328],[-80.6241,8.7988,129.6808],[-80.625,8.8049,181.7269],[-80.6237,8.8055,186.1051],[-80.625,8.8089,224.8824],[-80.6336,8.8073,209.7412],[-80.6407,8.8086,246.3923],[-80.6458,8.805,180.2558],[-80.654,8.8075,183.0089],[-80.6554,8.7951,93.5],[-80.6641,8.7917,121.4399],[-80.6723,8.7847,174.5096],[-80.677,8.7834,147.1673],[-80.6887,8.7754,158.7792],[-80.6907,8.769,128.1382],[-80.6845,8.7572,95.5054],[-80.6878,8.7543,142.9569],[-80.6874,8.748,227.7736],[-80.6934,8.7407,318.4787],[-80.6946,8.7359,354.2646],[-80.7009,8.7321,257.9843],[-80.7034,8.7267,279.7535],[-80.7018,8.7208,348.2288],[-80.7048,8.7057,551.9854],[-80.6993,8.6889,653.3058],[-80.6908,8.6834,619.0082],[-80.6856,8.6633,903.155],[-80.6974,8.6644,1123.9854],[-80.7076,8.6615,857.3167],[-80.7149,8.6422,951.4545],[-80.716,8.6327,740.1184],[-80.7251,8.637,906.5226],[-80.7318,8.6373,981.6829],[-80.7389,8.6402,1119.6379],[-80.7434,8.6393,1262.6602],[-80.746,8.6059,1616.5461],[-80.7556,8.5912,1252.8568],[-80.7632,8.5682,1009.6095],[-80.7704,8.5583,1424.0166],[-80.7767,8.5525,1551.7495],[-80.7819,8.5497,1522.2678],[-80.79,8.5518,1332.9382],[-80.8057,8.5659,1350.1628],[-80.8116,8.5659,1543.4884],[-80.8214,8.5618,1467.0879],[-80.8229,8.5468,945.4868],[-80.803,8.5318,639.9194],[-80.7931,8.5222,691.9437],[-80.7855,8.5131,666.6365],[-80.7753,8.4964,407.765],[-80.7744,8.4752,430.9919],[-80.7596,8.4649,441.0833],[-80.7448,8.4507,325.1846],[-80.7359,8.4126,193.2811],[-80.7129,8.3876,149.8187],[-80.7104,8.3757,181.0436],[-80.7115,8.3533,146.4957],[-80.7075,8.342,106.9858],[-80.6966,8.3327,123.6278],[-80.6612,8.3196,119.8643],[-80.6696,8.2897,77.7813],[-80.6891,8.2574,102.2644],[-80.6843,8.24,42.5947],[-80.687,8.2258,56.2664],[-80.6958,8.1991,53.0237],[-80.7095,8.1661,14.9223],[-80.6945,8.153,14.2929],[-80.6872,8.1412,15.6405],[-80.6768,8.1354,11.0241],[-80.6702,8.1226,7.8749],[-80.6713,8.1191,11.215],[-80.6739,8.1178,15.5977],[-80.6679,8.1179,10.1083],[-80.6656,8.1202,8.4475],[-80.6548,8.1222,16.7985],[-80.6524,8.1193,11.1991],[-80.651,8.1132,12.2113],[-80.6468,8.1123,11.3551],[-80.6467,8.1071,9.4262],[-80.6413,8.1117,9.0184],[-80.6382,8.1113,9.9185],[-80.6346,8.115,13.9082],[-80.6291,8.1136,12.2947],[-80.6251,8.1185,10.9245],[-80.6232,8.1184,10.2131],[-80.6147,8.1245,4.7579],[-80.5906,8.126,6.1007],[-80.5855,8.1313,6.2911],[-80.5815,8.1317,6.232],[-80.5799,8.1302,4.3018],[-80.5803,8.1278,4.2435],[-80.5833,8.1241,4.2299],[-80.588,8.1239,6.0319],[-80.589,8.1192,6.7045],[-80.5785,8.116,2.7912],[-80.5723,8.125,3.0968],[-80.5678,8.1188,3.0837],[-80.5638,8.1202,2.7999],[-80.5625,8.1151,3.0525],[-80.5549,8.1074,5.839],[-80.5598,8.0933,8.116],[-80.5559,8.0871,2.7171],[-80.5505,8.0974,6.8297],[-80.5503,8.1032,3.1061],[-80.5467,8.1038,3.029],[-80.5402,8.1015,2.6903],[-80.538,8.1042,6.6531],[-80.5384,8.1104,2.6767],[-80.5356,8.1119,2.7338],[-80.5327,8.1106,2.2928],[-80.534,8.1051,4.863],[-80.5296,8.1059,2.2739],[-80.5265,8.1089,2.4259],[-80.5272,8.1128,2.5099],[-80.526,8.1139,2.5844],[-80.5237,8.1117,2.2925],[-80.5251,8.1024,3.5621],[-80.5189,8.103,3.1749],[-80.5191,8.099,8.1654],[-80.5174,8.0968,11.628],[-80.5138,8.0966,8.2588],[-80.511,8.0983,10.5049],[-80.5103,8.1013,1.6338],[-80.5115,8.1013,1.6338],[-80.509,8.1049,7.3846],[-80.5113,8.1101,2.621],[-80.5062,8.1129,1.5249],[-80.504,8.1107,1.7014],[-80.506,8.109,3.1064],[-80.5054,8.1062,9.8764],[-80.4979,8.1032,9.6344],[-80.4985,8.0971,7.8257],[-80.4965,8.0943,7.3833],[-80.4929,8.0924,12.1235],[-80.4851,8.0921,5.7936],[-80.4793,8.0985,0.0],[-80.4785,8.1035,0.0],[-80.4868,8.1312,2.1651],[-80.489,8.1615,0.0],[-80.4865,8.179,0.0],[-80.4876,8.1804,8.9323],[-80.4924,8.1799,8.1244],[-80.4887,8.1821,2.8183],[-80.4818,8.1818,0.0],[-80.4765,8.1915,0.0],[-80.4765,8.1951,0.0],[-80.479,8.1946,1.8378],[-80.4807,8.1985,0.0],[-80.4832,8.1999,0.0],[-80.481,8.2107,0.0],[-80.4751,8.2235,0.0],[-80.4701,8.226,4.5061],[-80.4688,8.2232,0.0]]],
[[[-80.1101,8.3538,0.0],[-80.1096,8.3549,0.0],[-80.111,8.3551,0.0],[-80.1115,8.3518,0.0],[-80.1104,8.3521,0.0],[-80.1101,8.3538,0.0]]]]}
,"properties": {"GID_1": "PAN.3_1","GID_0": "PAN","country": "Panama","province": "Coclé","VARNAME_1": "NA","NL_NAME_1": "NA","TYPE_1": "Provincia","ENGTYPE_1": "Province","CC_1": "NA","HASC_1": "PA.CC","ISO_1": "NA","name": "Coclé.province","area_km2": 4928.129,"hist_schema_id": "Elevation0-9000","hist_area_km2": {"0": 530.627,"25": 647.143,"50": 426.084,"75": 341.387,"100": 319.409,"125": 295.144,"150": 268.666,"175": 259.952,"200": 240.569,"225": 194.404,"250": 156.013,"275": 131.45,"300": 116.36,"325": 96.825,"350": 82.425,"375": 71.316,"400": 61.212,"425": 55.719,"450": 50.332,"475": 46.706,"500": 38.446,"525": 35.448,"550": 32.598,"575": 34.044,"600": 34.463,"625": 27.629,"650": 25.114,"675": 22.912,"700": 20.963,"725": 20.082,"750": 19.957,"775": 19.307,"800": 18.091,"825": 17.462,"850": 16.728,"875": 13.836,"900": 13.144,"925": 12.096,"950": 11.53,"975": 10.209,"1000": 9.58,"1025": 9.727,"1050": 8.281,"1075": 7.065,"1100": 6.52,"1125": 6.079,"1150": 5.409,"1175": 4.507,"1200": 3.899,"1225": 3.941,"1250": 3.564,"1275": 3.857,"1300": 3.627,"1325": 3.019,"1350": 2.369,"1375": 2.432,"1400": 1.929,"1425": 1.216,"1450": 1.279,"1475": 1.006,"1500": 0.923,"1525": 0.545,"1550": 0.671,"1575": 0.398,"1600": 0.252,"1625": 0.147,"1650": 0.042}}}