{"type":"Feature","properties":{"ISO3166-1-Alpha-3":"PAN","country":"Panama","fill":"#FF0","id":"1336","name":"Coclé"},
"geometry":{"type": "Polygon","coordinates": [[[-80.13745,8.94925,55.2219],[-80.14978,8.95452,39.6801],[-80.15748,8.95948,51.3168],[-80.16425,8.96571,24.2599],[-80.1705,8.97633,62.3274],[-80.17732,9.01085,34.6434],[-80.17823,9.0218,88.7972],[-80.19223,9.04748,13.9328],[-80.20239,9.0273,58.0338],[-80.20761,8.99844,113.3007],[-80.21458,8.98578,89.3434],[-80.22207,8.97842,75.2231],[-80.23282,8.9733,148.9748],[-80.24652,8.96354,119.0731],[-80.32553,8.88881,125.2526],[-80.34173,8.87656,58.991],[-80.35548,8.87189,66.3438],[-80.36475,8.87468,58.8021],[-80.38969,8.87835,57.6053],[-80.41144,8.88463,41.2238],[-80.42452,8.89269,50.2396],[-80.51565,8.92659,72.4324],[-80.52394,8.92488,21.3639],[-80.53097,8.91698,72.2626],[-80.54218,8.8806,39.5251],[-80.54342,8.8708,61.6073],[-80.54141,8.86646,41.2853],[-80.53792,8.86127,64.6711],[-80.53469,8.85243,72.9912],[-80.53268,8.82117,36.3074],[-80.53585,8.80587,49.8185],[-80.54247,8.79096,75.8232],[-80.55508,8.78158,47.9191],[-80.56939,8.77461,116.0351],[-80.58614,8.76972,111.1949],[-80.60081,8.76934,155.4468],[-80.61202,8.77027,69.581],[-80.63042,8.77391,85.7407],[-80.64019,8.77213,97.9473],[-80.65169,8.76701,114.0477],[-80.66698,8.75233,111.5293],[-80.6775,8.7383,303.0347],[-80.68533,8.7151,204.5793],[-80.69491,8.69376,447.9163],[-80.6961,8.67544,908.2773],[-80.69484,8.66327,1142.1111],[-80.69259,8.652,1306.6984],[-80.69499,8.64177,1034.1072],[-80.70569,8.62991,848.015],[-80.71579,8.61384,673.6403],[-80.73941,8.61524,1102.1088],[-80.75132,8.58638,977.4485],[-80.77873,8.55333,1579.7256],[-80.81026,8.54829,1164.3119],[-80.82209,8.53775,744.5468],[-80.80051,8.51858,467.0032],[-80.78008,8.49142,373.4676],[-80.75667,8.45021,290.0789],[-80.71799,8.3489,123.3528],[-80.69347,8.30931,106.6918],[-80.69745,8.2772,107.1326],[-80.71194,8.22707,51.3353],[-80.73809,8.18069,11.7528],[-80.73406,8.16353,45.4164],[-80.68701,8.1326,14.1331],[-80.66275,8.12405,8.359],[-80.64642,8.12529,6.3569],[-80.60973,8.13731,6.4008],[-80.59123,8.13855,3.7877],[-80.57732,8.13281,4.5565],[-80.55849,8.11284,6.8054],[-80.54947,8.10612,3.4818],[-80.54355,8.10674,3.7907],[-80.53218,8.11534,9.123],[-80.52645,8.11638,2.5524],[-80.51456,8.11051,2.3973],[-80.49144,8.09519,27.1575],[-80.47845,8.0914,0.0],[-80.4761,8.09488,0.0],[-80.47484,8.10647,0.0],[-80.47818,8.20234,0.0],[-80.47024,8.22065,0.0],[-80.40701,8.28303,0.0],[-80.38878,8.29483,0.0],[-80.38476,8.30158,8.0818],[-80.38626,8.30695,22.8757],[-80.38577,8.31135,21.9708],[-80.37576,8.31525,21.1569],[-80.38073,8.31037,16.2682],[-80.37466,8.30337,24.5151],[-80.36148,8.29483,1.4477],[-80.33422,8.28799,0.0],[-80.32628,8.29031,0.0],[-80.30883,8.29865,2.7417],[-80.30004,8.30105,0.0],[-80.29446,8.30044,0.0],[-80.28161,8.29593,0.0],[-80.27274,8.29483,0.0],[-80.22496,8.30105,0.0],[-80.19555,8.31293,0.0],[-80.12584,8.34862,0.0],[-80.08088,8.37177,0.0],[-80.0408,8.39798,0.0],[-80.0408,8.39798,0.0],[-80.08172,8.44556,95.1775],[-80.08648,8.45527,116.5073],[-80.09203,8.47085,157.3199],[-80.09562,8.52664,325.5519],[-80.10467,8.55131,445.7847],[-80.10441,8.58304,669.7485],[-80.10309,8.59188,746.6415],[-80.10678,8.62642,755.2799],[-80.11255,8.64301,720.6636],[-80.13761,8.75536,421.4845],[-80.16368,8.8307,181.2579],[-80.16451,8.85445,203.3024],[-80.16177,8.87228,170.236],[-80.1557,8.88889,170.4443],[-80.13311,8.92225,46.4497],[-80.13745,8.94925,55.2219]]]}}