{"type":"Feature","properties":{"featurecla":"River","scalerank":8,"rivernum":806,"dissolve":"806River","name":"Santa4","name_alt":null,"note":null,"min_zoom":7.0,"strokeweig":0.2,"name_en":"Santa Mara","min_label":8.0},
"geometry":{"type": "LineString","coordinates": [[-80.855224609375,8.18366119999412,44.266],[-80.761157226562489,8.1727236999941084,43.9477],[-80.734057617187489,8.16364166874412,45.4164],[-80.68701171875,8.1335635437441169,14.1331],[-80.662695312499991,8.12409088749412,8.359],[-80.646411132812489,8.12531159061912,6.3569],[-80.609716796874991,8.13739655155662,6.4008],[-80.591162109374991,8.13861725468162,3.7877],[-80.577319335937489,8.13287994999412,4.5565],[-80.558447265624991,8.11286041874412,6.8054],[-80.549414062499991,8.1062197937441169,3.4818],[-80.543505859374989,8.1068057312441084,3.7907],[-80.532177734375,8.11542389530662,1.7965],[-80.526416015624989,8.11640045780662,2.5524],[-80.514501953124991,8.11054108280662,2.3973],[-80.491455078125,8.0952334656191169,27.1575],[-80.477709960937489,8.0911807312441084,0.0]]}}