{"type":"Feature","properties":{"GID_3":"PAN.13.3.1_1","GID_0":"PAN","country":"Panama","GID_1":"PAN.13_1","province":"Veraguas","NL_NAME_1":"NA","GID_2":"PAN.13.3_1","county":"Cañazas","NL_NAME_2":"NA","city":"Cañazas","VARNAME_3":"NA","NL_NAME_3":"NA","TYPE_3":"Corregimiento","ENGTYPE_3":"Municipality","CC_3":"NA","HASC_3":"NA","name":"Cañazas.city"},
"geometry":{"type": "MultiPolygon","coordinates": [[[[-81.3476,8.3337,288.2802],[-81.3221,8.3233,214.9659],[-81.3045,8.3192,180.2125],[-81.2968,8.3122,123.2176],[-81.2835,8.2954,116.7429],[-81.2796,8.2937,100.5164],[-81.2691,8.2931,115.9694],[-81.2672,8.2907,115.2252],[-81.2657,8.283,83.8501],[-81.2682,8.2704,90.661],[-81.2365,8.2739,140.2034],[-81.2186,8.2864,187.5816],[-81.1947,8.289,282.1008],[-81.1895,8.2929,272.2954],[-81.1843,8.302,190.6934],[-81.181,8.3048,153.6039],[-81.1522,8.3128,207.7637],[-81.1459,8.3166,174.2971],[-81.1464,8.3191,187.3944],[-81.1528,8.3264,292.8645],[-81.1537,8.3302,346.6995],[-81.1626,8.335,354.6992],[-81.1659,8.3507,335.9611],[-81.1747,8.3647,334.3149],[-81.1859,8.3752,378.3898],[-81.1959,8.3799,309.3791],[-81.2078,8.3682,374.1089],[-81.2289,8.3513,186.5834],[-81.237799999999993,8.3495,170.0315],[-81.252,8.3504,250.3537],[-81.2655,8.3469,224.1876],[-81.2755,8.349,170.7242],[-81.2794,8.3522,140.3212],[-81.2809,8.3668,254.2216],[-81.288,8.3746,282.1977],[-81.3025,8.3794,296.1716],[-81.312,8.3871,199.9099],[-81.3166,8.388,216.9387],[-81.3196,8.3654,203.4367],[-81.326,8.359,307.0314],[-81.3347,8.3575,289.0004],[-81.3371,8.3556,314.4482],[-81.3476,8.3337,288.2802]]]]}}