{"type": "Feature","bbox": [-81.5281,8.5148,-81.4275,8.6458],"geometry": {"type": "MultiPolygon","coordinates": [[[[-81.4891,8.6458,1137.6431],[-81.492,8.6262,1141.6254],[-81.4919,8.6116,1378.3544],[-81.4898,8.6034,1457.5861],[-81.4979,8.594,1647.4534],[-81.503,8.584,1277.0714],[-81.5063,8.5698,1425.7461],[-81.5038,8.5647,1190.4583],[-81.5041,8.5618,1047.9143],[-81.5137,8.5468,1111.0298],[-81.519,8.5342,1079.1636],[-81.5281,8.5235,901.6976],[-81.5169,8.5162,847.9294],[-81.5121,8.5148,705.7867],[-81.4844,8.5253,919.1046],[-81.479,8.5243,752.5803],[-81.4725,8.5205,653.1255],[-81.4726,8.5334,854.6069],[-81.468,8.5651,1361.8295],[-81.4659,8.5669,1439.4839],[-81.4556,8.5655,1299.8209],[-81.4517,8.5664,1347.1007],[-81.4476,8.5732,1390.9884],[-81.442,8.5782,1554.1681],[-81.4396,8.5873,1246.5601],[-81.4328,8.6,966.3882],[-81.4275,8.6233,712.8523],[-81.4359,8.6227,469.3539],[-81.4498,8.6283,625.1502],[-81.4582,8.6344,561.4724],[-81.4779,8.6354,960.6097],[-81.4891,8.6458,1137.6431]]]]}
,"properties": {"GID_3": "PAN.10.7.8_1","GID_0": "PAN","country": "Panama","GID_1": "PAN.10_1","province": "NgöbeBuglé","NL_NAME_1": "NA","GID_2": "PAN.10.7_1","county": "Ñürüm","NL_NAME_2": "NA","city": "Guayabito","VARNAME_3": "NA","NL_NAME_3": "NA","TYPE_3": "Corregimiento","ENGTYPE_3": "Municipality","CC_3": "NA","HASC_3": "NA","name": "Guayabito.city","area_km2": 73.94322,"hist_schema_id": "Elevation0-9000","hist_area_km2": {"425": 0.02096,"450": 0.10481,"475": 0.25155,"500": 0.37732,"525": 0.29347,"550": 0.58695,"575": 0.64984,"600": 0.75466,"625": 0.98524,"650": 1.0691,"675": 1.1949,"700": 1.00622,"725": 1.15301,"750": 1.13207,"775": 1.61425,"800": 1.782,"825": 1.97066,"850": 1.69814,"875": 1.9288,"900": 2.15943,"925": 1.86594,"950": 2.24331,"975": 2.41105,"1000": 2.43204,"1025": 2.72553,"1050": 2.97717,"1075": 2.80941,"1100": 2.20139,"1125": 2.09654,"1150": 1.61431,"1175": 2.0965,"1200": 2.05456,"1225": 2.20132,"1250": 1.80299,"1275": 2.18036,"1300": 2.18037,"1325": 1.90781,"1350": 1.90783,"1375": 1.61431,"1400": 1.88686,"1425": 1.71914,"1450": 1.92879,"1475": 1.3837,"1500": 1.27885,"1525": 1.0692,"1550": 0.77568,"1575": 0.6499,"1600": 0.60797,"1625": 0.2935,"1650": 0.20964,"1675": 0.02096,"1700": 0.04193,"1725": 0.02096}}}