{"type": "Feature","bbox": [-78.7979,8.9136,-78.05,9.3847],"geometry": {"type": "MultiPolygon","coordinates": [[[[-78.4982,9.0876,55.5],[-78.4974,9.086,56.6509],[-78.4943,9.0874,56.9988],[-78.4954,9.0915,56.1295],[-78.4965,9.0918,57.5785],[-78.496,9.0899,57.4988],[-78.4982,9.0876,55.5]]],
[[[-78.4665,9.101,57.361],[-78.4682,9.0988,56.583],[-78.4674,9.0946,55.5],[-78.464,9.0929,58.0337],[-78.4649,9.0971,56.5776],[-78.4671,9.0979,56.5682],[-78.4665,9.101,57.361]]],
[[[-78.5115,9.1032,56.9907],[-78.5124,9.1046,56.3998],[-78.5137,9.1015,56.1659],[-78.511,9.1015,56.4516],[-78.511,9.1026,56.9907],[-78.5129,9.1021,56.696],[-78.5115,9.1032,56.9907]]],
[[[-78.5738,9.1293,55.5],[-78.5754,9.131,55.5],[-78.5774,9.1285,55.5],[-78.5749,9.1279,55.5],[-78.5738,9.1293,55.5]]],
[[[-78.0513,9.0876,503.7781],[-78.05,9.0886,450.1034],[-78.053,9.0925,526.8757],[-78.0695,9.1003,648.9276],[-78.0678,9.1153,422.7347],[-78.0656,9.1211,288.4794],[-78.066,9.1261,432.0807],[-78.0669,9.1297,510.9965],[-78.0697,9.1323,570.5142],[-78.0787,9.1327,522.8206],[-78.082,9.1371,517.791],[-78.0856,9.1507,360.9333],[-78.0824,9.1585,374.9163],[-78.0831,9.1611,351.7012],[-78.091,9.1643,624.5153],[-78.0981,9.1697,526.5258],[-78.1103,9.1689,414.9617],[-78.1214,9.1725,422.698],[-78.1262,9.1799,414.6921],[-78.1365,9.1831,436.6889],[-78.149,9.1835,304.2868],[-78.1565,9.1879,476.8645],[-78.1678,9.1885,357.6271],[-78.1797,9.1933,266.159],[-78.2012,9.1927,329.6563],[-78.2171,9.1961,293.918],[-78.2228,9.1959,251.1179],[-78.2276,9.1936,238.5394],[-78.233,9.1863,256.648],[-78.2442,9.1849,329.3372],[-78.2504,9.1863,267.6766],[-78.273,9.198,394.222],[-78.2823,9.2073,378.7559],[-78.2922,9.2115,327.1499],[-78.2923,9.2137,369.8546],[-78.2875,9.2181,438.3112],[-78.2881,9.2252,355.745],[-78.2953,9.2435,349.9256],[-78.3014,9.2505,441.2747],[-78.3018,9.2599,475.7283],[-78.3034,9.2633,468.9454],[-78.3099,9.2634,370.8076],[-78.3194,9.2563,340.5478],[-78.3296,9.2559,385.8467],[-78.3341,9.2521,364.1596],[-78.3382,9.2455,259.6132],[-78.3404,9.2449,333.3402],[-78.3534,9.2521,343.5177],[-78.372,9.2536,393.4731],[-78.376,9.2579,371.4695],[-78.3785,9.2683,363.7469],[-78.3839,9.2735,320.6381],[-78.3883,9.2742,337.8479],[-78.3996,9.2717,326.7177],[-78.4071,9.2662,369.1022],[-78.4146,9.2567,435.5303],[-78.4164,9.2527,472.2166],[-78.4139,9.2374,549.3593],[-78.4159,9.2328,553.1498],[-78.4258,9.2375,485.4107],[-78.4338,9.245,506.248],[-78.4382,9.2447,528.1563],[-78.4459,9.2393,546.4525],[-78.4484,9.2459,373.809],[-78.463,9.2625,483.4225],[-78.4659,9.278,301.2597],[-78.4752,9.2911,419.9213],[-78.4767,9.3,573.2913],[-78.489,9.3034,581.0088],[-78.4962,9.3078,468.3533],[-78.5008,9.3127,399.4825],[-78.504,9.3235,339.3451],[-78.5036,9.3279,369.7183],[-78.4961,9.3346,281.173],[-78.5015,9.3388,302.2047],[-78.502,9.3458,382.2137],[-78.5036,9.3475,407.9063],[-78.5119,9.3468,322.2369],[-78.5229,9.3492,272.3512],[-78.5301,9.3435,310.3128],[-78.5337,9.3365,357.339],[-78.5468,9.3271,275.1557],[-78.5586,9.328,340.6153],[-78.5719,9.323,273.9323],[-78.5893,9.3267,331.1312],[-78.5924,9.3259,311.7246],[-78.5979,9.3205,326.4154],[-78.612,9.3233,384.7975],[-78.6216,9.3198,559.7048],[-78.6306,9.3279,607.6073],[-78.6365,9.3359,497.3197],[-78.6474,9.3397,531.2377],[-78.6518,9.344,550.9676],[-78.6658,9.3496,437.9168],[-78.674,9.3647,371.6388],[-78.6857,9.3692,270.1809],[-78.6911,9.3771,257.2624],[-78.6941,9.3775,302.0337],[-78.7046,9.3724,331.2521],[-78.7109,9.3754,228.1026],[-78.7149,9.3841,448.5903],[-78.7205,9.3847,303.6832],[-78.726,9.3795,379.4003],[-78.7285,9.3685,493.9422],[-78.7286,9.3373,526.7416],[-78.7223,9.3232,432.8998],[-78.7221,9.3069,321.6705],[-78.7229,9.2982,275.5092],[-78.7311,9.2736,249.2984],[-78.7287,9.267,411.5991],[-78.7253,9.2646,399.2939],[-78.7249,9.2613,351.1519],[-78.7336,9.2552,405.9853],[-78.7412,9.2469,323.6252],[-78.7538,9.2463,170.7154],[-78.7655,9.242,141.3531],[-78.7758,9.2452,176.9658],[-78.7875,9.2434,86.5944],[-78.7903,9.2404,74.4869],[-78.7922,9.2288,117.7914],[-78.7907,9.2196,57.307],[-78.7857,9.2199,55.5],[-78.7885,9.2251,68.9735],[-78.7857,9.2265,59.6968],[-78.7893,9.2293,77.5249],[-78.789,9.2313,76.2936],[-78.7882,9.2287,82.2298],[-78.7846,9.2271,81.8877],[-78.7862,9.2237,55.5],[-78.7854,9.2207,61.3828],[-78.7779,9.2204,55.5],[-78.7743,9.2218,57.0915],[-78.7724,9.2246,65.0673],[-78.7729,9.2193,57.9107],[-78.764,9.2185,55.5],[-78.7621,9.2201,55.5],[-78.7588,9.2188,58.6429],[-78.7565,9.2201,55.5],[-78.7593,9.2263,64.2173],[-78.7579,9.2332,63.6539],[-78.7571,9.2321,63.6539],[-78.7579,9.2293,55.5],[-78.7546,9.2287,60.1731],[-78.754,9.2265,55.5],[-78.7526,9.2265,75.6003],[-78.7551,9.2224,55.5],[-78.7504,9.2218,55.5],[-78.749,9.2235,57.2954],[-78.7421,9.224,67.3658],[-78.7415,9.2224,61.2981],[-78.7393,9.2229,59.3516],[-78.739,9.2204,55.5],[-78.736,9.2235,58.2642],[-78.7343,9.2218,55.5],[-78.7293,9.2251,60.1048],[-78.7285,9.2243,60.1048],[-78.7299,9.2224,58.0903],[-78.7262,9.2229,57.8743],[-78.7187,9.2321,64.6306],[-78.7171,9.2287,97.4048],[-78.7196,9.2296,55.5],[-78.7232,9.2232,58.8841],[-78.7182,9.2199,55.5],[-78.7135,9.2201,66.2576],[-78.7138,9.2179,59.0822],[-78.7096,9.2171,73.2146],[-78.7104,9.2146,55.5],[-78.7049,9.2162,56.7647],[-78.7038,9.219,62.8392],[-78.7001,9.2165,56.3758],[-78.6996,9.219,79.3128],[-78.6904,9.2224,56.25],[-78.6899,9.2246,56.5],[-78.6921,9.2265,78.6775],[-78.6915,9.2313,90.25],[-78.6893,9.234,64.6479],[-78.6865,9.229,62.6904],[-78.6901,9.2271,62.4041],[-78.6871,9.2218,60.1116],[-78.6932,9.221,56.0],[-78.6937,9.219,55.5],[-78.6963,9.2185,57.1487],[-78.696,9.216,56.5946],[-78.6871,9.2149,55.5],[-78.6832,9.2165,64.0827],[-78.6757,9.2143,57.0688],[-78.6743,9.2157,56.4847],[-78.6757,9.2179,66.3065],[-78.6715,9.2196,63.389],[-78.669,9.2182,56.0],[-78.6682,9.2207,76.0071],[-78.6665,9.2204,56.0],[-78.664,9.2185,89.4559],[-78.6718,9.2176,56.0],[-78.6732,9.2149,60.2829],[-78.6724,9.2115,57.2417],[-78.6704,9.211,55.5],[-78.671,9.2132,61.0902],[-78.6699,9.2132,61.2875],[-78.666,9.2101,59.1819],[-78.6676,9.2082,59.5054],[-78.6707,9.2087,55.5],[-78.6712,9.2068,55.5],[-78.6674,9.2063,56.6793],[-78.664,9.209,68.3894],[-78.659,9.2082,56.5308],[-78.6546,9.2129,56.0],[-78.6549,9.2099,57.3946],[-78.6576,9.2074,55.5],[-78.6565,9.2026,55.5],[-78.6529,9.2013,56.0024],[-78.6521,9.2029,62.0103],[-78.6457,9.2035,67.0097],[-78.6451,9.1993,62.0884],[-78.6415,9.1993,63.5271],[-78.641,9.1968,55.5],[-78.6387,9.1982,63.1861],[-78.6393,9.1957,65.4519],[-78.6368,9.1949,59.086],[-78.6382,9.1929,59.0635],[-78.6385,9.1943,56.168],[-78.6421,9.1935,55.5],[-78.644,9.191,55.5],[-78.6426,9.189,57.2835],[-78.6332,9.1915,55.5],[-78.6326,9.1974,69.4255],[-78.6315,9.1962,69.8668],[-78.6326,9.1935,55.5],[-78.631,9.1932,56.9217],[-78.6249,9.1951,55.5],[-78.6229,9.1993,64.023],[-78.6096,9.201,65.6627],[-78.616,9.1976,65.8332],[-78.6221,9.1976,55.5],[-78.6229,9.194,57.7277],[-78.626,9.191,57.938],[-78.6318,9.191,55.5],[-78.6282,9.1879,56.7112],[-78.6235,9.1901,56.3663],[-78.6215,9.1876,56.9425],[-78.6221,9.1862,56.5618],[-78.6126,9.1882,62.2934],[-78.6115,9.184,60.2051],[-78.6071,9.1843,58.6863],[-78.6065,9.1821,55.5],[-78.6107,9.1812,76.8169],[-78.6149,9.1851,70.0011],[-78.619,9.1849,59.303],[-78.6201,9.1826,58.1551],[-78.6257,9.1838,55.5],[-78.6293,9.1826,55.5],[-78.6293,9.1846,55.5],[-78.6315,9.1846,55.5],[-78.6326,9.1821,56.8921],[-78.6365,9.1824,55.5],[-78.6363,9.1801,68.1304],[-78.6399,9.1749,55.5],[-78.636,9.1749,62.8718],[-78.6401,9.174,55.5],[-78.6424,9.171,55.5],[-78.6451,9.1701,60.2541],[-78.6446,9.1665,66.8164],[-78.6462,9.1621,59.5332],[-78.6443,9.161,61.1358],[-78.6479,9.1615,55.5],[-78.6535,9.159,58.824],[-78.6554,9.1565,61.8676],[-78.6537,9.154,61.7513],[-78.6515,9.1538,55.5],[-78.6501,9.146,55.5],[-78.6446,9.1499,55.5],[-78.6363,9.1485,62.1674],[-78.636,9.1429,60.9091],[-78.6376,9.139,62.6409],[-78.634,9.1376,59.6957],[-78.6321,9.134,55.5],[-78.6279,9.1332,57.5146],[-78.6312,9.1321,55.5],[-78.6299,9.1274,65.5638],[-78.6279,9.1279,55.5],[-78.6226,9.1415,68.7548],[-78.6196,9.1424,75.6284],[-78.6185,9.1413,82.3726],[-78.6185,9.1329,58.4004],[-78.6129,9.139,55.5],[-78.6132,9.1424,55.5],[-78.616,9.1424,73.8137],[-78.6146,9.1443,59.6743],[-78.6129,9.1435,71.9139],[-78.6115,9.146,59.3865],[-78.6062,9.1468,58.8495],[-78.6124,9.1421,71.9139],[-78.6104,9.1382,55.5],[-78.6026,9.136,55.5],[-78.5999,9.1396,55.5],[-78.5929,9.1432,55.5],[-78.5926,9.1415,55.5],[-78.5874,9.1385,55.5],[-78.5829,9.1382,60.9954],[-78.5813,9.1354,63.3627],[-78.5826,9.1293,55.5],[-78.5751,9.1318,55.5],[-78.5679,9.1304,55.5],[-78.5679,9.1365,55.5],[-78.571,9.1382,78.5467],[-78.5699,9.1407,64.7715],[-78.5735,9.144,55.5],[-78.5776,9.1432,55.5],[-78.5774,9.1457,73.8391],[-78.5765,9.144,63.0179],[-78.5713,9.1451,63.0591],[-78.5704,9.1432,55.5],[-78.5654,9.1432,75.7873],[-78.5693,9.1396,67.6894],[-78.5654,9.1346,75.5493],[-78.566,9.1299,55.5],[-78.559,9.1285,55.5],[-78.5532,9.1296,58.1869],[-78.5521,9.1282,55.5],[-78.5488,9.1315,65.0645],[-78.5499,9.1293,58.0876],[-78.5485,9.1276,57.4625],[-78.5421,9.1293,69.169],[-78.5407,9.1274,57.8916],[-78.5304,9.1268,57.412],[-78.5265,9.1249,55.5],[-78.529,9.1287,66.034],[-78.5279,9.1287,55.5],[-78.5274,9.1343,66.5164],[-78.526,9.134,62.6714],[-78.5237,9.1371,55.5],[-78.5257,9.139,66.8656],[-78.5212,9.1404,59.8147],[-78.521,9.1449,72.4553],[-78.5174,9.1454,56.0],[-78.5168,9.1479,78.0729],[-78.5146,9.1479,62.2124],[-78.5168,9.1463,60.9662],[-78.5151,9.146,71.5336],[-78.5151,9.1443,58.4309],[-78.5143,9.1457,71.5336],[-78.5113,9.1463,56.7676],[-78.5079,9.144,86.0275],[-78.5074,9.1429,87.8347],[-78.5137,9.1451,58.3134],[-78.514,9.1432,60.172],[-78.519,9.1432,58.4417],[-78.5218,9.1385,62.4131],[-78.5204,9.1368,78.1064],[-78.5226,9.1371,55.5],[-78.5243,9.1349,57.7876],[-78.5237,9.1343,57.7876],[-78.5226,9.1349,57.7876],[-78.5215,9.1326,59.9192],[-78.5257,9.1321,55.5],[-78.5263,9.1304,56.5963],[-78.5226,9.1254,55.5],[-78.5199,9.1243,56.4556],[-78.5171,9.1254,55.5],[-78.5154,9.1224,59.2148],[-78.5126,9.1235,56.523],[-78.5129,9.1251,57.6177],[-78.5151,9.1249,58.8331],[-78.5149,9.1265,57.921],[-78.5118,9.1276,57.8284],[-78.5021,9.1257,58.0961],[-78.5068,9.1243,55.5],[-78.5065,9.1174,61.496],[-78.5104,9.121,55.5],[-78.5099,9.1188,58.762],[-78.5132,9.1165,58.6293],[-78.5129,9.1132,56.4872],[-78.5082,9.1154,58.1637],[-78.5099,9.1104,56.0682],[-78.5076,9.1096,61.4891],[-78.511,9.1101,55.5],[-78.5088,9.1082,55.5],[-78.5101,9.106,55.5],[-78.5054,9.106,57.5943],[-78.5035,9.1026,55.5],[-78.5018,9.1051,55.5],[-78.5049,9.1065,57.5943],[-78.5046,9.1085,56.1059],[-78.4999,9.1118,65.4669],[-78.4985,9.1099,57.4992],[-78.4932,9.1087,55.5],[-78.4901,9.1032,55.5],[-78.4968,9.1018,55.5],[-78.4954,9.1007,55.5],[-78.4962,9.0974,55.8105],[-78.4935,9.0976,57.3921],[-78.4962,9.0935,55.5],[-78.494,9.0918,56.1295],[-78.4921,9.0921,57.0352],[-78.4901,9.0974,58.1679],[-78.4865,9.0979,55.5],[-78.484,9.1015,59.8218],[-78.4801,9.1021,60.9357],[-78.4815,9.0996,55.8283],[-78.4804,9.099,57.9139],[-78.4785,9.1015,64.7159],[-78.4751,9.0974,55.5],[-78.4737,9.101,71.3379],[-78.4693,9.1007,58.0339],[-78.4674,9.1049,58.3278],[-78.4651,9.1029,57.4788],[-78.4654,9.1012,57.361],[-78.4615,9.1026,61.1266],[-78.4626,9.1004,59.0099],[-78.4579,9.0979,67.2026],[-78.4574,9.0951,58.9015],[-78.4574,9.0929,57.8808],[-78.459,9.0935,57.9156],[-78.459,9.096,58.764],[-78.4626,9.0921,57.5562],[-78.4651,9.0921,56.0941],[-78.4657,9.0879,57.9885],[-78.4726,9.0904,56.2785],[-78.476,9.0896,55.5],[-78.471,9.0888,57.2463],[-78.4721,9.0826,57.0614],[-78.4696,9.0793,58.0406],[-78.4724,9.0785,57.5566],[-78.4707,9.0754,59.0728],[-78.4726,9.0746,58.2758],[-78.4751,9.0746,59.1391],[-78.4749,9.0771,57.2631],[-78.4765,9.0774,55.5],[-78.4735,9.0812,60.4231],[-78.4757,9.084,57.8506],[-78.4726,9.0849,56.7399],[-78.474,9.0868,57.1952],[-78.479,9.0863,57.245],[-78.4807,9.0879,55.625],[-78.4785,9.0846,57.927],[-78.4799,9.0832,57.774],[-78.4924,9.0849,55.5],[-78.4924,9.0818,55.5],[-78.4899,9.0793,55.5],[-78.489,9.0812,55.5],[-78.4851,9.079,59.2701],[-78.4871,9.0771,55.5],[-78.4854,9.074,59.268],[-78.489,9.0751,56.0571],[-78.4918,9.0718,61.545],[-78.4938,9.0743,56.6678],[-78.4979,9.074,55.5],[-78.4957,9.069,58.0027],[-78.4985,9.066,55.5],[-78.5026,9.0654,55.5],[-78.5046,9.0635,56.8134],[-78.5032,9.0571,60.716],[-78.4996,9.0524,65.2332],[-78.501,9.0471,57.323],[-78.5032,9.046,57.6873],[-78.5096,9.0463,57.4581],[-78.5096,9.0501,58.0566],[-78.5137,9.0518,58.2702],[-78.5185,9.0479,58.4892],[-78.5221,9.0493,58.83],[-78.5201,9.0562,55.8466],[-78.5226,9.0596,57.4495],[-78.5221,9.064,56.184],[-78.5207,9.0635,55.5],[-78.5176,9.0663,58.0826],[-78.5201,9.0668,59.4502],[-78.5193,9.0718,56.7269],[-78.519,9.069,55.5],[-78.5176,9.0718,57.7936],[-78.5163,9.071,57.7936],[-78.5135,9.0626,55.5],[-78.5151,9.061,55.5],[-78.5176,9.0638,55.5],[-78.5185,9.0624,55.5],[-78.5143,9.0568,55.5],[-78.5129,9.0579,58.1857],[-78.5132,9.0529,58.115],[-78.5113,9.0535,56.4362],[-78.5107,9.0574,55.5],[-78.5124,9.0621,55.5],[-78.5107,9.0632,55.5],[-78.5113,9.069,55.5],[-78.5101,9.0701,55.5],[-78.5118,9.0729,55.5],[-78.5149,9.0724,55.5],[-78.5182,9.0746,55.5],[-78.5176,9.0771,55.5],[-78.5221,9.0751,69.8073],[-78.5226,9.0699,59.5958],[-78.5296,9.0651,64.8947],[-78.5329,9.0654,80.3191],[-78.5374,9.0685,73.2047],[-78.5393,9.0721,68.8324],[-78.5382,9.0779,55.5],[-78.5446,9.0793,55.9711],[-78.5451,9.0815,55.5],[-78.5465,9.079,58.1766],[-78.5488,9.0787,56.3606],[-78.5474,9.0779,56.3606],[-78.5479,9.0765,57.2041],[-78.5521,9.0724,55.5],[-78.556,9.074,55.5],[-78.5579,9.0737,55.5],[-78.5596,9.071,55.5],[-78.5626,9.071,58.7843],[-78.5624,9.0737,62.5615],[-78.5576,9.0765,60.086],[-78.5557,9.0821,55.5],[-78.5593,9.0829,59.0808],[-78.5626,9.0815,62.2276],[-78.5646,9.0829,55.5],[-78.561,9.0879,57.4559],[-78.5601,9.0943,55.5],[-78.5624,9.094,60.4176],[-78.5657,9.1001,66.238],[-78.5632,9.1021,69.9395],[-78.5596,9.1021,74.4394],[-78.5593,9.1035,55.5],[-78.5643,9.1054,80.1806],[-78.5679,9.1099,55.5],[-78.5699,9.1099,55.5],[-78.5718,9.1074,57.4745],[-78.5704,9.1118,67.0955],[-78.5663,9.1146,55.5],[-78.5699,9.1171,55.5],[-78.5743,9.1157,55.5],[-78.5749,9.1132,70.331],[-78.5788,9.1132,55.5],[-78.5793,9.1071,55.5],[-78.5774,9.1057,62.0757],[-78.579,9.104,55.5],[-78.5815,9.1049,56.4353],[-78.5799,9.1038,55.5],[-78.5796,9.1001,69.2771],[-78.5837,9.099,57.0831],[-78.584,9.1043,55.5],[-78.5885,9.1051,55.5],[-78.5874,9.0979,55.5],[-78.584,9.0932,69.7312],[-78.5868,9.091,55.5],[-78.5899,9.0812,59.7531],[-78.5918,9.0812,55.5],[-78.5912,9.0835,55.5],[-78.5943,9.081,55.5],[-78.596,9.0818,55.5],[-78.5951,9.086,76.8622],[-78.5912,9.091,55.5],[-78.5937,9.099,55.5],[-78.5951,9.0996,55.5],[-78.5971,9.0974,55.5],[-78.5987,9.0904,59.3888],[-78.6001,9.0904,59.3888],[-78.6012,9.0932,56.6432],[-78.5976,9.101,55.5],[-78.6043,9.0976,55.5],[-78.6012,9.1021,55.5],[-78.606,9.1035,59.6402],[-78.6079,9.1018,58.4026],[-78.6096,9.1093,58.0659],[-78.6054,9.1199,57.7178],[-78.6029,9.119,55.5],[-78.5996,9.124,56.2695],[-78.6012,9.1279,59.3957],[-78.5849,9.1313,55.5],[-78.584,9.1351,55.5],[-78.5885,9.1351,78.8236],[-78.5926,9.139,55.5],[-78.5963,9.139,55.5],[-78.6026,9.1337,91.8801],[-78.611,9.1362,60.1369],[-78.6179,9.131,66.8208],[-78.6204,9.1313,64.7456],[-78.6218,9.1351,60.1096],[-78.6229,9.1346,60.1096],[-78.626,9.1251,55.5],[-78.6237,9.1221,56.3583],[-78.6224,9.1224,58.6301],[-78.6218,9.1182,55.5],[-78.6185,9.1157,58.1939],[-78.621,9.1118,60.6188],[-78.6243,9.1101,56.3556],[-78.6218,9.1051,58.7254],[-78.6301,9.1012,58.1396],[-78.6318,9.1026,57.6365],[-78.6288,9.1057,55.5],[-78.6304,9.1115,71.7039],[-78.6285,9.1132,55.5],[-78.6276,9.1185,57.6185],[-78.6299,9.1193,58.9154],[-78.6285,9.1212,55.5],[-78.6326,9.1204,56.0023],[-78.6326,9.1238,59.6513],[-78.6276,9.1246,56.6987],[-78.6263,9.1268,55.5],[-78.6338,9.1274,55.5],[-78.6354,9.1232,58.6154],[-78.6376,9.1224,58.8172],[-78.639,9.1238,55.5],[-78.644,9.1238,55.5],[-78.6449,9.1162,59.1044],[-78.6438,9.1149,76.6913],[-78.6465,9.1138,56.8291],[-78.6474,9.109,63.0122],[-78.6462,9.1076,63.253],[-78.6493,9.1062,60.324],[-78.6501,9.1085,55.5],[-78.6532,9.0993,60.0784],[-78.6557,9.0999,58.4937],[-78.6582,9.0976,57.1023],[-78.6593,9.1001,63.0103],[-78.6576,9.1018,57.9224],[-78.6579,9.104,57.0794],[-78.6601,9.1074,59.1408],[-78.6568,9.114,60.3043],[-78.6599,9.1176,58.6297],[-78.6565,9.1174,68.5373],[-78.6551,9.121,55.5],[-78.6562,9.1226,57.8501],[-78.6543,9.1232,57.8501],[-78.656,9.1254,55.5],[-78.664,9.124,56.0016],[-78.6635,9.1268,57.0531],[-78.666,9.1268,63.794],[-78.6646,9.1293,60.7438],[-78.6663,9.1293,60.7438],[-78.6693,9.1343,59.6159],[-78.6671,9.1335,56.0794],[-78.6651,9.1349,58.3092],[-78.664,9.1313,59.3364],[-78.661,9.131,59.0773],[-78.6599,9.1279,56.7117],[-78.6546,9.1293,57.1591],[-78.6546,9.1313,56.391],[-78.6576,9.1321,60.6604],[-78.6546,9.1337,56.8677],[-78.656,9.1362,68.3458],[-78.6524,9.1335,55.5],[-78.6432,9.1304,55.5],[-78.6326,9.1296,62.2479],[-78.6349,9.136,55.5],[-78.6393,9.1343,67.8569],[-78.641,9.1379,55.5],[-78.6421,9.1368,67.6339],[-78.6407,9.1413,58.4784],[-78.6379,9.1435,55.5],[-78.6399,9.1463,55.5],[-78.6426,9.1471,55.5],[-78.6524,9.1438,61.9902],[-78.656,9.1499,55.5],[-78.6588,9.1507,55.5],[-78.6601,9.149,55.5],[-78.6607,9.1521,55.5],[-78.6637,9.1518,56.9836],[-78.6618,9.1538,55.5],[-78.6618,9.1563,55.5],[-78.6596,9.1574,72.1073],[-78.6579,9.1546,57.8517],[-78.6571,9.1593,58.8205],[-78.6474,9.1643,55.5],[-78.6468,9.1679,55.5],[-78.649,9.1701,86.1287],[-78.6471,9.1696,55.5],[-78.6468,9.1735,55.5],[-78.6482,9.1749,100.7804],[-78.6468,9.1763,55.5],[-78.649,9.1771,97.3314],[-78.6468,9.1801,55.5],[-78.6438,9.1812,55.5],[-78.646,9.1815,56.2041],[-78.6454,9.1832,55.5],[-78.6501,9.1854,92.981],[-78.651,9.1874,55.5],[-78.6629,9.1835,73.566],[-78.6738,9.1846,64.4894],[-78.6746,9.1876,55.5],[-78.676,9.186,62.2482],[-78.679,9.1868,63.4575],[-78.6799,9.1849,65.7813],[-78.6801,9.1885,55.5],[-78.6893,9.1862,66.9759],[-78.6871,9.1887,61.277],[-78.6893,9.1893,59.0078],[-78.691,9.1957,55.5],[-78.6949,9.1982,58.0364],[-78.7015,9.1954,99.339],[-78.7071,9.1988,55.5],[-78.7149,9.2001,93.1169],[-78.7196,9.204,55.5],[-78.7249,9.2032,70.7218],[-78.726,9.199,76.2766],[-78.7385,9.1999,85.2428],[-78.7446,9.2035,55.5],[-78.7451,9.2018,82.217],[-78.7465,9.2032,63.4249],[-78.7493,9.2024,55.5],[-78.749,9.1996,74.053],[-78.7515,9.2004,69.1634],[-78.754,9.1971,55.5],[-78.759,9.1965,87.3744],[-78.7604,9.1979,61.7164],[-78.7665,9.1946,78.383],[-78.7718,9.1951,55.5],[-78.7721,9.194,55.5],[-78.7679,9.1932,67.1718],[-78.7676,9.1901,85.3858],[-78.7693,9.1921,67.1718],[-78.771,9.1896,95.7679],[-78.7751,9.1893,64.6015],[-78.7749,9.1865,68.6609],[-78.7776,9.1871,55.5],[-78.7774,9.1887,55.5],[-78.7824,9.189,65.9991],[-78.7882,9.1921,55.5],[-78.794,9.1921,55.5],[-78.7907,9.1907,66.0544],[-78.7924,9.1899,55.5],[-78.7926,9.1865,55.5],[-78.7885,9.184,55.5],[-78.7921,9.1829,55.5],[-78.7935,9.1796,65.262],[-78.7926,9.1774,59.1902],[-78.7949,9.1785,68.5436],[-78.7979,9.1751,55.5],[-78.7935,9.1685,55.5],[-78.7921,9.1715,71.748],[-78.7885,9.1679,69.5081],[-78.7849,9.171,75.7664],[-78.784,9.169,59.238],[-78.7865,9.169,55.5],[-78.7854,9.1649,65.924],[-78.7874,9.1649,59.875],[-78.7871,9.1637,55.5],[-78.7832,9.1637,55.5],[-78.7821,9.169,67.5729],[-78.7812,9.1646,56.0979],[-78.7679,9.1679,57.8442],[-78.7576,9.166,62.9204],[-78.7593,9.1607,55.5],[-78.7565,9.1624,67.9281],[-78.7565,9.1607,59.8461],[-78.7551,9.1607,59.8461],[-78.7546,9.1649,57.1469],[-78.7479,9.1618,55.5],[-78.7426,9.1626,68.107],[-78.7457,9.1557,56.5848],[-78.7443,9.1557,55.5],[-78.7429,9.1599,58.3028],[-78.7401,9.1585,55.5],[-78.7401,9.1604,56.6046],[-78.7357,9.1596,56.998],[-78.7415,9.1568,58.9113],[-78.7412,9.1557,58.9113],[-78.7368,9.1557,61.483],[-78.7326,9.1535,55.8486],[-78.7304,9.1546,57.6249],[-78.7282,9.1518,55.5],[-78.7229,9.1571,60.2596],[-78.7196,9.1554,59.6916],[-78.7171,9.1563,59.6201],[-78.7182,9.1543,59.6916],[-78.7229,9.1554,55.9646],[-78.7229,9.1543,55.9646],[-78.721,9.1526,58.0036],[-78.7218,9.1507,61.5589],[-78.7151,9.1485,63.9731],[-78.7232,9.1485,59.2265],[-78.7265,9.144,55.5],[-78.7271,9.1368,55.5],[-78.724,9.1349,55.5],[-78.7201,9.1371,61.8301],[-78.7162,9.1326,56.82],[-78.7138,9.1337,57.7051],[-78.7132,9.1326,57.7051],[-78.7118,9.1357,64.1329],[-78.7076,9.1365,64.7333],[-78.7063,9.134,60.297],[-78.7104,9.1351,55.5],[-78.7118,9.1321,57.7051],[-78.7085,9.1326,67.4808],[-78.7085,9.1307,57.874],[-78.7068,9.1315,63.1642],[-78.7063,9.1293,59.534],[-78.7087,9.1293,57.5396],[-78.7101,9.1313,58.4844],[-78.7157,9.1304,59.5504],[-78.7213,9.1343,56.0679],[-78.7254,9.1332,58.6705],[-78.7285,9.1354,55.5],[-78.7288,9.1335,55.5],[-78.7254,9.1324,58.6705],[-78.7249,9.1307,60.009],[-78.7204,9.1318,55.5],[-78.7171,9.1304,65.481],[-78.7224,9.1287,55.5],[-78.7213,9.1271,60.8751],[-78.7179,9.1282,58.7094],[-78.7193,9.1246,77.019],[-78.7224,9.1246,55.5],[-78.7221,9.1224,55.5],[-78.7154,9.116,62.2938],[-78.704,9.1099,55.5],[-78.7029,9.1057,61.6292],[-78.7012,9.1062,56.5878],[-78.7021,9.1082,55.5],[-78.6999,9.1076,55.5],[-78.7015,9.1049,55.5],[-78.6988,9.1018,55.5],[-78.696,9.1021,69.9374],[-78.6904,9.099,66.469],[-78.6904,9.0979,62.0327],[-78.6943,9.0976,59.0328],[-78.6963,9.1004,57.0048],[-78.6957,9.0976,55.5],[-78.6731,9.0857,71.0816],[-78.6717,9.0751,80.0501],[-78.6689,9.0719,73.8784],[-78.6604,9.0708,86.9275],[-78.6568,9.0721,83.3039],[-78.6529,9.0796,77.1743],[-78.6381,9.0744,85.9807],[-78.6242,9.0641,75.6483],[-78.5883,9.0619,89.2155],[-78.5821,9.0598,87.8038],[-78.5797,9.0608,83.2965],[-78.5756,9.0723,71.9964],[-78.5629,9.0691,55.5],[-78.5518,9.0702,58.9808],[-78.5489,9.0671,68.1027],[-78.5527,9.0622,70.8554],[-78.5536,9.0569,70.2446],[-78.5492,9.054,79.2494],[-78.5471,9.0504,81.8102],[-78.5434,9.0503,74.7971],[-78.5433,9.0425,87.6952],[-78.5418,9.0391,78.1519],[-78.529,9.0312,70.0271],[-78.5254,9.0266,68.3317],[-78.5253,9.0162,71.8047],[-78.532,9.009,67.0655],[-78.5324,9.0036,73.7241],[-78.5234,8.9974,80.2762],[-78.5185,8.991,93.1373],[-78.4901,8.9732,147.3721],[-78.4342,8.9479,159.8854],[-78.4249,8.9451,187.1306],[-78.3667,8.9417,116.5843],[-78.3524,8.9376,100.4771],[-78.3385,8.9382,94.2363],[-78.3172,8.9356,100.2859],[-78.3085,8.9356,90.7334],[-78.2959,8.9399,100.5803],[-78.2875,8.9401,104.5806],[-78.2653,8.9372,98.7687],[-78.2574,8.9329,95.8851],[-78.2388,8.9273,110.4996],[-78.2218,8.9177,112.8602],[-78.2106,8.9142,101.0316],[-78.2049,8.9136,97.7597],[-78.1919,8.9182,103.3474],[-78.176,8.9289,119.6054],[-78.1724,8.9381,110.5928],[-78.1707,8.9569,102.8468],[-78.1269,9.0114,172.9299],[-78.1222,9.0138,194.5803],[-78.1168,9.0124,162.2542],[-78.1115,9.007,190.924],[-78.1024,8.9931,148.3436],[-78.0947,9.0025,125.3581],[-78.0951,9.0177,200.604],[-78.0903,9.0259,216.8971],[-78.0845,9.0301,299.5761],[-78.0721,9.0319,298.8693],[-78.0584,9.041,304.1499],[-78.0556,9.0483,396.2229],[-78.06,9.0566,240.6378],[-78.0562,9.0645,368.1019],[-78.0552,9.0757,317.6046],[-78.0513,9.0876,503.7781]],
[[-78.4632,9.0913,57.7159],[-78.4585,9.0921,57.8808],[-78.456,9.0896,57.2677],[-78.4563,9.0837,58.2955],[-78.459,9.0785,58.5019],[-78.4618,9.0782,58.5856],[-78.4624,9.0826,56.8886],[-78.4662,9.0854,58.3477],[-78.4632,9.0913,57.7159]],
[[-78.4574,9.0763,58.1296],[-78.4563,9.079,57.3262],[-78.4546,9.0782,57.2011],[-78.4557,9.0735,57.7625],[-78.4521,9.0701,59.5665],[-78.454,9.0654,58.1934],[-78.4576,9.0699,59.8349],[-78.4574,9.0763,58.1296]],
[[-78.4968,9.0638,62.173],[-78.4957,9.0643,62.173],[-78.4971,9.0588,68.2673],[-78.4993,9.059,60.3721],[-78.4982,9.0624,55.5],[-78.5018,9.0615,55.5],[-78.4985,9.0649,55.5],[-78.4968,9.0638,62.173]]],
[[[-78.654,9.1521,55.5],[-78.6546,9.1546,55.5],[-78.6568,9.154,57.8517],[-78.6565,9.1526,55.5],[-78.654,9.1521,55.5]]],
[[[-78.6224,9.1871,56.9425],[-78.6232,9.1887,56.9425],[-78.6257,9.1876,55.5],[-78.6257,9.1849,55.5],[-78.6232,9.1857,56.5618],[-78.6224,9.1871,56.9425]]],
[[[-78.6762,9.1896,57.0403],[-78.6782,9.1901,56.74],[-78.679,9.1887,55.5],[-78.6768,9.1879,56.3625],[-78.6762,9.1896,57.0403]]],
[[[-78.6629,9.1935,64.1001],[-78.664,9.1949,55.5],[-78.6693,9.1899,55.5],[-78.6654,9.1882,55.9541],[-78.6635,9.1893,55.5],[-78.664,9.1915,56.5287],[-78.6621,9.191,55.5],[-78.6612,9.1926,55.5],[-78.6629,9.1935,64.1001]]],
[[[-78.754,9.198,55.5],[-78.7532,9.1996,61.6565],[-78.7546,9.1999,61.6565],[-78.7549,9.1988,61.6565],[-78.754,9.198,55.5]]],
[[[-78.7446,9.1346,55.5],[-78.7462,9.1354,55.5],[-78.7479,9.1332,55.5],[-78.7468,9.1307,55.5],[-78.7429,9.131,55.5],[-78.7454,9.1326,59.5635],[-78.7446,9.1346,55.5]]],
[[[-78.7337,9.1415,55.857],[-78.7357,9.1421,55.5],[-78.7371,9.136,55.5],[-78.7337,9.1374,55.5],[-78.7337,9.1415,55.857]]],
[[[-78.7349,9.1526,57.8313],[-78.7376,9.1526,56.5689],[-78.7376,9.1499,57.5298],[-78.7407,9.1513,55.5],[-78.741,9.149,55.8994],[-78.7457,9.1501,55.5],[-78.7479,9.1474,57.7142],[-78.7485,9.1493,57.335],[-78.7474,9.1504,57.335],[-78.7479,9.151,55.5],[-78.7524,9.1496,64.3807],[-78.7515,9.1515,55.5],[-78.754,9.1524,55.5],[-78.756,9.1488,55.5],[-78.7562,9.151,55.5],[-78.7599,9.1513,55.5],[-78.7629,9.1476,55.5],[-78.7579,9.1449,55.5],[-78.7554,9.1454,55.5],[-78.756,9.1429,55.5],[-78.751,9.1424,55.5],[-78.754,9.1374,55.5],[-78.7504,9.1365,55.5],[-78.749,9.1382,55.5],[-78.7493,9.1368,55.5],[-78.7474,9.1371,68.135],[-78.7471,9.1396,63.3634],[-78.7454,9.1396,57.886],[-78.7449,9.1413,69.967],[-78.7412,9.1376,56.643],[-78.7399,9.1415,55.5],[-78.7376,9.141,55.5],[-78.7396,9.1435,57.9544],[-78.7385,9.1476,57.4367],[-78.7374,9.1476,57.4367],[-78.7376,9.1446,55.9556],[-78.7351,9.1465,57.6806],[-78.7343,9.1424,56.9864],[-78.7324,9.1421,56.9864],[-78.7321,9.146,55.5],[-78.734,9.1485,55.5],[-78.731,9.1524,55.5],[-78.7335,9.1515,58.2847],[-78.7349,9.1526,57.8313]]],
[[[-78.7487,9.1596,56.6764],[-78.7507,9.1607,55.5],[-78.751,9.1587,55.8282],[-78.7482,9.1576,57.2709],[-78.7487,9.1596,56.6764]]],
[[[-78.7812,9.1599,56.6555],[-78.7835,9.1612,56.61],[-78.7838,9.1587,59.059],[-78.7868,9.159,55.5],[-78.7868,9.1568,58.5301],[-78.7882,9.1582,55.5],[-78.7971,9.1513,55.5],[-78.7929,9.1529,58.1353],[-78.7899,9.1521,56.7276],[-78.7899,9.154,58.4783],[-78.7868,9.1532,55.5],[-78.7849,9.154,55.5],[-78.7851,9.1554,55.5],[-78.7799,9.154,55.5],[-78.7812,9.1565,55.5],[-78.7779,9.1568,55.5],[-78.7812,9.1599,56.6555]]],
[[[-78.7735,9.1604,60.0237],[-78.7751,9.1612,56.7209],[-78.7776,9.1579,56.9927],[-78.774,9.1571,57.6404],[-78.7721,9.161,55.5],[-78.7735,9.1604,60.0237]]],
[[[-78.7896,9.1679,69.5081],[-78.791,9.1693,61.655],[-78.7924,9.1668,89.0331],[-78.794,9.1671,55.5],[-78.7949,9.1632,56.7775],[-78.7918,9.1618,55.5],[-78.7913,9.1635,57.2996],[-78.7879,9.1635,55.5],[-78.7896,9.1679,69.5081]]],
[[[-78.7812,9.1982,64.3851],[-78.7838,9.1985,64.3563],[-78.7835,9.1957,58.0145],[-78.7851,9.1954,58.1275],[-78.7801,9.1951,55.5],[-78.7793,9.1974,55.5],[-78.7812,9.1982,64.3851]]],
[[[-78.7857,9.2004,61.4687],[-78.7901,9.2013,55.5],[-78.7932,9.1962,57.1545],[-78.7849,9.1965,55.5],[-78.7857,9.2004,61.4687]]],
[[[-78.7557,9.1985,55.5],[-78.7554,9.2004,63.7865],[-78.7582,9.2001,57.8357],[-78.7579,9.1988,57.8357],[-78.7557,9.1985,55.5]]],
[[[-78.7913,9.2032,55.5],[-78.789,9.2021,62.0883],[-78.7887,9.2043,55.5],[-78.7913,9.204,55.5],[-78.7913,9.2032,55.5]]]]}
,"properties": {"GID_3": "PAN.12.2.5_1","GID_0": "PAN","country": "Panama","GID_1": "PAN.12_1","province": "Panamá","NL_NAME_1": "NA","GID_2": "PAN.12.2_1","county": "Chepo","NL_NAME_2": "NA","city": "KunadeMadungandí","VARNAME_3": "NA","NL_NAME_3": "NA","TYPE_3": "ComarcaIndígena","ENGTYPE_3": "IndigenousTerritory","CC_3": "NA","HASC_3": "NA","name": "Kunade_Madungandí.city","area_km2": 2121.777,"hist_schema_id": "Elevation0-9000","hist_area_km2": {"50": 58.784,"75": 257.054,"100": 446.756,"125": 203.722,"150": 159.502,"175": 128.994,"200": 104.977,"225": 98.127,"250": 89.851,"275": 84.05,"300": 73.838,"325": 64.775,"350": 55.858,"375": 47.508,"400": 42.632,"425": 37.777,"450": 32.565,"475": 28.965,"500": 26.056,"525": 20.907,"550": 16.868,"575": 14.691,"600": 10.15,"625": 6.739,"650": 4.458,"675": 3.684,"700": 1.026,"725": 0.837,"750": 0.419,"775": 0.188,"800": 0.021}}}