{"type":"Feature","properties":{"GID_3":"PAN.13.1.3_1","GID_0":"PAN","country":"Panama","GID_1":"PAN.13_1","province":"Veraguas","NL_NAME_1":"NA","GID_2":"PAN.13.1_1","county":"Atalaya","NL_NAME_2":"NA","city":"LaCarrillo","VARNAME_3":"NA","NL_NAME_3":"NA","TYPE_3":"Corregimiento","ENGTYPE_3":"Municipality","CC_3":"NA","HASC_3":"NA","name":"La_Carrillo.city"},
"geometry":{"type": "MultiPolygon","coordinates": [[[[-80.8466,7.9623,156.7547],[-80.8436,7.9668,144.4402],[-80.8435,7.9732,148.4707],[-80.8505,7.9794,101.879],[-80.8531,7.9858,127.4348],[-80.8528,7.9966,81.3051],[-80.8499,8.0029,79.0924],[-80.8487,8.0151,64.8037],[-80.87,8.0285,64.3507],[-80.8854,8.0265,161.5849],[-80.8964,8.0172,135.3921],[-80.9074,8.0034,111.8961],[-80.9018,7.9967,126.1998],[-80.8992,7.9904,117.6085],[-80.8966,7.9796,168.7713],[-80.8972,7.9676,137.5049],[-80.8854,7.9523,188.9826],[-80.8617,7.948,160.7965],[-80.8548,7.9602,161.7543],[-80.8466,7.9623,156.7547]]]]}}