{"type": "Feature","bbox": [-80.8191,8.4214,-80.7393,8.4981],"geometry": {"type": "MultiPolygon","coordinates": [[[[-80.7757,8.4969,400.8999],[-80.7945,8.4981,715.0658],[-80.8001,8.4967,758.4176],[-80.8031,8.4942,835.7302],[-80.8097,8.4684,938.7749],[-80.8115,8.445,1081.8528],[-80.8191,8.4299,920.1542],[-80.8068,8.4276,736.4011],[-80.8035,8.4245,516.6109],[-80.7926,8.4214,604.8623],[-80.7875,8.4293,552.7433],[-80.7813,8.4327,448.5858],[-80.7701,8.4321,336.4631],[-80.7393,8.4262,201.8949],[-80.7448,8.4507,325.1846],[-80.7596,8.4649,441.0833],[-80.7744,8.4752,430.9919],[-80.7757,8.4969,400.8999]]]]}
,"properties": {"GID_3": "PAN.13.2.12_1","GID_0": "PAN","country": "Panama","GID_1": "PAN.13_1","province": "Veraguas","NL_NAME_1": "NA","GID_2": "PAN.13.2_1","county": "Calobre","NL_NAME_2": "NA","city": "SanJosé","VARNAME_3": "NA","NL_NAME_3": "NA","TYPE_3": "Corregimiento","ENGTYPE_3": "Municipality","CC_3": "NA","HASC_3": "NA","name": "San_José.city","area_km2": 43.18078,"hist_schema_id": "Elevation0-9000","hist_area_km2": {"200": 0.39849,"225": 1.552,"250": 1.55199,"275": 0.88085,"300": 1.42611,"325": 2.1601,"350": 1.80354,"375": 2.20199,"400": 1.30023,"425": 1.30023,"450": 1.09052,"475": 1.23733,"500": 1.0276,"525": 1.27928,"550": 1.30023,"575": 1.1744,"600": 0.9647,"625": 1.1954,"650": 1.51,"675": 1.65679,"700": 1.44705,"725": 1.17442,"750": 1.15344,"775": 0.96469,"800": 0.88081,"825": 1.36314,"850": 2.1181,"875": 1.50992,"900": 1.48897,"925": 1.15343,"950": 1.06954,"975": 0.5872,"1000": 0.41943,"1025": 0.25166,"1050": 0.25166,"1075": 0.18875,"1100": 0.10486,"1125": 0.04194}}}