{"type":"Feature","properties":{"GID_3":"PAN.12.6.3_1","GID_0":"PAN","country":"Panama","GID_1":"PAN.12_1","province":"Panamá","NL_NAME_1":"NA","GID_2":"PAN.12.6_1","county":"Panamá","NL_NAME_2":"NA","city":"Betania","VARNAME_3":"NA","NL_NAME_3":"NA","TYPE_3":"Corregimiento","ENGTYPE_3":"Municipality","CC_3":"NA","HASC_3":"NA","name":"Betania.city"},
"geometry":{"type": "MultiPolygon","coordinates": [[[[-79.5347,8.9792,50.6776],[-79.532,8.9845,33.0398],[-79.5277,8.9853,27.2973],[-79.5203,8.9993,20.5234],[-79.5215,9.0122,35.2624],[-79.5174,9.0212,43.7581],[-79.5058,9.0264,20.398],[-79.5121,9.0302,34.2167],[-79.5114,9.0314,36.5012],[-79.5131,9.0353,35.0145],[-79.517,9.0333,38.2783],[-79.5193,9.0366,37.4135],[-79.5206,9.026,53.0401],[-79.5312,9.0211,61.2588],[-79.5355,9.0153,64.6115],[-79.5347,8.9792,50.6776]]]]}}