{"type": "Feature","bbox": [-80.9848,8.2563,-80.8815,8.4347],"geometry": {"type": "MultiPolygon","coordinates": [[[[-80.9096,8.3948,532.3177],[-80.9128,8.4136,433.9765],[-80.9124,8.4347,315.7524],[-80.9346,8.4185,222.7022],[-80.9844,8.4151,591.4591],[-80.9831,8.405,347.8399],[-80.9848,8.3876,238.8039],[-80.9835,8.3731,249.4686],[-80.9802,8.3671,366.5069],[-80.9731,8.3602,350.6616],[-80.9668,8.3435,129.0368],[-80.9691,8.338,187.0322],[-80.9822,8.333,135.5011],[-80.9824,8.3307,158.9386],[-80.9717,8.3238,303.9206],[-80.9575,8.299,217.1303],[-80.9378,8.2951,280.7285],[-80.9185,8.3016,207.0565],[-80.9056,8.2959,120.5265],[-80.8964,8.2825,139.5663],[-80.8993,8.2563,84.2326],[-80.8949,8.2596,81.7513],[-80.8957,8.2651,123.1176],[-80.8828,8.2996,157.9001],[-80.8815,8.3143,104.5922],[-80.8871,8.3223,136.4597],[-80.9043,8.3296,144.5051],[-80.9075,8.3337,159.2938],[-80.9091,8.3501,241.1099],[-80.9096,8.3948,532.3177]]]]}
,"properties": {"GID_3": "PAN.13.8.2_1","GID_0": "PAN","country": "Panama","GID_1": "PAN.13_1","province": "Veraguas","NL_NAME_1": "NA","GID_2": "PAN.13.8_1","county": "SanFrancisco","NL_NAME_2": "NA","city": "LosHatillos","VARNAME_3": "NA","NL_NAME_3": "NA","TYPE_3": "Corregimiento","ENGTYPE_3": "Municipality","CC_3": "NA","HASC_3": "NA","name": "Los_Hatillos.city","area_km2": 112.01807,"hist_schema_id": "Elevation0-9000","hist_area_km2": {"75": 0.16786,"100": 0.48254,"125": 3.31477,"150": 5.83201,"175": 8.99959,"200": 11.07632,"225": 12.94321,"250": 13.57244,"275": 12.41875,"300": 8.78948,"325": 6.52383,"350": 4.7407,"375": 2.95759,"400": 2.09754,"425": 2.57995,"450": 2.49604,"475": 2.3702,"500": 2.26531,"525": 2.32821,"550": 1.63602,"575": 1.57311,"600": 1.36336,"625": 1.09069,"650": 0.35657,"675": 0.04195}}}