{"type": "Feature","bbox": [-81.0762,7.675,-80.8995,7.7608],"geometry": {"type": "MultiPolygon","coordinates": [[[[-81.0615,7.7065,6.2568],[-81.0626,7.7068,0.0],[-81.0624,7.7051,0.0],[-81.059,7.7032,0.0],[-81.0593,7.7049,0.0],[-81.0615,7.7065,6.2568]]],
[[[-81.0674,7.7079,0.0],[-81.0704,7.7082,0.0],[-81.0715,7.7074,0.0],[-81.0676,7.7062,0.0],[-81.0674,7.7079,0.0]]],
[[[-81.0738,7.7115,0.0],[-81.076,7.7118,8.4475],[-81.0762,7.7104,0.0],[-81.0726,7.7087,0.0],[-81.0726,7.7104,7.5675],[-81.0738,7.7115,0.0]]],
[[[-80.9005,7.744,319.4689],[-80.9258,7.7608,246.693],[-80.9587,7.7607,85.9713],[-80.9626,7.7497,38.1508],[-80.9695,7.738,13.8506],[-80.977,7.7317,41.5384],[-80.985,7.7303,11.6132],[-80.9898,7.725,18.7974],[-80.9969,7.7266,14.0705],[-81.0055,7.7316,16.3659],[-81.0242,7.7305,9.0921],[-81.0379,7.7454,2.9977],[-81.044,7.7382,0.0],[-81.0413,7.7343,0.0],[-81.0435,7.7332,0.0],[-81.0329,7.7332,0.0],[-81.0296,7.7296,0.0],[-81.0326,7.7312,0.0],[-81.0362,7.7301,4.4733],[-81.0482,7.731,0.0],[-81.0504,7.7274,2.5675],[-81.051,7.721,11.0322],[-81.0465,7.711,0.0],[-81.039,7.7157,5.6736],[-81.0437,7.711,0.0],[-81.0437,7.7085,0.0],[-81.0415,7.7063,0.0],[-81.0424,7.7026,0.0],[-81.0346,7.6971,4.1749],[-81.0312,7.6954,0.0],[-81.0235,7.6988,13.7805],[-81.011,7.6988,17.707],[-81.0068,7.6957,5.8692],[-81.006,7.6885,4.2081],[-81.0032,7.6882,8.4853],[-81.0051,7.6871,4.2081],[-80.9977,7.681,9.7896],[-80.9855,7.6753,14.186],[-80.9745,7.675,11.2055],[-80.9575,7.6815,52.5681],[-80.9476,7.6817,48.8319],[-80.9339,7.6794,115.3631],[-80.915,7.6816,241.7847],[-80.8995,7.6866,333.5586],[-80.9074,7.7311,203.6838],[-80.9006,7.7351,266.3656],[-80.9005,7.744,319.4689]]]]}
,"properties": {"GID_3": "PAN.13.6.9_1","GID_0": "PAN","country": "Panama","GID_1": "PAN.13_1","province": "Veraguas","NL_NAME_1": "NA","GID_2": "PAN.13.6_1","county": "Montijo","NL_NAME_2": "NA","city": "Tebario","VARNAME_3": "NA","NL_NAME_3": "NA","TYPE_3": "Corregimiento","ENGTYPE_3": "Municipality","CC_3": "NA","HASC_3": "NA","name": "Tebario.city","area_km2": 102.06796,"hist_schema_id": "Elevation0-9000","hist_area_km2": {"0": 15.96799,"25": 27.901979999999998,"50": 12.75342,"75": 6.42915,"100": 4.72723,"125": 5.0214,"150": 6.0088,"175": 4.74822,"200": 3.71878,"225": 4.01287,"250": 3.38262,"275": 2.73131,"300": 1.80686,"325": 1.34465,"350": 0.96644,"375": 0.39918,"400": 0.14706}}}