{"type":"Feature","properties":{"GID_3":"PAN.12.1.6_1","GID_0":"PAN","country":"Panama","GID_1":"PAN.12_1","province":"Panamá","NL_NAME_1":"NA","GID_2":"PAN.12.1_1","county":"Balboa","NL_NAME_2":"NA","city":"SanMiguel","VARNAME_3":"NA","NL_NAME_3":"NA","TYPE_3":"Corregimiento","ENGTYPE_3":"Municipality","CC_3":"NA","HASC_3":"NA","name":"San_Miguel.city"},
"geometry":{"type": "MultiPolygon","coordinates": [[[[-78.9557,8.3499,0.0],[-78.9554,8.3501,0.0],[-78.9557,8.3501,0.0],[-78.9557,8.3499,0.0]]],
[[[-78.9621,8.3932,0.0],[-78.9621,8.3951,1.9829],[-78.9643,8.3957,0.0],[-78.9643,8.3938,0.0],[-78.9668,8.3915,2.4285],[-78.9646,8.391,2.7114],[-78.9621,8.3932,0.0]]],
[[[-78.9807,8.4271,0.0],[-78.9824,8.4276,2.2791],[-78.9829,8.4249,2.5346],[-78.9796,8.4257,0.0],[-78.9807,8.4271,0.0]]],
[[[-78.9901,8.4432,6.1867],[-78.9913,8.4443,0.0],[-78.9924,8.4413,0.0],[-78.9907,8.4415,0.0],[-78.9901,8.4432,6.1867]]],
[[[-78.8679,8.38,27.548],[-78.8613,8.3758,56.7257],[-78.8535,8.3771,0.0],[-78.8543,8.3799,0.4765],[-78.8526,8.381,3.5228],[-78.8482,8.379,5.5983],[-78.849,8.3815,0.0],[-78.8554,8.3837,3.5867],[-78.8551,8.386,0.3089],[-78.8501,8.3865,2.9953],[-78.8482,8.3832,4.8569],[-78.841,8.3843,0.0],[-78.8388,8.3882,0.0],[-78.836,8.3888,14.919],[-78.8368,8.3946,0.0],[-78.8346,8.3943,0.0],[-78.8335,8.3968,26.5869],[-78.836,8.3971,3.1354],[-78.8365,8.3949,0.0],[-78.8412,8.3968,0.0],[-78.8415,8.3985,21.9629],[-78.8368,8.3999,0.0],[-78.8365,8.4018,0.0],[-78.8385,8.4032,1.8279],[-78.8426,8.4129,2.123],[-78.8449,8.4121,0.0],[-78.8454,8.4062,12.1394],[-78.8479,8.4068,4.5103],[-78.8485,8.4135,0.9448],[-78.8526,8.4129,14.2761],[-78.8535,8.4143,4.7014],[-78.8585,8.4074,0.0],[-78.8607,8.4076,1.2416],[-78.8604,8.4118,30.9916],[-78.856,8.4168,4.4042],[-78.8582,8.4221,0.0],[-78.8601,8.4215,0.0],[-78.8632,8.4129,5.3098],[-78.8654,8.4129,0.0],[-78.8646,8.4199,5.7201],[-78.8596,8.4326,3.6884],[-78.8596,8.4362,4.7405],[-78.8624,8.4415,44.244],[-78.8604,8.4443,8.3056],[-78.8574,8.444,0.0],[-78.8576,8.446,0.0],[-78.8582,8.4474,0.0],[-78.8607,8.446,0.0],[-78.8624,8.4471,49.4714],[-78.8618,8.4504,8.4151],[-78.8665,8.451,14.6441],[-78.8668,8.4554,13.8083],[-78.8704,8.4496,9.3976],[-78.8729,8.4532,1.1071],[-78.8712,8.4574,0.0],[-78.8721,8.4587,0.0],[-78.8765,8.4563,15.2954],[-78.8771,8.4582,24.7095],[-78.8737,8.4596,0.0],[-78.8732,8.4615,0.0],[-78.8774,8.4651,4.6058],[-78.8779,8.4682,8.8084],[-78.8787,8.4632,0.0],[-78.8801,8.4651,0.0],[-78.8832,8.4649,3.3232],[-78.8812,8.4724,0.0],[-78.8849,8.471,8.2719],[-78.8887,8.4754,1.7765],[-78.8926,8.4743,9.8116],[-78.896,8.4657,2.4655],[-78.8938,8.4601,0.0],[-78.8962,8.4557,0.0],[-78.8987,8.4574,1.1855],[-78.9001,8.4554,8.6135],[-78.8993,8.4579,9.3901],[-78.8954,8.4582,1.5271],[-78.8965,8.4607,0.0],[-78.904,8.4601,9.7739],[-78.9046,8.4663,1.5117],[-78.9062,8.4663,3.4165],[-78.9054,8.4693,2.0416],[-78.9115,8.4696,1.6518],[-78.9124,8.471,0.0],[-78.9137,8.4688,0.0],[-78.9168,8.4679,3.7309],[-78.9154,8.4643,8.8326],[-78.9182,8.4621,1.7805],[-78.9207,8.4626,4.5653],[-78.9199,8.4671,0.0],[-78.9251,8.4637,7.0496],[-78.9299,8.4649,0.0],[-78.929,8.4601,0.0],[-78.9251,8.4579,1.5733],[-78.9268,8.4563,5.4168],[-78.9321,8.4565,14.6804],[-78.9321,8.4593,7.2276],[-78.934,8.4601,1.9374],[-78.9351,8.4579,9.2108],[-78.9401,8.4585,10.4263],[-78.9432,8.4538,0.7538],[-78.9485,8.4529,12.5049],[-78.9515,8.4557,2.7302],[-78.9512,8.4587,0.0],[-78.956,8.4582,8.2908],[-78.9563,8.4596,4.2414],[-78.9585,8.4596,6.8988],[-78.9607,8.4571,13.5927],[-78.9649,8.4565,21.5181],[-78.9662,8.4607,0.0],[-78.9726,8.4568,20.3102],[-78.9729,8.4482,14.8094],[-78.9754,8.4451,0.0],[-78.9721,8.441,14.2133],[-78.9737,8.4307,0.0],[-78.9696,8.4324,9.8935],[-78.9665,8.4304,6.7992],[-78.9682,8.4271,2.754],[-78.971,8.4263,8.7437],[-78.9707,8.4229,0.0],[-78.9646,8.4207,2.2122],[-78.9665,8.4204,0.0],[-78.9654,8.4171,0.0],[-78.9665,8.4154,0.0],[-78.9649,8.4135,0.0],[-78.9679,8.4107,3.3955],[-78.9674,8.4079,0.0],[-78.9638,8.404,2.0212],[-78.9596,8.3904,6.7776],[-78.961,8.3871,0.0],[-78.9601,8.3815,15.0025],[-78.9651,8.3751,10.2609],[-78.9693,8.3771,0.0],[-78.9682,8.3726,6.3902],[-78.9732,8.3682,0.0],[-78.9607,8.3571,9.2611],[-78.9557,8.3504,0.0],[-78.9467,8.3617,31.4996],[-78.9391,8.3639,73.5933],[-78.931,8.3723,167.8889],[-78.9164,8.3801,105.8838],[-78.9062,8.383,150.5082],[-78.901,8.3818,143.3627],[-78.8869,8.384,96.5411],[-78.8679,8.38,27.548]]],
[[[-78.8538,8.4318,4.5588],[-78.8538,8.4332,8.9079],[-78.8551,8.4329,8.9079],[-78.8549,8.4285,0.0],[-78.849,8.4229,0.0],[-78.8504,8.4265,7.0096],[-78.8521,8.4271,6.5548],[-78.8526,8.4315,18.8783],[-78.8538,8.4318,4.5588]]],
[[[-78.8463,8.4415,0.0],[-78.8471,8.4435,0.0],[-78.8493,8.4421,7.2618],[-78.8485,8.4407,0.0],[-78.8463,8.4415,0.0]]],
[[[-78.8532,8.459,3.2893],[-78.8532,8.4604,3.2893],[-78.8549,8.4601,0.0],[-78.8518,8.4565,0.0],[-78.8521,8.4585,0.0803],[-78.8532,8.459,3.2893]]],
[[[-78.9354,8.4632,0.0],[-78.9371,8.4643,2.836],[-78.9393,8.4629,0.0],[-78.936,8.4612,0.0],[-78.9354,8.4632,0.0]]],
[[[-78.9393,8.464,1.994],[-78.9399,8.4671,1.4374],[-78.9418,8.4621,0.0],[-78.9404,8.4621,0.0],[-78.9393,8.464,1.994]]],
[[[-78.9062,8.4738,3.537],[-78.9088,8.4746,7.1086],[-78.9071,8.471,9.3452],[-78.9043,8.4701,6.0601],[-78.9043,8.4665,1.5117],[-78.9026,8.466,2.0847],[-78.9015,8.4701,13.4132],[-78.9043,8.471,7.1849],[-78.9062,8.4738,3.537]]],
[[[-78.9143,8.4699,0.0],[-78.9126,8.4715,0.0],[-78.9132,8.4726,0.0],[-78.9146,8.4718,1.5435],[-78.9143,8.4699,0.0]]],
[[[-78.9001,8.474,0.0],[-78.8993,8.4757,0.0],[-78.9024,8.4724,0.0],[-78.9013,8.4718,4.1126],[-78.9001,8.474,0.0]]],
[[[-78.9096,8.474,0.0],[-78.9096,8.476,0.0],[-78.9118,8.4754,0.0],[-78.9118,8.4738,0.0],[-78.9096,8.474,0.0]]],
[[[-78.9024,8.4776,1.4842],[-78.904,8.481,0.0],[-78.9051,8.476,7.7616],[-78.9021,8.4746,0.0],[-78.9024,8.4776,1.4842]]],
[[[-79.0082,8.4432,0.0],[-79.0057,8.4435,0.0],[-79.006,8.4471,0.0],[-79.011,8.4413,0.0],[-79.0082,8.4432,0.0]]],
[[[-78.9899,8.4538,1.2143],[-78.989,8.4543,2.1814],[-78.9893,8.4554,2.1814],[-78.9913,8.4532,0.0],[-78.9899,8.4538,1.2143]]],
[[[-78.9996,8.489,0.0],[-78.999,8.4932,2.1481],[-79.0018,8.4926,3.5875],[-79.0035,8.4904,16.1989],[-79.0065,8.4912,5.054],[-79.0101,8.4879,7.4806],[-79.0101,8.486,4.3313],[-79.0082,8.4849,6.7046],[-79.0121,8.4849,5.8714],[-79.0126,8.4826,1.7364],[-79.0124,8.481,1.5474],[-79.0096,8.4824,6.8875],[-79.0082,8.479,0.0],[-79.0065,8.479,6.6893],[-79.0035,8.4812,0.0],[-79.0026,8.4843,1.2352],[-79.0001,8.4838,0.0],[-79.0001,8.4771,0.0],[-79.004,8.4751,0.0],[-79.0032,8.4715,11.5648],[-79.0051,8.4699,9.9285],[-79.0085,8.471,0.0],[-79.0093,8.4679,0.0],[-79.0115,8.4732,2.0755],[-79.0168,8.4713,0.0],[-79.0171,8.4696,13.0878],[-79.0201,8.4715,14.9314],[-79.0232,8.466,2.4316],[-79.014,8.4663,16.2698],[-79.0079,8.4607,15.8557],[-79.0082,8.4582,0.0],[-79.0065,8.4582,0.0],[-79.0051,8.4624,8.5278],[-79.0029,8.4626,10.0512],[-78.9893,8.4601,12.5519],[-78.9868,8.4499,1.163],[-78.9829,8.451,10.2824],[-78.9796,8.4499,5.4057],[-78.9824,8.4449,0.0],[-78.9804,8.4413,0.0],[-78.9796,8.444,9.803],[-78.9762,8.4463,0.0],[-78.9774,8.4532,8.6561],[-78.9796,8.4568,2.7464],[-78.9757,8.459,10.1446],[-78.9729,8.4635,0.0],[-78.9854,8.461,0.0],[-78.9865,8.4657,0.0],[-78.989,8.4671,0.0],[-78.9879,8.4696,3.6677],[-78.9938,8.4693,0.9885],[-78.9943,8.4704,0.9885],[-78.9935,8.4729,1.6492],[-78.9896,8.4754,9.8944],[-78.9865,8.4749,0.0],[-78.9849,8.4779,6.0284],[-78.9807,8.4776,0.0],[-78.9788,8.4815,0.0],[-78.9799,8.4838,8.1955],[-78.9743,8.489,3.7838],[-78.9824,8.4887,0.0],[-78.984,8.4826,1.4587],[-78.991,8.4785,7.4043],[-78.9935,8.4796,0.0],[-78.9957,8.4743,18.3768],[-78.9965,8.4776,0.0],[-78.9999,8.4763,3.1869],[-78.9999,8.4851,0.0],[-78.9976,8.4876,0.0],[-78.9996,8.489,0.0]]],
[[[-79.0079,8.4938,0.0],[-79.0096,8.4946,9.2719],[-79.0113,8.4932,2.0166],[-79.0093,8.4926,7.7188],[-79.0079,8.4938,0.0]]],
[[[-79.0424,8.4821,0.0],[-79.0432,8.4835,0.0],[-79.0443,8.4807,0.0],[-79.0429,8.4804,0.0],[-79.0424,8.4821,0.0]]],
[[[-79.0496,8.4879,7.573],[-79.0488,8.4899,0.0],[-79.0532,8.4857,3.2413],[-79.0512,8.4812,0.0],[-79.0482,8.4832,0.0],[-79.0496,8.4879,7.573]]],
[[[-79.0551,8.5038,0.0],[-79.0582,8.5051,14.653],[-79.0596,8.5024,0.0],[-79.0629,8.5013,4.2306],[-79.0646,8.4971,5.5477],[-79.0682,8.4951,0.0],[-79.066,8.4882,5.0373],[-79.0687,8.4818,0.0],[-79.0674,8.4812,0.0],[-79.066,8.4835,9.8943],[-79.0615,8.4846,12.5348],[-79.0587,8.4818,0.0],[-79.056,8.4862,13.2998],[-79.0543,8.4857,4.0736],[-79.0526,8.4876,4.8202],[-79.0551,8.4921,1.4966],[-79.0518,8.4951,6.5296],[-79.0493,8.5007,0.0],[-79.0535,8.4996,0.0],[-79.0557,8.4946,0.8989],[-79.0576,8.4938,4.3949],[-79.0551,8.5038,0.0]]],
[[[-79.0479,8.4929,5.8469],[-79.0471,8.4954,0.0],[-79.0499,8.4954,8.5126],[-79.0532,8.491,4.0657],[-79.0507,8.4912,0.0],[-79.0507,8.4935,0.0],[-79.0479,8.4929,5.8469]]],
[[[-79.0276,8.5215,8.8466],[-79.0296,8.5238,0.0],[-79.0335,8.5221,0.0],[-79.039,8.5124,0.0],[-79.0387,8.5096,7.943],[-79.0424,8.5068,4.8063],[-79.0437,8.5026,0.0],[-79.0396,8.4996,0.0],[-79.0362,8.4996,0.4427],[-79.0349,8.5018,18.2453],[-79.0318,8.501,7.0037],[-79.0304,8.4982,16.7424],[-79.0338,8.4946,0.0],[-79.029,8.4954,0.0],[-79.0282,8.4915,0.0],[-79.0246,8.4957,14.3408],[-79.0218,8.4951,0.0],[-79.0249,8.499,18.5151],[-79.024,8.5018,0.0],[-79.029,8.501,3.3224],[-79.0299,8.5032,0.0],[-79.0321,8.5026,0.0],[-79.0307,8.5057,0.0],[-79.0324,8.5065,0.84],[-79.0324,8.5124,0.0],[-79.0285,8.5157,1.2827],[-79.0285,8.5182,0.9817],[-79.0263,8.5201,0.0],[-79.0276,8.5215,8.8466]]],
[[[-79.0557,8.5079,0.0],[-79.0557,8.5093,3.4134],[-79.0585,8.509,1.6912],[-79.0563,8.5074,0.0],[-79.0557,8.5079,0.0]]],
[[[-79.0249,8.5154,1.0765],[-79.0279,8.516,1.2827],[-79.0263,8.5151,1.0765],[-79.0265,8.5118,0.0],[-79.0215,8.5104,0.0],[-79.0221,8.5135,0.0],[-79.0249,8.5154,1.0765]]],
[[[-79.0418,8.524,1.9784],[-79.0393,8.5243,2.826],[-79.0396,8.5257,0.0],[-79.0507,8.5224,14.3919],[-79.0471,8.5176,13.4239],[-79.0515,8.5115,0.0],[-79.051,8.5099,0.0],[-79.0449,8.5115,0.0],[-79.0413,8.5143,0.0],[-79.0376,8.5218,0.0],[-79.0429,8.521,1.4422],[-79.0432,8.5235,23.9291],[-79.0418,8.524,1.9784]]],
[[[-78.954,8.4982,0.0],[-78.9538,8.4985,0.0],[-78.9535,8.4999,0.0],[-78.9554,8.4976,0.0],[-78.954,8.4982,0.0]]],
[[[-79.0054,8.5299,0.0],[-79.0076,8.531,0.0],[-79.0079,8.5282,0.0],[-79.0071,8.5282,0.0],[-79.0054,8.5299,0.0]]],
[[[-79.0104,8.5313,0.0],[-79.0085,8.5301,0.0],[-79.0076,8.5318,0.0],[-79.0096,8.5326,0.0],[-79.0104,8.5313,0.0]]],
[[[-79.0196,8.5226,6.7481],[-79.0232,8.5232,3.0314],[-79.026,8.5207,0.0],[-79.0237,8.521,9.7781],[-79.021,8.5179,0.0],[-79.0146,8.5204,0.0],[-79.0151,8.5232,0.0],[-79.0168,8.521,3.8149],[-79.0196,8.5226,6.7481]]],
[[[-79.0304,8.5393,0.0],[-79.0343,8.5399,4.8722],[-79.0371,8.5379,0.0],[-79.0354,8.5365,0.0],[-79.036,8.5335,0.0],[-79.034,8.534,6.1915],[-79.0304,8.5393,0.0]]],
[[[-79.0324,8.5493,0.0],[-79.0318,8.5518,0.0],[-79.0329,8.5518,0.0],[-79.0362,8.5474,0.0],[-79.0349,8.5468,0.0],[-79.0324,8.5493,0.0]]]]}}