{"type": "Feature","bbox": [-80.729,8.4127,-80.6464,8.5415],"geometry": {"type": "MultiPolygon","coordinates": [[[[-80.6859,8.4127,245.5439],[-80.6717,8.4195,285.1558],[-80.6586,8.4306,117.0581],[-80.6506,8.4276,103.4452],[-80.6474,8.4272,99.5641],[-80.6464,8.4286,99.5641],[-80.6511,8.4399,105.1247],[-80.651,8.4684,184.3796],[-80.6525,8.4702,211.4275],[-80.6594,8.4722,176.4274],[-80.6622,8.4759,242.3194],[-80.6635,8.4802,287.951],[-80.6627,8.4881,221.3104],[-80.6676,8.5013,352.5002],[-80.6738,8.5074,425.597],[-80.6736,8.5176,567.0323],[-80.6776,8.5274,626.9902],[-80.6909,8.5408,919.8323],[-80.7002,8.5415,915.5248],[-80.7034,8.54,1038.9062],[-80.7087,8.5334,1036.1912],[-80.7141,8.5223,798.6771],[-80.7156,8.5134,735.6904],[-80.72,8.5076,757.2252],[-80.7201,8.5009,587.8869],[-80.7234,8.4985,524.5638],[-80.729,8.4982,693.8611],[-80.7281,8.4885,532.1605],[-80.7183,8.451,258.5426],[-80.6967,8.4192,207.3532],[-80.6859,8.4127,245.5439]]]]}
,"properties": {"GID_3": "PAN.3.5.1_1","GID_0": "PAN","country": "Panama","GID_1": "PAN.3_1","province": "Coclé","NL_NAME_1": "NA","GID_2": "PAN.3.5_1","county": "Olá","NL_NAME_2": "NA","city": "ElCopé","VARNAME_3": "NA","NL_NAME_3": "NA","TYPE_3": "Corregimiento","ENGTYPE_3": "Municipality","CC_3": "NA","HASC_3": "NA","name": "El_Copé.city","area_km2": 79.81458,"hist_schema_id": "Elevation0-9000","hist_area_km2": {"100": 0.90183,"125": 1.7407,"150": 2.64247,"175": 2.95705,"200": 5.24304,"225": 6.60616,"250": 6.43835,"275": 5.76715,"300": 5.4945,"325": 4.97016,"350": 4.19424,"375": 3.98447,"400": 3.46014,"425": 2.85191,"450": 2.3486,"475": 2.18083,"500": 1.69852,"525": 1.59367,"550": 1.9711,"575": 1.46782,"600": 1.30007,"625": 1.0694,"650": 0.77584,"675": 0.88067,"700": 0.73389,"725": 0.69195,"750": 0.67098,"775": 0.77582,"800": 0.50323,"825": 0.48227,"850": 0.5242,"875": 0.31452,"900": 0.37742,"925": 0.54516,"950": 0.35645,"975": 0.44032,"1000": 0.31451,"1025": 0.29355,"1050": 0.16774,"1075": 0.08387}}}