{"type":"Feature","properties":{"GID_3":"PAN.13.3.3_1","GID_0":"PAN","country":"Panama","GID_1":"PAN.13_1","province":"Veraguas","NL_NAME_1":"NA","GID_2":"PAN.13.3_1","county":"Cañazas","NL_NAME_2":"NA","city":"ElPicador","VARNAME_3":"NA","NL_NAME_3":"NA","TYPE_3":"Corregimiento","ENGTYPE_3":"Municipality","CC_3":"NA","HASC_3":"NA","name":"El_Picador.city"},
"geometry":{"type": "MultiPolygon","coordinates": [[[[-81.3175,8.3872,248.1002],[-81.312,8.3871,199.9099],[-81.3025,8.3794,296.1716],[-81.288,8.3746,282.1977],[-81.2809,8.3668,254.2216],[-81.2794,8.3522,140.3212],[-81.2755,8.349,170.7242],[-81.2655,8.3469,224.1876],[-81.252,8.3504,250.3537],[-81.237799999999993,8.3495,170.0315],[-81.2289,8.3513,186.5834],[-81.2078,8.3682,374.1089],[-81.1959,8.3799,309.3791],[-81.2117,8.3822,474.037],[-81.2219,8.3892,356.9291],[-81.2258,8.3936,388.3708],[-81.2352,8.4182,447.5311],[-81.252,8.4293,621.2813],[-81.2545,8.4342,556.5256],[-81.2573,8.4477,567.2],[-81.2525,8.4604,527.7088],[-81.2537,8.469,688.8766],[-81.259,8.4721,715.0047],[-81.2636,8.4673,738.2782],[-81.2798,8.4755,844.0603],[-81.2857,8.4744,936.9876],[-81.2949,8.4691,644.4448],[-81.2999,8.4724,645.7109],[-81.3019,8.4785,661.4354],[-81.2977,8.4923,852.0198],[-81.2954,8.4934,933.4189],[-81.2857,8.4911,1035.9684],[-81.2834,8.4943,1101.1948],[-81.2829,8.4996,1197.2501],[-81.2918,8.5206,1300.4308],[-81.3017,8.5306,1304.2791],[-81.3066,8.5333,1216.6067],[-81.3099,8.5322,1194.3013],[-81.3141,8.5275,1067.7526],[-81.3173,8.5128,1264.4872],[-81.3244,8.5016,1153.6301],[-81.3272,8.4998,1061.334],[-81.3313,8.4995,1043.1243],[-81.3327,8.5007,1056.5417],[-81.3397,8.4964,721.2894],[-81.3301,8.5076,1009.8495],[-81.3269,8.5209,878.243],[-81.3375,8.5381,1047.6732],[-81.3413,8.5395,895.0824],[-81.3495,8.522,763.6965],[-81.358,8.5152,726.9353],[-81.3626,8.5094,717.11],[-81.3626,8.4974,470.5176],[-81.3599,8.4942,428.7355],[-81.355,8.4929,536.2156],[-81.3411,8.4955,721.2894],[-81.3315,8.4864,721.4116],[-81.3165,8.4806,703.2361],[-81.314,8.4759,578.1471],[-81.3151,8.474,594.4263],[-81.3188,8.4734,580.1012],[-81.33,8.4797,676.105],[-81.3367,8.4786,683.2657],[-81.3495,8.4801,492.3659],[-81.3561,8.4782,470.2849],[-81.3575,8.4757,454.2257],[-81.3564,8.4689,367.7672],[-81.3504,8.4672,442.4572],[-81.3467,8.4636,465.8256],[-81.3453,8.4449,282.4134],[-81.3507,8.4412,260.2309],[-81.3484,8.4316,257.0143],[-81.3502,8.4277,290.3589],[-81.3664,8.4229,384.0558],[-81.3683,8.4196,442.3026],[-81.3687,8.4129,739.326],[-81.3494,8.3806,421.9426],[-81.3448,8.3759,440.3537],[-81.3384,8.3752,359.8729],[-81.3175,8.3872,248.1002]]]]}}