{"type":"Feature","properties":{"GID_2":"PAN.2.6_1","GID_0":"PAN","country":"Panama","GID_1":"PAN.2_1","province":"Chiriquí","NL_NAME_1":"NA","county":"David","VARNAME_2":"NA","NL_NAME_2":"NA","TYPE_2":"Distrito","ENGTYPE_2":"District","CC_2":"NA","HASC_2":"PA.CH.DA","name":"David.county"},
"geometry":{"type": "MultiPolygon","coordinates": [[[[-82.3507,8.2487,7.0818],[-82.3521,8.2493,5.5864],[-82.351,8.2465,0.0],[-82.3507,8.2465,0.0],[-82.3507,8.2487,7.0818]]],
[[[-82.3568,8.279,0.0],[-82.359,8.2796,1.63],[-82.3629,8.2746,0.8877],[-82.3676,8.2724,0.0],[-82.3712,8.2735,1.9989],[-82.3737,8.2782,0.0],[-82.3751,8.2782,0.0],[-82.3779,8.2712,0.0],[-82.3799,8.2754,0.0],[-82.3851,8.276,0.0],[-82.391,8.2685,4.2523],[-82.4015,8.2618,0.0],[-82.4029,8.2574,0.7109],[-82.3999,8.2532,5.6411],[-82.404,8.2557,7.3681],[-82.4051,8.2599,0.0],[-82.4218,8.2574,0.0],[-82.4296,8.259,1.1792],[-82.4304,8.2615,0.5821],[-82.4326,8.2621,0.0],[-82.4332,8.2579,7.4095],[-82.4276,8.2496,0.9868],[-82.4176,8.2435,0.0],[-82.3929,8.221,3.7109],[-82.3835,8.2254,0.0],[-82.3743,8.2276,0.0],[-82.3732,8.2299,0.0],[-82.3751,8.231,12.4491],[-82.3751,8.2332,11.8285],[-82.3682,8.2335,0.0],[-82.3626,8.2365,2.4873],[-82.3593,8.2357,2.5732],[-82.3574,8.2374,5.0038],[-82.3535,8.2374,7.8895],[-82.3471,8.2351,1.1904],[-82.3421,8.2376,4.8736],[-82.3421,8.2354,1.1807],[-82.3451,8.2337,0.0],[-82.3437,8.2332,0.0],[-82.3401,8.2349,1.6229],[-82.3399,8.2385,2.9016],[-82.3262,8.2371,1.6009],[-82.3226,8.2393,0.0],[-82.3374,8.2474,0.0],[-82.3412,8.2468,15.5284],[-82.3443,8.2418,13.0913],[-82.3487,8.2413,6.7533],[-82.351,8.2435,16.7069],[-82.3529,8.2496,5.5864],[-82.356,8.2493,5.0141],[-82.3549,8.251,10.0704],[-82.3518,8.251,13.5867],[-82.3499,8.249,2.4171],[-82.3496,8.2437,0.0],[-82.3476,8.2424,4.1885],[-82.3396,8.2487,6.0474],[-82.3329,8.249,31.6141],[-82.3315,8.2474,0.0],[-82.324,8.2457,4.51],[-82.316,8.2457,7.9789],[-82.3171,8.2499,8.6161],[-82.3265,8.2515,3.4785],[-82.3357,8.2579,4.2113],[-82.3426,8.2593,0.0],[-82.3432,8.256,6.4292],[-82.3476,8.2543,7.2315],[-82.3449,8.2593,1.6987],[-82.351,8.2615,9.7659],[-82.344,8.2638,8.6395],[-82.3429,8.2668,0.0],[-82.3474,8.2704,14.6176],[-82.3501,8.2754,17.6034],[-82.3568,8.279,0.0]]],
[[[-82.4199,8.2688,0.0],[-82.4204,8.2701,0.0],[-82.4251,8.2693,1.6162],[-82.4235,8.2665,1.4987],[-82.419,8.2654,0.0],[-82.4185,8.2674,2.0386],[-82.4199,8.2688,0.0]]],
[[[-82.3426,8.2899,0.0],[-82.3465,8.2904,0.0],[-82.3518,8.2857,0.8165],[-82.3651,8.2899,7.8377],[-82.3757,8.289,0.0],[-82.3857,8.2863,3.3094],[-82.3946,8.2874,0.0],[-82.3968,8.2785,4.3759],[-82.3987,8.2796,0.0],[-82.4032,8.2765,11.6462],[-82.4137,8.276,0.0],[-82.4196,8.2735,0.0],[-82.4176,8.2635,0.0],[-82.4129,8.2618,0.0],[-82.4079,8.2624,4.6592],[-82.3951,8.2687,0.0],[-82.3907,8.2718,0.0],[-82.3838,8.2829,17.5374],[-82.3776,8.2874,5.5827],[-82.374,8.2874,3.2462],[-82.3721,8.2818,0.0],[-82.369,8.2813,0.0],[-82.3649,8.2768,0.0],[-82.3599,8.2807,2.8758],[-82.3571,8.2807,5.5441],[-82.3496,8.2765,3.2759],[-82.3421,8.2676,0.0],[-82.3412,8.261,1.7443],[-82.3276,8.2568,0.0],[-82.3257,8.2624,3.5652],[-82.3196,8.2693,0.9352],[-82.319,8.2785,3.3853],[-82.3238,8.2835,17.4985],[-82.3326,8.2835,9.7773],[-82.3385,8.2899,0.0],[-82.3426,8.2899,0.0]]],
[[[-82.3149,8.2704,2.6501],[-82.3163,8.2712,1.3083],[-82.3182,8.2668,8.7083],[-82.3232,8.2626,0.0],[-82.3249,8.2579,5.3393],[-82.3174,8.2576,7.412],[-82.3135,8.2599,4.8914],[-82.311,8.2662,0.0],[-82.3149,8.2704,2.6501]]],
[[[-82.2818,8.2776,0.0],[-82.2837,8.2793,0.0],[-82.2996,8.2613,50.2226],[-82.3015,8.261,4.426],[-82.3043,8.256,26.2322],[-82.299,8.2571,40.545],[-82.2932,8.2635,1.9316],[-82.2904,8.2629,0.0],[-82.2829,8.2724,0.0],[-82.2818,8.2776,0.0]]],
[[[-82.3285,8.3168,6.2948],[-82.334,8.3174,0.0],[-82.3326,8.3151,1.3408],[-82.3337,8.3118,1.8464],[-82.3396,8.3043,0.0],[-82.3393,8.3026,0.803],[-82.3371,8.3035,14.5447],[-82.3374,8.2963,10.1854],[-82.3351,8.294,16.1731],[-82.3346,8.2904,0.0],[-82.3271,8.2874,11.969],[-82.3121,8.2879,6.1996],[-82.3007,8.2826,0.6029],[-82.296,8.2857,0.0],[-82.2954,8.2871,0.0],[-82.3012,8.2904,7.2756],[-82.3068,8.2974,5.3476],[-82.3096,8.3046,1.715],[-82.3118,8.3057,0.0],[-82.311,8.3088,0.0],[-82.3124,8.3115,0.0],[-82.3243,8.3138,3.0415],[-82.3285,8.3168,6.2948]]],
[[[-82.3196,8.3182,2.8262],[-82.3229,8.319,0.0],[-82.3254,8.3168,0.0],[-82.3224,8.3146,1.2764],[-82.3171,8.3143,1.5218],[-82.3168,8.3165,0.0],[-82.3196,8.3182,2.8262]]],
[[[-82.336,8.3229,0.0],[-82.3235,8.3246,0.0],[-82.3257,8.3276,0.0],[-82.3249,8.3285,0.0],[-82.3099,8.3246,0.5328],[-82.3076,8.3265,0.0],[-82.3068,8.3324,10.7144],[-82.3079,8.3349,2.0131],[-82.3124,8.3357,1.3183],[-82.3132,8.3385,1.9944],[-82.3112,8.3363,1.3183],[-82.3063,8.3349,0.3735],[-82.3051,8.3293,0.0],[-82.3015,8.3293,0.0],[-82.2954,8.3346,0.0],[-82.2946,8.3388,1.304],[-82.2862,8.344,8.0591],[-82.2846,8.3468,0.6474],[-82.2862,8.3401,0.0],[-82.2765,8.3429,0.0],[-82.2712,8.3404,21.0472],[-82.2765,8.3415,5.2295],[-82.2832,8.3388,0.0],[-82.2876,8.336,0.0],[-82.2896,8.3304,3.1598],[-82.2929,8.3274,0.0],[-82.3065,8.3224,0.0],[-82.3082,8.3182,7.0593],[-82.3057,8.3104,0.0],[-82.3018,8.3085,0.0],[-82.2951,8.309,4.9277],[-82.2879,8.3043,0.0],[-82.2815,8.3163,3.4014],[-82.2765,8.3204,5.0361],[-82.2818,8.3143,8.3609],[-82.2857,8.3051,8.7376],[-82.2743,8.2932,0.0],[-82.2696,8.2904,0.0],[-82.2665,8.2924,0.0],[-82.2621,8.291,0.0],[-82.2599,8.2943,2.4725],[-82.2571,8.2943,0.0],[-82.2443,8.301,0.0],[-82.2404,8.3168,0.0],[-82.2374,8.3188,2.5951],[-82.2382,8.324,0.0],[-82.2363,8.3282,0.0],[-82.2363,8.334,2.8119],[-82.2326,8.3382,0.7848],[-82.229,8.3396,0.0],[-82.2237,8.3465,0.0],[-82.2257,8.3529,0.0],[-82.2246,8.3585,0.0],[-82.2276,8.3599,1.83],[-82.2235,8.3585,0.0],[-82.2199,8.3604,0.0],[-82.2182,8.3668,5.8352],[-82.221,8.371,2.466],[-82.2185,8.3746,3.2699],[-82.2096,8.3776,0.0],[-82.2101,8.3762,1.9146],[-82.2174,8.3743,0.0],[-82.2182,8.3704,0.0],[-82.2084,8.3764,5.2694],[-82.2128,8.3868,32.6713],[-82.2139,8.3951,10.2956],[-82.2184,8.3989,100.996],[-82.2205,8.4047,67.1055],[-82.2181,8.4111,205.9689],[-82.2064,8.4176,446.883],[-82.205,8.4205,440.616],[-82.2139,8.4228,430.5195],[-82.2345,8.4191,131.7576],[-82.2422,8.4235,88.3707],[-82.2485,8.4186,58.7825],[-82.2505,8.4187,62.7593],[-82.2599,8.4226,84.6323],[-82.269,8.4322,53.2561],[-82.2809,8.4248,39.4621],[-82.2858,8.4246,43.6775],[-82.2916,8.4273,51.7497],[-82.2963,8.4267,44.9744],[-82.2944,8.4319,46.5173],[-82.2852,8.4437,50.0586],[-82.2835,8.4551,53.4231],[-82.2901,8.4682,65.1719],[-82.2962,8.4733,74.1899],[-82.2956,8.489,79.9243],[-82.304,8.5051,88.6112],[-82.3069,8.5186,100.9043],[-82.3097,8.5223,107.3656],[-82.3118,8.5457,136.9194],[-82.3083,8.5632,158.6257],[-82.3105,8.5679,200.2715],[-82.3155,8.5714,232.013],[-82.3187,8.5806,176.9121],[-82.3222,8.5836,195.8734],[-82.327,8.5948,263.5891],[-82.3316,8.6002,257.5739],[-82.3491,8.6033,236.0194],[-82.3585,8.6104,265.3185],[-82.3672,8.6216,291.5505],[-82.379,8.6425,361.1933],[-82.3874,8.6482,391.978],[-82.3899,8.6383,368.8996],[-82.3869,8.6285,350.6695],[-82.3905,8.6229,341.277],[-82.3909,8.6147,319.2636],[-82.393,8.6094,306.2227],[-82.3966,8.6068,312.6717],[-82.4111,8.6028,329.1359],[-82.4061,8.592,289.6129],[-82.4046,8.5815,265.6283],[-82.401,8.5748,244.8307],[-82.4,8.5675,234.5052],[-82.3985,8.5654,225.0741],[-82.3935,8.5636,218.0351],[-82.3902,8.5589,211.4473],[-82.3847,8.5565,200.4421],[-82.3752,8.5407,176.7426],[-82.3611,8.5235,144.912],[-82.3617,8.5124,136.6149],[-82.3595,8.5056,127.3655],[-82.3621,8.4948,111.3118],[-82.3585,8.4877,97.3546],[-82.3609,8.4839,96.8503],[-82.3644,8.4854,103.7135],[-82.3716,8.4835,101.5137],[-82.3773,8.4934,140.7555],[-82.3806,8.495,142.0842],[-82.3862,8.4925,157.408],[-82.3902,8.4978,177.6267],[-82.3936,8.4924,135.4972],[-82.3978,8.4909,98.0597],[-82.3978,8.4885,93.6466],[-82.3996,8.4889,95.506],[-82.4004,8.4796,107.4171],[-82.3964,8.4708,97.3812],[-82.4,8.4623,86.3089],[-82.4118,8.4719,107.1218],[-82.4211,8.4721,83.1202],[-82.4256,8.4774,100.3444],[-82.4326,8.4798,157.2921],[-82.4336,8.4862,103.7065],[-82.4385,8.4912,129.1632],[-82.44,8.4967,111.8039],[-82.4474,8.4979,176.1375],[-82.4496,8.4998,144.4274],[-82.451,8.5111,166.4619],[-82.4481,8.5168,157.5825],[-82.4488,8.5205,188.6685],[-82.4621,8.5387,237.9356],[-82.48,8.5544,305.4807],[-82.4841,8.5616,330.3853],[-82.4941,8.5716,379.241],[-82.4987,8.5791,418.4314],[-82.501,8.5869,447.6662],[-82.5063,8.5928,485.9344],[-82.511,8.6025,535.5099],[-82.5187,8.6274,663.6039],[-82.5302,8.6457,773.1838],[-82.5309,8.6508,787.7834],[-82.5286,8.6582,814.5041],[-82.5352,8.6782,955.5593],[-82.5423,8.6856,1023.5556],[-82.5433,8.6889,1039.1493],[-82.5401,8.6956,1077.1119],[-82.5439,8.7089,1182.5846],[-82.5413,8.7202,1260.5721],[-82.5438,8.7257,1312.3267],[-82.5426,8.7406,1448.313],[-82.5438,8.7444,1343.8977],[-82.5449,8.7463,1366.9397],[-82.5629,8.7566,1834.9778],[-82.5693,8.7585,1831.0105],[-82.5692,8.7529,1716.072],[-82.5624,8.7378,1435.5404],[-82.5574,8.7192,1193.7548],[-82.5548,8.7036,1147.8484],[-82.5568,8.6897,1029.126],[-82.5516,8.6823,997.6552],[-82.5459,8.6393,754.6768],[-82.5476,8.6338,729.4936],[-82.5468,8.6285,693.1151],[-82.543,8.6063,583.4924],[-82.5366,8.5847,486.9849],[-82.5373,8.5775,456.7534],[-82.5305,8.5452,314.5225],[-82.5315,8.5362,282.6953],[-82.5298,8.5322,270.1427],[-82.5305,8.5119,196.3601],[-82.5342,8.4923,153.0177],[-82.5262,8.484,133.4715],[-82.5221,8.4757,108.5786],[-82.5226,8.4512,68.2757],[-82.5299,8.4484,76.7286],[-82.538,8.4421,61.6672],[-82.5341,8.4373,49.9001],[-82.5289,8.4231,36.7828],[-82.5281,8.4026,21.8009],[-82.5326,8.3908,17.9787],[-82.5272,8.3909,15.9499],[-82.5132,8.3951,30.9996],[-82.5091,8.3824,22.3292],[-82.5089,8.3595,11.2569],[-82.5072,8.3556,8.3343],[-82.5017,8.3523,6.5179],[-82.4896,8.3538,6.6265],[-82.4898,8.3447,5.5391],[-82.4842,8.347,5.9366],[-82.4793,8.3416,4.8073],[-82.4746,8.341,4.8389],[-82.482,8.3311,3.5899],[-82.4796,8.3266,3.9919],[-82.4792,8.3194,5.6422],[-82.4767,8.3197,3.4546],[-82.4749,8.3074,5.8376],[-82.4762,8.2985,0.0],[-82.4721,8.3001,7.8909],[-82.4582,8.3001,0.0],[-82.4576,8.3029,1.752],[-82.4601,8.304,0.0],[-82.4632,8.309,17.7623],[-82.4624,8.3135,6.3353],[-82.464,8.321,19.7549],[-82.4621,8.3207,14.2671],[-82.4624,8.3174,20.3428],[-82.4538,8.3065,0.0],[-82.4504,8.3082,0.0],[-82.4501,8.3138,6.6609],[-82.4476,8.3176,8.8636],[-82.4479,8.3224,0.0],[-82.444,8.3213,20.5786],[-82.439,8.3093,0.0],[-82.4388,8.3049,0.0],[-82.4321,8.3046,8.6368],[-82.4287,8.3012,0.0],[-82.4265,8.301,4.6396],[-82.4251,8.3026,0.0],[-82.4262,8.3104,12.1668],[-82.4249,8.316,3.7884],[-82.4235,8.3065,15.1953],[-82.4246,8.3015,4.2526],[-82.4282,8.3001,26.3619],[-82.4332,8.3029,2.2183],[-82.4388,8.3035,0.0],[-82.439,8.2993,0.0],[-82.4365,8.2965,0.0],[-82.4313,8.2987,5.6477],[-82.4254,8.294,3.1614],[-82.4218,8.2962,0.0],[-82.4179,8.3076,22.374],[-82.4143,8.3082,3.3115],[-82.4124,8.3063,0.0],[-82.409,8.306,5.7594],[-82.4076,8.3076,4.6033],[-82.4076,8.3063,5.7594],[-82.4112,8.3032,6.1892],[-82.4051,8.3063,6.5568],[-82.409,8.3026,16.6678],[-82.411,8.3024,6.1892],[-82.4154,8.3065,7.0278],[-82.4171,8.3063,14.6852],[-82.4201,8.2879,0.0],[-82.4171,8.2849,1.0746],[-82.4135,8.284,10.8226],[-82.4007,8.2874,0.0],[-82.3971,8.2907,6.9953],[-82.391,8.2929,4.2932],[-82.3913,8.2974,1.958],[-82.3951,8.3007,1.5314],[-82.3962,8.306,11.9374],[-82.3943,8.3007,1.5314],[-82.3904,8.2976,11.57],[-82.3899,8.2921,4.2932],[-82.3804,8.2899,0.0],[-82.3757,8.2915,12.2518],[-82.3671,8.2912,0.0],[-82.3649,8.2926,0.0],[-82.3651,8.2949,0.0],[-82.369,8.3029,3.1286],[-82.3732,8.3076,0.0],[-82.3746,8.3124,6.7427],[-82.3726,8.3143,2.1743],[-82.3729,8.3165,4.1465],[-82.3763,8.3171,0.0],[-82.3765,8.319,3.2845],[-82.3721,8.3174,7.547],[-82.3726,8.3101,0.0],[-82.3635,8.2974,4.9255],[-82.3629,8.2924,1.3843],[-82.3582,8.2915,0.0],[-82.3565,8.2896,0.0],[-82.3546,8.2901,0.0],[-82.3515,8.2874,1.903],[-82.3474,8.2968,0.0],[-82.3504,8.299,7.7406],[-82.3526,8.3035,11.7406],[-82.3501,8.3026,2.5555],[-82.3479,8.2987,6.3096],[-82.3443,8.2982,0.0],[-82.3432,8.3051,0.0],[-82.3376,8.3129,2.879],[-82.3374,8.3157,0.0],[-82.3426,8.3249,3.098],[-82.3457,8.3271,1.809],[-82.344,8.3276,1.809],[-82.3446,8.3301,5.1612],[-82.3476,8.3321,0.0],[-82.3543,8.331,0.0],[-82.3626,8.3257,0.0],[-82.3657,8.3257,0.0],[-82.3693,8.3287,22.2673],[-82.3704,8.3335,0.0],[-82.3751,8.3357,14.3254],[-82.3763,8.3385,11.0671],[-82.3751,8.3396,18.218],[-82.3704,8.3388,0.0],[-82.3701,8.3446,13.6223],[-82.3685,8.3396,0.0],[-82.3704,8.3379,10.2104],[-82.3749,8.3388,18.218],[-82.3754,8.3374,11.0671],[-82.3682,8.3326,5.3368],[-82.3674,8.3287,3.3295],[-82.3626,8.3279,4.4067],[-82.356,8.3351,0.0],[-82.3471,8.3346,6.3794],[-82.3426,8.3326,0.0],[-82.3399,8.3262,0.0],[-82.336,8.3229,0.0]]],
[[[-82.4299,8.2712,0.0],[-82.4304,8.2732,0.0],[-82.4351,8.2724,0.0],[-82.4346,8.2701,0.0],[-82.4299,8.2712,0.0]]],
[[[-82.4388,8.2746,0.0],[-82.4413,8.2746,0.0],[-82.4396,8.2735,0.0],[-82.441,8.2699,0.0],[-82.4362,8.271,0.0],[-82.4388,8.2746,0.0]]],
[[[-82.429,8.2921,0.0],[-82.4301,8.2935,0.0],[-82.4318,8.2893,0.0],[-82.4285,8.2915,0.0],[-82.429,8.2921,0.0]]],
[[[-82.3754,8.2843,0.0],[-82.3768,8.2854,0.0],[-82.3815,8.2829,0.509],[-82.3832,8.2776,0.0],[-82.376,8.2788,0.0],[-82.3754,8.2799,0.0],[-82.3776,8.281,1.3291],[-82.3751,8.2818,0.307],[-82.3754,8.2843,0.0]]]]}}