{"type":"Feature","properties":{"GID_3":"PAN.4.2.14_1","GID_0":"PAN","country":"Panama","GID_1":"PAN.4_1","province":"Colón","NL_NAME_1":"NA","GID_2":"PAN.4.2_1","county":"Colón","NL_NAME_2":"NA","city":"SantaRosa","VARNAME_3":"NA","NL_NAME_3":"NA","TYPE_3":"Corregimiento","ENGTYPE_3":"Municipality","CC_3":"NA","HASC_3":"NA","name":"Santa_Rosa.city"},
"geometry":{"type": "MultiPolygon","coordinates": [[[[-79.7026,9.1858,156.4505],[-79.694,9.1856,93.9254],[-79.6734,9.1795,43.4982],[-79.6683,9.1802,36.7807],[-79.6658,9.1763,41.9781],[-79.6587,9.1737,46.369],[-79.6561,9.1778,27.796],[-79.6588,9.1812,35.6297],[-79.6501,9.1974,34.1029],[-79.6496,9.2038,32.2094],[-79.6468,9.2085,26.0],[-79.6589,9.2134,41.8435],[-79.6667,9.219,43.8662],[-79.6789,9.2327,63.8842],[-79.7042,9.2285,235.7951],[-79.7077,9.2245,214.2748],[-79.7115,9.2046,283.8466],[-79.7059,9.1956,205.435],[-79.7026,9.1858,156.4505]]]]}}