{"type":"Feature","properties":{"GID_3":"PAN.9.3.9_1","GID_0":"PAN","country":"Panama","GID_1":"PAN.9_1","province":"LosSantos","NL_NAME_1":"NA","GID_2":"PAN.9.3_1","county":"LosSantos","NL_NAME_2":"NA","city":"LosAngeles","VARNAME_3":"NA","NL_NAME_3":"NA","TYPE_3":"Corregimiento","ENGTYPE_3":"Municipality","CC_3":"NA","HASC_3":"NA","name":"Los_Angeles.city"},
"geometry":{"type": "MultiPolygon","coordinates": [[[[-80.3165,7.8999,5.382],[-80.3207,7.9014,3.1929],[-80.3257,7.8998,9.4506],[-80.3409,7.9122,3.5429],[-80.3453,7.9122,8.5769],[-80.3466,7.9084,31.5332],[-80.3435,7.8986,18.8386],[-80.3473,7.8984,14.3534],[-80.3485,7.902,11.9303],[-80.3593,7.8948,19.9023],[-80.3615,7.8915,24.2401],[-80.3652,7.8748,31.744],[-80.359,7.8608,52.314],[-80.3516,7.8692,29.2568],[-80.3428,7.8719,31.5901],[-80.3366,7.8622,23.9564],[-80.3257,7.8585,34.9381],[-80.3217,7.869,23.0054],[-80.321,7.8767,18.5621],[-80.3155,7.8835,9.1209],[-80.3165,7.8999,5.382]]]]}}