{"type": "Feature","bbox": [-80.6925,7.9273,-80.4465,8.1139],"geometry": {"type": "MultiPolygon","coordinates": [[[[-80.6572,7.9347,59.8245],[-80.6568,7.9273,65.84],[-80.6501,7.93,54.5397],[-80.6447,7.9292,57.837],[-80.6309,7.9375,47.9049],[-80.6248,7.9369,72.8191],[-80.6176,7.9389,66.0587],[-80.61,7.9341,47.0715],[-80.602,7.9379,55.9804],[-80.602,7.9399,49.2436],[-80.6074,7.9412,54.1382],[-80.5996,7.9488,27.0995],[-80.5958,7.9501,28.0486],[-80.5949,7.9555,34.1103],[-80.5799,7.9646,32.4137],[-80.5738,7.9624,37.9295],[-80.5527,7.9474,44.4204],[-80.5033,7.9422,39.2836],[-80.4969,7.9708,10.0796],[-80.4908,7.9724,10.4259],[-80.4893,7.9785,4.1488],[-80.487,7.9783,4.7944],[-80.4841,7.9805,6.4596],[-80.4855,7.9847,7.16],[-80.4769,7.996,4.0812],[-80.4763,7.9991,5.1255],[-80.4728,8.0022,3.2612],[-80.4696,8.0023,2.9682],[-80.4674,8.0076,34.8843],[-80.4629,8.0113,20.8674],[-80.459,8.0121,1.5],[-80.4615,8.0155,19.2892],[-80.4595,8.0178,18.1029],[-80.4582,8.0243,11.0435],[-80.4547,8.0226,11.6172],[-80.4546,8.0199,5.2631],[-80.4569,8.0166,6.2797],[-80.4539,8.0144,5.4222],[-80.4499,8.0176,4.4688],[-80.4465,8.0257,2.5003],[-80.4493,8.0276,5.6834],[-80.449,8.0307,2.316],[-80.4576,8.0393,6.4293],[-80.4651,8.051,19.6196],[-80.4696,8.076,0.0],[-80.4737,8.0774,3.0609],[-80.4807,8.084,0.0],[-80.4832,8.0846,7.3904],[-80.4854,8.0896,0.0],[-80.4957,8.0918,0.9696],[-80.4996,8.0965,10.7677],[-80.499,8.1029,9.6344],[-80.506,8.1051,1.1884],[-80.5065,8.111,4.9206],[-80.5104,8.1093,2.621],[-80.5082,8.104,7.3846],[-80.511,8.0983,10.5049],[-80.5138,8.0966,8.2588],[-80.5178,8.0969,11.628],[-80.5189,8.103,3.1749],[-80.5251,8.1024,3.5621],[-80.5237,8.1117,2.2925],[-80.526,8.1139,2.5844],[-80.5272,8.1128,2.5099],[-80.5265,8.1089,2.4259],[-80.5296,8.1059,2.2739],[-80.534,8.1051,4.863],[-80.5327,8.1106,2.2928],[-80.5356,8.1119,2.7338],[-80.5384,8.1104,2.6767],[-80.538,8.1042,6.6531],[-80.5402,8.1015,2.6903],[-80.5467,8.1038,3.029],[-80.5503,8.1032,3.1061],[-80.5505,8.0974,6.8297],[-80.556,8.0869,4.0699],[-80.5559,8.0843,3.8458],[-80.5681,8.077,8.3038],[-80.5782,8.078,4.2387],[-80.5838,8.0732,10.8869],[-80.5906,8.0764,6.7574],[-80.5972,8.0747,29.3127],[-80.6011,8.0765,14.9587],[-80.6056,8.0745,8.4289],[-80.6116,8.0775,10.5726],[-80.6142,8.073,22.7461],[-80.6169,8.0722,17.13],[-80.6232,8.0732,16.4852],[-80.6278,8.0758,24.0372],[-80.6414,8.0736,34.6718],[-80.6461,8.0775,29.6154],[-80.649,8.0779,15.1416],[-80.6534,8.0756,17.2224],[-80.6588,8.0763,17.2634],[-80.6646,8.0682,21.451],[-80.6665,8.069,18.9814],[-80.6683,8.0676,19.3195],[-80.6699,8.07,16.7493],[-80.6745,8.0693,23.8748],[-80.6812,8.0646,31.4916],[-80.6841,8.0623,33.1151],[-80.685,8.0584,32.1101],[-80.6925,8.0487,40.9981],[-80.6857,8.0391,42.8763],[-80.6867,8.0366,49.7103],[-80.685,8.0313,35.4363],[-80.6888,8.0263,30.6738],[-80.6875,8.0241,31.6231],[-80.6822,8.022,35.1444],[-80.6813,8.0187,38.868899999999996],[-80.6789,8.0192,34.9667],[-80.6754,8.0075,43.093],[-80.6724,8.0043,43.5961],[-80.6727,7.9998,44.0699],[-80.6768,7.9915,51.8771],[-80.6765,7.9858,53.6338],[-80.6807,7.9723,72.6631],[-80.6762,7.9708,66.2195],[-80.6634,7.9582,75.0348],[-80.6599,7.9518,90.1865],[-80.6572,7.9347,59.8245]]]]}
,"properties": {"GID_2": "PAN.7.5_1","GID_0": "PAN","country": "Panama","GID_1": "PAN.7_1","province": "Herrera","NL_NAME_1": "NA","county": "Parita","VARNAME_2": "NA","NL_NAME_2": "NA","TYPE_2": "Distrito","ENGTYPE_2": "District","CC_2": "NA","HASC_2": "PA.HE.PR","name": "Parita.county","area_km2": 348.5995,"hist_schema_id": "Elevation0-9000","hist_area_km2": {"0": 70.5374,"25": 127.7105,"50": 98.9121,"75": 35.42,"100": 8.8391,"125": 3.9681,"150": 2.1415,"175": 0.7768,"200": 0.2939}}}