{"type":"Feature","properties":{"GID_3":"PAN.9.5.2_1","GID_0":"PAN","country":"Panama","GID_1":"PAN.9_1","province":"LosSantos","NL_NAME_1":"NA","GID_2":"PAN.9.5_1","county":"Pedasí","NL_NAME_2":"NA","city":"Mariabé","VARNAME_3":"NA","NL_NAME_3":"NA","TYPE_3":"Corregimiento","ENGTYPE_3":"Municipality","CC_3":"NA","HASC_3":"NA","name":"Mariabé.city"},
"geometry":{"type": "MultiPolygon","coordinates": [[[[-80.0815,7.5381,63.5422],[-80.0607,7.5418,40.1002],[-80.0583,7.5463,39.1087],[-80.0586,7.553,35.8268],[-80.0557,7.5551,37.3508],[-80.0459,7.5443,24.7244],[-80.0391,7.5464,30.1549],[-80.032,7.5519,13.3235],[-80.0256,7.5638,15.3833],[-80.0307,7.5771,0.0],[-80.0329,7.5793,10.6047],[-80.0318,7.5846,0.0],[-80.0329,7.589,7.8386],[-80.031,7.5915,1.6883],[-80.049,7.6279,0.0],[-80.049,7.6337,0.0],[-80.0468,7.6335,0.0],[-80.0465,7.6357,0.0],[-80.0501,7.6379,1.9249],[-80.0554,7.6454,1.8927],[-80.0604,7.6482,3.2613],[-80.0646,7.6468,1.9347],[-80.0656,7.6415,17.9236],[-80.0717,7.6356,19.3536],[-80.0652,7.625,15.2879],[-80.0622,7.6075,8.1912],[-80.0625,7.5993,10.9075],[-80.0704,7.5931,29.7336],[-80.0711,7.5911,32.8188],[-80.0688,7.5841,20.1307],[-80.0734,7.5773,25.6665],[-80.0869,7.5667,55.8216],[-80.0876,7.559,54.4729],[-80.0976,7.5457,82.2197],[-80.0935,7.539,75.2992],[-80.0888,7.5402,70.0921],[-80.0815,7.5381,63.5422]]],
[[[-79.9985,7.6357,0.0],[-80.0013,7.6343,0.3809],[-80.0018,7.6321,2.894],[-80.0001,7.626,0.0],[-80.0026,7.6232,0.6275],[-80.0021,7.6212,0.0],[-79.9993,7.621,0.0],[-79.9951,7.6274,0.0],[-79.9968,7.6299,0.0],[-79.9951,7.6335,0.0],[-79.9985,7.6357,0.0]]]]}}