{"type":"Feature","properties":{"GID_3":"PAN.4.1.6_1","GID_0":"PAN","country":"Panama","GID_1":"PAN.4_1","province":"Colón","NL_NAME_1":"NA","GID_2":"PAN.4.1_1","county":"Chagres","NL_NAME_2":"NA","city":"Piña","VARNAME_3":"NA","NL_NAME_3":"NA","TYPE_3":"Corregimiento","ENGTYPE_3":"Municipality","CC_3":"NA","HASC_3":"NA","name":"Piña.city"},
"geometry":{"type": "MultiPolygon","coordinates": [[[[-80.0142,9.229,86.727],[-80.0143,9.2572,93.2929],[-80.0125,9.2703,45.2861],[-80.0177,9.2784,58.1607],[-80.0254,9.2825,17.7875],[-80.0296,9.2816,22.8264],[-80.0358,9.2753,18.6793],[-80.0417,9.277,11.6047],[-80.0444,9.2735,7.0096],[-80.0491,9.272,24.2637],[-80.0537,9.274,0.0],[-80.0612,9.266,4.5384],[-80.0665,9.2632,5.3721],[-80.0668,9.2601,6.1413],[-80.0755,9.2515,9.4098],[-80.0724,9.2357,20.8344],[-80.0638,9.2379,28.888],[-80.0494,9.2337,48.384],[-80.046,9.2435,60.9071],[-80.0408,9.2467,76.919],[-80.0334,9.2372,101.9157],[-80.023,9.2336,63.0848],[-80.0181,9.2282,49.3542],[-80.0142,9.229,86.727]]]]}}