{"type":"Feature","properties":{"GID_2":"PAN.13.6_1","GID_0":"PAN","country":"Panama","GID_1":"PAN.13_1","province":"Veraguas","NL_NAME_1":"NA","county":"Montijo","VARNAME_2":"NA","NL_NAME_2":"NA","TYPE_2":"Distrito","ENGTYPE_2":"District","CC_2":"NA","HASC_2":"PA.VR.MT","name":"Montijo.county"},
"geometry":{"type": "MultiPolygon","coordinates": [[[[-81.8024,7.2215,0.0],[-81.8054,7.2224,0.0],[-81.8065,7.2213,8.0949],[-81.8043,7.2146,63.3706],[-81.8057,7.2093,0.0],[-81.7993,7.2035,0.0],[-81.7957,7.2051,0.0],[-81.7957,7.2079,0.0],[-81.8012,7.2146,2.5254],[-81.8001,7.2179,1.2933],[-81.7976,7.216,0.1143],[-81.7965,7.2171,0.0],[-81.8024,7.2215,0.0]]],
[[[-81.819,7.2938,0.0],[-81.8207,7.2946,0.0],[-81.8215,7.2918,6.2481],[-81.8207,7.2821,39.1428],[-81.8246,7.2721,0.8956],[-81.8213,7.271,35.992],[-81.8179,7.261,5.28],[-81.8121,7.2524,39.6399],[-81.811,7.2426,0.0],[-81.8065,7.2385,16.6043],[-81.804,7.2274,1.7011],[-81.8024,7.2262,0.0],[-81.7993,7.2293,2.3214],[-81.7985,7.2329,20.9202],[-81.8024,7.2385,0.0],[-81.8024,7.2415,0.0],[-81.7949,7.2493,1.4231],[-81.7929,7.2549,3.7132],[-81.789,7.2588,11.1221],[-81.789,7.2618,21.3787],[-81.7849,7.2668,0.0],[-81.7865,7.2693,12.1772],[-81.7857,7.2746,0.0],[-81.7821,7.2765,0.0],[-81.781,7.279,35.0533],[-81.7685,7.2835,0.0],[-81.7693,7.2907,0.0],[-81.7765,7.2913,0.0],[-81.7846,7.2868,13.9857],[-81.7882,7.2888,12.3806],[-81.7887,7.2918,2.1231],[-81.796,7.2896,2.5608],[-81.8024,7.2924,0.0],[-81.8063,7.2899,5.6817],[-81.816,7.2893,8.2972],[-81.8185,7.2907,0.0],[-81.819,7.2938,0.0]]],
[[[-81.7962,7.3846,0.0],[-81.794,7.384,28.2181],[-81.7999,7.3887,0.1032],[-81.8004,7.3871,0.1032],[-81.7962,7.3846,0.0]]],
[[[-82.2426,7.4771,0.0],[-82.2438,7.4782,0.0],[-82.2465,7.4765,0.0],[-82.2482,7.4779,0.0],[-82.2487,7.4754,0.0],[-82.2465,7.4746,0.0],[-82.2468,7.4699,0.0],[-82.251,7.471,0.0],[-82.2504,7.4682,0.0],[-82.2471,7.4685,0.0],[-82.2474,7.4662,0.0],[-82.2449,7.4662,0.0],[-82.2451,7.4629,0.0],[-82.2435,7.4637,0.0],[-82.2438,7.4621,0.0],[-82.2407,7.4607,0.0],[-82.2396,7.4632,0.0],[-82.2354,7.4624,0.0],[-82.2326,7.464,0.0],[-82.2318,7.4674,0.0],[-82.2301,7.4679,0.0],[-82.2296,7.4724,0.0],[-82.231,7.4743,0.0],[-82.2374,7.4757,3.4607],[-82.2379,7.4774,0.0],[-82.2426,7.4771,0.0]]],
[[[-81.6729,7.3176,3.6496],[-81.6749,7.3188,0.0],[-81.674,7.3151,0.0],[-81.6721,7.3165,0.0],[-81.6729,7.3176,3.6496]]],
[[[-81.6443,7.3843,1.388],[-81.6454,7.386,0.0],[-81.6454,7.3824,0.0],[-81.6449,7.3826,0.0],[-81.6443,7.3843,1.388]]],
[[[-81.2532,7.4679,36.4199],[-81.2521,7.4699,0.0],[-81.2565,7.469,0.0],[-81.2576,7.4671,0.0],[-81.2549,7.4657,1.715],[-81.2532,7.4679,36.4199]]],
[[[-81.2443,7.4782,0.0],[-81.2474,7.4785,3.6824],[-81.251,7.4754,10.5522],[-81.249,7.4726,0.0],[-81.2515,7.4707,0.785],[-81.2457,7.4726,0.0],[-81.2443,7.4782,0.0]]],
[[[-82.2574,7.4771,0.0],[-82.2618,7.4782,0.0],[-82.264,7.4765,0.0],[-82.2632,7.4713,0.0],[-82.2576,7.474,0.0],[-82.2585,7.4685,0.0],[-82.254,7.469,0.0],[-82.254,7.476,0.0],[-82.2574,7.4771,0.0]]],
[[[-81.7943,7.3857,30.017],[-81.791,7.3807,0.0],[-81.7879,7.3793,65.0624],[-81.7882,7.3771,0.0],[-81.7862,7.3746,5.9013],[-81.7835,7.3732,52.0082],[-81.7824,7.369,0.0],[-81.781,7.369,30.9849],[-81.7774,7.3624,19.9947],[-81.7785,7.3601,0.0],[-81.7715,7.3601,2.4301],[-81.7604,7.3512,5.5798],[-81.7546,7.3496,0.0],[-81.7518,7.3515,2.5159],[-81.7462,7.3485,0.0],[-81.7346,7.3474,9.6106],[-81.7246,7.3493,2.7109],[-81.724,7.3465,1.1834],[-81.7154,7.3451,3.4301],[-81.7049,7.3404,0.0],[-81.6929,7.3399,1.0536],[-81.691,7.3454,4.3616],[-81.689,7.3426,6.5387],[-81.6907,7.3396,7.0583],[-81.689,7.3376,6.0635],[-81.6751,7.331,0.9849],[-81.6715,7.3307,23.1529],[-81.669,7.3274,14.0442],[-81.669,7.3243,0.0],[-81.6637,7.326,26.6288],[-81.6582,7.3221,8.0422],[-81.6468,7.3196,7.0664],[-81.644,7.3165,0.0],[-81.6346,7.3171,0.0],[-81.6338,7.3199,12.4391],[-81.6304,7.3201,0.0],[-81.6285,7.3232,1.5951],[-81.619,7.3246,0.0],[-81.6179,7.3271,26.2402],[-81.6157,7.3276,20.067],[-81.5957,7.3257,4.5142],[-81.5926,7.3268,3.1562],[-81.5912,7.3257,3.1562],[-81.5904,7.3276,0.0],[-81.5926,7.3296,0.0],[-81.5918,7.3343,0.0],[-81.596,7.3346,17.5967],[-81.5993,7.3374,0.0],[-81.601,7.3365,15.1376],[-81.6032,7.3401,35.4661],[-81.604,7.354,9.647],[-81.6018,7.3593,0.0],[-81.6029,7.361,0.0],[-81.6065,7.3604,9.5714],[-81.6071,7.3651,3.5016],[-81.6113,7.3649,13.0054],[-81.6124,7.3704,10.7404],[-81.611,7.3757,0.0],[-81.6151,7.3754,17.7151],[-81.616,7.3774,0.0],[-81.621,7.3785,14.4256],[-81.6251,7.3885,0.0],[-81.6326,7.3954,33.58],[-81.6429,7.3963,0.0],[-81.6435,7.3893,3.9798],[-81.6382,7.3896,0.0],[-81.6421,7.3876,0.0],[-81.6426,7.3824,1.4421],[-81.6479,7.3788,0.0],[-81.6543,7.3701,4.2505],[-81.6624,7.3718,3.4906],[-81.6626,7.3724,1.8003],[-81.654,7.3718,16.0722],[-81.6504,7.3785,5.8167],[-81.6465,7.3812,2.8949],[-81.6468,7.3868,6.6146],[-81.6504,7.3951,10.8075],[-81.6518,7.3943,10.8075],[-81.6521,7.3896,6.392],[-81.6574,7.3885,1.5007],[-81.6585,7.3868,6.0778],[-81.6687,7.386,3.0686],[-81.6721,7.3896,1.4652],[-81.674,7.3887,24.5206],[-81.6801,7.3924,0.0],[-81.6818,7.3921,0.0],[-81.6849,7.3871,0.0],[-81.6876,7.3874,4.7309],[-81.6946,7.3938,6.8036],[-81.6949,7.3968,0.0],[-81.6988,7.4001,0.0],[-81.6982,7.4054,0.0],[-81.7012,7.4107,2.0746],[-81.7024,7.4182,16.3101],[-81.6976,7.4204,0.0],[-81.6988,7.4243,0.0],[-81.706,7.4257,6.4389],[-81.7157,7.4332,0.0],[-81.7193,7.4335,50.2247],[-81.726,7.4379,0.0],[-81.7279,7.4468,0.944],[-81.7237,7.4496,0.0],[-81.7224,7.4535,1.6658],[-81.7243,7.4557,2.4335],[-81.724,7.4593,0.0],[-81.7196,7.4587,0.0],[-81.7174,7.4654,0.0],[-81.7193,7.4754,2.7718],[-81.7179,7.4813,0.64],[-81.7187,7.4871,7.2657],[-81.7174,7.4865,0.0],[-81.7129,7.4943,6.2621],[-81.7012,7.4971,5.4828],[-81.6957,7.5024,20.2531],[-81.6854,7.5015,0.0],[-81.6818,7.5026,1.8411],[-81.6754,7.5151,6.028],[-81.6765,7.5268,0.0],[-81.6804,7.5432,1.4693],[-81.684,7.5421,10.9874],[-81.6851,7.544,0.0],[-81.696,7.5437,30.5429],[-81.7076,7.5399,1.986],[-81.7126,7.5454,5.9004],[-81.7146,7.5557,0.0],[-81.719,7.5599,16.6865],[-81.724,7.574,0.0],[-81.7237,7.5854,0.0],[-81.7271,7.5885,6.1782],[-81.7262,7.5918,0.0],[-81.7237,7.5929,0.0],[-81.7249,7.5957,0.9077],[-81.7213,7.5982,0.0],[-81.7237,7.5993,0.0],[-81.7232,7.6015,0.0],[-81.7246,7.6024,0.0],[-81.7254,7.6076,0.0],[-81.7271,7.6085,31.2284],[-81.7276,7.614,0.0],[-81.7343,7.621,0.0],[-81.7337,7.6226,0.6884],[-81.7299,7.6224,0.0],[-81.7299,7.6243,0.0],[-81.7271,7.626,7.4358],[-81.7299,7.6274,2.9134],[-81.729,7.631,6.4456],[-81.7301,7.6318,6.4456],[-81.7351,7.631,0.0],[-81.7401,7.6274,0.0],[-81.7415,7.6287,9.6623],[-81.7412,7.6318,0.0],[-81.7363,7.6365,8.6696],[-81.7429,7.6365,19.3514],[-81.746,7.6388,7.3186],[-81.7457,7.6446,7.534],[-81.7482,7.6451,29.1441],[-81.7487,7.6488,0.0],[-81.7507,7.6493,4.3686],[-81.7524,7.649,10.891],[-81.7515,7.6418,17.3949],[-81.7532,7.6396,6.4796],[-81.7596,7.6421,11.8042],[-81.7588,7.6463,0.0],[-81.7604,7.6465,8.0253],[-81.7646,7.6432,7.0889],[-81.7649,7.641,1.7702],[-81.7632,7.6413,1.8946],[-81.7629,7.6393,0.0],[-81.7657,7.6388,0.0],[-81.7676,7.6349,19.6469],[-81.7701,7.6343,0.0],[-81.7679,7.6332,0.0],[-81.7685,7.6315,0.0],[-81.7643,7.6324,2.5194],[-81.7629,7.6312,0.0],[-81.7621,7.6271,0.0],[-81.7574,7.6221,1.0067],[-81.7579,7.6201,5.0024],[-81.7657,7.6199,20.8704],[-81.774,7.6268,3.1053],[-81.776,7.6271,0.0],[-81.7743,7.6232,0.0],[-81.7765,7.6221,0.0],[-81.7826,7.6249,5.0634],[-81.7857,7.6229,29.0503],[-81.7846,7.6207,16.0973],[-81.7887,7.6174,0.0],[-81.7871,7.614,4.1728],[-81.7907,7.614,0.0],[-81.7937,7.6085,71.6886],[-81.801,7.6029,0.0],[-81.8029,7.5965,31.0208],[-81.8074,7.5951,0.0],[-81.8129,7.5899,13.4768],[-81.8154,7.5899,33.8908],[-81.8179,7.5921,0.0],[-81.8276,7.5929,0.0],[-81.8276,7.5893,0.0],[-81.8337,7.5871,0.0],[-81.8349,7.5851,1.1978],[-81.8324,7.5849,3.4624],[-81.8321,7.5832,10.7256],[-81.8349,7.5813,7.5459],[-81.8365,7.5771,4.1804],[-81.8388,7.5779,0.0],[-81.8385,7.5765,49.2468],[-81.8418,7.5749,0.0],[-81.8412,7.571,10.1435],[-81.8432,7.5638,0.0],[-81.841,7.5624,4.1084],[-81.841,7.5546,1.9985],[-81.8429,7.5485,12.4169],[-81.8468,7.5435,14.6195],[-81.8471,7.5451,1.3945],[-81.854,7.546,0.0],[-81.8554,7.544,29.3772],[-81.8587,7.5435,0.0],[-81.8574,7.5371,89.1534],[-81.8585,7.534,0.0],[-81.8551,7.5315,40.1218],[-81.8554,7.529,9.0344],[-81.8571,7.5237,15.5478],[-81.8621,7.5171,3.9846],[-81.8674,7.5157,0.0],[-81.8768,7.5224,0.0],[-81.8815,7.5237,42.6656],[-81.891,7.5237,3.384],[-81.8915,7.5224,3.384],[-81.8857,7.5185,47.4545],[-81.8896,7.516,0.0],[-81.8907,7.5124,0.0],[-81.8849,7.5135,0.0],[-81.8849,7.5115,0.0],[-81.8804,7.5088,49.1145],[-81.8835,7.5001,0.0],[-81.8812,7.4957,44.7149],[-81.884,7.4951,4.8591],[-81.8857,7.4932,0.0],[-81.8851,7.4912,16.6509],[-81.8882,7.491,0.418],[-81.8868,7.4899,14.1936],[-81.8879,7.4876,3.6087],[-81.8865,7.4871,1.2237],[-81.8854,7.4896,14.1936],[-81.8832,7.4879,4.6683],[-81.8835,7.4901,40.9654],[-81.8757,7.4918,0.5661],[-81.8735,7.4888,22.8238],[-81.8754,7.4815,0.0],[-81.8743,7.4801,0.0],[-81.8707,7.4807,22.5934],[-81.8704,7.4776,0.0],[-81.8685,7.4768,1.716],[-81.8715,7.4718,0.0],[-81.8701,7.4699,0.0],[-81.8676,7.4701,6.7358],[-81.8637,7.464,2.4795],[-81.8618,7.464,3.3422],[-81.8654,7.4626,2.6186],[-81.8649,7.4535,34.6716],[-81.8668,7.4524,0.0],[-81.8662,7.4488,2.4767],[-81.8643,7.4496,2.4767],[-81.8654,7.4451,2.963],[-81.8624,7.4449,0.9923],[-81.861,7.441,-0.4358],[-81.8596,7.4426,48.6763],[-81.859,7.4387,-0.0814],[-81.8532,7.4374,85.6526],[-81.8529,7.4349,2.2019],[-81.8493,7.4332,8.2504],[-81.8463,7.4285,0.0],[-81.8443,7.4285,7.0758],[-81.8426,7.4246,0.6393],[-81.8404,7.4243,16.8735],[-81.8393,7.4224,0.0],[-81.8368,7.4235,19.665],[-81.8354,7.4207,13.343],[-81.8324,7.4213,21.2913],[-81.8288,7.4168,0.0],[-81.8254,7.4165,52.2184],[-81.8265,7.4149,7.2777],[-81.8243,7.4149,21.2133],[-81.8201,7.4107,81.0746],[-81.8207,7.4074,0.6648],[-81.8193,7.406,0.0904],[-81.8143,7.406,2.7039],[-81.8049,7.3982,0.0],[-81.8032,7.3951,1.4007],[-81.8043,7.3915,0.0],[-81.8026,7.389,0.0],[-81.7988,7.3904,1.8299],[-81.7943,7.3857,30.017]]],
[[[-81.7104,7.5938,0.0],[-81.7121,7.5949,0.0],[-81.7124,7.5921,0.0],[-81.7104,7.5926,0.6974],[-81.7104,7.5938,0.0]]],
[[[-81.7121,7.6168,1.7937],[-81.7129,7.6188,0.0],[-81.7149,7.6163,0.0],[-81.7129,7.6157,1.7937],[-81.7121,7.6168,1.7937]]],
[[[-81.0946,7.5818,11.352],[-81.0993,7.5821,0.0],[-81.1049,7.5799,5.6896],[-81.109,7.576,5.2612],[-81.1171,7.5751,16.3071],[-81.1188,7.5721,9.0896],[-81.1221,7.5707,0.0],[-81.1296,7.5687,54.8482],[-81.1393,7.569,0.0],[-81.1438,7.5668,17.3109],[-81.1504,7.5618,0.0],[-81.1551,7.5543,29.9518],[-81.164,7.5462,27.9192],[-81.1668,7.5424,0.0],[-81.1682,7.5365,8.8941],[-81.1718,7.5326,5.6676],[-81.1779,7.5307,9.4967],[-81.1926,7.5315,5.2577],[-81.2012,7.5263,8.5426],[-81.2054,7.5265,22.3383],[-81.2074,7.5285,0.0],[-81.2129,7.5282,4.2599],[-81.2157,7.5265,12.3753],[-81.2157,7.5235,74.4934],[-81.219,7.521,0.0],[-81.2232,7.5221,0.0],[-81.224,7.5196,42.4306],[-81.2318,7.5182,10.1727],[-81.2379,7.5099,17.3869],[-81.2451,7.5038,0.0],[-81.249,7.4968,25.6668],[-81.251,7.4974,0.0],[-81.2521,7.4949,35.3228],[-81.2565,7.4921,0.0],[-81.256,7.4896,11.9184],[-81.2599,7.4888,0.0],[-81.2588,7.4862,13.2787],[-81.254,7.4826,0.0],[-81.2496,7.4821,12.9708],[-81.2485,7.4801,0.0],[-81.2415,7.4846,0.0],[-81.241,7.486,1.6081],[-81.2432,7.4862,38.9582],[-81.244,7.4888,33.7519],[-81.2382,7.4924,0.2698],[-81.2382,7.494,15.4981],[-81.2354,7.4932,0.2572],[-81.231,7.496,0.0],[-81.2288,7.4951,0.0],[-81.2243,7.4982,0.0],[-81.2196,7.4932,8.5091],[-81.2262,7.4865,26.0726],[-81.2235,7.4846,0.0],[-81.2204,7.486,22.537],[-81.216,7.4849,0.0],[-81.216,7.4871,30.4426],[-81.2096,7.4882,0.0],[-81.2068,7.4904,0.0],[-81.2051,7.4893,0.3369],[-81.2046,7.4915,5.0139],[-81.2032,7.4896,0.0],[-81.1965,7.4899,0.0],[-81.1965,7.4935,5.6318],[-81.1929,7.4926,11.4445],[-81.1924,7.491,0.0],[-81.1896,7.4932,6.5527],[-81.1874,7.4918,0.0],[-81.1851,7.4935,0.0],[-81.1876,7.5007,11.451599999999999],[-81.1865,7.5038,21.0411],[-81.184,7.5032,0.0],[-81.1846,7.5054,3.3772],[-81.1804,7.5054,0.0],[-81.1768,7.5085,0.0809],[-81.1754,7.5071,0.0809],[-81.1724,7.5085,0.0],[-81.1732,7.5107,42.0479],[-81.1674,7.5135,0.2376],[-81.1665,7.5163,3.1168],[-81.1632,7.516,0.3012],[-81.1588,7.5182,0.5723],[-81.1568,7.5207,8.724],[-81.1574,7.524,22.6142],[-81.1532,7.5232,0.0],[-81.1462,7.5274,21.2443],[-81.1443,7.529,0.0],[-81.1443,7.5301,0.0],[-81.1476,7.5293,8.4151],[-81.1454,7.5343,0.0],[-81.1468,7.536,15.8383],[-81.1457,7.5376,0.1786],[-81.1324,7.5421,0.0],[-81.1332,7.5443,3.2132],[-81.1235,7.5457,0.0],[-81.1226,7.5479,8.3676],[-81.1062,7.5435,0.7708],[-81.1015,7.5385,0.0],[-81.0974,7.5385,0.0],[-81.0968,7.5365,0.0],[-81.0921,7.5352,7.3884],[-81.0921,7.5326,3.4334],[-81.0896,7.5318,0.0],[-81.0879,7.5285,0.0],[-81.0821,7.5279,0.0],[-81.0774,7.5318,1.4385],[-81.0785,7.5354,20.2143],[-81.0749,7.5349,0.0],[-81.066,7.5424,21.8792],[-81.0632,7.5418,0.0],[-81.0571,7.5446,0.0],[-81.0537,7.5501,8.929],[-81.0554,7.5537,0.0],[-81.0529,7.5565,2.9192],[-81.051,7.5563,0.0],[-81.0507,7.5615,0.0],[-81.046,7.5643,1.9002],[-81.0465,7.5679,6.0587],[-81.0399,7.5682,0.0],[-81.0376,7.5718,0.278],[-81.0435,7.5729,34.0594],[-81.0512,7.5801,0.0],[-81.0549,7.5804,22.9746],[-81.0574,7.5782,17.5518],[-81.0682,7.5782,22.7361],[-81.0724,7.5785,14.8208],[-81.0732,7.5815,0.0],[-81.0813,7.5801,39.5966],[-81.0946,7.5818,11.352]]],
[[[-81.2071,7.576,0.0],[-81.2112,7.5762,2.8237],[-81.2121,7.5743,0.0],[-81.2176,7.5721,4.8314],[-81.2187,7.5685,29.1681],[-81.2221,7.5674,11.7333],[-81.2215,7.5576,4.5369],[-81.2237,7.5563,9.7508],[-81.2237,7.5485,0.0],[-81.211,7.5493,3.1157],[-81.2079,7.551,9.9424],[-81.2035,7.5499,0.0],[-81.1951,7.556,5.6004],[-81.1896,7.5563,0.0],[-81.1888,7.5579,0.7654],[-81.1843,7.5587,0.0],[-81.1874,7.564,0.291],[-81.1926,7.5654,14.2372],[-81.1937,7.5685,19.589],[-81.2071,7.576,0.0]]],
[[[-81.7063,7.6176,4.5883],[-81.706,7.619,0.0],[-81.709,7.6179,0.0],[-81.7079,7.6165,0.0],[-81.7063,7.6176,4.5883]]],
[[[-81.6949,7.6332,0.0],[-81.6946,7.6349,0.0],[-81.6974,7.634,4.2649],[-81.6965,7.6321,12.4295],[-81.6949,7.6332,0.0]]],
[[[-80.9037,7.236,0.0],[-80.911,7.2354,0.0],[-80.9096,7.2343,0.0],[-80.9107,7.2315,0.0],[-80.9043,7.2338,5.833],[-80.9037,7.236,0.0]]],
[[[-80.9451,7.2663,8.4145],[-80.9443,7.2688,0.0],[-80.9471,7.2679,0.0],[-80.9521,7.2626,10.8161],[-80.9549,7.2624,0.0],[-80.954,7.2599,0.7032],[-80.9499,7.2621,6.3079],[-80.9451,7.2663,8.4145]]],
[[[-80.672,7.3197,1257.1327],[-80.6712,7.334,1084.3572],[-80.6739,7.345,1208.7375],[-80.6714,7.3548,1361.3669],[-80.6735,7.3598,1303.3882],[-80.6861,7.3758,629.7599],[-80.7026,7.3826,378.8167],[-80.7176,7.3916,363.8619],[-80.7145,7.4006,640.244],[-80.7084,7.4099,848.9796],[-80.7084,7.4128,856.2882],[-80.7195,7.4327,370.0031],[-80.7325,7.4429,291.4618],[-80.735,7.4473,218.1669],[-80.7343,7.453,319.326],[-80.7245,7.4667,743.4656],[-80.7235,7.4707,812.3446],[-80.735,7.4886,514.5442],[-80.7382,7.4969,476.3464],[-80.7348,7.511,902.5409],[-80.7481,7.5201,637.0875],[-80.7562,7.5343,450.4529],[-80.7652,7.5412,477.7045],[-80.7707,7.5427,254.4516],[-80.7815,7.5422,561.5132],[-80.8086,7.5487,318.6183],[-80.8227,7.5575,330.9416],[-80.8995,7.6866,333.5586],[-80.9074,7.7311,203.6838],[-80.9006,7.7351,266.3656],[-80.9005,7.744,319.4689],[-80.9258,7.7608,246.693],[-80.9587,7.7607,85.9713],[-80.9626,7.7497,38.1508],[-80.9695,7.738,13.8506],[-80.977,7.7317,41.5384],[-80.985,7.7303,11.6132],[-80.9907,7.7247,18.7974],[-81.0055,7.7316,16.3659],[-81.0242,7.7305,9.0921],[-81.0379,7.7454,2.9977],[-81.044,7.7382,0.0],[-81.0413,7.7343,0.0],[-81.0435,7.7332,0.0],[-81.0329,7.7332,0.0],[-81.0296,7.7296,0.0],[-81.0326,7.7312,0.0],[-81.0362,7.7301,4.4733],[-81.0482,7.731,0.0],[-81.051,7.7232,10.2548],[-81.0465,7.711,0.0],[-81.039,7.7157,5.6736],[-81.0437,7.711,0.0],[-81.0437,7.7085,0.0],[-81.0415,7.7063,0.0],[-81.0424,7.7026,0.0],[-81.0315,7.6954,0.0],[-81.0235,7.6988,13.7805],[-81.011,7.6988,17.707],[-81.0068,7.6957,5.8692],[-81.006,7.6885,4.2081],[-81.0032,7.6871,8.4853],[-81.0082,7.689,1.5],[-81.009,7.696,3.1037],[-81.0154,7.6957,0.125],[-81.0157,7.6829,15.0089],[-81.0126,7.6782,2.7328],[-81.0163,7.6821,15.0089],[-81.0185,7.6957,2.6387],[-81.0276,7.6943,0.0],[-81.0312,7.6918,14.58],[-81.0365,7.6926,0.0],[-81.0401,7.6893,2.4048],[-81.0424,7.6785,9.2809],[-81.0471,7.6815,2.4653],[-81.051,7.6804,6.7601],[-81.0521,7.6757,0.0],[-81.0504,7.664,3.6951],[-81.0365,7.6504,0.0],[-81.0301,7.649,7.1393],[-81.0265,7.646,2.1878],[-81.014,7.6415,2.7356],[-81.006,7.6368,2.8776],[-81.0043,7.6346,0.0],[-81.0051,7.626,2.5825],[-81.0038,7.624,11.9944],[-80.9857,7.6176,3.3362],[-80.9832,7.6137,0.0],[-80.9776,7.6099,1.9112],[-80.9743,7.6037,0.0],[-80.9776,7.5926,4.1475],[-80.9807,7.5885,0.0],[-80.9724,7.5785,0.0],[-80.9682,7.5779,5.1097],[-80.9635,7.5735,0.0],[-80.9507,7.5549,0.0],[-80.9496,7.5471,2.0601],[-80.951,7.5435,11.903],[-80.9582,7.5385,2.759],[-80.9599,7.5343,1.6476],[-80.9585,7.526,10.3952],[-80.9593,7.5162,0.0],[-80.966,7.5143,6.1957],[-80.9682,7.5151,4.6498],[-80.9682,7.5113,12.5701],[-80.971,7.509,13.4574],[-80.9721,7.5021,0.0],[-80.9757,7.5018,0.105],[-80.9762,7.5004,0.0],[-80.9732,7.4985,0.0],[-80.9707,7.499,15.9822],[-80.9665,7.4935,0.0],[-80.9615,7.4946,4.104],[-80.9473,7.4865,0.0],[-80.9457,7.4826,0.0],[-80.9407,7.4788,1.5346],[-80.9435,7.476,1.5007],[-80.9412,7.471,0.0],[-80.9379,7.4701,0.0],[-80.9285,7.461,1.5492],[-80.921,7.4507,2.841],[-80.9171,7.4399,0.0],[-80.916,7.4418,0.0],[-80.9154,7.4379,7.1311],[-80.9171,7.4346,14.0707],[-80.9229,7.4357,0.0],[-80.9224,7.4324,0.0],[-80.9265,7.4304,11.3942],[-80.926,7.4268,20.4879],[-80.9282,7.424,4.5773],[-80.9324,7.4232,0.0],[-80.9315,7.4193,9.4687],[-80.9335,7.4149,3.6594],[-80.931,7.4135,0.0],[-80.9296,7.4082,1.0731],[-80.9265,7.4085,14.2359],[-80.9254,7.4101,2.7535],[-80.9265,7.4121,1.0983],[-80.924,7.4124,1.0397],[-80.924,7.4099,2.7535],[-80.9276,7.4068,43.1543],[-80.9301,7.4001,0.0],[-80.9271,7.4001,4.271],[-80.9174,7.3915,7.3958],[-80.9043,7.3715,0.6263],[-80.901,7.3724,4.1382],[-80.9004,7.3643,0.0],[-80.894,7.3496,0.5],[-80.8943,7.3393,0.0],[-80.8932,7.3337,0.0],[-80.8921,7.3335,1.7308],[-80.8921,7.3351,3.7263],[-80.891,7.3343,3.7263],[-80.8915,7.3296,3.3477],[-80.9024,7.3282,0.0],[-80.9093,7.3188,14.1288],[-80.9132,7.319,0.0],[-80.9165,7.3221,0.0],[-80.9204,7.321,0.0],[-80.9187,7.3201,29.6284],[-80.9193,7.3176,17.2546],[-80.9179,7.3157,0.0],[-80.9215,7.3138,0.0],[-80.9204,7.3079,0.0],[-80.9235,7.3068,2.3468],[-80.9276,7.2968,26.4319],[-80.9276,7.2935,0.0],[-80.9251,7.2924,38.0733],[-80.924,7.2882,0.0],[-80.9207,7.2888,6.7231],[-80.9232,7.2871,0.8451],[-80.9232,7.2843,8.7545],[-80.926,7.281,0.0],[-80.9215,7.2782,1.2295],[-80.9221,7.2746,0.0],[-80.9235,7.2712,10.314],[-80.9318,7.2715,14.3215],[-80.9335,7.2657,22.8469],[-80.9357,7.2651,33.3487],[-80.9399,7.2599,4.9396],[-80.9401,7.2563,3.9402],[-80.9343,7.2546,0.0],[-80.9351,7.2493,4.4792],[-80.9318,7.2499,5.2578],[-80.9232,7.2457,10.1701],[-80.9182,7.2471,3.4131],[-80.9163,7.2493,7.443],[-80.9143,7.2485,0.0],[-80.9151,7.2471,0.0],[-80.9082,7.2438,10.2643],[-80.9088,7.2413,0.0],[-80.9071,7.2399,0.0],[-80.899,7.2393,22.086],[-80.8979,7.2332,1.2718],[-80.8946,7.2293,5.1661],[-80.8954,7.2271,0.0],[-80.8938,7.2251,0.0],[-80.8885,7.2237,0.0],[-80.8871,7.2213,0.0],[-80.8918,7.214,0.0],[-80.8913,7.2104,0.0],[-80.8887,7.2088,33.1218],[-80.8896,7.2057,0.0],[-80.8882,7.2043,0.0],[-80.8804,7.2076,39.9932],[-80.8782,7.204,2.6753999999999998],[-80.8721,7.2049,32.5893],[-80.8701,7.2038,6.4079],[-80.8682,7.2049,0.0],[-80.8665,7.2121,12.3726],[-80.864,7.2071,26.1343],[-80.8587,7.2068,0.0],[-80.8551,7.2099,0.0],[-80.8557,7.214,1.3294],[-80.8501,7.2157,5.7755],[-80.8476,7.209,20.9364],[-80.8371,7.2074,0.0],[-80.8354,7.2118,10.3611],[-80.8321,7.2113,4.3784],[-80.8299,7.2146,3.4185],[-80.8271,7.2143,12.5164],[-80.8193,7.211,0.0],[-80.8118,7.2099,4.1673],[-80.806,7.2063,0.0],[-80.8021,7.2082,20.3751],[-80.8012,7.2038,7.5461],[-80.799,7.2024,2.9315],[-80.7982,7.2057,25.778199999999998],[-80.7957,7.2071,3.9929],[-80.7926,7.2076,3.4839],[-80.7915,7.206,0.0],[-80.7868,7.2082,0.0],[-80.7854,7.2132,0.0],[-80.7815,7.214,12.7505],[-80.7785,7.2168,13.0848],[-80.7751,7.2154,0.0],[-80.774,7.2168,0.0],[-80.7724,7.2157,0.0],[-80.7696,7.2165,10.3193],[-80.7624,7.2137,0.0],[-80.7538,7.2132,1.2673],[-80.7524,7.2099,0.0],[-80.7485,7.2149,0.0],[-80.7365,7.2107,0.0],[-80.7346,7.2118,0.0],[-80.7332,7.2096,0.0],[-80.7307,7.2113,0.0],[-80.7304,7.2088,7.4792],[-80.7243,7.2115,0.0],[-80.7171,7.209,14.2816],[-80.7154,7.2063,0.0],[-80.706,7.211,14.9717],[-80.7021,7.2096,10.7598],[-80.701,7.2132,1.3893],[-80.6979,7.2124,4.0103],[-80.696,7.2149,12.4171],[-80.694,7.2146,3.0512],[-80.694,7.2129,0.0],[-80.6871,7.2135,28.5073],[-80.6868,7.211,0.7476],[-80.6846,7.211,0.0],[-80.6782,7.2165,0.0],[-80.6732,7.2168,0.0],[-80.6668,7.2229,34.3288],[-80.6574,7.2229,0.0],[-80.6551,7.226,3.9249],[-80.6496,7.2257,6.8164],[-80.6365,7.2313,0.0],[-80.6243,7.2315,0.0],[-80.6237,7.2329,22.1608],[-80.6212,7.2329,4.2842],[-80.6147,7.2301,0.0],[-80.6158,7.2718,97.6525],[-80.6189,7.2816,278.9106],[-80.623,7.2845,424.4092],[-80.6343,7.2863,795.3787],[-80.6508,7.2938,638.322],[-80.6617,7.305,690.5865],[-80.672,7.3197,1257.1327]]],
[[[-80.939,7.4021,0.0],[-80.9412,7.4029,0.0],[-80.9426,7.3993,0.0],[-80.9465,7.3971,0.0],[-80.9463,7.3957,0.0],[-80.9432,7.3957,2.0887],[-80.9407,7.4007,0.0],[-80.9379,7.4007,0.0],[-80.939,7.4021,0.0]]],
[[[-80.9315,7.4015,0.0],[-80.9318,7.4029,0.0],[-80.9343,7.4024,0.0],[-80.9351,7.3993,1.2695],[-80.9335,7.3993,0.0],[-80.9315,7.4015,0.0]]],
[[[-80.9479,7.4813,3.4222],[-80.9501,7.4813,5.195],[-80.9496,7.476,0.0],[-80.9474,7.4771,10.6557],[-80.9479,7.4813,3.4222]]],
[[[-81.061,7.706,6.2568],[-81.0626,7.7068,0.0],[-81.059,7.7032,0.0],[-81.0593,7.7049,0.0],[-81.061,7.706,6.2568]]],
[[[-81.0674,7.7068,0.0],[-81.0676,7.7082,0.0],[-81.0715,7.7076,0.0],[-81.0679,7.7062,0.0],[-81.0674,7.7068,0.0]]],
[[[-81.0729,7.711,0.0],[-81.0762,7.7115,0.0],[-81.0738,7.7087,0.0],[-81.0724,7.709,7.5675],[-81.0729,7.711,0.0]]],
[[[-81.0996,7.7324,0.0],[-81.1004,7.7335,0.0],[-81.1021,7.7335,0.0],[-81.1004,7.7312,0.0],[-81.0996,7.7324,0.0]]],
[[[-81.7101,7.624,0.0],[-81.7126,7.6243,0.0],[-81.7132,7.6221,0.0],[-81.709,7.6226,0.0],[-81.7101,7.624,0.0]]],
[[[-81.7785,7.6324,0.0],[-81.7801,7.6329,0.0],[-81.7821,7.6301,0.0],[-81.779,7.6299,0.0],[-81.7785,7.6324,0.0]]],
[[[-81.6974,7.6507,0.0],[-81.7032,7.651,6.3351],[-81.7063,7.6488,0.0],[-81.7065,7.6465,32.4554],[-81.7151,7.6485,53.1037],[-81.7174,7.6457,0.0],[-81.7132,7.6432,2.6409],[-81.7104,7.6382,0.0],[-81.7065,7.6382,1.4569],[-81.7054,7.6363,0.0],[-81.6999,7.6368,0.0],[-81.6982,7.6343,3.7492],[-81.6965,7.6379,0.0],[-81.699,7.639,0.0],[-81.699,7.6415,0.0],[-81.6946,7.6418,0.0],[-81.6907,7.6454,0.0],[-81.6954,7.6465,14.3637],[-81.6974,7.6507,0.0]]],
[[[-81.1299,7.764,0.0],[-81.1321,7.7637,0.0],[-81.1326,7.7601,0.0],[-81.1304,7.7529,0.0],[-81.1318,7.7499,0.0],[-81.1307,7.7426,0.0],[-81.136,7.741,0.0],[-81.1443,7.7415,11.8252],[-81.151,7.7451,4.9138],[-81.1526,7.7451,0.0],[-81.1526,7.7435,0.0],[-81.1474,7.7387,0.0],[-81.1454,7.7332,2.7488],[-81.139,7.7315,0.0],[-81.139,7.7299,0.0],[-81.134,7.7285,0.0],[-81.1315,7.726,0.0],[-81.1299,7.7265,0.0],[-81.1254,7.7232,3.9407],[-81.124,7.7201,0.0],[-81.116,7.7199,0.0],[-81.109,7.7174,9.0696],[-81.1057,7.7182,3.1241],[-81.1015,7.7274,0.0],[-81.1046,7.7343,3.0861],[-81.1043,7.7438,0.0],[-81.106,7.7479,5.2113],[-81.114,7.7529,29.7986],[-81.1235,7.7624,2.4926],[-81.1299,7.764,0.0]]],
[[[-81.0615,7.8851,0.0],[-81.0577,7.8851,0.0],[-81.0421,7.8989,91.8064],[-80.999,7.9246,144.5703],[-80.9836,7.9303,147.6243],[-80.9786,7.9352,74.5527],[-80.9816,7.9446,52.2062],[-80.9785,7.9537,67.8942],[-80.982,7.9658,62.6161],[-81.0047,7.9749,9.7241],[-81.0017,7.9815,43.4772],[-80.9967,8.0047,49.0771],[-80.9929,8.0089,77.4098],[-80.9796,8.0174,96.8944],[-80.9776,8.0223,86.9471],[-80.9791,8.0267,77.8752],[-81.0067,8.038,60.348],[-81.0168,8.0401,69.0883],[-81.0213,8.044,33.0975],[-81.0243,8.0501,18.113],[-81.0246,8.0594,87.0118],[-81.0298,8.0871,99.1942],[-81.039,8.079,58.6896],[-81.0569,8.058,27.3136],[-81.0642,8.0541,44.0512],[-81.0663,8.041,42.7653],[-81.068,8.0383,38.4968],[-81.0793,8.0366,36.4571],[-81.0958,8.0221,25.8953],[-81.0871,7.9678,29.6853],[-81.079,7.9601,44.4459],[-81.0705,7.944,16.5763],[-81.0587,7.9353,12.4756],[-81.0617,7.9207,9.5385],[-81.0593,7.9182,0.125],[-81.0554,7.9185,0.0],[-81.0554,7.9268,0.5],[-81.0493,7.9318,7.9765],[-81.0488,7.9368,1.0],[-81.046,7.9382,5.1766],[-81.041,7.9382,11.0299],[-81.0387,7.9404,11.9686],[-81.041,7.9438,11.3884],[-81.0407,7.9476,11.9437],[-81.0376,7.9438,12.5467],[-81.0393,7.9379,11.0299],[-81.0413,7.9376,1.0],[-81.0426,7.9346,9.9045],[-81.0476,7.9326,0.75],[-81.0537,7.926,0.5],[-81.0537,7.9174,0.0],[-81.0551,7.9149,7.404],[-81.0543,7.9043,3.2077],[-81.059,7.8971,10.9534],[-81.0618,7.8954,0.0],[-81.066,7.884,0.0],[-81.0615,7.8851,0.0]]],
[[[-81.0429,7.9354,9.9045],[-81.0426,7.9371,1.0],[-81.046,7.9374,5.1766],[-81.0482,7.9343,1.0],[-81.0457,7.9337,7.4384],[-81.0429,7.9354,9.9045]]],
[[[-81.039,7.9446,12.5467],[-81.0393,7.9457,5.3547],[-81.0401,7.946,5.3547],[-81.0393,7.9432,1.5],[-81.039,7.9446,12.5467]]]]}}