{"type": "Feature","bbox": [-80.5109,7.4721,-80.1646,7.834],"geometry": {"type": "MultiPolygon","coordinates": [[[[-80.2187,7.5307,47.9632],[-80.2121,7.5448,91.5422],[-80.2075,7.5484,116.2209],[-80.2065,7.5549,143.3131],[-80.2098,7.5616,157.4362],[-80.2123,7.5635,163.9497],[-80.2169,7.5589,137.761],[-80.2284,7.5574,120.9478],[-80.2303,7.5587,120.9478],[-80.2337,7.6066,176.6496],[-80.239,7.6183,184.4199],[-80.233,7.6338,121.0165],[-80.2247,7.6354,95.7232],[-80.2168,7.6412,92.7357],[-80.2167,7.6455,67.3659],[-80.2215,7.6532,85.6611],[-80.2205,7.6618,40.5299],[-80.2186,7.6652,41.8842],[-80.2069,7.6694,35.0986],[-80.197,7.6808,24.1712],[-80.193,7.6827,37.1901],[-80.1789,7.6803,46.5537],[-80.1753,7.6813,59.659],[-80.1751,7.6845,61.5093],[-80.179,7.6914,58.6734],[-80.1873,7.6989,29.4397],[-80.1861,7.7049,21.1129],[-80.1817,7.7111,8.0283],[-80.1834,7.7248,23.1943],[-80.1798,7.7302,12.6587],[-80.1725,7.73,7.8102],[-80.1662,7.7316,19.555],[-80.1646,7.7335,13.8406],[-80.1654,7.7446,2.5],[-80.1674,7.7426,3.0],[-80.166,7.7401,3.8593],[-80.1751,7.7443,4.375],[-80.1776,7.744,9.9545],[-80.181,7.7404,8.9957],[-80.1776,7.7449,9.9545],[-80.174,7.7449,6.6491],[-80.1693,7.7429,7.7603],[-80.1665,7.746,2.125],[-80.1687,7.7543,4.6418],[-80.1674,7.7582,5.3744],[-80.1693,7.761,6.6216],[-80.1687,7.7649,4.5284],[-80.1701,7.7676,0.0],[-80.1899,7.7818,2.1096],[-80.1932,7.7801,4.7217],[-80.1976,7.7901,9.0344],[-80.1976,7.7974,0.0],[-80.2018,7.7996,15.355],[-80.2049,7.8063,0.0],[-80.2107,7.8099,14.3136],[-80.2226,7.8221,0.9122],[-80.2251,7.8279,0.0],[-80.2388,7.834,0.0],[-80.241,7.8295,11.4346],[-80.2503,7.8194,6.7342],[-80.2576,7.8166,10.171],[-80.254,7.8057,24.9154],[-80.2588,7.7994,33.4073],[-80.2587,7.794,36.4006],[-80.2615,7.79,37.1028],[-80.2645,7.7882,44.7436],[-80.272,7.7888,37.6957],[-80.2848,7.7863,37.2857],[-80.2888,7.7811,28.7682],[-80.3042,7.7813,20.9069],[-80.3091,7.7767,31.9866],[-80.3104,7.7709,60.4777],[-80.3182,7.7655,31.3849],[-80.3168,7.758,29.5324],[-80.3281,7.7533,66.9376],[-80.3315,7.7459,134.6721],[-80.3346,7.745,156.6152],[-80.3418,7.7464,156.3928],[-80.3469,7.7374,75.2097],[-80.3541,7.732,133.6528],[-80.3599,7.7246,137.1538],[-80.3615,7.7166,158.7936],[-80.3653,7.7137,168.8824],[-80.3692,7.7067,210.7584],[-80.3745,7.7036,214.169],[-80.3827,7.6917,239.7035],[-80.3844,7.6858,241.7564],[-80.3898,7.6792,241.4832],[-80.3903,7.6738,247.1305],[-80.3882,7.6648,351.5052],[-80.391,7.6563,401.7023],[-80.3959,7.6493,488.2293],[-80.4052,7.6427,446.6932],[-80.4157,7.638,535.1321],[-80.5109,7.5361,363.1598],[-80.4294,7.5381,177.2583],[-80.3745,7.5349,460.49],[-80.37,7.5229,240.9085],[-80.3686,7.5126,220.2114],[-80.3698,7.5079,230.1524],[-80.3665,7.5026,178.4625],[-80.3654,7.4942,243.1075],[-80.3537,7.477,111.7167],[-80.3458,7.4721,115.82],[-80.3403,7.4831,164.5139],[-80.3208,7.5105,379.7516],[-80.2774,7.5139,368.3372],[-80.2711,7.5134,396.4874],[-80.2672,7.5097,315.1441],[-80.261,7.5075,323.5701],[-80.2554,7.5005,248.2998],[-80.2557,7.4942,225.336],[-80.2594,7.489,163.4086],[-80.2563,7.4834,132.7155],[-80.2573,7.4802,80.7013],[-80.2372,7.478,129.0922],[-80.2155,7.5178,43.808],[-80.217,7.5234,63.1906],[-80.2156,7.5278,123.1636],[-80.2187,7.5307,47.9632]]]]}
,"properties": {"GID_2": "PAN.9.2_1","GID_0": "PAN","country": "Panama","GID_1": "PAN.9_1","province": "LosSantos","NL_NAME_1": "NA","county": "LasTablas","VARNAME_2": "NA","NL_NAME_2": "NA","TYPE_2": "Distrito","ENGTYPE_2": "District","CC_2": "NA","HASC_2": "PA.LS.LT","name": "Las_Tablas.county","area_km2": 701.9517,"hist_schema_id": "Elevation0-9000","hist_area_km2": {"0": 31.5121,"25": 96.5991,"50": 62.568,"75": 28.0302,"100": 23.9143,"125": 28.7271,"150": 37.259,"175": 44.7201,"200": 48.42,"225": 42.0531,"250": 38.4595,"275": 34.5508,"300": 28.4353,"325": 22.8872,"350": 22.4672,"375": 19.8189,"400": 18.2427,"425": 16.8345,"450": 15.0902,"475": 14.6071,"500": 10.8871,"525": 6.1161,"550": 4.2245,"575": 2.396,"600": 1.6604,"625": 0.6936,"650": 0.4834,"675": 0.2312,"700": 0.0631}}}