{"type":"Feature","properties":{"GID_3":"PAN.13.6.1_1","GID_0":"PAN","country":"Panama","GID_1":"PAN.13_1","province":"Veraguas","NL_NAME_1":"NA","GID_2":"PAN.13.6_1","county":"Montijo","NL_NAME_2":"NA","city":"Arenas","VARNAME_3":"NA","NL_NAME_3":"NA","TYPE_3":"Corregimiento","ENGTYPE_3":"Municipality","CC_3":"NA","HASC_3":"NA","name":"Arenas.city"},
"geometry":{"type": "MultiPolygon","coordinates": [[[[-80.9051,7.2365,0.0],[-80.911,7.2354,0.0],[-80.9096,7.2343,0.0],[-80.9107,7.2315,0.0],[-80.9043,7.2338,5.833],[-80.9037,7.236,0.0],[-80.9051,7.2365,0.0]]],
[[[-80.9446,7.2671,3.1571],[-80.9443,7.2688,0.0],[-80.9457,7.2688,0.0],[-80.9521,7.2626,10.8161],[-80.9549,7.2624,0.0],[-80.954,7.2599,0.7032],[-80.9454,7.2654,0.0],[-80.9446,7.2671,3.1571]]],
[[[-80.6712,7.334,1084.3572],[-80.6739,7.345,1208.7375],[-80.6714,7.3527,1320.7347],[-80.6718,7.3563,1385.5762],[-80.6861,7.3758,629.7599],[-80.7026,7.3826,378.8167],[-80.7235,7.3945,378.8278],[-80.7429,7.3995,375.9788],[-80.7609,7.4123,405.7927],[-80.7667,7.4184,310.3418],[-80.7734,7.422,292.6322],[-80.7801,7.4223,182.0558],[-80.7852,7.419,121.0559],[-80.7973,7.4055,153.9087],[-80.8073,7.3894,38.2743],[-80.8148,7.385,34.5959],[-80.8223,7.385,33.5627],[-80.834,7.3893,28.5237],[-80.8494,7.392,21.5363],[-80.8676,7.3903,12.418],[-80.8808,7.3931,16.8629],[-80.8918,7.3886,10.6454],[-80.9174,7.3913,7.3958],[-80.9043,7.3715,0.6263],[-80.901,7.3724,4.1382],[-80.9004,7.3643,0.0],[-80.894,7.3496,0.5],[-80.8949,7.3454,0.0],[-80.8932,7.3337,0.0],[-80.8913,7.3351,3.7263],[-80.891,7.3326,1.7308],[-80.8921,7.329,3.3477],[-80.8987,7.3296,4.8604],[-80.9024,7.3282,0.0],[-80.9093,7.3188,14.1288],[-80.9132,7.319,0.0],[-80.9165,7.3221,0.0],[-80.9204,7.321,0.0],[-80.9187,7.3201,29.6284],[-80.9193,7.3176,17.2546],[-80.9179,7.3157,0.0],[-80.9215,7.3138,0.0],[-80.9204,7.3079,0.0],[-80.9235,7.3068,2.3468],[-80.9276,7.2968,26.4319],[-80.9276,7.2935,0.0],[-80.9251,7.2924,38.0733],[-80.924,7.2882,0.0],[-80.9207,7.2888,6.7231],[-80.9232,7.2871,0.8451],[-80.9232,7.2843,8.7545],[-80.926,7.281,0.0],[-80.9215,7.2782,1.2295],[-80.9221,7.2746,0.0],[-80.9235,7.2712,10.314],[-80.9318,7.2715,14.3215],[-80.9335,7.2657,22.8469],[-80.9365,7.2643,0.0],[-80.941,7.2574,0.0],[-80.9343,7.2546,0.0],[-80.9346,7.2487,0.0],[-80.9318,7.2499,5.2578],[-80.9232,7.2457,10.1701],[-80.9182,7.2471,3.4131],[-80.9163,7.2493,7.443],[-80.9143,7.2485,0.0],[-80.9151,7.2471,0.0],[-80.9082,7.2438,10.2643],[-80.9088,7.2413,0.0],[-80.9071,7.2399,0.0],[-80.899,7.2393,22.086],[-80.8979,7.2332,1.2718],[-80.8946,7.2293,5.1661],[-80.8954,7.2271,0.0],[-80.8938,7.2251,0.0],[-80.8885,7.2237,0.0],[-80.8871,7.2213,0.0],[-80.8918,7.214,0.0],[-80.8913,7.2104,0.0],[-80.8887,7.2088,33.1218],[-80.8896,7.2057,0.0],[-80.8882,7.2043,0.0],[-80.8804,7.2076,39.9932],[-80.8782,7.204,2.6753999999999998],[-80.8721,7.2049,32.5893],[-80.8701,7.2038,6.4079],[-80.8682,7.2049,0.0],[-80.8665,7.2121,12.3726],[-80.864,7.2071,26.1343],[-80.8587,7.2068,0.0],[-80.8551,7.2099,0.0],[-80.8557,7.214,1.3294],[-80.8501,7.2157,5.7755],[-80.8476,7.209,20.9364],[-80.8371,7.2074,0.0],[-80.8354,7.2118,10.3611],[-80.8321,7.2113,4.3784],[-80.8299,7.2146,3.4185],[-80.8271,7.2143,12.5164],[-80.8193,7.211,0.0],[-80.8118,7.2099,4.1673],[-80.806,7.2063,0.0],[-80.8021,7.2082,20.3751],[-80.8012,7.2038,7.5461],[-80.799,7.2024,2.9315],[-80.7982,7.2057,25.778199999999998],[-80.7957,7.2071,3.9929],[-80.7926,7.2076,3.4839],[-80.7915,7.206,0.0],[-80.7868,7.2082,0.0],[-80.7854,7.2132,0.0],[-80.7815,7.214,12.7505],[-80.7785,7.2168,13.0848],[-80.7751,7.2154,0.0],[-80.774,7.2168,0.0],[-80.7724,7.2157,0.0],[-80.7696,7.2165,10.3193],[-80.7624,7.2137,0.0],[-80.7538,7.2132,1.2673],[-80.7524,7.2099,0.0],[-80.7485,7.2149,0.0],[-80.7365,7.2107,0.0],[-80.7346,7.2118,0.0],[-80.7332,7.2096,0.0],[-80.7307,7.2113,0.0],[-80.7304,7.2088,7.4792],[-80.7243,7.2115,0.0],[-80.7171,7.209,14.2816],[-80.7154,7.2063,0.0],[-80.706,7.211,14.9717],[-80.7021,7.2096,10.7598],[-80.701,7.2132,1.3893],[-80.6979,7.2124,4.0103],[-80.696,7.2149,12.4171],[-80.694,7.2146,3.0512],[-80.694,7.2129,0.0],[-80.6871,7.2135,28.5073],[-80.6868,7.211,0.7476],[-80.6846,7.211,0.0],[-80.6782,7.2165,0.0],[-80.6732,7.2168,0.0],[-80.6668,7.2229,34.3288],[-80.6574,7.2229,0.0],[-80.6551,7.226,3.9249],[-80.6496,7.2257,6.8164],[-80.6365,7.2313,0.0],[-80.6243,7.2315,0.0],[-80.6237,7.2329,22.1608],[-80.6212,7.2329,4.2842],[-80.6147,7.2301,0.0],[-80.6158,7.2718,97.6525],[-80.6189,7.2816,278.9106],[-80.623,7.2845,424.4092],[-80.6343,7.2863,795.3787],[-80.6529,7.2955,655.4189],[-80.6716,7.3181,1373.514],[-80.6712,7.334,1084.3572]]]]}}