{"type": "Feature","bbox": [-82.5339,8.3941,-82.4439,8.5049],"geometry": {"type": "MultiPolygon","coordinates": [[[[-82.5226,8.4512,68.2757],[-82.504,8.4431,47.2675],[-82.4985,8.4371,52.9657],[-82.4954,8.4295,45.2577],[-82.4849,8.4265,39.6739],[-82.4809,8.418,30.156],[-82.4698,8.4052,16.9943],[-82.4683,8.4003,12.038],[-82.4633,8.3941,11.2045],[-82.4602,8.4013,19.3206],[-82.4575,8.416,24.4611],[-82.4553,8.4191,28.2477],[-82.4481,8.4229,34.9587],[-82.4439,8.438,44.7099],[-82.4455,8.4477,40.1962],[-82.4495,8.453,43.3149],[-82.4466,8.4634,59.2901],[-82.4494,8.4677,52.365],[-82.4563,8.4697,57.9963],[-82.4634,8.4755,68.5861],[-82.4648,8.4869,173.0046],[-82.475,8.4934,176.5687],[-82.493,8.4977,205.1947],[-82.5001,8.5028,237.3046],[-82.5153,8.5049,195.0414],[-82.5325,8.504,178.2852],[-82.5339,8.4912,142.3378],[-82.5262,8.484,133.4715],[-82.5221,8.4757,108.5786],[-82.5226,8.4512,68.2757]]]]}
,"properties": {"GID_3": "PAN.2.6.10_1","GID_0": "PAN","country": "Panama","GID_1": "PAN.2_1","province": "Chiriquí","NL_NAME_1": "NA","GID_2": "PAN.2.6_1","county": "David","NL_NAME_2": "NA","city": "SanPabloViejo","VARNAME_3": "NA","NL_NAME_3": "NA","TYPE_3": "Corregimiento","ENGTYPE_3": "Municipality","CC_3": "NA","HASC_3": "NA","name": "San_Pablo_Viejo.city","area_km2": 64.2568,"hist_schema_id": "Elevation0-9000","hist_area_km2": {"0": 0.23072,"25": 10.78037,"50": 19.65087,"75": 13.88293,"100": 7.843,"125": 6.24908,"150": 3.62774,"175": 1.06944,"200": 0.31454,"225": 0.23067,"250": 0.18873,"275": 0.12582,"300": 0.06291}}}