{"type":"Feature","properties":{"GID_2":"PAN.12.4_1","GID_0":"PAN","country":"Panama","GID_1":"PAN.12_1","province":"Panamá","NL_NAME_1":"NA","county":"LagoAlajuela","VARNAME_2":"NA","NL_NAME_2":"NA","TYPE_2":"Waterbody","ENGTYPE_2":"Waterbody","CC_2":"NA","HASC_2":"NA","name":"Lago_Alajuela.county"},
"geometry":{"type": "MultiPolygon","coordinates": [[[[-79.5576,9.3592,72.5],[-79.5563,9.3612,82.4033],[-79.5593,9.3601,72.5],[-79.5565,9.3462,74.7389],[-79.5599,9.3449,72.5],[-79.5618,9.3457,115.0816],[-79.5693,9.3332,73.7131],[-79.5735,9.3313,72.5],[-79.5729,9.3282,72.5],[-79.5765,9.324,84.2169],[-79.5788,9.3249,72.5],[-79.5824,9.3335,72.5],[-79.5862,9.3315,72.5],[-79.5926,9.3376,79.1916],[-79.5926,9.334,77.097],[-79.5907,9.3324,75.9517],[-79.5874,9.3321,77.9439],[-79.5874,9.3301,85.9029],[-79.5824,9.3304,81.9748],[-79.5801,9.3215,72.5],[-79.5824,9.3199,99.0622],[-79.5818,9.3168,72.5],[-79.584,9.316,72.5],[-79.5832,9.3104,72.5],[-79.5843,9.3068,91.7639],[-79.5821,9.3068,75.3638],[-79.5807,9.3049,77.2491],[-79.5857,9.3026,72.5],[-79.5846,9.3004,72.5],[-79.5871,9.2979,121.1635],[-79.5893,9.2885,72.5],[-79.5915,9.2871,84.8421],[-79.5935,9.2821,79.5203],[-79.5918,9.2779,72.5],[-79.5943,9.2774,80.5054],[-79.596,9.2738,88.5536],[-79.5963,9.271,85.3867],[-79.5921,9.2732,72.5],[-79.5929,9.2629,72.5],[-79.5985,9.259,86.3034],[-79.6004,9.2676,90.7463],[-79.6021,9.2651,72.5],[-79.6004,9.2571,72.5],[-79.6029,9.2554,89.4576],[-79.6024,9.254,72.5],[-79.606,9.2537,74.61],[-79.6074,9.2515,77.227],[-79.6018,9.2524,72.5],[-79.599,9.2501,88.7825],[-79.5985,9.2518,82.8006],[-79.6007,9.2529,80.2759],[-79.6004,9.2546,80.871],[-79.5987,9.2546,80.871],[-79.5971,9.2579,72.5],[-79.5885,9.2615,90.9757],[-79.5882,9.2565,72.5],[-79.5896,9.2546,78.6714],[-79.5871,9.2554,95.112],[-79.5868,9.2535,80.5415],[-79.5932,9.2485,72.5],[-79.594,9.2457,72.5],[-79.5965,9.2479,86.5696],[-79.5971,9.2463,73.5664],[-79.5996,9.2474,78.9501],[-79.5999,9.2457,72.5],[-79.5965,9.2443,72.5],[-79.5946,9.241,99.3768],[-79.5932,9.2415,76.1387],[-79.5896,9.2382,75.3475],[-79.5888,9.2343,79.6485],[-79.5868,9.234,74.7261],[-79.5901,9.231,74.8404],[-79.5885,9.229,83.6967],[-79.5907,9.2271,87.3207],[-79.5888,9.2249,76.0201],[-79.5901,9.2235,72.5],[-79.589,9.221,78.7724],[-79.5971,9.2221,93.9691],[-79.5999,9.2201,72.5],[-79.601,9.2224,72.5],[-79.5993,9.224,72.5],[-79.6021,9.2276,83.8191],[-79.6085,9.2285,72.5],[-79.6093,9.226,79.46],[-79.6132,9.2274,121.8661],[-79.6171,9.2224,72.5],[-79.6215,9.2212,104.3513],[-79.619,9.2193,72.5],[-79.6193,9.2143,75.6017],[-79.6185,9.2162,77.5073],[-79.6129,9.2168,72.5],[-79.6137,9.211,75.2076],[-79.6165,9.2118,53.625],[-79.6188,9.2104,51.6764],[-79.6207,9.2035,64.6334],[-79.6363,9.2082,27.1825],[-79.6399,9.2068,29.1593],[-79.6465,9.209,28.9223],[-79.6488,9.2065,28.8921],[-79.6501,9.1974,34.1029],[-79.6532,9.1924,28.561],[-79.6482,9.1962,26.0],[-79.6474,9.2001,26.0],[-79.644,9.2001,27.794],[-79.6438,9.2029,29.1703],[-79.6454,9.2046,26.8385],[-79.6443,9.2063,26.0],[-79.6312,9.2057,28.6667],[-79.6296,9.204,35.3898],[-79.6201,9.2029,64.6334],[-79.6193,9.2079,37.7126],[-79.6168,9.2107,53.625],[-79.6154,9.2104,72.7408],[-79.6151,9.2029,81.8104],[-79.6137,9.2049,72.5],[-79.6115,9.2038,72.5],[-79.6093,9.206,72.5],[-79.6057,9.2065,84.8989],[-79.6085,9.2126,93.102],[-79.6107,9.2107,75.1449],[-79.6113,9.2179,86.5461],[-79.6154,9.2201,72.5],[-79.6149,9.2226,72.5],[-79.6129,9.2229,72.5],[-79.6115,9.2204,103.556],[-79.6062,9.2204,98.9437],[-79.6026,9.2174,72.5],[-79.5946,9.2149,94.7998],[-79.5912,9.2104,83.6034],[-79.5921,9.2068,78.0577],[-79.5888,9.2057,72.5],[-79.5924,9.1999,91.8504],[-79.5896,9.1999,79.1761],[-79.589,9.2024,72.5],[-79.5876,9.1996,81.2842],[-79.5846,9.2015,72.5],[-79.5851,9.1962,72.5],[-79.5899,9.191,83.3059],[-79.5879,9.1924,74.8081],[-79.586,9.1915,83.0893],[-79.5864,9.1935,74.8081],[-79.5837,9.1957,72.5],[-79.5821,9.191,75.5265],[-79.586,9.189,72.5],[-79.5824,9.1874,72.5],[-79.5826,9.1896,72.5],[-79.5804,9.1904,89.3147],[-79.5788,9.1938,72.8051],[-79.5788,9.1968,72.5],[-79.5762,9.1974,78.262],[-79.579,9.1993,72.5],[-79.5779,9.2007,72.5],[-79.5765,9.199,76.1616],[-79.5699,9.1999,73.1207],[-79.569,9.1968,90.5588],[-79.5654,9.1962,86.1729],[-79.564,9.2049,72.5],[-79.5657,9.2049,72.5],[-79.5663,9.2082,72.5],[-79.5601,9.2176,72.8986],[-79.5621,9.2187,78.1205],[-79.5668,9.2154,72.5],[-79.5676,9.2196,80.3543],[-79.5693,9.2182,72.5],[-79.5713,9.219,76.3268],[-79.5707,9.2226,72.5],[-79.5676,9.2226,72.5],[-79.5657,9.2204,85.1788],[-79.5649,9.224,75.9284],[-79.5635,9.2243,80.2304],[-79.5649,9.2254,75.9284],[-79.564,9.2268,74.5884],[-79.5612,9.2246,75.8354],[-79.5568,9.2246,85.8977],[-79.5554,9.2276,74.3351],[-79.549,9.2282,72.5],[-79.5501,9.2257,76.877],[-79.5482,9.2268,77.0653],[-79.5476,9.224,76.1746],[-79.5443,9.2207,77.9891],[-79.5407,9.2204,99.364],[-79.5382,9.2226,73.1993],[-79.5349,9.2224,72.5],[-79.5354,9.2251,72.5],[-79.5382,9.226,74.4593],[-79.5379,9.2296,79.5788],[-79.5332,9.2313,79.8899],[-79.5304,9.229,108.8344],[-79.5338,9.2321,126.7597],[-79.539,9.229,99.7646],[-79.539,9.2263,79.2471],[-79.5413,9.224,79.5524],[-79.5437,9.2243,72.5],[-79.5443,9.2276,77.7093],[-79.5468,9.2296,75.3423],[-79.5451,9.2304,86.1439],[-79.5451,9.2324,83.2704],[-79.5482,9.2304,72.5],[-79.5499,9.2335,72.5],[-79.5535,9.2332,72.5],[-79.5557,9.2357,72.5],[-79.5551,9.2376,78.5897],[-79.5568,9.2368,72.5],[-79.5574,9.2379,74.6015],[-79.5565,9.2435,78.6643],[-79.5493,9.2432,86.3386],[-79.551,9.2468,86.8329],[-79.5549,9.2446,78.4665],[-79.554,9.2476,86.468],[-79.5568,9.2457,79.3211],[-79.5565,9.2482,84.0352],[-79.5582,9.2482,74.5018],[-79.5585,9.2432,72.5],[-79.5612,9.2412,77.1531],[-79.5638,9.2429,72.5],[-79.5621,9.2454,72.5],[-79.5646,9.2451,73.5542],[-79.5646,9.249,77.2827],[-79.566,9.2471,76.9556],[-79.5687,9.2474,72.5],[-79.5663,9.2496,78.5164],[-79.5685,9.2504,72.5],[-79.5682,9.2526,77.0837],[-79.5713,9.251,76.3772],[-79.5699,9.2524,72.5],[-79.571,9.2549,72.5],[-79.5693,9.2563,75.3039],[-79.5746,9.2607,81.7752],[-79.5751,9.2632,79.4667],[-79.5729,9.2643,81.6677],[-79.5768,9.2662,75.3536],[-79.5749,9.2679,72.5],[-79.5726,9.2674,74.7514],[-79.5735,9.269,75.0777],[-79.571,9.2696,75.9907],[-79.5696,9.2729,82.8611],[-79.5757,9.271,86.0273],[-79.5762,9.2693,76.8625],[-79.5793,9.271,72.5],[-79.5782,9.2746,72.5],[-79.5754,9.2771,76.0082],[-79.5757,9.2799,85.709],[-79.5788,9.2832,72.5],[-79.5785,9.2849,72.5],[-79.5815,9.2865,75.5611],[-79.581,9.2896,75.4421],[-79.5824,9.291,72.5],[-79.5796,9.2918,83.2269],[-79.5813,9.2951,74.784],[-79.5762,9.2965,86.2445],[-79.5751,9.3007,86.0838],[-79.5788,9.2985,72.5],[-79.5832,9.3018,79.2677],[-79.5796,9.3035,109.8143],[-79.581,9.3085,72.5],[-79.5779,9.3096,106.864],[-79.5721,9.3157,72.5],[-79.5721,9.3196,72.5],[-79.5682,9.3226,72.5],[-79.5685,9.3254,72.5],[-79.561,9.3318,85.6725],[-79.561,9.3349,74.172],[-79.5576,9.3388,72.5],[-79.5535,9.3374,80.3967],[-79.549,9.3557,97.6925],[-79.5551,9.3549,74.4399],[-79.5576,9.3592,72.5]],
[[-79.6085,9.2251,72.5],[-79.6082,9.2235,72.5],[-79.6096,9.2226,72.5],[-79.6104,9.2251,72.8353],[-79.6085,9.2251,72.5]],
[[-79.5765,9.2596,72.5],[-79.5779,9.2601,72.5],[-79.5776,9.2618,74.0891],[-79.5754,9.261,81.7752],[-79.5765,9.2596,72.5]],
[[-79.6062,9.2229,72.5],[-79.6054,9.2243,72.5],[-79.604,9.2235,73.4016],[-79.604,9.2199,75.3477],[-79.6062,9.221,73.4884],[-79.6062,9.2229,72.5]],
[[-79.5801,9.2151,72.5],[-79.5776,9.2082,72.5],[-79.5785,9.2065,72.5],[-79.5799,9.2071,74.2691],[-79.5788,9.2096,72.5],[-79.5815,9.2115,74.4406],[-79.5801,9.2151,72.5]],
[[-79.566,9.2113,74.669],[-79.5668,9.2099,72.5],[-79.5687,9.2104,72.5],[-79.5682,9.2113,72.5],[-79.566,9.2113,74.669]],
[[-79.5771,9.2038,95.5117],[-79.576,9.2065,79.7742],[-79.5732,9.2063,76.5664],[-79.5729,9.2021,78.7965],[-79.576,9.2021,83.6888],[-79.5771,9.2038,95.5117]]]]}}