{"type": "Feature","bbox": [-79.9143,8.5421,-79.8321,8.5866],"geometry": {"type": "MultiPolygon","coordinates": [[[[-79.9143,8.5606,70.9509],[-79.901,8.5661,32.2013],[-79.8972,8.566,31.716],[-79.8944,8.563,32.5539],[-79.8922,8.5504,29.4601],[-79.8872,8.5461,22.8645],[-79.8776,8.5421,8.1058],[-79.8746,8.5443,1.5938],[-79.8749,8.546,3.7167],[-79.8676,8.5485,0.9125],[-79.8679,8.5518,0.0],[-79.8654,8.554,3.5606],[-79.8424,8.5585,1.2799],[-79.8388,8.5624,8.4647],[-79.8321,8.5618,2.5141],[-79.8454,8.5802,178.6707],[-79.8603,8.5866,10.872],[-79.8737,8.5803,14.3338],[-79.8879,8.5811,37.1342],[-79.8962,8.5835,23.4459],[-79.8985,8.5761,16.885],[-79.9078,8.5705,43.4958],[-79.9143,8.5606,70.9509]]]]}
,"properties": {"GID_3": "PAN.11.3.8_1","GID_0": "PAN","country": "Panama","GID_1": "PAN.11_1","province": "PanamáOeste","NL_NAME_1": "NA","GID_2": "PAN.11.3_1","county": "Chame","NL_NAME_2": "NA","city": "NuevaGorgona","VARNAME_3": "NA","NL_NAME_3": "NA","TYPE_3": "Corregimiento","ENGTYPE_3": "Municipality","CC_3": "NA","HASC_3": "NA","name": "Nueva_Gorgona.city","area_km2": 22.74774,"hist_schema_id": "Elevation0-9000","hist_area_km2": {"0": 8.26047,"25": 12.49558,"50": 1.00634,"75": 0.52413,"100": 0.20965,"125": 0.18868,"150": 0.06289}}}