{"type":"Feature","properties":{"GID_3":"PAN.12.7.4_1","GID_0":"PAN","country":"Panama","GID_1":"PAN.12_1","province":"Panamá","NL_NAME_1":"NA","GID_2":"PAN.12.7_1","county":"SanMiguelito","NL_NAME_2":"NA","city":"BelisarioPorras","VARNAME_3":"NA","NL_NAME_3":"NA","TYPE_3":"Corregimiento","ENGTYPE_3":"Municipality","CC_3":"NA","HASC_3":"NA","name":"Belisario_Porras.city"},
"geometry":{"type": "MultiPolygon","coordinates": [[[[-79.4881,9.0445,26.4084],[-79.4829,9.0446,52.1779],[-79.4823,9.0538,86.6817],[-79.4886,9.0648,89.1396],[-79.4954,9.0679,72.1689],[-79.5033,9.0589,103.461],[-79.5073,9.0459,58.9972],[-79.4942,9.0489,77.3631],[-79.4881,9.0445,26.4084]]]]}}