{"type": "Feature","bbox": [-81.7174,8.312,-81.6193,8.4337],"geometry": {"type": "MultiPolygon","coordinates": [[[[-81.6509,8.3128,299.5273],[-81.6527,8.3174,299.5722],[-81.6509,8.3257,261.4295],[-81.6555,8.3379,421.3104],[-81.655,8.3402,433.7698],[-81.6434,8.3479,620.5376],[-81.6395,8.3479,535.7606],[-81.6309,8.3445,349.1373],[-81.627,8.3462,359.2799],[-81.6274,8.351,441.0064],[-81.6327,8.3582,520.8476],[-81.6333,8.3617,438.1621],[-81.6226,8.3833,284.2754],[-81.623,8.3881,326.4064],[-81.6293,8.3983,336.0113],[-81.6254,8.4088,359.2111],[-81.6193,8.4182,339.4908],[-81.6285,8.4258,406.1879],[-81.6331,8.4336,547.9102],[-81.6561,8.4337,782.691],[-81.6681,8.4267,900.4756],[-81.6816,8.4061,641.435],[-81.6889,8.4039,618.3187],[-81.6996,8.4097,450.9179],[-81.7114,8.4197,719.0159],[-81.7146,8.4201,577.0095],[-81.717,8.4116,455.838],[-81.7174,8.3935,406.8865],[-81.7036,8.382,334.8336],[-81.6969,8.3636,309.4966],[-81.688,8.359,359.9511],[-81.679,8.3502,250.2893],[-81.6752,8.3398,255.2348],[-81.6717,8.3166,288.1949],[-81.6544,8.312,181.311],[-81.6509,8.3128,299.5273]]]]}
,"properties": {"GID_3": "PAN.10.5.5_1","GID_0": "PAN","country": "Panama","GID_1": "PAN.10_1","province": "NgöbeBuglé","NL_NAME_1": "NA","GID_2": "PAN.10.5_1","county": "Müna","NL_NAME_2": "NA","city": "Chichica","VARNAME_3": "NA","NL_NAME_3": "NA","TYPE_3": "Corregimiento","ENGTYPE_3": "Municipality","CC_3": "NA","HASC_3": "NA","name": "Chichica.city","area_km2": 79.95933,"hist_schema_id": "Elevation0-9000","hist_area_km2": {"175": 0.02098,"200": 0.29371,"225": 1.02795,"250": 1.74116,"275": 2.97878,"300": 3.85967,"325": 4.71961,"350": 4.34199,"375": 5.32784,"400": 5.74733,"425": 6.4186,"450": 6.54445,"475": 6.56536,"500": 5.51661,"525": 4.88729,"550": 3.62875,"575": 3.20921,"600": 2.62191,"625": 2.57993,"650": 1.76185,"675": 1.86671,"700": 1.02772,"725": 1.23746,"750": 0.75505,"775": 0.35655,"800": 0.23071,"825": 0.3146,"850": 0.18876,"875": 0.10487,"900": 0.08389}}}