{"type": "Feature","bbox": [-81.772,8.2085,-81.7246,8.277],"geometry": {"type": "MultiPolygon","coordinates": [[[[-81.7628,8.223,3.5544],[-81.7617,8.2217,10.1684],[-81.758,8.2228,10.3852],[-81.7567,8.2167,21.3424],[-81.7538,8.2177,29.987],[-81.7499,8.2152,12.9659],[-81.7434,8.2156,30.6685],[-81.7401,8.2085,54.1737],[-81.737,8.2096,6.8355],[-81.7326,8.2162,42.5104],[-81.728,8.2174,16.816],[-81.7257,8.2214,40.4812],[-81.7246,8.2307,182.271],[-81.7257,8.2396,145.1629],[-81.7295,8.2511,82.0152],[-81.7289,8.2662,72.0466],[-81.7316,8.2719,69.8713],[-81.7356,8.2681,100.351],[-81.7377,8.2627,160.7244],[-81.746,8.2606,233.0485],[-81.7428,8.2662,176.4855],[-81.7399,8.277,77.0092],[-81.7492,8.2745,185.6722],[-81.7614,8.2645,282.5522],[-81.7619,8.2618,329.9608],[-81.7585,8.2614,273.8591],[-81.7601,8.2584,248.324],[-81.7688,8.2612,299.4339],[-81.771,8.2573,222.933],[-81.772,8.2528,120.2835],[-81.7706,8.2457,48.3693],[-81.766,8.2331,16.3483],[-81.7631,8.2324,8.8086],[-81.7605,8.2284,7.8295],[-81.7628,8.223,3.5544]]]]}
,"properties": {"GID_3": "PAN.2.9.1_1","GID_0": "PAN","country": "Panama","GID_1": "PAN.2_1","province": "Chiriquí","NL_NAME_1": "NA","GID_2": "PAN.2.9_1","county": "Remedios","NL_NAME_2": "NA","city": "ElNancito","VARNAME_3": "NA","NL_NAME_3": "NA","TYPE_3": "Corregimiento","ENGTYPE_3": "Municipality","CC_3": "NA","HASC_3": "NA","name": "El_Nancito.city","area_km2": 25.4526,"hist_schema_id": "Elevation0-9000","hist_area_km2": {"0": 1.93055,"25": 2.51809,"50": 2.26622,"75": 2.6229,"100": 2.26619,"125": 2.51796,"150": 2.43403,"175": 2.41304,"200": 1.97238,"225": 1.97238,"250": 1.217,"275": 0.69242,"300": 0.31473,"325": 0.20982,"350": 0.10491}}}