{"type": "Feature","bbox": [-78.4382,9.0517,-77.9151,9.3726],"geometry": {"type": "MultiPolygon","coordinates": [[[[-77.9349,9.1443,0.0],[-77.9351,9.1463,0.0],[-77.9359,9.1451,0.0],[-77.9396,9.1457,0.0],[-77.9401,9.1424,0.4551],[-77.9385,9.1401,0.0],[-77.9368,9.1412,0.2899],[-77.9374,9.1396,0.854],[-77.9349,9.1396,0.0],[-77.9332,9.1362,0.2542],[-77.9304,9.1354,0.0],[-77.9276,9.1279,0.0],[-77.9229,9.1296,0.0],[-77.9229,9.1341,0.0],[-77.9243,9.1371,0.0],[-77.926,9.1374,0.0],[-77.9259,9.1396,0.0],[-77.9279,9.1399,0.0],[-77.9282,9.1374,0.5673],[-77.9326,9.1449,0.0],[-77.9349,9.1443,0.0]]],
[[[-77.9393,9.1496,0.9139],[-77.9432,9.1501,1.1946],[-77.9437,9.1476,1.2917],[-77.9379,9.1468,0.0],[-77.9393,9.1496,0.9139]]],
[[[-77.9671,9.189,0.0],[-77.9687,9.1899,0.0],[-77.9699,9.1882,0.0],[-77.9662,9.1874,0.0],[-77.9671,9.189,0.0]]],
[[[-77.9721,9.1907,0.0],[-77.9718,9.1924,0.0],[-77.9735,9.1926,0.0],[-77.9762,9.1885,0.0],[-77.974,9.1879,0.0],[-77.9721,9.1907,0.0]]],
[[[-77.974,9.0563,397.5879],[-77.9678,9.0517,441.9933],[-77.9436,9.0587,227.0913],[-77.9356,9.0752,126.2577],[-77.9316,9.0794,64.9476],[-77.9254,9.0826,57.9287],[-77.9151,9.1124,0.0],[-77.9168,9.1155,0.0],[-77.9193,9.116,0.0],[-77.9194,9.1191,0.0],[-77.9226,9.1235,0.0],[-77.9274,9.124,0.0],[-77.934,9.1279,2.2164],[-77.9362,9.136,0.0],[-77.9407,9.1399,1.0371],[-77.9421,9.1393,1.0371],[-77.9413,9.1415,0.0],[-77.9443,9.144,1.3011],[-77.9443,9.1457,0.0],[-77.9465,9.1457,4.2369],[-77.9485,9.1485,1.5845],[-77.9546,9.1482,5.6793],[-77.9593,9.1543,1.2784],[-77.9582,9.1585,0.0],[-77.9532,9.1543,0.4183],[-77.9468,9.154,0.8776],[-77.9432,9.1518,0.0],[-77.9415,9.1527,0.0],[-77.941,9.156,0.0],[-77.9421,9.1563,0.0],[-77.9421,9.154,0.4177],[-77.9443,9.1565,0.0],[-77.9468,9.1557,2.5698],[-77.9485,9.1618,2.8121],[-77.9579,9.1707,0.0],[-77.9621,9.1713,1.0553],[-77.9626,9.1741,0.0],[-77.9679,9.1757,0.0],[-77.9674,9.1738,0.6711],[-77.9693,9.1715,3.1985],[-77.9737,9.1724,4.4588],[-77.9804,9.1874,0.0],[-77.9782,9.1907,0.0],[-77.9793,9.1918,0.9094],[-77.976,9.1926,0.0],[-77.9793,9.1943,0.0],[-77.9837,9.1938,0.0],[-77.9837,9.1893,0.7681],[-77.9876,9.1893,0.5193],[-77.9982,9.1921,0.8691],[-78.0035,9.1954,2.5939],[-78.0049,9.1985,1.7218],[-78.0043,9.204,0.4818],[-78.0088,9.2076,3.5225],[-78.0093,9.2124,0.6553],[-78.0135,9.2124,0.4144],[-78.0149,9.2149,0.5083],[-78.0174,9.2126,1.6062],[-78.0179,9.2174,0.4276],[-78.0207,9.2201,0.1612],[-78.0221,9.2168,0.9103],[-78.0241,9.2174,0.0],[-78.0246,9.2201,1.6988],[-78.0224,9.2218,0.0],[-78.0246,9.2235,0.2234],[-78.0276,9.221,1.4529],[-78.0296,9.2215,3.102],[-78.0324,9.2243,0.0],[-78.031,9.226,0.512],[-78.0321,9.2299,0.0],[-78.0307,9.2307,0.5498],[-78.0335,9.2321,0.0],[-78.0324,9.2371,0.0],[-78.0393,9.2407,0.9203],[-78.0443,9.2455,0.0],[-78.0474,9.2446,1.8287],[-78.0515,9.2485,2.6401],[-78.0576,9.2479,3.2606],[-78.0671,9.2519,0.8973],[-78.0701,9.2507,2.8098],[-78.0718,9.2526,0.0],[-78.0735,9.2526,0.0],[-78.0757,9.249,2.1404],[-78.0792,9.251,0.0],[-78.0862,9.2504,10.6716],[-78.0865,9.2515,0.9248],[-78.0924,9.2521,0.0],[-78.0963,9.2551,2.267],[-78.099,9.2529,3.4795],[-78.1029,9.2541,0.0],[-78.1054,9.2521,0.0],[-78.1071,9.2554,19.5049],[-78.1099,9.2529,5.6755],[-78.1126,9.2532,3.1712],[-78.1157,9.2574,5.5271],[-78.1162,9.2638,4.6437],[-78.1087,9.2685,0.0],[-78.1123,9.2715,0.6599],[-78.116,9.2721,0.0],[-78.1182,9.2707,0.0],[-78.1174,9.274,0.0],[-78.1237,9.2729,0.0],[-78.1182,9.2671,0.747],[-78.1215,9.2671,2.8481],[-78.1212,9.2685,2.8481],[-78.1268,9.2676,2.2539],[-78.1318,9.2743,1.343],[-78.1351,9.2749,2.3291],[-78.1374,9.2729,1.6302],[-78.1387,9.2765,0.7188],[-78.1429,9.2754,5.4411],[-78.149,9.2774,1.6288],[-78.1593,9.2851,1.4445],[-78.171,9.2865,3.1542],[-78.1726,9.291,0.0],[-78.1762,9.2926,0.0],[-78.1812,9.2893,3.0847],[-78.1929,9.2876,1.5396],[-78.2138,9.2913,3.5191],[-78.2204,9.296,5.921],[-78.2199,9.3007,0.0],[-78.2235,9.2987,4.6001],[-78.2235,9.3035,0.0],[-78.226,9.3029,2.1169],[-78.2268,9.2996,1.9419],[-78.2337,9.3007,0.0],[-78.2351,9.3032,0.0],[-78.2337,9.3091,0.0],[-78.2365,9.3101,0.2407],[-78.2384,9.3079,0.722],[-78.2382,9.311,0.2507],[-78.2399,9.309,0.0774],[-78.2421,9.3101,0.8558],[-78.2393,9.311,0.1344],[-78.2401,9.3126,0.0],[-78.2462,9.3143,0.0],[-78.2557,9.3129,3.1027],[-78.256,9.3185,0.6195],[-78.2582,9.3179,1.7376],[-78.2613,9.321,1.4833],[-78.266,9.3199,4.8665],[-78.2665,9.3215,0.5143],[-78.2715,9.3232,6.7336],[-78.2724,9.3254,8.705],[-78.2771,9.3263,11.4636],[-78.2815,9.3196,4.1461],[-78.2846,9.319,0.8891],[-78.2865,9.3235,1.3127],[-78.2832,9.3257,0.0],[-78.2854,9.3307,0.0],[-78.2896,9.3296,4.0043],[-78.2949,9.3326,0.0],[-78.3079,9.3354,7.8753],[-78.3076,9.3382,5.7698],[-78.3104,9.3415,0.0],[-78.314,9.3438,0.0],[-78.3165,9.3429,0.8665],[-78.3246,9.3476,1.9276],[-78.3315,9.356,2.2655],[-78.341,9.3549,3.3546],[-78.3407,9.3565,0.6074],[-78.3446,9.3585,1.3513],[-78.3551,9.3574,0.4488],[-78.3732,9.364,0.0],[-78.3777,9.3581,67.2428],[-78.3829,9.3452,156.7298],[-78.3908,9.3357,120.6474],[-78.3978,9.3037,307.4035],[-78.3996,9.3027,302.8216],[-78.4039,9.3042,104.3789],[-78.4073,9.3029,98.5029],[-78.4123,9.2952,387.4994],[-78.4179,9.2915,230.2279],[-78.4225,9.2837,291.7274],[-78.4375,9.269,334.0628],[-78.4382,9.2649,326.6014],[-78.4366,9.2605,432.5334],[-78.4247,9.2499,456.938],[-78.4208,9.2391,535.2332],[-78.4158,9.2329,553.1498],[-78.4139,9.2374,549.3593],[-78.4158,9.2549,469.9118],[-78.4071,9.2662,369.1022],[-78.3983,9.2723,342.5704],[-78.3847,9.2739,325.9737],[-78.3785,9.2683,363.7469],[-78.376,9.2579,371.4695],[-78.372,9.2536,393.4731],[-78.3534,9.2521,343.5177],[-78.3404,9.2449,333.3402],[-78.3382,9.2455,259.6132],[-78.3341,9.2521,364.1596],[-78.3296,9.2559,385.8467],[-78.3194,9.2563,340.5478],[-78.3099,9.2634,370.8076],[-78.3034,9.2633,468.9454],[-78.3018,9.2599,475.7283],[-78.3014,9.2505,441.2747],[-78.2953,9.2435,349.9256],[-78.2881,9.2252,355.745],[-78.2875,9.2181,438.3112],[-78.2923,9.2137,369.8546],[-78.2922,9.2115,327.1499],[-78.2823,9.2073,378.7559],[-78.273,9.198,394.222],[-78.2504,9.1863,267.6766],[-78.2442,9.1849,329.3372],[-78.233,9.1863,256.648],[-78.2276,9.1936,238.5394],[-78.2228,9.1959,251.1179],[-78.2171,9.1961,293.918],[-78.2012,9.1927,329.6563],[-78.1809,9.1935,277.1348],[-78.1678,9.1885,357.6271],[-78.1565,9.1879,476.8645],[-78.149,9.1835,304.2868],[-78.1365,9.1831,436.6889],[-78.1262,9.1799,414.6921],[-78.1224,9.1729,422.698],[-78.1103,9.1689,414.9617],[-78.0981,9.1697,526.5258],[-78.092,9.1649,624.5153],[-78.0826,9.1606,351.7012],[-78.0855,9.1495,412.5487],[-78.0796,9.1335,522.8206],[-78.0697,9.1323,570.5142],[-78.0669,9.1297,510.9965],[-78.0656,9.1211,288.4794],[-78.0696,9.1019,668.2189],[-78.0683,9.0987,619.0184],[-78.0581,9.0957,618.3864],[-78.05,9.0886,450.1034],[-78.0458,9.0909,432.5067],[-78.0402,9.0899,418.3203],[-78.0289,9.0927,648.2498],[-78.0117,9.0876,603.461],[-78.0051,9.0808,592.5168],[-77.9946,9.0773,540.4189],[-77.9863,9.0723,503.5316],[-77.974,9.0563,397.5879]]],
[[[-78.0326,9.2485,0.3271],[-78.0348,9.2493,0.0],[-78.0307,9.2429,0.0],[-78.0301,9.2474,0.0],[-78.0326,9.2485,0.3271]]],
[[[-78.1243,9.2768,0.0],[-78.126,9.2774,0.0],[-78.1268,9.2757,0.0],[-78.1234,9.2738,2.4552],[-78.1243,9.2754,2.4552],[-78.1243,9.2768,0.0]]],
[[[-78.1265,9.2887,0.0],[-78.1282,9.2893,0.0],[-78.1293,9.2871,2.4773],[-78.1271,9.2865,0.0],[-78.1265,9.2887,0.0]]],
[[[-77.984,9.199,0.4939],[-77.9835,9.2007,0.0],[-77.9874,9.2007,0.0],[-77.9893,9.1979,2.0952],[-77.9865,9.1965,0.0],[-77.984,9.199,0.4939]]],
[[[-78.0032,9.216,0.0],[-78.0051,9.2179,0.2841],[-78.004,9.214,0.0],[-78.0029,9.214,0.0],[-78.0032,9.216,0.0]]],
[[[-78.0265,9.2285,0.0],[-78.0271,9.2301,0.9114],[-78.0299,9.2299,0.5546],[-78.0282,9.2263,0.0],[-78.026,9.2274,0.0],[-78.0265,9.2285,0.0]]],
[[[-78.0268,9.2424,0.7457],[-78.0262,9.2437,0.0],[-78.0304,9.2429,0.286],[-78.0285,9.2415,0.0],[-78.0268,9.2424,0.7457]]],
[[[-78.1374,9.2904,0.0],[-78.1396,9.2915,0.6225],[-78.1407,9.2896,0.0],[-78.1376,9.2887,0.0],[-78.1374,9.2904,0.0]]],
[[[-78.1485,9.2955,0.0],[-78.1507,9.2949,0.0],[-78.1504,9.2919,0.0],[-78.1479,9.2924,0.0],[-78.1493,9.294,0.0],[-78.1465,9.2937,0.0],[-78.1485,9.2955,0.0]]],
[[[-78.1535,9.2957,0.0],[-78.1574,9.2965,0.0],[-78.1582,9.2954,0.0],[-78.1529,9.2937,0.0],[-78.1535,9.2957,0.0]]],
[[[-78.1702,9.3087,0.0],[-78.174,9.3077,0.573],[-78.1726,9.3035,0.0],[-78.1679,9.3046,0.0],[-78.1679,9.3071,0.0],[-78.1704,9.3063,0.7605],[-78.1702,9.3087,0.0]]],
[[[-78.1787,9.3085,0.0],[-78.179,9.3107,0.0],[-78.1809,9.3104,0.0],[-78.1813,9.3087,0.0],[-78.1782,9.3063,0.0],[-78.1787,9.3085,0.0]]],
[[[-78.2312,9.3118,0.6949],[-78.2315,9.3132,0.0],[-78.2337,9.3132,0.5419],[-78.2335,9.3104,0.0],[-78.231,9.3104,0.0],[-78.2312,9.3118,0.6949]]],
[[[-78.2246,9.3218,0.9886],[-78.2276,9.3227,0.0],[-78.2279,9.3204,0.0],[-78.2268,9.3204,0.0],[-78.2268,9.3215,0.0],[-78.2243,9.3204,0.5286],[-78.2246,9.3218,0.9886]]],
[[[-78.2282,9.3226,0.0],[-78.229,9.3241,0.0],[-78.2301,9.3237,0.0],[-78.229,9.3216,0.0],[-78.2282,9.3226,0.0]]],
[[[-78.2352,9.3237,0.0],[-78.2371,9.3246,0.0],[-78.2354,9.3207,0.7527],[-78.2324,9.3212,0.7506],[-78.2318,9.3241,0.0],[-78.2337,9.324,0.0],[-78.2343,9.3224,1.6195],[-78.2352,9.3237,0.0]]],
[[[-78.2557,9.329,0.3673],[-78.2588,9.3293,0.0],[-78.2604,9.3271,1.0143],[-78.2588,9.3265,0.0],[-78.2557,9.329,0.3673]]],
[[[-78.2457,9.3288,1.6458],[-78.2462,9.3305,0.0],[-78.2501,9.3304,0.0],[-78.249,9.3271,0.0],[-78.2451,9.326,0.0],[-78.2457,9.3288,1.6458]]],
[[[-78.2518,9.3313,0.6241],[-78.2535,9.3318,0.0],[-78.2551,9.3282,0.8413],[-78.251,9.3285,0.0],[-78.2518,9.3313,0.6241]]],
[[[-78.2546,9.3315,0.0],[-78.2543,9.3335,1.7463],[-78.2574,9.3321,0.0],[-78.256,9.3307,1.3388],[-78.2546,9.3315,0.0]]],
[[[-78.2579,9.3718,4.0623],[-78.2601,9.3726,0.0],[-78.2615,9.3713,0.0],[-78.259,9.3705,4.0623],[-78.259,9.3682,0.0],[-78.2565,9.3668,0.0],[-78.2565,9.371,0.0],[-78.2579,9.3718,4.0623]]]]}
,"properties": {"GID_3": "PAN.8.1.1_1","GID_0": "PAN","country": "Panama","GID_1": "PAN.8_1","province": "KunaYala","NL_NAME_1": "NA","GID_2": "PAN.8.1_1","county": "KunaYala","NL_NAME_2": "NA","city": "Ailigandí","VARNAME_3": "NA","NL_NAME_3": "NA","TYPE_3": "Corregimiento","ENGTYPE_3": "Municipality","CC_3": "NA","HASC_3": "NA","name": "Ailigandí.city","area_km2": 631.158,"hist_schema_id": "Elevation0-9000","hist_area_km2": {"0": 53.6159,"25": 73.8505,"50": 50.12,"75": 42.6909,"100": 38.9877,"125": 35.4729,"150": 32.2297,"175": 29.8239,"200": 28.4431,"225": 27.0201,"250": 25.7228,"275": 25.388,"300": 23.2111,"325": 23.3151,"350": 24.8217,"375": 19.5268,"400": 17.3713,"425": 14.4622,"450": 11.2809,"475": 9.1882,"500": 6.7603,"525": 5.5674,"550": 3.5582,"575": 2.2189,"600": 2.1771,"625": 2.3028,"650": 1.2142,"675": 0.4396,"700": 0.2721,"725": 0.1047}}}