{"type":"Feature","properties":{"GID_3":"PAN.9.3.1_1","GID_0":"PAN","country":"Panama","GID_1":"PAN.9_1","province":"LosSantos","NL_NAME_1":"NA","GID_2":"PAN.9.3_1","county":"LosSantos","NL_NAME_2":"NA","city":"AguaBuena","VARNAME_3":"NA","NL_NAME_3":"NA","TYPE_3":"Corregimiento","ENGTYPE_3":"Municipality","CC_3":"NA","HASC_3":"NA","name":"Agua_Buena.city"},
"geometry":{"type": "MultiPolygon","coordinates": [[[[-80.3781,7.799,27.6718],[-80.386,7.8049,28.5527],[-80.3895,7.8098,89.9293],[-80.3871,7.8197,65.3898],[-80.381,7.8243,75.6829],[-80.3822,7.8298,63.752],[-80.3806,7.8371,51.1128],[-80.4017,7.8285,86.2214],[-80.4037,7.82,98.5835],[-80.4081,7.8143,113.7016],[-80.4102,7.8021,43.888],[-80.4066,7.7919,50.1569],[-80.3871,7.7952,49.0768],[-80.3781,7.799,27.6718]]]]}}