{"type":"Feature","properties":{"GID_3":"PAN.11.3.3_1","GID_0":"PAN","country":"Panama","GID_1":"PAN.11_1","province":"PanamáOeste","NL_NAME_1":"NA","GID_2":"PAN.11.3_1","county":"Chame","NL_NAME_2":"NA","city":"Cabuya","VARNAME_3":"NA","NL_NAME_3":"NA","TYPE_3":"Corregimiento","ENGTYPE_3":"Municipality","CC_3":"NA","HASC_3":"NA","name":"Cabuya.city"},
"geometry":{"type": "MultiPolygon","coordinates": [[[[-79.933,8.5944,121.992],[-79.9403,8.6011,50.3808],[-79.9583,8.6051,56.7381],[-79.9684,8.6101,65.7889],[-79.9813,8.6074,155.7243],[-79.9904,8.6029,391.8161],[-79.9968,8.603,222.6911],[-80.0007,8.599,222.0942],[-79.9953,8.5818,294.1911],[-79.9895,8.5683,166.2563],[-79.9862,8.5682,148.7525],[-79.9867,8.5652,176.6294],[-79.9732,8.563,144.5183],[-79.9669,8.5603,126.7123],[-79.9601,8.5602,142.9259],[-79.9421,8.5688,103.3509],[-79.9226,8.5581,66.4117],[-79.9156,8.5583,57.8312],[-79.9078,8.5705,43.4958],[-79.8985,8.5761,16.885],[-79.8962,8.5835,23.4459],[-79.9001,8.5847,30.3688],[-79.9096,8.5841,67.1574],[-79.9172,8.5902,84.7561],[-79.9271,8.5909,34.7659],[-79.933,8.5944,121.992]]]]}}