{"type":"Feature","properties":{"GID_3":"PAN.11.7.2_1","GID_0":"PAN","country":"Panama","GID_1":"PAN.11_1","province":"PanamáOeste","NL_NAME_1":"NA","GID_2":"PAN.11.7_1","county":"Taboga","NL_NAME_2":"NA","city":"OtoqueOriente","VARNAME_3":"NA","NL_NAME_3":"NA","TYPE_3":"Corregimiento","ENGTYPE_3":"Municipality","CC_3":"NA","HASC_3":"NA","name":"Otoque_Oriente.city"},
"geometry":{"type": "MultiPolygon","coordinates": [[[[-79.5929,8.5804,10.0107],[-79.5949,8.5807,0.0],[-79.5951,8.5793,0.0],[-79.5921,8.5796,8.5551],[-79.5918,8.5785,23.9241],[-79.5965,8.5721,2.066],[-79.594,8.5724,148.7594],[-79.5935,8.5699,0.0],[-79.5893,8.5679,0.0],[-79.5854,8.5754,0.0],[-79.5868,8.5793,0.0],[-79.5929,8.5804,10.0107]]],
[[[-79.6024,8.6016,41.5382],[-79.6021,8.5968,0.0],[-79.5949,8.5937,0.0],[-79.5935,8.5912,0.0],[-79.5915,8.5915,0.0],[-79.5932,8.5949,0.0],[-79.5918,8.6013,0.0],[-79.5963,8.604,1.9409],[-79.5963,8.6065,0.0],[-79.6004,8.6101,3.0957],[-79.6023,8.6096,35.9804],[-79.6024,8.6016,41.5382]]]]}}