{"type":"Feature","properties":{"GID_3":"PAN.9.5.5_1","GID_0":"PAN","country":"Panama","GID_1":"PAN.9_1","province":"LosSantos","NL_NAME_1":"NA","GID_2":"PAN.9.5_1","county":"Pedasí","NL_NAME_2":"NA","city":"Purio","VARNAME_3":"NA","NL_NAME_3":"NA","TYPE_3":"Corregimiento","ENGTYPE_3":"Municipality","CC_3":"NA","HASC_3":"NA","name":"Purio.city"},
"geometry":{"type": "MultiPolygon","coordinates": [[[[-80.0865,7.5635,54.9092],[-80.0869,7.5667,55.8216],[-80.0722,7.5788,23.4801],[-80.0685,7.585,20.1307],[-80.0709,7.5923,29.7336],[-80.0625,7.5993,10.9075],[-80.0622,7.6075,8.1912],[-80.0652,7.625,15.2879],[-80.0717,7.6356,19.3536],[-80.0769,7.6311,8.9148],[-80.082,7.6214,23.003],[-80.0861,7.6179,28.8079],[-80.0905,7.6031,21.8881],[-80.0907,7.5946,18.9768],[-80.1142,7.587,43.6693],[-80.1221,7.577,44.6279],[-80.1112,7.5725,64.1391],[-80.1089,7.5649,67.1836],[-80.1012,7.5655,53.5591],[-80.0865,7.5635,54.9092]]]]}}