{"type":"Feature","properties":{"GID_3":"PAN.11.4.7_1","GID_0":"PAN","country":"Panama","GID_1":"PAN.11_1","province":"PanamáOeste","NL_NAME_1":"NA","GID_2":"PAN.11.4_1","county":"LaChorrera","NL_NAME_2":"NA","city":"Feuillet","VARNAME_3":"NA","NL_NAME_3":"NA","TYPE_3":"Corregimiento","ENGTYPE_3":"Municipality","CC_3":"NA","HASC_3":"NA","name":"Feuillet.city"},
"geometry":{"type": "MultiPolygon","coordinates": [[[[-79.8585,8.8107,114.8436],[-79.8542,8.8129,155.2561],[-79.853,8.8179,127.2326],[-79.8497,8.8168,119.6159],[-79.8402,8.8271,68.4905],[-79.8276,8.8305,130.3182],[-79.8402,8.8412,78.8652],[-79.8462,8.8518,103.6469],[-79.8443,8.858,146.0874],[-79.852,8.865,99.8489],[-79.8663,8.8478,87.2467],[-79.8781,8.8458,93.3922],[-79.8863,8.8419,126.561],[-79.8969,8.8148,114.1923],[-79.8836,8.8188,226.3442],[-79.8774,8.8189,118.7665],[-79.8585,8.8107,114.8436]]]]}}