{"type":"Feature","properties":{"GID_3":"PAN.10.4.8_1","GID_0":"PAN","country":"Panama","GID_1":"PAN.10_1","province":"NgöbeBuglé","NL_NAME_1":"NA","GID_2":"PAN.10.4_1","county":"Mironó","NL_NAME_2":"NA","city":"SaltoDupí","VARNAME_3":"NA","NL_NAME_3":"NA","TYPE_3":"Corregimiento","ENGTYPE_3":"Municipality","CC_3":"NA","HASC_3":"NA","name":"Salto_Dupí.city"},
"geometry":{"type": "MultiPolygon","coordinates": [[[[-81.8578,8.3295,124.1744],[-81.8584,8.3459,164.9262],[-81.8541,8.3681,494.7098],[-81.8635,8.3734,573.1675],[-81.8653,8.3838,611.2665],[-81.8819,8.3757,504.0264],[-81.8924,8.376,575.7337],[-81.8956,8.3777,530.469],[-81.9066,8.367,412.3951],[-81.9107,8.3589,313.0958],[-81.9105,8.3559,292.4297],[-81.9037,8.3475,225.7568],[-81.8958,8.3321,120.5198],[-81.891,8.3295,78.5115],[-81.8917,8.3225,68.6021],[-81.8905,8.3204,62.7012],[-81.8837,8.3195,45.9566],[-81.8795,8.3236,98.4024],[-81.8776,8.3292,224.5737],[-81.8726,8.3324,232.933],[-81.8623,8.3285,67.6038],[-81.8578,8.3295,124.1744]]]]}}