{"type":"Feature","properties":{"GID_3":"PAN.11.3.6_1","GID_0":"PAN","country":"Panama","GID_1":"PAN.11_1","province":"PanamáOeste","NL_NAME_1":"NA","GID_2":"PAN.11.3_1","county":"Chame","NL_NAME_2":"NA","city":"ElLibano","VARNAME_3":"NA","NL_NAME_3":"NA","TYPE_3":"Corregimiento","ENGTYPE_3":"Municipality","CC_3":"NA","HASC_3":"NA","name":"El_Libano.city"},
"geometry":{"type": "MultiPolygon","coordinates": [[[[-79.8576,8.6204,11.7694],[-79.8234,8.6015,170.1843],[-79.8019,8.5932,33.5027],[-79.7943,8.6001,29.5416],[-79.7812,8.5986,23.5315],[-79.77,8.6011,10.0852],[-79.77,8.6044,8.8595],[-79.7656,8.6054,14.1594],[-79.7614,8.6129,10.8002],[-79.7574,8.6128,13.3051],[-79.7543,8.6153,9.7722],[-79.761,8.6174,0.5951],[-79.7676,8.6168,4.259],[-79.7799,8.6126,1.0745],[-79.7824,8.6143,0.0],[-79.7865,8.6137,4.3785],[-79.8012,8.6218,0.0],[-79.8104,8.624,0.0],[-79.8201,8.6318,0.0],[-79.8276,8.6346,0.0],[-79.8299,8.6371,0.0],[-79.8319,8.6365,2.1556],[-79.8295,8.6349,4.0781],[-79.8294,8.6325,8.3119],[-79.8368,8.6318,7.1551],[-79.8423,8.6264,8.0146],[-79.8501,8.6252,6.0534],[-79.8576,8.6204,11.7694]]]]}}