{"type":"Feature","properties":{"GID_3":"PAN.3.1.1_1","GID_0":"PAN","country":"Panama","GID_1":"PAN.3_1","province":"Coclé","NL_NAME_1":"NA","GID_2":"PAN.3.1_1","county":"Aguadulce","NL_NAME_2":"NA","city":"Aguadulce","VARNAME_3":"NA","NL_NAME_3":"NA","TYPE_3":"Corregimiento","ENGTYPE_3":"Municipality","CC_3":"NA","HASC_3":"NA","name":"Aguadulce.city"},
"geometry":{"type": "MultiPolygon","coordinates": [[[[-80.4921,8.2403,4.8444],[-80.4906,8.251,6.5171],[-80.4853,8.2561,3.822],[-80.4913,8.2674,5.3018],[-80.4879,8.2754,7.3125],[-80.5012,8.2844,6.6139],[-80.5085,8.283,3.8256],[-80.5138,8.2756,4.6341],[-80.517,8.2758,5.0882],[-80.5226,8.2563,12.3289],[-80.5265,8.2487,12.0056],[-80.534,8.249,19.6945],[-80.5428,8.2446,26.5416],[-80.5702,8.2285,21.6634],[-80.5898,8.213,11.1077],[-80.5959,8.1909,5.9932],[-80.595,8.1811,9.872],[-80.5915,8.1789,4.0663],[-80.5836,8.1786,14.8068],[-80.5813,8.1734,66.9352],[-80.5732,8.1722,2.4981],[-80.5652,8.1669,2.3358],[-80.5622,8.1669,2.8739],[-80.5543,8.1839,0.5],[-80.5544,8.1873,2.4337],[-80.5572,8.1907,8.6981],[-80.5539,8.1958,17.4879],[-80.5529,8.2066,11.1688],[-80.549,8.2169,24.0829],[-80.5495,8.2255,24.5529],[-80.5433,8.2289,30.4359],[-80.5403,8.2346,24.6056],[-80.5281,8.2361,12.508],[-80.5174,8.2424,5.7],[-80.5095,8.2357,6.6588],[-80.5033,8.2414,3.5015],[-80.4921,8.2403,4.8444]]]]}}