{"type": "Feature","bbox": [-80.5048,7.645,-80.422,7.7018],"geometry": {"type": "MultiPolygon","coordinates": [[[[-80.427,7.6923,223.4421],[-80.4331,7.6848,292.7234],[-80.4376,7.6743,324.6507],[-80.44,7.672,341.6876],[-80.4445,7.6735,312.2691],[-80.4511,7.672,356.0923],[-80.4566,7.6729,308.6188],[-80.4623,7.6806,261.3459],[-80.4684,7.684,324.3517],[-80.4738,7.6896,369.0406],[-80.4851,7.6944,370.4869],[-80.4903,7.7018,231.5587],[-80.4947,7.6908,174.704],[-80.5048,7.6816,238.723],[-80.4996,7.6712,241.3471],[-80.4902,7.6607,239.9548],[-80.4762,7.6582,277.2223],[-80.4681,7.6529,279.2934],[-80.4649,7.645,402.824],[-80.4411,7.6497,635.0684],[-80.4358,7.6486,680.1078],[-80.4288,7.6557,617.8098],[-80.4271,7.666,380.9016],[-80.422,7.6733,313.4489],[-80.4253,7.6816,276.2273],[-80.427,7.6923,223.4421]]]]}
,"properties": {"GID_3": "PAN.9.4.6_1","GID_0": "PAN","country": "Panama","GID_1": "PAN.9_1","province": "LosSantos","NL_NAME_1": "NA","GID_2": "PAN.9.4_1","county": "Macaracas","NL_NAME_2": "NA","city": "EspinoAmarillo","VARNAME_3": "NA","NL_NAME_3": "NA","TYPE_3": "Corregimiento","ENGTYPE_3": "Municipality","CC_3": "NA","HASC_3": "NA","name": "Espino_Amarillo.city","area_km2": 27.67349,"hist_schema_id": "Elevation0-9000","hist_area_km2": {"125": 0.42024,"150": 1.49187,"175": 1.84909,"200": 1.76504,"225": 1.74403,"250": 1.47086,"275": 1.74401,"300": 2.24831,"325": 2.47944,"350": 2.92073,"375": 1.91213,"400": 1.51293,"425": 1.80712,"450": 1.21875,"475": 0.92457,"500": 0.58837,"525": 0.37824,"550": 0.37824,"575": 0.33621,"600": 0.18912,"625": 0.18912,"650": 0.06304,"675": 0.02101,"700": 0.02101}}}