{"type": "Feature","bbox": [-79.5843,9.4883,-79.3937,9.6046],"geometry": {"type": "MultiPolygon","coordinates": [[[[-79.5843,9.5542,81.8105],[-79.5748,9.5537,99.8148],[-79.5697,9.5506,80.3973],[-79.5528,9.5457,72.5648],[-79.5437,9.546,84.8276],[-79.5359,9.5435,205.7798],[-79.5324,9.5406,177.3642],[-79.5244,9.5283,184.0843],[-79.5229,9.5125,144.2245],[-79.5247,9.5051,314.906],[-79.5293,9.4978,332.1322],[-79.5287,9.4957,338.1953],[-79.5258,9.4939,226.5411],[-79.5205,9.4954,254.8169],[-79.516,9.5001,162.6358],[-79.5094,9.5024,147.4713],[-79.4984,9.4965,130.9717],[-79.4889,9.4887,201.2947],[-79.4836,9.4883,199.4597],[-79.4741,9.4949,155.5947],[-79.4662,9.5094,83.9546],[-79.4527,9.5233,85.0166],[-79.4374,9.5086,237.9456],[-79.4228,9.5035,424.6428],[-79.4199,9.5041,426.1522],[-79.4186,9.5064,248.313],[-79.418,9.5146,180.5342],[-79.4084,9.5158,214.1012],[-79.4038,9.5187,201.9868],[-79.3937,9.5135,122.7434],[-79.3974,9.5335,89.368],[-79.4013,9.5423,75.1704],[-79.401,9.551,38.1555],[-79.4105,9.5613,76.8922],[-79.409,9.5714,36.2693],[-79.4146,9.5849,3.0663],[-79.4174,9.5874,0.0],[-79.4282,9.5874,2.8556],[-79.4321,9.5938,0.0],[-79.4368,9.5951,4.8875],[-79.4365,9.599,5.5779],[-79.4385,9.6038,0.0],[-79.4413,9.5982,3.4488],[-79.4451,9.6001,3.9203],[-79.4474,9.5979,2.9896],[-79.4504,9.5999,1.3774],[-79.4551,9.5979,2.6733],[-79.4576,9.6001,4.7867],[-79.4587,9.6046,0.0],[-79.464,9.6046,0.6434],[-79.4626,9.5993,9.7372],[-79.4696,9.5926,0.1761],[-79.4671,9.5915,0.0],[-79.4668,9.5865,4.594],[-79.4729,9.5824,1.4642],[-79.4779,9.584,1.2367],[-79.4788,9.5874,1.046],[-79.4765,9.5896,0.0],[-79.479,9.591,0.0],[-79.4854,9.5913,2.4595],[-79.4863,9.5887,7.4816],[-79.4935,9.5876,0.0],[-79.4974,9.5899,0.0],[-79.5021,9.5893,4.4253],[-79.5054,9.5924,0.0],[-79.5113,9.591,0.7205],[-79.5126,9.5929,1.328],[-79.5149,9.5929,2.6121],[-79.5196,9.5843,0.0],[-79.519,9.5796,0.7939],[-79.5204,9.5779,2.5863],[-79.5246,9.5799,6.9004],[-79.5241,9.5849,0.0],[-79.5313,9.5788,16.7561],[-79.5419,9.577,17.427],[-79.5497,9.5671,22.6939],[-79.5645,9.568,97.641],[-79.5686,9.5655,71.9031],[-79.5773,9.5643,18.3519],[-79.5843,9.5542,81.8105]]]]}
,"properties": {"GID_3": "PAN.4.6.3_1","GID_0": "PAN","country": "Panama","GID_1": "PAN.4_1","province": "Colón","NL_NAME_1": "NA","GID_2": "PAN.4.6_1","county": "SantaIsabel","NL_NAME_2": "NA","city": "NombredeDios","VARNAME_3": "NA","NL_NAME_3": "NA","TYPE_3": "Corregimiento","ENGTYPE_3": "Municipality","CC_3": "NA","HASC_3": "NA","name": "Nombrede_Dios.city","area_km2": 144.394,"hist_schema_id": "Elevation0-9000","hist_area_km2": {"0": 19.2131,"25": 38.3655,"50": 31.5302,"75": 19.7592,"100": 11.5003,"125": 8.0294,"150": 6.3357,"175": 3.952,"200": 2.0283,"225": 1.4219,"250": 0.9828,"275": 0.4182,"300": 0.3973,"325": 0.1882,"350": 0.1464,"375": 0.0418,"400": 0.0418,"425": 0.0209,"450": 0.0209}}}