{"type": "Feature","bbox": [-81.2585,8.0638,-81.0556,8.2732],"geometry": {"type": "MultiPolygon","coordinates": [[[[-81.164,8.266,141.5771],[-81.1637,8.2265,136.1876],[-81.1665,8.2228,149.8955],[-81.1778,8.2209,136.3919],[-81.1815,8.216,139.4052],[-81.1768,8.1957,144.2219],[-81.1784,8.1908,145.9097],[-81.1895,8.1857,173.9362],[-81.1976,8.178,179.5849],[-81.2167,8.1756,82.1118],[-81.2293,8.1721,123.0683],[-81.2422,8.1718,105.3012],[-81.2475,8.1697,76.3832],[-81.2585,8.1539,66.8194],[-81.1819,8.0752,61.7761],[-81.1767,8.0683,66.2269],[-81.1754,8.0638,60.0033],[-81.1582,8.0677,37.1981],[-81.1519,8.0726,41.6766],[-81.1615,8.0922,87.3623],[-81.1635,8.1161,100.5298],[-81.1626,8.1192,108.9434],[-81.1485,8.1304,90.83],[-81.1394,8.1422,102.7583],[-81.1316,8.1433,109.5091],[-81.1174,8.1401,80.5153],[-81.1016,8.1342,65.3064],[-81.0933,8.1378,48.812],[-81.0886,8.1376,52.7675],[-81.0708,8.1279,59.2399],[-81.073,8.1458,75.1888],[-81.0715,8.1604,72.178],[-81.0723,8.1687,61.0355],[-81.0679,8.1774,64.6649],[-81.0556,8.19,89.5073],[-81.0657,8.2046,87.7572],[-81.0803,8.2185,111.3412],[-81.0856,8.221,98.2741],[-81.096,8.2227,92.1138],[-81.1108,8.2298,89.0537],[-81.1218,8.2455,112.2352],[-81.124,8.2527,116.8896],[-81.1362,8.2732,101.5806],[-81.144,8.2663,113.015],[-81.164,8.266,141.5771]]]]}
,"properties": {"GID_3": "PAN.13.4.3_1","GID_0": "PAN","country": "Panama","GID_1": "PAN.13_1","province": "Veraguas","NL_NAME_1": "NA","GID_2": "PAN.13.4_1","county": "LaMesa","NL_NAME_2": "NA","city": "LaMesa","VARNAME_3": "NA","NL_NAME_3": "NA","TYPE_3": "Corregimiento","ENGTYPE_3": "Municipality","CC_3": "NA","HASC_3": "NA","name": "La_Mesa.city","area_km2": 218.0973,"hist_schema_id": "Elevation0-9000","hist_area_km2": {"25": 0.105,"50": 20.3166,"75": 44.2832,"100": 42.0164,"125": 42.4761,"150": 30.8288,"175": 20.2736,"200": 12.5718,"225": 4.0296,"250": 0.8185,"275": 0.2099,"300": 0.1679}}}