{"type": "Feature","bbox": [-80.3651,7.6472,-80.3337,7.7027],"geometry": {"type": "MultiPolygon","coordinates": [[[[-80.3621,7.6472,413.8575],[-80.3423,7.6614,299.081],[-80.3389,7.6681,274.954],[-80.3387,7.6798,201.3424],[-80.3337,7.686,211.3148],[-80.3376,7.6885,184.5934],[-80.3415,7.6982,181.187],[-80.3483,7.7027,164.7992],[-80.3525,7.7015,186.37],[-80.3555,7.6971,137.3357],[-80.3539,7.686,164.2705],[-80.358,7.6772,215.8383],[-80.3568,7.6622,293.8676],[-80.3586,7.6579,335.3862],[-80.3651,7.6561,432.2923],[-80.3621,7.6472,413.8575]]]]}
,"properties": {"GID_3": "PAN.9.2.16_1","GID_0": "PAN","country": "Panama","GID_1": "PAN.9_1","province": "LosSantos","NL_NAME_1": "NA","GID_2": "PAN.9.2_1","county": "LasTablas","NL_NAME_2": "NA","city": "Palmira","VARNAME_3": "NA","NL_NAME_3": "NA","TYPE_3": "Corregimiento","ENGTYPE_3": "Municipality","CC_3": "NA","HASC_3": "NA","name": "Palmira.city","area_km2": 9.938769,"hist_schema_id": "Elevation0-9000","hist_area_km2": {"125": 0.042022,"150": 0.189102,"175": 1.428784,"200": 1.65992,"225": 1.260708,"250": 1.134662,"275": 1.681002,"300": 1.30279,"325": 0.315195,"350": 0.357224,"375": 0.18912,"400": 0.147094,"425": 0.084054,"450": 0.084054,"475": 0.021013,"500": 0.042027}}}