{"type": "Feature","bbox": [-80.7934,7.5101,-80.6388,7.6564],"geometry": {"type": "MultiPolygon","coordinates": [[[[-80.7934,7.5458,479.9786],[-80.7815,7.5422,561.5132],[-80.7707,7.5427,254.4516],[-80.7652,7.5412,477.7045],[-80.7562,7.5343,450.4529],[-80.7499,7.5223,595.1847],[-80.746,7.5183,638.3966],[-80.7361,7.5126,873.9518],[-80.7346,7.5101,816.6859],[-80.7294,7.5109,1048.8081],[-80.6742,7.5772,241.2085],[-80.6388,7.637,215.1147],[-80.6444,7.6417,271.579],[-80.6495,7.643,348.2097],[-80.662,7.6363,309.6618],[-80.6721,7.6424,397.0925],[-80.6831,7.6445,402.4906],[-80.6921,7.651,346.8456],[-80.6958,7.6488,390.6217],[-80.7046,7.6564,373.9575],[-80.7068,7.648,378.7428],[-80.7118,7.6422,379.1192],[-80.7203,7.6388,462.3623],[-80.7286,7.6391,523.3209],[-80.731,7.6371,566.6688],[-80.7423,7.6361,571.3438],[-80.7452,7.6329,634.1509],[-80.7514,7.6309,638.2484],[-80.7563,7.6271,678.4968],[-80.7606,7.6275,682.692],[-80.7666,7.6317,709.8239],[-80.7784,7.6309,804.5022],[-80.7836,7.6323,812.5088],[-80.7928,7.6204,816.2808],[-80.7915,7.612,896.7758],[-80.7886,7.6079,835.0362],[-80.7902,7.5989,807.4236],[-80.7859,7.596,792.1702],[-80.7932,7.5543,689.4537],[-80.7934,7.5458,479.9786]]]]}
,"properties": {"GID_3": "PAN.7.3.5_1","GID_0": "PAN","country": "Panama","GID_1": "PAN.7_1","province": "Herrera","NL_NAME_1": "NA","GID_2": "PAN.7.3_1","county": "LosPozos","NL_NAME_2": "NA","city": "LaPitalosa","VARNAME_3": "NA","NL_NAME_3": "NA","TYPE_3": "Corregimiento","ENGTYPE_3": "Municipality","CC_3": "NA","HASC_3": "NA","name": "La_Pitalosa.city","area_km2": 158.0649,"hist_schema_id": "Elevation0-9000","hist_area_km2": {"200": 0.042,"225": 0.4833,"250": 1.0087,"275": 1.9335,"300": 2.648,"325": 3.4257,"350": 4.9387,"375": 5.9266,"400": 6.5992,"425": 7.1875,"450": 7.9231,"475": 8.2384,"500": 9.1211,"525": 9.2472,"550": 10.6133,"575": 10.4031,"600": 8.9741,"625": 9.5415,"650": 7.8812,"675": 7.1667,"700": 6.8934,"725": 6.305,"750": 5.7585,"775": 4.3084,"800": 3.804,"825": 2.3118,"850": 1.4502,"875": 0.8197,"900": 0.7567,"925": 0.6516,"950": 0.4204,"975": 0.4834,"1000": 0.4414,"1025": 0.2733,"1050": 0.0841}}}