{"type":"Feature","properties":{"GID_2":"PAN.3.5_1","GID_0":"PAN","country":"Panama","GID_1":"PAN.3_1","province":"Coclé","NL_NAME_1":"NA","county":"Olá","VARNAME_2":"NA","NL_NAME_2":"NA","TYPE_2":"Distrito","ENGTYPE_2":"District","CC_2":"NA","HASC_2":"PA.CC.OL","name":"Olá.county"},
"geometry":{"type": "MultiPolygon","coordinates": [[[[-80.5736,8.4053,32.7453],[-80.5761,8.4119,41.891],[-80.5612,8.4376,33.234],[-80.5605,8.4432,89.9778],[-80.562,8.4473,96.5903],[-80.5711,8.4555,49.6852],[-80.5758,8.4651,82.5767],[-80.5745,8.4758,373.2638],[-80.577,8.4869,326.1317],[-80.5853,8.4872,254.5816],[-80.5873,8.5002,267.0742],[-80.5852,8.5133,148.6597],[-80.5857,8.5222,131.2005],[-80.6076,8.544,341.1771],[-80.6272,8.5594,532.7516],[-80.6347,8.5623,555.1935],[-80.6367,8.57,569.6549],[-80.6384,8.5923,472.6908],[-80.6463,8.5988,599.1102],[-80.6569,8.6023,547.4152],[-80.6699,8.5991,598.2764],[-80.6811,8.6002,521.7047],[-80.6918,8.6073,914.0767],[-80.6976,8.6154,812.5319],[-80.716,8.6327,740.1184],[-80.7251,8.637,906.5226],[-80.7318,8.6373,981.6829],[-80.7389,8.6402,1119.6379],[-80.7434,8.6393,1262.6602],[-80.746,8.6059,1616.5461],[-80.7556,8.5912,1252.8568],[-80.7632,8.5682,1009.6095],[-80.7704,8.5583,1424.0166],[-80.7786,8.5513,1489.4731],[-80.7593,8.5566,1148.2529],[-80.7479,8.5537,1291.6965],[-80.7351,8.557,1289.1346],[-80.7323,8.5556,1167.9554],[-80.7278,8.5484,1360.7804],[-80.7268,8.5407,1296.9624],[-80.7291,8.5045,686.1349],[-80.7272,8.4822,404.0359],[-80.7183,8.451,258.5426],[-80.7032,8.4278,190.8442],[-80.696,8.4185,202.5282],[-80.6887,8.415,266.0498],[-80.6781,8.4068,232.5273],[-80.6691,8.3916,348.1603],[-80.6629,8.3843,251.2152],[-80.5991,8.3635,148.4181],[-80.5952,8.3635,120.6535],[-80.5914,8.367,66.8103],[-80.5735,8.4,35.2188],[-80.5736,8.4053,32.7453]]]]}}