{"type":"Feature","properties":{"GID_3":"PAN.1.3.1_1","GID_0":"PAN","country":"Panama","GID_1":"PAN.1_1","province":"BocasdelToro","NL_NAME_1":"NA","GID_2":"PAN.1.3_1","county":"ChiriquíGrande","NL_NAME_2":"NA","city":"ChiriquíGrande","VARNAME_3":"NA","NL_NAME_3":"NA","TYPE_3":"Corregimiento","ENGTYPE_3":"Municipality","CC_3":"NA","HASC_3":"NA","name":"Chiriquí_Grande.city"},
"geometry":{"type": "MultiPolygon","coordinates": [[[[-82.0771,8.9232,5.7847],[-82.0744,8.8993,120.7312],[-82.0626,8.9011,12.9011],[-82.053,8.8951,8.0819],[-82.0178,8.9216,8.665],[-82.0127,8.9465,17.0425],[-82.0054,8.9544,15.9471],[-82.0005,8.9571,0.0],[-82.0098,8.9579,1.328],[-82.0307,8.9457,0.9687],[-82.0532,8.9415,2.9715],[-82.0529,8.9374,0.927],[-82.0565,8.9374,0.0],[-82.0568,8.9349,4.7983],[-82.0604,8.9388,0.0],[-82.071,8.9365,0.0],[-82.0721,8.9349,0.0],[-82.0696,8.936,0.0],[-82.069,8.9335,3.4822],[-82.0729,8.9326,0.0],[-82.0729,8.9304,0.0],[-82.0702,8.9293,4.1398],[-82.0702,8.9279,0.0],[-82.0724,8.9276,0.0],[-82.0724,8.9251,24.1359],[-82.0754,8.9257,0.0],[-82.0771,8.9232,5.7847]]],
[[[-82.0801,8.9351,0.0],[-82.0813,8.9354,0.0],[-82.0832,8.9329,0.0],[-82.0804,8.9332,0.0],[-82.0801,8.9351,0.0]]],
[[[-82.1247,8.9061,624.1119],[-82.1021,8.9015,470.9582],[-82.0927,8.9029,423.7427],[-82.0906,8.9064,357.4284],[-82.0927,8.911,134.7929],[-82.0864,8.9168,161.2022],[-82.0837,8.9304,0.0],[-82.0854,8.9324,4.5793],[-82.0846,8.934,0.0],[-82.1032,8.9315,1.5131],[-82.1096,8.9326,5.938],[-82.1115,8.9429,27.2428],[-82.114,8.9449,16.0586],[-82.1151,8.9513,0.0],[-82.1232,8.9596,0.8289],[-82.1265,8.9657,0.0],[-82.1318,8.9693,5.6862],[-82.1296,8.9738,0.0],[-82.1304,8.981,3.1346],[-82.1338,8.9838,7.6494],[-82.1346,8.9876,0.0],[-82.1407,8.9904,2.2992],[-82.1509,8.9762,16.4603],[-82.1526,8.9662,4.1582],[-82.1546,8.9641,15.8196],[-82.1594,8.9632,5.4319],[-82.1617,8.9582,11.2874],[-82.1639,8.9571,6.1967],[-82.1636,8.9541,7.2248],[-82.1695,8.9439,7.0109],[-82.1712,8.932,12.2657],[-82.1677,8.9197,81.3318],[-82.1619,8.9139,169.9954],[-82.1576,8.9021,425.1181],[-82.1432,8.9014,521.9794],[-82.1305,8.9059,564.2888],[-82.1247,8.9061,624.1119]]]]}}