{"type":"Feature","properties":{"GID_3":"PAN.9.7.5_1","GID_0":"PAN","country":"Panama","GID_1":"PAN.9_1","province":"LosSantos","NL_NAME_1":"NA","GID_2":"PAN.9.7_1","county":"Tonosí","NL_NAME_2":"NA","city":"ElCacao","VARNAME_3":"NA","NL_NAME_3":"NA","TYPE_3":"Corregimiento","ENGTYPE_3":"Municipality","CC_3":"NA","HASC_3":"NA","name":"El_Cacao.city"},
"geometry":{"type": "MultiPolygon","coordinates": [[[[-80.3654,7.4942,243.1075],[-80.3689,7.4891,297.902],[-80.3752,7.4862,238.5168],[-80.3775,7.4833,166.0279],[-80.3808,7.4633,13.265],[-80.3829,7.461,11.1457],[-80.41,7.4673,18.8433],[-80.4119,7.4688,27.552],[-80.4129,7.4763,28.4296],[-80.4401,7.4782,203.3689],[-80.4418,7.4794,167.795],[-80.4415,7.483,117.2351],[-80.4478,7.4878,59.4755],[-80.4589,7.4872,219.7573],[-80.4669,7.4845,215.7379],[-80.4789,7.4637,306.471],[-80.475,7.4524,99.7331],[-80.4686,7.449,35.2577],[-80.4638,7.442,25.6028],[-80.4632,7.4263,22.2577],[-80.4558,7.4227,16.9318],[-80.4372,7.4269,11.8016],[-80.4188,7.4225,8.7785],[-80.397,7.4149,7.1643],[-80.3924,7.4104,4.0528],[-80.3788,7.4075,10.2273],[-80.3744,7.4021,22.8774],[-80.3686,7.4012,22.9856],[-80.361,7.3921,6.9048],[-80.3532,7.3946,5.423],[-80.3524,7.3987,17.1685],[-80.3507,7.3973,6.022],[-80.3505,7.3988,10.7726],[-80.3554,7.406,13.7993],[-80.3552,7.4082,16.5129],[-80.3446,7.415,10.9847],[-80.3389,7.4158,11.8112],[-80.3346,7.4198,8.5072],[-80.3338,7.4229,11.0038],[-80.3488,7.4275,12.356],[-80.3439,7.4358,7.9115],[-80.3501,7.4427,13.4729],[-80.352,7.4496,18.2037],[-80.349,7.4551,21.9408],[-80.3429,7.4611,37.3273],[-80.343,7.468,72.6123],[-80.3451,7.4716,113.6106],[-80.3537,7.477,111.7167],[-80.3654,7.4942,243.1075]]]]}}