{"type":"Feature","properties":{"GID_3":"PAN.10.4.7_1","GID_0":"PAN","country":"Panama","GID_1":"PAN.10_1","province":"NgöbeBuglé","NL_NAME_1":"NA","GID_2":"PAN.10.4_1","county":"Mironó","NL_NAME_2":"NA","city":"QuebradadeLoro","VARNAME_3":"NA","NL_NAME_3":"NA","TYPE_3":"Corregimiento","ENGTYPE_3":"Municipality","CC_3":"NA","HASC_3":"NA","name":"Quebradade_Loro.city"},
"geometry":{"type": "MultiPolygon","coordinates": [[[[-81.8958,8.3321,120.5198],[-81.9109,8.358,295.9113],[-81.9066,8.367,412.3951],[-81.8956,8.3777,530.469],[-81.9081,8.3808,534.3044],[-81.9263,8.3614,364.745],[-81.9332,8.3483,253.8805],[-81.932,8.3402,193.7558],[-81.9302,8.3334,182.5216],[-81.9275,8.3303,69.8324],[-81.9168,8.3274,60.9964],[-81.9141,8.3287,54.982],[-81.9115,8.3351,112.2547],[-81.8958,8.3321,120.5198]]]]}}