{"type":"Feature","properties":{"GID_3":"PAN.11.6.4_1","GID_0":"PAN","country":"Panama","GID_1":"PAN.11_1","province":"PanamáOeste","NL_NAME_1":"NA","GID_2":"PAN.11.6_1","county":"SanCarlos","NL_NAME_2":"NA","city":"LaErmita","VARNAME_3":"NA","NL_NAME_3":"NA","TYPE_3":"Corregimiento","ENGTYPE_3":"Municipality","CC_3":"NA","HASC_3":"NA","name":"La_Ermita.city"},
"geometry":{"type": "MultiPolygon","coordinates": [[[[-80.0982,8.495,172.0309],[-80.1002,8.4803,166.204],[-80.0981,8.4709,132.6598],[-80.0931,8.4671,153.2937],[-80.0907,8.4592,125.0353],[-80.0848,8.4554,107.6202],[-80.0742,8.4412,89.2955],[-80.0721,8.4283,67.7332],[-80.0688,8.4257,68.9445],[-80.0644,8.416,50.2421],[-80.0584,8.4153,35.0338],[-80.0565,8.4108,44.5664],[-80.0527,8.4074,38.3486],[-80.0535,8.4045,32.6815],[-80.0597,8.4013,20.5027],[-80.046,8.406,6.2717],[-80.0404,8.4113,0.0],[-80.0443,8.4105,22.5094],[-80.0486,8.4198,45.4525],[-80.055,8.427,58.0191],[-80.0596,8.4451,83.1101],[-80.0556,8.4563,96.0863],[-80.0672,8.4735,130.4892],[-80.0669,8.4809,156.6891],[-80.0797,8.5073,254.009],[-80.0813,8.515,290.806],[-80.0792,8.519,285.4752],[-80.082,8.5219,308.2249],[-80.0874,8.5218,308.3262],[-80.0931,8.5166,239.6892],[-80.0921,8.5137,272.7067],[-80.0982,8.495,172.0309]]]]}}