{"type": "Feature","bbox": [-81.5367,8.2715,-81.4456,8.4166],"geometry": {"type": "MultiPolygon","coordinates": [[[[-81.5285,8.3138,293.416],[-81.5213,8.3044,301.109],[-81.5154,8.3,208.9196],[-81.5143,8.2916,166.16],[-81.5111,8.2864,251.3464],[-81.5092,8.273,182.2818],[-81.5069,8.2715,186.2659],[-81.5024,8.2741,243.1667],[-81.4924,8.2752,230.848],[-81.4895,8.2872,203.5387],[-81.4718,8.3204,279.323],[-81.4456,8.3188,237.6042],[-81.4523,8.3394,259.5579],[-81.4606,8.3584,430.9857],[-81.4727,8.3639,408.6824],[-81.477,8.3678,359.2783],[-81.4794,8.3806,287.6168],[-81.4846,8.3939,314.0355],[-81.4862,8.4107,370.9727],[-81.4993,8.4082,400.515],[-81.5224,8.4166,331.2543],[-81.5286,8.4108,337.898],[-81.5354,8.4078,465.3746],[-81.5345,8.4026,431.7513],[-81.5272,8.3921,281.5914],[-81.5325,8.3904,279.6823],[-81.5324,8.3858,272.1959],[-81.5363,8.3856,335.5722],[-81.5367,8.383,330.1815],[-81.532,8.3813,291.6793],[-81.5139,8.3565,318.0793],[-81.5121,8.3396,222.558],[-81.5074,8.3284,297.7183],[-81.5097,8.3167,239.9665],[-81.5082,8.3071,238.8386],[-81.5098,8.3045,253.1714],[-81.5152,8.3045,194.0642],[-81.5223,8.3077,256.0263],[-81.5285,8.3138,293.416]]]]}
,"properties": {"GID_3": "PAN.13.5.11_1","GID_0": "PAN","country": "Panama","GID_1": "PAN.13_1","province": "Veraguas","NL_NAME_1": "NA","GID_2": "PAN.13.5_1","county": "LasPalmas","NL_NAME_2": "NA","city": "Viguí","VARNAME_3": "NA","NL_NAME_3": "NA","TYPE_3": "Corregimiento","ENGTYPE_3": "Municipality","CC_3": "NA","HASC_3": "NA","name": "Viguí.city","area_km2": 75.03634,"hist_schema_id": "Elevation0-9000","hist_area_km2": {"150": 0.02098,"175": 0.46157,"200": 3.62955,"225": 8.68542,"250": 12.25131,"275": 11.91539,"300": 9.83844,"325": 7.69834,"350": 5.28597,"375": 3.7756,"400": 4.02731,"425": 2.62198,"450": 2.30734,"475": 1.53125,"500": 0.79709,"525": 0.16781,"550": 0.02098}}}