{"type":"Feature","properties":{"GID_3":"PAN.2.3.6_1","GID_0":"PAN","country":"Panama","GID_1":"PAN.2_1","province":"Chiriquí","NL_NAME_1":"NA","GID_2":"PAN.2.3_1","county":"Boquerón","NL_NAME_2":"NA","city":"Paraíso","VARNAME_3":"NA","NL_NAME_3":"NA","TYPE_3":"Corregimiento","ENGTYPE_3":"Municipality","CC_3":"NA","HASC_3":"NA","name":"Paraíso.city"},
"geometry":{"type": "MultiPolygon","coordinates": [[[[-82.6073,8.6543,818.6133],[-82.5998,8.62,625.2643],[-82.5979,8.6201,586.1246],[-82.5903,8.6306,645.0098],[-82.5889,8.6387,669.0315],[-82.591,8.6467,696.2938],[-82.5919,8.6604,801.5613],[-82.5964,8.6713,800.2233],[-82.5936,8.6793,919.8365],[-82.5905,8.7008,1066.6528],[-82.5884,8.7078,1103.511],[-82.5811,8.7201,1255.6082],[-82.5709,8.7295,1296.3175],[-82.5684,8.7347,1414.0768],[-82.5665,8.7483,1601.0085],[-82.5692,8.7529,1716.072],[-82.5692,8.7624,2010.0681],[-82.5714,8.7653,1994.2996],[-82.5952,8.763,1655.4993],[-82.604,8.7551,1526.6299],[-82.6079,8.749,1449.7917],[-82.608,8.7467,1489.9905],[-82.6045,8.7412,1373.433],[-82.6056,8.7348,1264.0538],[-82.6038,8.7156,1163.5144],[-82.6052,8.7058,1093.2046],[-82.6016,8.6965,1021.0463],[-82.6081,8.6819,888.0314],[-82.6082,8.6772,888.6362],[-82.6048,8.6668,763.1505],[-82.6073,8.6543,818.6133]]]]}}