{"type": "Feature","bbox": [-81.7363,8.126,-81.6113,8.2061],"geometry": {"type": "MultiPolygon","coordinates": [[[[-81.6454,8.1871,535.2497],[-81.6576,8.1879,289.7058],[-81.6582,8.1931,269.2733],[-81.6559,8.1977,334.5093],[-81.6636,8.2061,329.6007],[-81.6723,8.2015,334.2777],[-81.6744,8.196,279.7429],[-81.679,8.1919,332.3893],[-81.6867,8.1896,351.8893],[-81.6918,8.186,197.1694],[-81.6965,8.187,183.5373],[-81.7053,8.1859,75.6946],[-81.7097,8.1801,123.5184],[-81.7104,8.1731,129.1416],[-81.7198,8.1663,44.2255],[-81.7288,8.1638,8.1264],[-81.7341,8.1595,3.9352],[-81.7363,8.1603,0.0],[-81.7363,8.159,0.0],[-81.7304,8.1471,8.2593],[-81.7146,8.1285,0.0],[-81.7072,8.1324,10.0967],[-81.7041,8.1367,8.9116],[-81.6999,8.1363,11.6463],[-81.6977,8.1377,27.3232],[-81.6955,8.1359,30.8939],[-81.6927,8.1359,48.4815],[-81.6925,8.1345,65.2288],[-81.6857,8.1374,117.2423],[-81.685,8.133,166.1414],[-81.6835,8.1328,166.1414],[-81.6735,8.1446,418.0326],[-81.6716,8.1425,421.4379],[-81.6708,8.1361,408.6189],[-81.6628,8.126,430.0504],[-81.6555,8.1297,508.5638],[-81.6424,8.1309,534.494],[-81.6403,8.1333,458.2867],[-81.6387,8.1316,400.6174],[-81.6343,8.1336,296.2933],[-81.6197,8.1341,30.7985],[-81.6113,8.1427,158.1469],[-81.6132,8.165,333.7759],[-81.6124,8.1749,299.1134],[-81.6229,8.1853,366.2612],[-81.6277,8.1863,429.8553],[-81.6363,8.1838,364.6569],[-81.6454,8.1871,535.2497]]]]}
,"properties": {"GID_3": "PAN.2.13.5_1","GID_0": "PAN","country": "Panama","GID_1": "PAN.2_1","province": "Chiriquí","NL_NAME_1": "NA","GID_2": "PAN.2.13_1","county": "Tolé","NL_NAME_2": "NA","city": "LajasdeTolé","VARNAME_3": "NA","NL_NAME_3": "NA","TYPE_3": "Corregimiento","ENGTYPE_3": "Municipality","CC_3": "NA","HASC_3": "NA","name": "Lajasde_Tolé.city","area_km2": 74.00196,"hist_schema_id": "Elevation0-9000","hist_area_km2": {"0": 4.51247,"25": 2.91737,"50": 1.70005,"75": 2.30869,"100": 2.24569,"125": 2.07779,"150": 2.18272,"175": 2.07779,"200": 1.95186,"225": 1.82591,"250": 2.22464,"275": 3.46283,"300": 3.02214,"325": 4.53317,"350": 5.72942,"375": 6.61102,"400": 8.22716,"425": 6.96786,"450": 4.53327,"475": 3.44194,"500": 1.00742,"525": 0.27284,"550": 0.1679}}}