{"type": "Feature","bbox": [-82.6156,8.4672,-82.5452,8.6043],"geometry": {"type": "MultiPolygon","coordinates": [[[[-82.568,8.5602,368.4768],[-82.5667,8.5697,409.6132],[-82.5668,8.6043,566.3733],[-82.5712,8.5922,509.5822],[-82.5751,8.5867,477.2042],[-82.5774,8.5768,429.915],[-82.5881,8.5861,470.5045],[-82.6019,8.5846,425.3525],[-82.6067,8.576,407.7773],[-82.609,8.5643,357.8911],[-82.6155,8.5514,330.3152],[-82.6156,8.5402,292.9937],[-82.6089,8.5319,256.1814],[-82.6073,8.5309,256.1814],[-82.6055,8.5321,261.2596],[-82.6007,8.5277,256.1819],[-82.5941,8.5246,242.8083],[-82.5888,8.5181,225.4333],[-82.5791,8.5127,218.0874],[-82.5772,8.4881,152.2739],[-82.5452,8.4672,103.6353],[-82.5517,8.4822,134.28809999999999],[-82.5595,8.4913,155.4048],[-82.5723,8.5279,259.9638],[-82.5714,8.5436,305.267],[-82.5677,8.5515,335.7219],[-82.568,8.5602,368.4768]]]]}
,"properties": {"GID_3": "PAN.2.3.2_1","GID_0": "PAN","country": "Panama","GID_1": "PAN.2_1","province": "Chiriquí","NL_NAME_1": "NA","GID_2": "PAN.2.3_1","county": "Boquerón","NL_NAME_2": "NA","city": "Boquerón","VARNAME_3": "NA","NL_NAME_3": "NA","TYPE_3": "Corregimiento","ENGTYPE_3": "Municipality","CC_3": "NA","HASC_3": "NA","name": "Boquerón.city","area_km2": 40.88566,"hist_schema_id": "Elevation0-9000","hist_area_km2": {"100": 0.20971,"125": 1.23726,"150": 2.05506,"175": 2.22277,"200": 1.59364,"225": 1.69844,"250": 2.78874,"275": 3.98382,"300": 4.17243,"325": 4.57072,"350": 4.0255,"375": 3.54321,"400": 3.22867,"425": 2.51582,"450": 1.50947,"475": 0.75473,"500": 0.35639,"525": 0.27253,"550": 0.14675}}}