{"type": "Feature","bbox": [-80.5109,7.5349,-80.3572,7.6772],"geometry": {"type": "MultiPolygon","coordinates": [[[[-80.4157,7.638,535.1321],[-80.5109,7.5361,363.1598],[-80.4294,7.5381,177.2583],[-80.3745,7.5349,460.49],[-80.3856,7.5571,420.4052],[-80.3811,7.568,510.8474],[-80.3959,7.5732,471.9866],[-80.3978,7.5757,496.2281],[-80.3919,7.5835,266.9109],[-80.3908,7.6013,333.7801],[-80.3867,7.6027,320.5071],[-80.3817,7.6015,334.2433],[-80.3734,7.6044,238.9259],[-80.3746,7.6182,338.8117],[-80.3769,7.6228,220.3929],[-80.3776,7.6358,248.9901],[-80.3732,7.6416,276.2108],[-80.3621,7.6472,413.8575],[-80.3651,7.6561,432.2923],[-80.359,7.6576,335.3862],[-80.3572,7.6605,326.779],[-80.358,7.6772,215.8383],[-80.3642,7.6736,315.1151],[-80.3722,7.6721,260.3665],[-80.3772,7.6655,343.59],[-80.3882,7.6648,351.5052],[-80.391,7.6563,401.7023],[-80.3968,7.6482,431.2007],[-80.4157,7.638,535.1321]]]]}
,"properties": {"GID_3": "PAN.9.2.2_1","GID_0": "PAN","country": "Panama","GID_1": "PAN.9_1","province": "LosSantos","NL_NAME_1": "NA","GID_2": "PAN.9.2_1","county": "LasTablas","NL_NAME_2": "NA","city": "Bayano","VARNAME_3": "NA","NL_NAME_3": "NA","TYPE_3": "Corregimiento","ENGTYPE_3": "Municipality","CC_3": "NA","HASC_3": "NA","name": "Bayano.city","area_km2": 111.99743,"hist_schema_id": "Elevation0-9000","hist_area_km2": {"175": 0.16815,"200": 0.65158,"225": 2.41693,"250": 6.4519,"275": 7.48174,"300": 7.48169,"325": 8.02813,"350": 8.40641,"375": 9.49923,"400": 10.21395,"425": 10.4032,"450": 9.91999,"475": 9.4788,"500": 7.29303,"525": 4.87606,"550": 3.78313,"575": 2.3119,"600": 1.66038,"625": 0.69358,"650": 0.48341,"675": 0.2312,"700": 0.06305}}}