{"type":"Feature","properties":{"GID_3":"PAN.11.2.10_1","GID_0":"PAN","country":"Panama","GID_1":"PAN.11_1","province":"PanamáOeste","NL_NAME_1":"NA","GID_2":"PAN.11.2_1","county":"Capira","NL_NAME_2":"NA","city":"Lídice","VARNAME_3":"NA","NL_NAME_3":"NA","TYPE_3":"Corregimiento","ENGTYPE_3":"Municipality","CC_3":"NA","HASC_3":"NA","name":"Lídice.city"},
"geometry":{"type": "MultiPolygon","coordinates": [[[[-79.9782,8.7682,400.3774],[-79.9669,8.7561,396.4151],[-79.9614,8.7335,741.2296],[-79.9315,8.7131,399.2679],[-79.9268,8.7131,290.4827],[-79.9106,8.7237,231.9187],[-79.8996,8.7269,233.1263],[-79.8903,8.7519,158.7614],[-79.8893,8.761,113.1608],[-79.8987,8.7577,107.5427],[-79.9066,8.7606,122.0478],[-79.9148,8.7663,169.6669],[-79.9221,8.7761,312.047],[-79.931,8.7807,209.5275],[-79.9391,8.7799,216.7331],[-79.9557,8.7732,236.2055],[-79.9782,8.7682,400.3774]]]]}}