{"type": "Feature","bbox": [-82.4488,7.8593,-81.938,8.4805],"geometry": {"type": "MultiPolygon","coordinates": [[[[-82.4437,7.8674,0.0],[-82.4449,7.8712,0.0],[-82.4488,7.8685,0.0],[-82.4485,7.8671,6.55],[-82.4446,7.8657,0.0],[-82.4454,7.8643,0.0],[-82.4432,7.8626,0.0],[-82.4432,7.8593,0.0],[-82.439,7.8615,0.0],[-82.4376,7.8651,1.1951],[-82.4354,7.8654,0.0],[-82.4371,7.866,11.4489],[-82.4371,7.8682,0.0],[-82.4407,7.8682,0.0],[-82.4415,7.8662,15.1075],[-82.4437,7.8674,0.0]]],
[[[-82.4329,7.8682,0.0],[-82.436,7.8699,-0.1747],[-82.4337,7.866,0.0],[-82.4321,7.8671,0.0],[-82.4329,7.8682,0.0]]],
[[[-82.2937,8.0638,0.0],[-82.2971,8.0649,0.0],[-82.2976,8.0632,0.0],[-82.2943,8.0621,0.0],[-82.2937,8.0638,0.0]]],
[[[-82.3407,8.0829,0.0],[-82.3401,8.0815,0.0],[-82.3382,8.0815,0.0],[-82.3385,8.084,0.0],[-82.3407,8.0829,0.0]]],
[[[-82.2918,8.0699,0.0],[-82.294,8.0707,0.0],[-82.2954,8.0688,5.0792],[-82.2924,8.0693,1.1814],[-82.2918,8.0699,0.0]]],
[[[-82.2835,8.079,0.0],[-82.2849,8.0804,5.4248],[-82.2879,8.0799,0.0],[-82.2854,8.0754,0.0],[-82.2835,8.079,0.0]]],
[[[-82.2693,8.0813,0.0],[-82.269,8.0832,0.0],[-82.2726,8.0826,0.0],[-82.271,8.0801,0.0],[-82.2693,8.0813,0.0]]],
[[[-82.2576,8.0871,7.0695],[-82.2601,8.0885,18.4673],[-82.2613,8.0851,2.8345],[-82.2582,8.0849,0.0],[-82.2576,8.0871,7.0695]]],
[[[-82.3279,8.0826,0.4394],[-82.3274,8.0851,1.5914],[-82.3285,8.086,0.0],[-82.3293,8.0824,0.0],[-82.3279,8.0826,0.4394]]],
[[[-82.3374,8.0829,8.0812],[-82.3382,8.0812,0.0],[-82.3371,8.0804,0.0],[-82.3337,8.0813,22.1973],[-82.3357,8.0837,8.0812],[-82.3354,8.0868,0.0],[-82.3321,8.0893,30.5182],[-82.3329,8.0921,0.0],[-82.3379,8.0893,0.0],[-82.3362,8.0882,11.5247],[-82.3388,8.0868,1.7995],[-82.3365,8.084,9.8053],[-82.3374,8.0829,8.0812]]],
[[[-82.3104,8.0893,0.0],[-82.3101,8.0913,0.0],[-82.3135,8.091,0.0],[-82.3129,8.0899,0.0],[-82.3104,8.0893,0.0]]],
[[[-82.3074,8.094,4.0896],[-82.3076,8.0949,4.0896],[-82.3112,8.0949,0.0],[-82.3101,8.0932,0.0],[-82.3074,8.094,4.0896]]],
[[[-82.3151,8.0996,0.0],[-82.3149,8.1001,0.0],[-82.3174,8.1007,0.0],[-82.3168,8.0985,0.0],[-82.3151,8.0996,0.0]]],
[[[-82.3662,8.1074,0.0],[-82.3649,8.109,0.0],[-82.3668,8.109,0.0],[-82.3682,8.1068,0.0],[-82.3662,8.1074,0.0]]],
[[[-82.3215,8.1418,0.0],[-82.3221,8.1429,0.0],[-82.3243,8.1415,3.2964],[-82.3293,8.1365,16.4803],[-82.3315,8.1374,0.0],[-82.3326,8.136,7.8287],[-82.334,8.1374,0.0],[-82.3349,8.1354,18.8483],[-82.3362,8.1362,0.0],[-82.3379,8.1343,0.0],[-82.3374,8.1371,0.0],[-82.339,8.1362,5.6671],[-82.3404,8.1376,0.0],[-82.3468,8.134,0.0],[-82.3487,8.1307,0.0],[-82.3474,8.1282,33.9699],[-82.3479,8.1251,0.0],[-82.3449,8.1218,4.8603],[-82.3454,8.1201,15.3211],[-82.3471,8.1185,21.3852],[-82.3499,8.1188,0.0],[-82.351,8.1163,4.3178],[-82.3585,8.1154,12.3867],[-82.3604,8.1143,0.0],[-82.3604,8.1124,0.0],[-82.3649,8.1115,0.0],[-82.3637,8.1057,4.1047],[-82.3662,8.1038,1.7784],[-82.3657,8.1001,42.1478],[-82.3699,8.099,0.0],[-82.3701,8.094,0.0],[-82.3685,8.0915,0.0],[-82.3651,8.0896,0.0],[-82.3657,8.0938,0.0],[-82.3624,8.0949,0.0],[-82.3635,8.0979,10.1317],[-82.3618,8.0988,23.5141],[-82.3565,8.0979,6.4006],[-82.3557,8.096,26.3978],[-82.3571,8.0943,0.0],[-82.3524,8.0904,0.0],[-82.3518,8.0929,0.0],[-82.3493,8.094,15.3616],[-82.3485,8.0913,0.0],[-82.3454,8.0921,21.1308],[-82.3443,8.0868,0.0],[-82.3424,8.0904,0.0],[-82.3407,8.0887,0.0],[-82.3399,8.0896,0.0],[-82.3435,8.094,0.0],[-82.3432,8.096,12.9176],[-82.3382,8.0965,1.6866],[-82.3343,8.0949,0.0],[-82.3307,8.096,13.4642],[-82.3262,8.0929,0.0],[-82.3279,8.0982,0.0],[-82.3304,8.1007,0.0],[-82.3304,8.1046,0.0],[-82.3329,8.1046,16.1267],[-82.3357,8.1076,2.6945],[-82.3299,8.1068,0.0],[-82.3332,8.1096,1.9803],[-82.3329,8.1112,2.3551],[-82.3301,8.1115,11.4313],[-82.3265,8.1096,11.8619],[-82.3218,8.1037,0.0],[-82.319,8.1043,0.0],[-82.3213,8.1096,0.0],[-82.3249,8.1098,4.2312],[-82.3276,8.1124,2.6937],[-82.3274,8.1157,55.7868],[-82.3251,8.1151,0.0],[-82.3243,8.1171,0.0],[-82.3265,8.1207,0.0],[-82.329,8.121,0.0],[-82.3268,8.1262,0.0],[-82.3274,8.129,7.5889],[-82.3215,8.1299,0.0],[-82.3238,8.1332,15.6619],[-82.3182,8.1362,0.0],[-82.319,8.139,0.0],[-82.3221,8.1382,4.0693],[-82.3229,8.1393,0.0],[-82.3215,8.1418,0.0]]],
[[[-82.3637,8.124,0.0],[-82.3682,8.1251,0.0864],[-82.3654,8.1207,0.0],[-82.3635,8.1221,0.0],[-82.3637,8.124,0.0]]],
[[[-82.0254,7.9485,0.0],[-82.0276,7.949,0.17],[-82.024,7.9449,0.0],[-82.0235,7.9474,0.0],[-82.0254,7.9485,0.0]]],
[[[-82.006,7.9565,0.0],[-82.009,7.9571,0.0],[-82.0104,7.9504,41.9221],[-82.0124,7.9524,0.0],[-82.0143,7.9518,12.9545],[-82.0157,7.9479,0.0],[-82.014,7.9446,15.3405],[-82.0115,7.9443,0.0],[-82.0051,7.9504,0.0],[-82.006,7.9565,0.0]]],
[[[-82.0171,7.9546,3.7819],[-82.0168,7.9571,0.0],[-82.0193,7.9532,0.0],[-82.0179,7.9532,0.0],[-82.0171,7.9546,3.7819]]],
[[[-82.049,7.964,0.0],[-82.0512,7.9651,1.8014],[-82.0507,7.9635,0.0],[-82.0549,7.9632,24.1686],[-82.0568,7.9646,0.0],[-82.059,7.9624,0.0],[-82.0596,7.9582,4.4783],[-82.0582,7.9576,4.4783],[-82.0568,7.9524,10.9773],[-82.0546,7.9504,0.0],[-82.0485,7.9524,3.7362],[-82.0457,7.9507,0.0],[-82.0432,7.9521,29.1161],[-82.0368,7.9501,0.0],[-82.0368,7.9521,0.0],[-82.0415,7.9554,34.7957],[-82.0446,7.9601,0.0],[-82.0462,7.9596,0.0],[-82.0474,7.9618,0.0],[-82.0496,7.9618,15.8239],[-82.0482,7.9629,0.0],[-82.049,7.964,0.0]]],
[[[-82.0285,7.9621,0.0],[-82.0299,7.9618,2.9868],[-82.0301,7.9635,0.0],[-82.0315,7.9629,1.46],[-82.0304,7.9599,0.0],[-82.0285,7.9621,0.0]]],
[[[-82.0435,7.9626,0.0],[-82.0424,7.9629,8.1509],[-82.0424,7.964,0.0],[-82.044,7.9632,0.0],[-82.0435,7.9626,0.0]]],
[[[-82.0237,7.969,0.0],[-82.026,7.9699,1.5004],[-82.0265,7.9679,6.5779],[-82.0235,7.9665,0.0],[-82.0226,7.969,0.0],[-82.0237,7.969,0.0]]],
[[[-82.0338,7.9985,29.5491],[-82.0346,7.9999,0.0],[-82.0376,7.9999,0.0],[-82.0399,7.9968,4.5377],[-82.0396,7.9946,0.0],[-82.0365,7.9935,1.7106],[-82.0365,7.9863,1.248],[-82.0343,7.986,13.6828],[-82.0335,7.981,0.0],[-82.0354,7.9801,0.0],[-82.0354,7.9782,0.0],[-82.0321,7.9774,74.1218],[-82.0307,7.9729,0.0],[-82.0268,7.9743,40.3829],[-82.0251,7.9701,1.5004],[-82.021,7.9754,3.4778],[-82.0182,7.9749,0.0],[-82.0218,7.9774,0.0],[-82.0193,7.981,0.0],[-82.0218,7.9832,0.0],[-82.0268,7.9812,12.3637],[-82.0263,7.9857,0.0],[-82.0279,7.9876,0.0],[-82.0285,7.9843,0.0],[-82.0307,7.9838,0.0],[-82.0301,7.9874,0.0],[-82.0338,7.9943,22.8415],[-82.0296,7.9963,0.0],[-82.0321,7.9962,0.0],[-82.0318,7.9976,0.0],[-82.0338,7.9985,29.5491]]],
[[[-82.0593,7.9904,0.0],[-82.0599,7.9921,0.0],[-82.0626,7.989,0.0],[-82.0601,7.9879,0.0],[-82.0593,7.9904,0.0]]],
[[[-82.0243,7.9999,0.0],[-82.026,8.0013,0.0],[-82.0251,7.9971,0.0],[-82.024,7.9974,0.0],[-82.0243,7.9999,0.0]]],
[[[-82.0001,8.0001,0.0],[-82.0001,7.9999,0.0],[-81.9999,7.9999,0.0],[-81.9999,8.0001,0.0],[-82.0001,8.0001,0.0]]],
[[[-82.0299,8.0279,0.0],[-82.0312,8.0307,0.0],[-82.0357,8.0257,1.2246],[-82.0376,8.0262,0.6361],[-82.0376,8.0249,1.111],[-82.0357,8.0243,6.6159],[-82.034,8.026,4.731],[-82.0301,8.0232,0.0],[-82.0299,8.0279,0.0]]],
[[[-82.0701,7.9899,0.9544],[-82.0721,7.9924,0.0],[-82.0726,7.9893,0.0],[-82.0715,7.9896,0.9544],[-82.0713,7.9863,0.0],[-82.0696,7.9857,0.0],[-82.0685,7.989,0.0],[-82.0701,7.9899,0.9544]]],
[[[-82.1632,8.1543,0.0],[-82.1657,8.1552,0.0],[-82.1637,8.151,5.3902],[-82.1604,8.1515,0.0],[-82.161,8.1538,0.0],[-82.1632,8.1543,0.0]]],
[[[-82.1457,8.1637,0.0],[-82.1479,8.1646,3.4385],[-82.1496,8.1626,0.0],[-82.1415,8.1621,0.0],[-82.1421,8.1635,1.0901],[-82.1457,8.1637,0.0]]],
[[[-82.1524,8.1637,0.0],[-82.1507,8.1635,0.0],[-82.1504,8.1651,3.5533],[-82.1526,8.1651,0.0],[-82.1524,8.1637,0.0]]],
[[[-82.2637,8.096,18.6891],[-82.2665,8.0968,14.5871],[-82.2688,8.0946,16.5078],[-82.2688,8.0921,10.6234],[-82.2657,8.0913,0.0],[-82.2649,8.0874,7.1251],[-82.2632,8.0876,2.7777],[-82.2626,8.0907,0.0],[-82.2643,8.0938,34.9668],[-82.2618,8.0954,11.507],[-82.2637,8.096,18.6891]]],
[[[-82.2285,8.1504,9.9347],[-82.231,8.1513,0.0],[-82.2304,8.1493,9.9347],[-82.2274,8.1488,0.0],[-82.2285,8.1504,9.9347]]],
[[[-82.229,8.156,9.3021],[-82.2324,8.1565,22.8917],[-82.2351,8.1513,0.0],[-82.2279,8.1529,0.0],[-82.229,8.156,9.3021]]],
[[[-82.2462,8.1724,0.0],[-82.2476,8.1732,2.4381],[-82.2493,8.1704,0.0],[-82.2457,8.171,4.6746],[-82.2462,8.1724,0.0]]],
[[[-82.3032,8.1232,0.0],[-82.3057,8.1246,0.0],[-82.3079,8.1226,0.0],[-82.306,8.1235,0.0],[-82.3032,8.1232,0.0]]],
[[[-82.3121,8.1274,0.0],[-82.316,8.1282,7.9091],[-82.3193,8.1262,0.0],[-82.3151,8.1246,0.0],[-82.3121,8.1274,0.0]]],
[[[-82.3154,8.2276,26.3688],[-82.3165,8.2296,3.8935],[-82.3185,8.2268,0.0],[-82.3157,8.2265,0.0],[-82.3154,8.2276,26.3688]]],
[[[-82.2613,8.1865,12.8063],[-82.2621,8.1885,4.3481],[-82.2668,8.1882,8.1419],[-82.266,8.1849,11.1427],[-82.2674,8.1826,3.7966],[-82.2654,8.1851,0.0],[-82.2601,8.1832,8.3555],[-82.2576,8.1796,14.8646],[-82.2585,8.1751,0.0],[-82.251,8.1732,0.0],[-82.2518,8.1774,25.0103],[-82.2468,8.1771,0.0],[-82.2479,8.1832,0.0],[-82.2462,8.1854,0.0],[-82.2521,8.186,0.0],[-82.2543,8.1846,3.3755],[-82.2554,8.1862,10.6875],[-82.2613,8.1865,12.8063]]],
[[[-82.2082,8.196,11.2165],[-82.2126,8.196,2.2284],[-82.2096,8.194,14.555],[-82.211,8.1915,0.0],[-82.2076,8.1929,0.0],[-82.2082,8.196,11.2165]]],
[[[-82.2171,8.2004,10.3423],[-82.2196,8.2015,2.276],[-82.224,8.199,13.9075],[-82.2174,8.1976,0.0],[-82.2171,8.2004,10.3423]]],
[[[-82.284,8.2321,0.0],[-82.2846,8.2349,2.8506],[-82.2862,8.2349,0.0],[-82.2893,8.2324,0.0],[-82.2935,8.2318,6.6512],[-82.2946,8.2229,0.0],[-82.2918,8.2187,7.3552],[-82.2935,8.2187,1.6664],[-82.2943,8.2168,1.568],[-82.2951,8.2226,0.0],[-82.3063,8.2221,0.0],[-82.3074,8.2243,0.0],[-82.3129,8.2276,0.0],[-82.3129,8.2212,2.1874],[-82.3171,8.219,0.4043],[-82.3171,8.2168,2.1934],[-82.3154,8.2165,3.354],[-82.3143,8.2126,2.2908],[-82.311,8.2101,0.0],[-82.3021,8.2071,9.9674],[-82.2901,8.1976,1.0979],[-82.2824,8.1949,0.0],[-82.2749,8.1943,8.7211],[-82.2685,8.1893,1.2101],[-82.2682,8.1932,0.7397],[-82.2657,8.1896,1.4295],[-82.2654,8.2004,0.0],[-82.2621,8.2007,4.0479],[-82.2593,8.2051,0.0],[-82.2607,8.2057,0.6338],[-82.2626,8.2046,1.5274],[-82.2621,8.2063,3.4809],[-82.2524,8.2057,4.713],[-82.2524,8.209,21.2641],[-82.2496,8.211,5.6669],[-82.2465,8.2099,0.0],[-82.2454,8.2121,10.9446],[-82.2438,8.2121,12.7976],[-82.2429,8.209,0.0],[-82.2399,8.2104,0.0],[-82.236,8.2076,4.5626],[-82.2315,8.2101,0.0],[-82.2299,8.2135,0.0],[-82.2268,8.2115,0.0],[-82.2246,8.2126,14.9149],[-82.2235,8.2035,0.0],[-82.2196,8.2046,4.7431],[-82.2185,8.2076,9.8263],[-82.214,8.2101,0.0],[-82.2074,8.2096,0.0],[-82.206,8.2107,0.0],[-82.2193,8.2168,6.3817],[-82.2324,8.2174,0.0],[-82.2351,8.2204,5.57],[-82.2443,8.224,0.0],[-82.2479,8.2235,14.4793],[-82.2629,8.2304,24.665],[-82.2676,8.2299,10.885],[-82.2721,8.2326,0.0],[-82.2754,8.231,0.0],[-82.2771,8.2337,0.0],[-82.284,8.2321,0.0]]],
[[[-82.2251,8.2349,0.0],[-82.226,8.236,0.0],[-82.236,8.2354,6.4753],[-82.2404,8.2326,8.0445],[-82.2401,8.2265,0.0],[-82.2349,8.2274,0.4383],[-82.231,8.2221,1.2696],[-82.2274,8.2218,0.0],[-82.2246,8.2243,0.0],[-82.2251,8.2349,0.0]]],
[[[-82.2432,8.229,3.0613],[-82.2424,8.2315,1.1877],[-82.2449,8.2299,3.0613],[-82.2446,8.2285,0.0],[-82.2432,8.229,3.0613]]],
[[[-82.2112,8.239,17.2366],[-82.2068,8.2426,0.0],[-82.2054,8.2471,0.0],[-82.2024,8.2501,0.0],[-82.194,8.2449,1.224],[-82.1954,8.2443,1.224],[-82.2021,8.2471,0.0],[-82.2112,8.2357,1.1117],[-82.2176,8.2363,0.0],[-82.219,8.2332,4.0885],[-82.2226,8.2307,0.0],[-82.2218,8.2265,10.3486],[-82.2237,8.2193,4.9748],[-82.2226,8.2182,0.0],[-82.2177,8.219,10.8871],[-82.2124,8.216,2.5687],[-82.2101,8.2176,2.5044],[-82.2046,8.2171,8.1287],[-82.2032,8.219,6.6931],[-82.201,8.219,7.8804],[-82.1996,8.2157,34.8574],[-82.1963,8.214,11.9813],[-82.1996,8.2115,35.2825],[-82.199,8.2093,16.9986],[-82.1965,8.2079,10.5616],[-82.1988,8.2043,31.675],[-82.1965,8.201,0.0],[-82.1949,8.2035,6.5596],[-82.1857,8.2051,4.0355],[-82.1832,8.2043,1.9032],[-82.1815,8.2068,15.3216],[-82.1787,8.2071,16.1194],[-82.1771,8.2054,0.0],[-82.1729,8.2054,0.0],[-82.1676,8.2004,0.0],[-82.1663,8.2029,0.0],[-82.1693,8.2054,7.9407],[-82.1696,8.2082,0.0],[-82.1657,8.2076,3.6105],[-82.1651,8.2096,7.805],[-82.1674,8.2113,3.6622],[-82.1676,8.2176,0.0],[-82.1612,8.2204,0.0],[-82.1585,8.2157,0.0],[-82.1573,8.2176,6.6403],[-82.1565,8.216,0.0],[-82.1537,8.2168,4.9072],[-82.1532,8.2135,0.0],[-82.1507,8.2135,0.0],[-82.1474,8.2107,3.5448],[-82.1471,8.2082,1.5891],[-82.1507,8.2049,9.278],[-82.1568,8.2051,0.0],[-82.1562,8.2024,36.5985],[-82.1588,8.2015,0.0],[-82.1596,8.196,12.1071],[-82.1646,8.194,6.1469],[-82.1643,8.1924,11.4487],[-82.1562,8.1921,0.0],[-82.1562,8.1943,25.3793],[-82.1532,8.1932,0.0],[-82.1487,8.1968,0.0],[-82.1474,8.1954,2.99],[-82.1479,8.1896,0.2906],[-82.1451,8.1874,2.5275],[-82.1449,8.1832,3.5414],[-82.1487,8.1826,0.0],[-82.1487,8.1796,2.0756],[-82.1507,8.1796,0.0],[-82.1507,8.1774,0.0],[-82.1537,8.1771,0.0],[-82.1532,8.1746,2.8741],[-82.1554,8.1715,29.7854],[-82.1626,8.1721,0.0],[-82.1615,8.1693,12.4183],[-82.1632,8.1685,0.0],[-82.1618,8.1671,21.203],[-82.1632,8.166,2.7552],[-82.1588,8.1651,0.0],[-82.1568,8.1632,0.0],[-82.1529,8.1685,0.0],[-82.1504,8.1657,7.2984],[-82.141,8.1649,0.0],[-82.1404,8.1685,10.5936],[-82.1432,8.1713,0.0],[-82.141,8.1735,0.0],[-82.1421,8.1754,25.1847],[-82.1396,8.1804,0.0],[-82.1432,8.1824,0.0],[-82.1404,8.1882,6.7794],[-82.1413,8.1907,3.2933],[-82.1396,8.1924,0.0],[-82.1393,8.2032,1.6792],[-82.1318,8.2082,3.1529],[-82.124,8.2079,2.8211],[-82.1249,8.2101,1.7142],[-82.1207,8.2126,5.4041],[-82.1174,8.2112,0.0],[-82.1143,8.2165,0.0],[-82.1149,8.219,0.0],[-82.1182,8.2207,0.0],[-82.1185,8.2232,0.0],[-82.1224,8.2249,3.1123],[-82.1265,8.2349,0.5371],[-82.1368,8.2371,0.0],[-82.1401,8.2404,1.6362],[-82.1404,8.2482,0.4711],[-82.1449,8.2471,0.0],[-82.1462,8.2482,2.3985],[-82.1465,8.2529,4.889],[-82.1457,8.2485,0.0],[-82.1393,8.2499,0.9729],[-82.139,8.2521,0.0],[-82.1432,8.2574,2.6151],[-82.1399,8.2632,0.0],[-82.1393,8.2615,1.0672],[-82.1421,8.2582,2.6151],[-82.1374,8.2501,2.4381],[-82.1371,8.2393,1.8192],[-82.1279,8.2385,0.0],[-82.1212,8.2318,0.0],[-82.1121,8.2401,0.6158],[-82.1126,8.2376,0.0],[-82.111,8.2365,1.4016],[-82.1176,8.2343,0.0],[-82.1196,8.2318,0.0],[-82.1151,8.224,3.9102],[-82.1046,8.2235,2.4953],[-82.0832,8.2165,0.0],[-82.0815,8.219,8.5422],[-82.0774,8.2201,6.2707],[-82.0665,8.219,16.9172],[-82.0657,8.2154,0.0],[-82.0646,8.2171,16.6115],[-82.0601,8.2165,0.0],[-82.0524,8.2196,2.0277],[-82.0407,8.2182,2.8489],[-82.0204,8.2112,1.6302],[-82.0124,8.2104,0.923],[-82.009,8.2124,2.7585],[-82.0093,8.2146,0.5503],[-82.0151,8.2146,3.5516],[-82.0221,8.2207,0.0],[-82.0271,8.219,12.2294],[-82.0257,8.2212,15.0983],[-82.0204,8.2238,0.0],[-82.0201,8.2254,0.0],[-82.021,8.2274,4.5568],[-82.0276,8.2282,16.6825],[-82.0282,8.2307,12.6957],[-82.0257,8.2312,0.0],[-82.0249,8.2304,12.9128],[-82.0265,8.2288,12.9128],[-82.0212,8.2288,25.0459],[-82.019,8.2268,0.0],[-82.0196,8.2215,0.0],[-82.0165,8.2168,0.0],[-82.0126,8.2171,0.0],[-82.0137,8.2196,2.0646],[-82.0121,8.2204,7.634],[-82.0104,8.2174,0.0],[-82.0071,8.2168,0.0],[-82.0004,8.2057,0.0],[-81.9904,8.2024,3.1755],[-81.979,8.2015,1.3231],[-81.9783,8.204,8.3754],[-81.9728,8.2083,0.0],[-81.9713,8.2132,2.3353],[-81.9578,8.2218,0.0],[-81.9555,8.2202,0.0],[-81.9523,8.2219,4.8542],[-81.9456,8.2271,4.6641],[-81.9454,8.2302,1.9214],[-81.9396,8.234,14.3556],[-81.938,8.2385,6.4839],[-81.943,8.2485,10.7944],[-81.9415,8.2584,11.7929],[-81.9442,8.266,0.0],[-81.9537,8.2682,12.6048],[-81.9694,8.2786,25.7339],[-81.9737,8.2842,9.7422],[-81.9772,8.2827,12.2093],[-81.9797,8.2837,9.7304],[-81.9789,8.2943,32.7423],[-81.9838,8.2979,30.185],[-81.9819,8.3035,38.6013],[-81.9782,8.307,31.1404],[-81.98,8.3075,26.1054],[-81.9807,8.3111,35.8913],[-81.9877,8.31,27.9959],[-81.9893,8.3083,22.0944],[-81.9889,8.3149,42.6667],[-81.9919,8.3241,57.8198],[-81.9902,8.3292,46.2418],[-81.983,8.3292,128.5287],[-81.9771,8.3255,65.6255],[-81.9798,8.3329,122.4841],[-81.9813,8.3353,85.6661],[-81.99,8.3344,61.7877],[-81.9976,8.3357,99.9975],[-82.0106,8.3472,109.7424],[-82.0199,8.3597,127.5567],[-82.0165,8.3667,181.8523],[-82.0215,8.369,153.6964],[-82.023,8.3714,162.9302],[-82.0181,8.3749,185.3708],[-82.0077,8.3894,346.2242],[-82.0286,8.3848,169.5877],[-82.0322,8.3866,162.7267],[-82.031,8.3942,127.5632],[-82.0239,8.3998,165.9963],[-82.0194,8.4056,174.3254],[-82.0208,8.4099,142.3376],[-82.0186,8.4138,180.486],[-82.0213,8.424,131.3845],[-82.0263,8.426,253.073],[-82.0308,8.4205,211.2727],[-82.0411,8.4158,136.1101],[-82.0429,8.4171,177.7989],[-82.044,8.4218,184.2455],[-82.0524,8.4241,202.7991],[-82.0534,8.4276,253.0656],[-82.0494,8.4356,321.8085],[-82.0561,8.4405,480.3858],[-82.058,8.4537,303.4858],[-82.0631,8.4566,220.5883],[-82.0648,8.4625,202.7056],[-82.0713,8.4663,124.8331],[-82.0681,8.4723,190.944],[-82.0651,8.4738,194.255],[-82.0656,8.4757,232.6477],[-82.0696,8.4757,258.528],[-82.0786,8.4805,133.3035],[-82.0833,8.4743,130.5915],[-82.0904,8.4702,153.9783],[-82.089,8.4651,148.2428],[-82.0924,8.459,129.3952],[-82.0983,8.4608,215.1279],[-82.1029,8.4558,249.6761],[-82.1095,8.4545,233.0288],[-82.1182,8.4502,281.4404],[-82.1208,8.4509,231.524],[-82.1235,8.4547,204.8295],[-82.1291,8.4499,245.745],[-82.1359,8.4512,156.5088],[-82.1388,8.4476,216.9328],[-82.1445,8.4495,161.8168],[-82.1497,8.4474,198.8315],[-82.1578,8.4479,130.3886],[-82.162,8.4447,134.6337],[-82.1711,8.4429,98.4021],[-82.1827,8.4443,183.9106],[-82.1844,8.4505,253.9528],[-82.1758,8.463,282.2453],[-82.1798,8.4714,153.2525],[-82.1854,8.4643,224.5901],[-82.1883,8.4642,204.9083],[-82.1961,8.4538,162.544],[-82.2021,8.4577,167.178],[-82.2075,8.4549,189.4701],[-82.2073,8.4341,453.6933],[-82.205,8.4196,443.1963],[-82.2181,8.4111,205.9689],[-82.2205,8.4047,67.1055],[-82.2184,8.3989,100.996],[-82.2139,8.3951,10.2956],[-82.2128,8.3868,32.6713],[-82.2084,8.3764,5.2694],[-82.2182,8.3704,0.0],[-82.2168,8.3651,0.0],[-82.2229,8.354,0.0],[-82.2224,8.3512,0.0],[-82.2185,8.3482,0.0],[-82.2174,8.3451,0.0],[-82.211,8.3457,8.196],[-82.2063,8.3443,3.1881],[-82.1957,8.3457,1.7721],[-82.1796,8.3404,0.0],[-82.1743,8.3407,2.9275],[-82.1732,8.3457,8.4748],[-82.1721,8.3393,1.1242],[-82.1746,8.3374,0.0],[-82.1732,8.3365,0.0],[-82.1679,8.3399,0.9175],[-82.151,8.3385,0.0],[-82.1462,8.3438,4.0223],[-82.1457,8.3426,6.0664],[-82.1479,8.339,0.0],[-82.1518,8.3371,0.0],[-82.1615,8.3371,0.0],[-82.1649,8.3357,0.0],[-82.1637,8.3324,4.9021],[-82.1779,8.3354,31.5826],[-82.1818,8.3385,3.3337],[-82.2018,8.3413,0.0],[-82.211,8.341,0.0],[-82.2143,8.3365,2.3456],[-82.2151,8.3338,6.8028],[-82.2118,8.3276,4.0372],[-82.2071,8.3265,0.0],[-82.2043,8.3285,0.8108],[-82.206,8.3262,0.0],[-82.2054,8.324,3.9913],[-82.2093,8.3193,0.0],[-82.2076,8.3107,9.2177],[-82.2027,8.3099,0.0],[-82.1993,8.3157,0.0],[-82.1954,8.3188,8.4927],[-82.1879,8.3201,0.0],[-82.1837,8.3177,0.9142],[-82.1846,8.3174,0.9142],[-82.1882,8.3185,5.1285],[-82.1924,8.3168,0.0],[-82.1904,8.3129,3.1695],[-82.1912,8.3099,8.9368],[-82.1924,8.314,1.1732],[-82.1951,8.3154,3.7015],[-82.1999,8.3085,0.0],[-82.2032,8.3079,0.0],[-82.2076,8.3088,0.0],[-82.2165,8.3188,0.0],[-82.2185,8.3177,0.0],[-82.2168,8.309,0.0],[-82.2196,8.3065,0.0],[-82.2199,8.304,0.0],[-82.2162,8.3018,0.0],[-82.2151,8.2987,9.6318],[-82.2179,8.2907,0.0],[-82.2237,8.2874,0.0],[-82.2224,8.2774,0.0],[-82.2182,8.271,0.0],[-82.2107,8.2679,0.0],[-82.2076,8.2693,0.0],[-82.2057,8.2746,0.0],[-82.2096,8.2801,1.2049],[-82.2099,8.2832,0.0],[-82.2082,8.2832,0.0],[-82.2051,8.2782,0.0],[-82.1974,8.2821,1.4857],[-82.1985,8.2796,3.7547],[-82.204,8.2776,0.0],[-82.1971,8.2696,0.0],[-82.1954,8.2701,0.0],[-82.1949,8.2657,4.2586],[-82.1971,8.2649,0.0],[-82.1974,8.269,0.0],[-82.2024,8.2743,1.9836],[-82.2051,8.2712,2.4989],[-82.2065,8.2665,3.4974],[-82.211,8.264,0.0],[-82.214,8.2593,8.7882],[-82.2185,8.2471,0.0],[-82.2151,8.241,10.6072],[-82.2112,8.239,17.2366]]],
[[[-82.1099,8.1649,2.7948],[-82.1093,8.166,2.46],[-82.1126,8.1657,0.0],[-82.111,8.1643,2.7948],[-82.1099,8.1649,2.7948]]],
[[[-82.1062,8.1699,0.0],[-82.1085,8.1707,0.0],[-82.1115,8.1685,0.0],[-82.1093,8.1682,0.0],[-82.1062,8.1699,0.0]]],
[[[-82.1665,8.1715,7.5941],[-82.1657,8.1724,4.0827],[-82.1674,8.1726,0.0],[-82.1712,8.1701,0.0],[-82.1668,8.1674,11.8839],[-82.1665,8.1715,7.5941]]],
[[[-82.1254,8.1785,0.0],[-82.1296,8.1793,1.7295],[-82.1349,8.174,1.43],[-82.1326,8.169,0.0],[-82.1362,8.1676,0.0],[-82.1363,8.1657,0.7511],[-82.1304,8.1662,7.3755],[-82.1279,8.1646,0.0],[-82.1263,8.1665,4.0484],[-82.1299,8.1696,18.5384],[-82.1282,8.1726,0.0],[-82.129,8.1757,0.0],[-82.1254,8.1785,0.0]]],
[[[-82.1857,8.1838,0.0],[-82.1851,8.1854,0.0],[-82.1868,8.1857,0.0],[-82.1882,8.1832,5.3258],[-82.1862,8.1785,0.0],[-82.1857,8.1788,0.0],[-82.1857,8.1838,0.0]]],
[[[-82.1926,8.1893,8.4369],[-82.1926,8.1924,0.0],[-82.1943,8.1929,0.0],[-82.196,8.1882,0.0],[-82.1929,8.1857,4.0996],[-82.1915,8.1865,4.0996],[-82.1926,8.1893,8.4369]]],
[[[-82.2021,8.2035,5.5345],[-82.2026,8.2049,8.9037],[-82.2057,8.2038,17.0208],[-82.206,8.1996,5.6625],[-82.2026,8.201,0.0],[-82.2021,8.2035,5.5345]]]]}
,"properties": {"GID_2": "PAN.2.12_1","GID_0": "PAN","country": "Panama","GID_1": "PAN.2_1","province": "Chiriquí","NL_NAME_1": "NA","county": "SanLorenzo","VARNAME_2": "NA","NL_NAME_2": "NA","TYPE_2": "Distrito","ENGTYPE_2": "District","CC_2": "NA","HASC_2": "PA.CH.SL","name": "San_Lorenzo.county","area_km2": 707.0585,"hist_schema_id": "Elevation0-9000","hist_area_km2": {"0": 199.2503,"25": 206.7721,"50": 103.303,"75": 61.6727,"100": 35.8892,"125": 25.0019,"150": 16.9474,"175": 13.6959,"200": 11.3676,"225": 8.7458,"250": 7.1518,"275": 4.1736,"300": 2.5797,"325": 1.8037,"350": 1.8037,"375": 1.0696,"400": 0.9648,"425": 1.4681,"450": 2.1812,"475": 0.9228,"500": 0.2517,"525": 0.0419}}}