{"type": "Feature","bbox": [-80.5661,7.773,-80.487,7.8584],"geometry": {"type": "MultiPolygon","coordinates": [[[[-80.5372,7.8315,53.6733],[-80.5349,7.829,42.8746],[-80.5255,7.8275,52.461],[-80.5261,7.8174,78.5201],[-80.5393,7.8058,75.5385],[-80.5455,7.8022,98.8389],[-80.5593,7.7986,55.2565],[-80.5661,7.7918,75.6629],[-80.5494,7.7768,79.022],[-80.5204,7.773,177.444],[-80.5133,7.7959,93.4146],[-80.5158,7.8122,60.6438],[-80.5148,7.8165,68.5216],[-80.5093,7.8248,54.2559],[-80.4973,7.8245,52.2124],[-80.487,7.8342,56.288],[-80.5028,7.8426,54.7958],[-80.5177,7.8548,82.7036],[-80.5338,7.8584,47.337],[-80.538,7.8526,35.6111],[-80.5376,7.8465,38.907],[-80.541,7.8397,54.1156],[-80.5372,7.8315,53.6733]]]]}
,"properties": {"GID_3": "PAN.9.3.2_1","GID_0": "PAN","country": "Panama","GID_1": "PAN.9_1","province": "LosSantos","NL_NAME_1": "NA","GID_2": "PAN.9.3_1","county": "LosSantos","NL_NAME_2": "NA","city": "ElGuásimo","VARNAME_3": "NA","NL_NAME_3": "NA","TYPE_3": "Corregimiento","ENGTYPE_3": "Municipality","CC_3": "NA","HASC_3": "NA","name": "El_Guásimo.city","area_km2": 32.74734,"hist_schema_id": "Elevation0-9000","hist_area_km2": {"25": 1.23922,"50": 13.84191,"75": 7.68813,"100": 5.4616,"125": 2.77288,"150": 1.28143,"175": 0.46216}}}