{"type": "Feature","bbox": [-80.0519,8.9779,-79.9549,9.1868],"geometry": {"type": "MultiPolygon","coordinates": [[[[-80.004,8.9849,73.898],[-79.9974,8.9849,61.2088],[-79.9874,8.9779,45.4244],[-79.9833,8.9788,36.6009],[-79.982,8.982,33.5082],[-79.9767,8.9834,40.2065],[-79.9744,8.9896,28.1276],[-79.9694,8.9887,27.2984],[-79.9645,8.984,58.374],[-79.9617,8.9968,25.2677],[-79.9561,9.005,35.7891],[-79.9554,9.0096,25.3242],[-79.9599,9.0046,25.6179],[-79.959,9.0015,25.7775],[-79.9604,9.0012,25.7775],[-79.9607,9.004,25.6179],[-79.9593,9.0063,25.2508],[-79.9624,9.0076,25.0],[-79.9624,9.0107,27.5918],[-79.961,9.011,27.5918],[-79.9624,9.0138,25.0],[-79.9612,9.0212,26.1147],[-79.9654,9.0179,25.0],[-79.966,9.0121,25.0],[-79.9676,9.0135,28.838],[-79.9682,9.0176,25.531],[-79.9721,9.0174,29.1485],[-79.9721,9.0188,30.6768],[-79.9693,9.0193,27.1446],[-79.9707,9.021,26.0215],[-79.9693,9.0212,26.0215],[-79.9693,9.0238,28.5773],[-79.9668,9.0218,25.0],[-79.9654,9.0229,26.1337],[-79.966,9.0262,25.35],[-79.9682,9.0276,25.7561],[-79.9649,9.0299,27.8593],[-79.9646,9.0279,25.5771],[-79.9618,9.0285,26.7509],[-79.9601,9.0265,25.0],[-79.9612,9.0296,25.9106],[-79.9596,9.0324,25.6619],[-79.9612,9.0335,27.2994],[-79.9626,9.0318,30.0651],[-79.9638,9.0338,37.7547],[-79.9629,9.0399,26.3019],[-79.9657,9.039,26.4015],[-79.9674,9.0432,25.0],[-79.9662,9.0351,28.5781],[-79.969,9.0365,26.0946],[-79.9696,9.0388,25.0],[-79.971,9.0385,26.5725],[-79.9704,9.0357,27.9773],[-79.9729,9.0376,25.0],[-79.9735,9.0301,26.324],[-79.9749,9.0296,26.324],[-79.9765,9.0326,26.6907],[-79.9746,9.039,25.0],[-79.9754,9.0415,34.8621],[-79.9704,9.0463,25.0],[-79.9715,9.0488,25.0],[-79.974,9.0468,33.5706],[-79.976,9.0501,31.2407],[-79.9762,9.0524,27.4825],[-79.9743,9.0549,25.7667],[-79.9765,9.054,27.2261],[-79.9776,9.051,29.0544],[-79.9804,9.0504,27.1103],[-79.9801,9.0485,31.5669],[-79.9837,9.0474,25.0],[-79.9832,9.0446,27.0703],[-79.9868,9.044,25.0],[-79.9854,9.0382,28.4719],[-79.9837,9.0374,28.4719],[-79.9874,9.0313,30.195],[-79.9824,9.0296,28.5518],[-79.9829,9.0282,27.9721],[-79.9868,9.029,25.751],[-79.9835,9.0254,25.0],[-79.9851,9.0226,25.861],[-79.9815,9.024,26.5313],[-79.9801,9.0224,28.4142],[-79.9804,9.0193,29.88],[-79.9857,9.0207,25.0],[-79.9854,9.0176,30.4375],[-79.9824,9.0138,26.9726],[-79.9821,9.0074,29.5695],[-79.9854,9.0085,30.9277],[-79.984,9.0104,25.0],[-79.9854,9.0138,28.9365],[-79.984,9.0157,25.8895],[-79.9865,9.0163,26.1605],[-79.9863,9.0182,25.9562],[-79.9887,9.0165,27.8828],[-79.9926,9.0171,29.7995],[-79.9887,9.019,25.0],[-79.9879,9.024,26.5007],[-79.9887,9.0287,25.0],[-79.9901,9.0287,26.6064],[-79.9901,9.0243,25.0],[-79.9929,9.0235,30.9588],[-79.991,9.026,28.3131],[-79.9926,9.0299,30.9203],[-79.9904,9.0307,25.0],[-79.9935,9.0313,26.2265],[-79.991,9.0324,28.4291],[-79.9915,9.0343,29.2832],[-79.9882,9.0349,25.0],[-79.9874,9.0365,25.0],[-79.9904,9.0374,33.0076],[-79.9899,9.039,26.0601],[-79.9926,9.0415,26.7805],[-79.9929,9.0485,26.5116],[-79.9946,9.0479,26.4122],[-79.9946,9.0449,28.2167],[-79.9974,9.0468,25.0],[-79.9976,9.0404,40.3309],[-79.9999,9.0432,27.2715],[-80.0018,9.041,26.7997],[-80.0004,9.0365,25.9441],[-80.0024,9.0301,25.0],[-80.001,9.0279,25.9688],[-80.0046,9.031,26.4218],[-80.0018,9.036,25.9441],[-80.0026,9.0388,25.0],[-80.0057,9.0388,28.2966],[-80.0035,9.0418,25.0],[-80.0054,9.044,28.5148],[-80.0026,9.0421,26.5321],[-80.0024,9.0438,26.3294],[-80.0046,9.0457,28.8667],[-80.0018,9.0443,26.2777],[-79.9996,9.0457,25.0],[-80.0035,9.0479,26.277],[-80.0024,9.0496,26.7586],[-80.004,9.0504,26.7586],[-80.004,9.0529,25.6095],[-80.0013,9.0571,29.1657],[-79.9987,9.0571,27.3023],[-80.0018,9.0604,25.7038],[-79.9971,9.0632,25.0],[-79.9999,9.0635,29.499],[-79.9999,9.0649,27.6518],[-79.9974,9.0701,26.6088],[-79.9949,9.0699,26.1336],[-79.9954,9.0724,28.0017],[-79.9996,9.0721,26.1839],[-80.0018,9.074,25.0],[-80.0021,9.0696,25.8916],[-80.0043,9.0715,25.0],[-80.0046,9.0688,25.0],[-80.0013,9.0674,27.9962],[-80.001,9.0649,30.1193],[-80.0057,9.0679,25.0],[-80.0029,9.0626,27.8025],[-80.004,9.0624,27.8025],[-80.0049,9.0649,27.0832],[-80.0068,9.0635,25.0],[-80.0074,9.0599,25.0],[-80.0049,9.0593,28.4838],[-80.0062,9.0571,25.0],[-80.0046,9.0549,26.2524],[-80.0062,9.0501,33.7097],[-80.0079,9.0554,29.0014],[-80.0129,9.0562,26.3859],[-80.0101,9.0582,25.0],[-80.0118,9.0593,25.0],[-80.0104,9.0615,25.6399],[-80.0121,9.0621,30.1825],[-80.0082,9.0632,28.1417],[-80.0082,9.0649,29.3397],[-80.0121,9.0649,27.8212],[-80.0165,9.0613,29.0762],[-80.016,9.0635,26.5184],[-80.0124,9.0657,28.3104],[-80.0126,9.0682,28.2821],[-80.0113,9.066,26.0111],[-80.0082,9.0665,27.8626],[-80.0096,9.0704,27.0175],[-80.0071,9.0688,28.3008],[-80.0065,9.071,28.9873],[-80.0085,9.0726,35.0655],[-80.0082,9.0749,29.122],[-80.0046,9.0749,25.0],[-80.011,9.0785,29.9266],[-80.0068,9.0779,27.2497],[-80.0068,9.0812,28.0624],[-80.0054,9.079,30.5916],[-80.0029,9.0785,25.0],[-80.0051,9.0824,27.263],[-80.0018,9.0812,25.0],[-80.0024,9.0835,30.4069],[-80.0007,9.0832,25.0],[-80.0004,9.0812,25.0],[-79.9982,9.0821,27.8692],[-79.9971,9.0787,25.0],[-79.9957,9.0832,25.0],[-79.9921,9.0804,25.0],[-79.9926,9.0849,25.9925],[-79.9896,9.0826,25.0],[-79.9918,9.0874,30.3391],[-79.9871,9.0865,25.0],[-79.9863,9.0882,25.0],[-79.9882,9.0896,25.0],[-79.9871,9.0918,25.0],[-79.9907,9.0885,26.6055],[-79.9932,9.0901,25.0],[-79.9932,9.0885,30.3391],[-79.9949,9.0882,25.8217],[-79.9935,9.0863,27.1764],[-79.9951,9.0851,28.1942],[-79.9974,9.0865,25.0],[-79.9968,9.0888,25.0],[-79.9993,9.0882,25.0],[-79.9976,9.0846,29.9403],[-80.001,9.086,25.0],[-80.0057,9.0849,27.4426],[-80.0049,9.0868,25.0],[-80.0065,9.0885,25.0],[-80.0065,9.084,25.0],[-80.0079,9.0832,28.4347],[-80.0115,9.0849,25.0],[-80.0107,9.0832,27.0965],[-80.0121,9.0835,27.0965],[-80.0121,9.0815,30.1052],[-80.0163,9.0832,25.0],[-80.0151,9.0849,25.0],[-80.0163,9.086,25.0],[-80.0185,9.0815,25.0],[-80.0151,9.0801,30.4348],[-80.0188,9.081,25.0],[-80.019,9.0785,25.0],[-80.0165,9.0782,25.0],[-80.0154,9.0757,27.644],[-80.0132,9.0774,29.4888],[-80.0124,9.0757,25.5092],[-80.0151,9.0751,27.6908],[-80.0149,9.0724,25.866],[-80.0163,9.0732,25.866],[-80.0182,9.0693,26.8521],[-80.0199,9.0713,25.0],[-80.0243,9.069,25.0],[-80.021,9.071,27.3973],[-80.0204,9.0732,25.0],[-80.0176,9.0732,25.0],[-80.0174,9.0751,29.4421],[-80.0196,9.0776,25.0],[-80.021,9.0746,27.8456],[-80.0254,9.074,34.7362],[-80.0271,9.0774,25.0],[-80.0293,9.0776,26.2882],[-80.0251,9.0818,25.0],[-80.0296,9.0832,25.6952],[-80.0299,9.0796,27.0074],[-80.0326,9.0774,28.3377],[-80.0326,9.0754,36.9461],[-80.0338,9.0754,26.9358],[-80.0335,9.0774,25.0],[-80.0365,9.0776,25.0],[-80.0354,9.0743,25.0],[-80.0312,9.0726,30.267],[-80.0338,9.0732,25.0],[-80.0343,9.0688,26.495],[-80.0349,9.0718,25.0],[-80.0362,9.0721,25.0],[-80.0349,9.0649,31.1051],[-80.0368,9.0657,25.0],[-80.0371,9.0635,30.9839],[-80.0396,9.0635,25.0],[-80.0371,9.0599,25.0],[-80.0393,9.0579,25.0],[-80.0393,9.0546,26.4283],[-80.0376,9.0521,25.0],[-80.0365,9.0526,30.6992],[-80.0365,9.051,27.4531],[-80.0349,9.0507,27.4531],[-80.0335,9.0526,29.9677],[-80.0335,9.0499,25.0],[-80.031,9.0513,25.0],[-80.0301,9.0493,26.4886],[-80.0287,9.0496,25.0],[-80.0307,9.0468,26.2116],[-80.0274,9.044,28.2481],[-80.0229,9.0432,27.6235],[-80.0229,9.0407,26.9444],[-80.0204,9.0399,28.7261],[-80.0196,9.0424,33.0993],[-80.0182,9.0424,27.4186],[-80.0199,9.0393,28.7261],[-80.0132,9.0265,30.284],[-80.0151,9.016,27.4785],[-80.0163,9.0165,27.4785],[-80.0157,9.0207,25.0],[-80.019,9.0176,25.0],[-80.0218,9.019,30.7215],[-80.0154,9.0218,25.0],[-80.016,9.0307,28.344],[-80.0176,9.031,30.3734],[-80.0185,9.0354,39.6537],[-80.0212,9.0368,25.0],[-80.021,9.0382,27.5478],[-80.0249,9.041,28.5049],[-80.0263,9.0404,27.7898],[-80.026,9.0429,27.0409],[-80.029,9.0432,25.0],[-80.0307,9.041,28.1295],[-80.0321,9.0488,25.0],[-80.0368,9.0488,25.0],[-80.0376,9.0463,29.8772],[-80.0385,9.049,25.0],[-80.0413,9.049,25.0],[-80.0418,9.0451,25.0],[-80.0399,9.0421,34.5325],[-80.0418,9.0401,25.0],[-80.0376,9.0388,34.4046],[-80.0376,9.0362,25.0],[-80.029,9.0279,26.3491],[-80.0293,9.0176,26.3972],[-80.0206,9.0107,31.2131],[-80.0142,8.9994,39.5851],[-80.0138,8.9907,63.5205],[-80.004,8.9849,73.898]]],
[[[-79.9882,9.0576,25.0],[-79.989,9.0599,25.0],[-79.9904,9.0596,25.0],[-79.991,9.0535,29.1097],[-79.9932,9.0518,26.6566],[-79.9932,9.0493,26.3293],[-79.9899,9.0488,28.2241],[-79.9879,9.051,26.6797],[-79.9893,9.0526,25.0],[-79.9882,9.0576,25.0]]],
[[[-80.014,9.0979,25.0],[-80.0165,9.0982,25.0],[-80.0163,9.0951,25.0],[-80.0149,9.0938,25.0],[-80.0137,9.096,25.0],[-80.014,9.0924,25.0],[-80.0126,9.0918,25.0],[-80.0124,9.096,25.0],[-80.014,9.0979,25.0]]],
[[[-79.9912,9.1071,25.5064],[-79.9932,9.1076,25.9816],[-79.9938,9.1057,25.0],[-79.9912,9.1049,25.0],[-79.9912,9.1071,25.5064]]],
[[[-79.9551,9.0365,28.1715],[-79.9549,9.0376,25.0],[-79.9565,9.0376,25.0],[-79.9582,9.0357,25.0],[-79.9554,9.036,28.1715],[-79.9551,9.0365,28.1715]]],
[[[-79.9601,9.0404,25.0],[-79.9604,9.0424,25.0],[-79.9624,9.0424,25.0],[-79.9618,9.039,27.2577],[-79.9601,9.0404,25.0]]],
[[[-79.966,9.051,28.0447],[-79.9638,9.0557,25.0],[-79.9679,9.0537,26.287],[-79.9662,9.0465,25.0],[-79.9621,9.054,25.0],[-79.966,9.051,28.0447]]],
[[[-79.9707,9.059,25.0],[-79.9704,9.061,25.0],[-79.9735,9.0601,25.0],[-79.9729,9.0582,25.0],[-79.9707,9.059,25.0]]],
[[[-79.9679,9.064,25.0],[-79.969,9.0649,25.0],[-79.971,9.0646,26.4287],[-79.9704,9.0626,26.8779],[-79.9679,9.064,25.0]]],
[[[-80.0226,9.0782,25.0],[-80.0237,9.0785,25.0],[-80.0237,9.0763,25.0],[-80.0229,9.0763,25.0],[-80.0226,9.0782,25.0]]],
[[[-80.0426,9.0807,26.6143],[-80.0427,9.0793,28.6249],[-80.0418,9.0793,28.6249],[-80.0418,9.0804,28.6249],[-80.0426,9.0807,26.6143]]],
[[[-80.0226,9.0807,25.0],[-80.0229,9.0807,25.0],[-80.0235,9.0821,25.0],[-80.0235,9.0793,25.0],[-80.0226,9.0807,25.0]]],
[[[-80.0218,9.0879,25.6624],[-80.0235,9.0885,25.8541],[-80.0204,9.086,25.0],[-80.0204,9.0876,25.0],[-80.0218,9.0879,25.6624]]],
[[[-80.0249,9.0907,25.0],[-80.0249,9.0921,25.0],[-80.0271,9.0918,25.0],[-80.026,9.0888,25.0],[-80.0249,9.0907,25.0]]],
[[[-80.026,9.0957,25.0],[-80.0279,9.0968,25.0],[-80.0282,9.0946,25.0],[-80.026,9.0946,25.0],[-80.026,9.0957,25.0]]],
[[[-80.016,9.1035,25.0],[-80.0176,9.1046,25.0],[-80.0168,9.1012,25.0],[-80.0137,9.1024,25.0],[-80.0146,9.1032,25.0],[-80.016,9.1035,25.0]]],
[[[-79.9885,9.1112,25.0],[-79.9899,9.1115,25.0],[-79.9915,9.1085,25.5064],[-79.9896,9.1065,25.0],[-79.9887,9.1076,25.0],[-79.9896,9.1096,25.0],[-79.9885,9.1112,25.0]]],
[[[-79.9771,9.1201,25.0],[-79.9785,9.121,25.0],[-79.9796,9.1185,25.0],[-79.9768,9.1179,25.0],[-79.9771,9.1201,25.0]]],
[[[-80.0417,9.1485,89.0169],[-80.0519,9.107,26.3254],[-80.049,9.1041,24.5316],[-80.0487,9.0931,43.1554],[-80.0445,9.0898,37.4542],[-80.0431,9.0815,26.6143],[-80.041,9.0818,27.3967],[-80.0404,9.0801,25.0],[-80.0393,9.0829,27.5091],[-80.041,9.0846,27.6606],[-80.0376,9.0837,25.0],[-80.0371,9.086,31.9108],[-80.0415,9.089,32.2619],[-80.0421,9.091,25.6444],[-80.0407,9.0893,25.5823],[-80.0376,9.0896,25.0],[-80.034,9.0829,25.0],[-80.0332,9.0851,25.8587],[-80.0454,9.1018,25.0777],[-80.039,9.0979,25.0],[-80.0354,9.1004,25.0],[-80.0338,9.0963,25.0],[-80.0329,9.1004,29.5246],[-80.0315,9.0996,26.0336],[-80.0332,9.1051,35.6521],[-80.031,9.1065,27.3417],[-80.0312,9.1046,25.0],[-80.0271,9.0996,25.0],[-80.0285,9.1062,26.1914],[-80.0265,9.1049,25.0],[-80.0271,9.1076,32.6153],[-80.0257,9.1082,25.0],[-80.0249,9.1065,26.2991],[-80.024,9.1085,25.0],[-80.024,9.1046,25.0],[-80.0212,9.1043,26.0077],[-80.0221,9.1076,25.0],[-80.0201,9.1087,25.2499],[-80.019,9.1068,25.0],[-80.0188,9.1099,29.0011],[-80.0174,9.1104,25.0],[-80.0165,9.1071,25.0],[-80.0149,9.1065,25.0],[-80.016,9.1118,25.0],[-80.014,9.1132,31.2874],[-80.0137,9.1074,25.9937],[-80.0129,9.1062,25.0],[-80.0121,9.1079,27.2036],[-80.0121,9.1049,29.5055],[-80.0096,9.1015,25.0],[-80.0115,9.1112,27.338],[-80.0096,9.1121,28.927],[-80.0079,9.1079,25.0],[-80.0043,9.1099,25.0],[-80.0076,9.1104,28.2899],[-80.0088,9.1151,27.764],[-80.011,9.1138,26.6729],[-80.0137,9.1146,26.1043],[-80.0149,9.1168,27.4594],[-80.0101,9.1185,25.0],[-80.0074,9.1171,30.0166],[-80.0076,9.1204,28.6672],[-80.0057,9.1212,31.2621],[-80.0054,9.1146,26.9665],[-80.0038,9.1146,27.7294],[-80.004,9.1118,25.0],[-80.0021,9.1132,25.0],[-80.0004,9.1068,25.0],[-79.9987,9.1057,26.3234],[-79.9979,9.1068,26.3234],[-79.9999,9.1121,27.6161],[-79.9982,9.1115,27.055],[-79.9985,9.1129,27.6161],[-79.9971,9.1129,27.8631],[-79.9962,9.1096,25.9097],[-79.9949,9.1099,25.0],[-79.9949,9.1138,27.0711],[-79.9929,9.1115,25.0],[-79.991,9.1118,25.0],[-79.9932,9.1165,26.0188],[-79.9901,9.114,25.0],[-79.9885,9.1151,28.194],[-79.9876,9.1126,25.7424],[-79.9863,9.1132,25.0],[-79.9868,9.1165,25.0],[-79.9849,9.1168,25.0],[-79.9899,9.1238,35.8256],[-79.9874,9.1218,25.0],[-79.9843,9.1218,25.5354],[-79.9846,9.1193,25.0],[-79.9826,9.1207,26.8522],[-79.984,9.1235,32.6868],[-79.9837,9.1315,32.6147],[-79.9785,9.1318,32.1905],[-79.9824,9.1293,25.0],[-79.9815,9.1246,25.0],[-79.9788,9.1251,39.1816],[-79.9799,9.1224,30.5699],[-79.976,9.1221,26.819],[-79.9765,9.1257,31.7198],[-79.9743,9.1277,33.8617],[-79.972,9.1389,75.3808],[-79.9723,9.1446,30.7803],[-79.9863,9.1575,64.5684],[-79.9998,9.1669,21.089],[-80.0163,9.1635,88.4416],[-80.0239,9.166,57.3452],[-80.0261,9.1698,48.308],[-80.0255,9.1823,15.8007],[-80.0332,9.1868,9.8345],[-80.0388,9.1847,7.9521],[-80.0458,9.177,116.1411],[-80.0348,9.1635,124.9608],[-80.0417,9.1485,89.0169]]]]}
,"properties": {"GID_3": "PAN.4.2.7_1","GID_0": "PAN","country": "Panama","GID_1": "PAN.4_1","province": "Colón","NL_NAME_1": "NA","GID_2": "PAN.4.2_1","county": "Colón","NL_NAME_2": "NA","city": "Escobal","VARNAME_3": "NA","NL_NAME_3": "NA","TYPE_3": "Corregimiento","ENGTYPE_3": "Municipality","CC_3": "NA","HASC_3": "NA","name": "Escobal.city","area_km2": 107.29988,"hist_schema_id": "Elevation0-9000","hist_area_km2": {"0": 0.7535,"25": 58.26629,"50": 38.98514,"75": 6.97148,"100": 1.65365,"125": 0.56515,"150": 0.10466}}}