{"type":"Feature","properties":{"GID_3":"PAN.13.6.4_1","GID_0":"PAN","country":"Panama","GID_1":"PAN.13_1","province":"Veraguas","NL_NAME_1":"NA","GID_2":"PAN.13.6_1","county":"Montijo","NL_NAME_2":"NA","city":"Leones","VARNAME_3":"NA","NL_NAME_3":"NA","TYPE_3":"Corregimiento","ENGTYPE_3":"Municipality","CC_3":"NA","HASC_3":"NA","name":"Leones.city"},
"geometry":{"type": "MultiPolygon","coordinates": [[[[-81.1012,7.7335,0.0],[-81.1021,7.7326,0.0],[-81.0996,7.7312,0.0],[-81.0993,7.7321,0.0],[-81.1012,7.7335,0.0]]],
[[[-81.1304,7.7643,0.0],[-81.1321,7.7637,0.0],[-81.1326,7.7601,0.0],[-81.1304,7.7529,0.0],[-81.1318,7.7499,0.0],[-81.1307,7.7426,0.0],[-81.136,7.741,0.0],[-81.1443,7.7415,11.8252],[-81.151,7.7451,4.9138],[-81.1526,7.7451,0.0],[-81.1526,7.7435,0.0],[-81.1474,7.7387,0.0],[-81.1454,7.7332,2.7488],[-81.139,7.7315,0.0],[-81.139,7.7299,0.0],[-81.134,7.7285,0.0],[-81.1315,7.726,0.0],[-81.1299,7.7265,0.0],[-81.1254,7.7232,3.9407],[-81.124,7.7201,0.0],[-81.116,7.7199,0.0],[-81.109,7.7174,9.0696],[-81.1057,7.7182,3.1241],[-81.1015,7.7274,0.0],[-81.1046,7.7343,3.0861],[-81.1043,7.7438,0.0],[-81.106,7.7479,5.2113],[-81.114,7.7529,29.7986],[-81.1235,7.7624,2.4926],[-81.1304,7.7643,0.0]]]]}}