{"type":"Feature","properties":{"GID_3":"PAN.10.2.8_1","GID_0":"PAN","country":"Panama","GID_1":"PAN.10_1","province":"NgöbeBuglé","NL_NAME_1":"NA","GID_2":"PAN.10.2_1","county":"Kankintú","NL_NAME_2":"NA","city":"Tuwai","VARNAME_3":"NA","NL_NAME_3":"NA","TYPE_3":"Corregimiento","ENGTYPE_3":"Municipality","CC_3":"NA","HASC_3":"NA","name":"Tuwai.city"},
"geometry":{"type": "MultiPolygon","coordinates": [[[[-82.4064,9.0258,453.5291],[-82.4106,9.0221,403.2383],[-82.415,9.0126,479.5149],[-82.4239,9.0089,610.7266],[-82.4355,9.007,282.0766],[-82.4432,9.0019,346.0318],[-82.4454,8.9969,330.498],[-82.441,8.9929,302.8741],[-82.4258,8.9847,821.8045],[-82.4192,8.9842,688.4237],[-82.4124,8.9805,598.5952],[-82.398,8.9785,439.8371],[-82.3843,8.9726,528.8028],[-82.3713,8.9726,328.8035],[-82.363,8.9675,457.2354],[-82.3453,8.9505,775.2449],[-82.3424,8.9443,1122.4351],[-82.3416,8.938,1198.9745],[-82.3379,8.9329,1418.8468],[-82.337,8.9239,1263.9181],[-82.3294,8.9167,1489.8468],[-82.3275,8.9035,1367.8348],[-82.3338,8.8982,1695.9622],[-82.3298,8.8986,1509.8883],[-82.3158,8.8944,1360.0568],[-82.3046,8.8967,1615.9819],[-82.2989,8.9015,1169.4313],[-82.2862,8.9034,1482.8008],[-82.2821,8.9073,1479.2103],[-82.2806,8.9175,1482.5865],[-82.2774,8.9218,1147.6375],[-82.2747,8.9229,1157.8805],[-82.2672,8.9218,1109.3125],[-82.262,8.9307,845.7448],[-82.2572,8.9348,760.8876],[-82.2445,8.9351,626.2901],[-82.2394,8.9371,827.6758],[-82.2346,8.9453,724.1633],[-82.2261,8.9498,713.2487],[-82.2238,8.9576,635.6313],[-82.2102,8.957,218.2272],[-82.2097,8.958,198.2755],[-82.2127,8.9625,192.5313],[-82.2274,8.9673,419.6245],[-82.2367,8.9748,272.2442],[-82.2447,8.9738,172.2608],[-82.254,8.9773,451.9956],[-82.2666,8.9792,489.1751],[-82.272,8.9781,495.0403],[-82.2729,8.9812,412.8412],[-82.2706,8.9851,352.891],[-82.2674,8.9867,353.9528],[-82.2676,8.9893,335.6375],[-82.2711,8.9899,299.1287],[-82.271,8.9883,312.3279],[-82.2736,8.9876,290.3716],[-82.2788,8.9915,344.1623],[-82.2798,8.9941,271.654],[-82.2755,8.9996,218.7751],[-82.28,9.0058,83.5211],[-82.2821,9.0058,103.7277],[-82.2857,9.0025,175.8965],[-82.2951,9.0064,146.4553],[-82.3007,8.9986,129.4062],[-82.3084,8.9989,103.3909],[-82.3205,9.0047,76.209],[-82.3258,9.0097,82.2442],[-82.3256,9.0132,81.1419],[-82.319,9.0165,48.0193],[-82.3297,9.025,224.5255],[-82.3264,9.0348,326.5147],[-82.3244,9.0372,238.7079],[-82.3201,9.0385,152.5737],[-82.3122,9.0346,99.9327],[-82.3085,9.0347,98.2122],[-82.3083,9.0369,100.605],[-82.3143,9.0427,91.5564],[-82.3147,9.0457,89.1972],[-82.3033,9.05,17.528],[-82.2981,9.0572,20.1032],[-82.2929,9.0606,10.6621],[-82.2821,9.0636,3.7487],[-82.2778,9.0685,23.0085],[-82.2805,9.0745,5.5558],[-82.2774,9.0759,14.1054],[-82.2744,9.0805,17.178],[-82.2757,9.0869,14.6598],[-82.2833,9.0876,83.9504],[-82.2867,9.079,140.8129],[-82.2899,9.0778,99.0963],[-82.2931,9.0791,150.874],[-82.294,9.0868,105.9449],[-82.3006,9.0863,271.7127],[-82.3008,9.0914,164.6848],[-82.3205,9.0933,233.4308],[-82.3113,9.1026,113.055],[-82.3098,9.099,194.6759],[-82.3051,9.099,183.7388],[-82.2999,9.1143,47.0606],[-82.3008,9.1168,31.0132],[-82.3028,9.1176,30.2087],[-82.3069,9.1124,59.9366],[-82.3091,9.1122,83.0179],[-82.3094,9.1195,92.9388],[-82.3138,9.1254,121.4428],[-82.3171,9.1354,162.8891],[-82.3234,9.1241,202.3086],[-82.3294,9.1209,365.4571],[-82.3361,9.1196,315.0033],[-82.341,9.1149,171.3104],[-82.342,9.1095,140.9375],[-82.3407,9.1057,131.711],[-82.3437,9.1018,104.1387],[-82.3454,9.0924,190.7062],[-82.3584,9.0837,110.9939],[-82.3496,9.0767,137.0806],[-82.3485,9.0732,170.4348],[-82.3561,9.0705,112.9827],[-82.3569,9.065,133.105],[-82.365,9.0541,230.209],[-82.3652,9.0509,216.0085],[-82.3708,9.0473,286.6739],[-82.3727,9.0419,371.1804],[-82.3768,9.0396,405.8649],[-82.3847,9.0386,468.145],[-82.3795,9.0321,429.6029],[-82.3792,9.0293,391.3396],[-82.3837,9.026,437.9503],[-82.4064,9.0258,453.5291]]]]}}