{"type":"Feature","properties":{"GID_3":"PAN.4.3.1_1","GID_0":"PAN","country":"Panama","GID_1":"PAN.4_1","province":"Colón","NL_NAME_1":"NA","GID_2":"PAN.4.3_1","county":"Donoso","NL_NAME_2":"NA","city":"CoclédelNorte","VARNAME_3":"NA","NL_NAME_3":"NA","TYPE_3":"Corregimiento","ENGTYPE_3":"Municipality","CC_3":"NA","HASC_3":"NA","name":"Coclédel_Norte.city"},
"geometry":{"type": "MultiPolygon","coordinates": [[[[-80.6542,8.8073,183.0089],[-80.659,8.802,185.6594],[-80.6598,8.8067,205.9716],[-80.6681,8.8057,174.602],[-80.6727,8.807,188.9198],[-80.6776,8.8143,305.5875],[-80.679,8.8235,191.2135],[-80.673,8.8314,237.2728],[-80.6708,8.8399,170.9776],[-80.6411,8.8711,96.7794],[-80.6424,8.8806,89.2555],[-80.6386,8.8949,110.3146],[-80.6394,8.9003,100.3368],[-80.6334,8.9102,64.8342],[-80.6328,8.925,48.0418],[-80.6369,8.9359,86.1083],[-80.6394,8.9384,54.5024],[-80.6395,8.9436,77.4415],[-80.6442,8.9523,66.7991],[-80.6529,8.9561,56.9387],[-80.6558,8.962,47.7606],[-80.655,8.9641,53.9577],[-80.6306,8.9727,64.6494],[-80.6156,8.9667,94.3675],[-80.6074,8.9606,126.6886],[-80.5983,8.9458,135.6036],[-80.5957,8.9447,164.7664],[-80.5909,8.946,141.487],[-80.5888,8.9515,216.3279],[-80.5827,8.9574,172.5909],[-80.5473,8.9418,73.1451],[-80.531,8.9474,40.431],[-80.525,8.9354,52.2103],[-80.5136,8.936,84.571],[-80.5121,8.9307,18.0731],[-80.5064,8.9319,57.7509],[-80.5045,8.9276,72.8838],[-80.4969,8.93,51.927],[-80.487799999999993,8.9226,54.1033],[-80.4841,8.9248,75.8993],[-80.4789,8.9249,92.2549],[-80.4762,8.923,73.4926],[-80.4722,8.9238,171.292],[-80.4707,8.9223,171.7259],[-80.466,8.924,99.1263],[-80.4562,8.9169,50.4414],[-80.445,8.9018,42.2201],[-80.4238,8.8944,97.0167],[-80.3999,8.8961,94.0653],[-80.3919,8.8944,133.4135],[-80.383,8.8888,126.6184],[-80.3763,8.8872,125.1387],[-80.3695,8.8807,69.5799],[-80.3662,8.8848,110.1612],[-80.3567,8.9086,164.0048],[-80.3743,8.9208,151.1255],[-80.3789,8.9276,172.2115],[-80.3785,8.9321,161.5542],[-80.3812,8.9382,170.9784],[-80.3816,8.9453,162.889],[-80.3745,8.9602,161.8583],[-80.3851,8.9742,83.6974],[-80.3912,8.9715,162.9843],[-80.4032,8.9603,185.2861],[-80.4242,8.964,146.8529],[-80.4271,8.9673,145.2897],[-80.437,8.9907,157.3022],[-80.4576,8.9959,158.9414],[-80.4572,8.9988,141.5175],[-80.442,9.0118,59.9915],[-80.4445,9.0208,63.9786],[-80.444,9.0276,72.0463],[-80.4734,9.0097,146.8613],[-80.4839,9.0094,148.4688],[-80.4924,9.0138,165.5314],[-80.494,9.0181,211.4236],[-80.491,9.0273,209.0175],[-80.4928,9.0335,217.8249],[-80.4855,9.0456,162.3174],[-80.4845,9.0551,124.4907],[-80.4993,9.063,56.0648],[-80.5141,9.0562,47.5822],[-80.5231,9.0545,18.6096],[-80.5273,9.0558,11.6103],[-80.5397,9.0781,50.0239],[-80.5384,9.0822,34.1934],[-80.5294,9.0911,25.5788],[-80.5294,9.0955,31.1584],[-80.5321,9.0985,13.0311],[-80.5368,9.0957,1.6802],[-80.5488,9.0929,5.6065],[-80.5485,9.0896,12.3241],[-80.5507,9.0879,15.6715],[-80.5624,9.086,0.0],[-80.564,9.0804,9.5221],[-80.5721,9.0779,0.0],[-80.5721,9.0749,4.7801],[-80.5704,9.0735,4.2681],[-80.559,9.0696,0.8043],[-80.5624,9.0699,6.9711],[-80.5713,9.0729,4.2681],[-80.5738,9.0757,0.0],[-80.5738,9.0799,0.0],[-80.5815,9.0785,6.0004],[-80.5862,9.0749,14.4891],[-80.596,9.0718,4.3567],[-80.6018,9.0662,12.1243],[-80.6085,9.0651,9.157],[-80.6121,9.0601,7.9507],[-80.6279,9.0554,0.9097],[-80.6268,9.0526,8.0701],[-80.6293,9.0535,4.6371],[-80.6376,9.0518,19.0419],[-80.6457,9.046,10.3031],[-80.6554,9.0418,12.1934],[-80.6599,9.0365,9.9893],[-80.6665,9.0349,2.7096],[-80.6746,9.0251,12.415],[-80.6818,9.0238,1.0225],[-80.681,9.0196,34.9114],[-80.6824,9.0096,10.0689],[-80.6832,9.0226,0.6948],[-80.6943,9.0207,0.0],[-80.6965,9.0151,8.7056],[-80.6951,9.0118,14.2178],[-80.699,9.0049,9.2071],[-80.7104,9.0001,10.6594],[-80.7249,8.9993,0.0],[-80.7254,8.9979,6.6974],[-80.7307,8.9987,0.0],[-80.7315,8.996,4.2637],[-80.7363,8.9943,0.0],[-80.7451,8.9854,28.7565],[-80.7474,8.9851,3.7813],[-80.7596,8.9754,14.2207],[-80.7621,8.9674,0.0],[-80.7613,8.9632,0.0],[-80.7668,8.9546,14.0228],[-80.7696,8.9518,2.9165],[-80.781,8.9479,0.0],[-80.7862,8.9438,0.0],[-80.7965,8.9279,0.0],[-80.7996,8.9204,1.0772],[-80.8068,8.9174,0.0],[-80.8104,8.9101,9.4418],[-80.8213,8.9049,0.0],[-80.8243,8.8949,3.0721],[-80.8307,8.8918,25.3975],[-80.8351,8.8915,5.3396],[-80.8412,8.8879,7.2451],[-80.8501,8.8874,0.0],[-80.8515,8.8854,4.4623],[-80.8604,8.8862,0.0],[-80.8704,8.8833,0.0],[-80.8688,8.8793,0.0],[-80.8729,8.8743,0.0],[-80.8732,8.8749,0.0],[-80.8729,8.8763,0.0],[-80.8724,8.8771,3.1815],[-80.8726,8.8779,3.1815],[-80.8712,8.8799,0.0],[-80.874,8.8823,0.0],[-80.8766,8.8815,11.7243],[-80.8738,8.8757,0.0],[-80.874,8.8534,0.9829],[-80.8658,8.846,2.2483],[-80.864,8.8391,17.7609],[-80.861,8.8355,30.2482],[-80.8408,8.8246,51.6436],[-80.8287,8.8225,77.817],[-80.8222,8.8166,18.2104],[-80.7993,8.8088,81.2822],[-80.7944,8.8089,64.0526],[-80.7821,8.8136,55.768],[-80.7728,8.8143,40.7169],[-80.7671,8.8127,146.6296],[-80.7624,8.8089,57.6614],[-80.7592,8.8011,93.1306],[-80.7535,8.7957,92.767],[-80.7467,8.7847,124.1778],[-80.7351,8.7726,92.8343],[-80.7297,8.7646,133.421],[-80.7253,8.7551,124.7353],[-80.726,8.7486,180.2703],[-80.7433,8.7412,317.4814],[-80.7512,8.7352,547.8597],[-80.7548,8.7271,356.576],[-80.7525,8.7141,337.6224],[-80.7462,8.6992,703.6029],[-80.737,8.6936,631.0661],[-80.7296,8.6858,424.0641],[-80.7242,8.6654,610.0169],[-80.7257,8.6566,911.1736],[-80.739,8.6452,1063.6862],[-80.7434,8.6393,1262.6602],[-80.7389,8.6402,1119.6379],[-80.7318,8.6373,981.6829],[-80.7251,8.637,906.5226],[-80.716,8.6327,740.1184],[-80.7149,8.6422,951.4545],[-80.7076,8.6615,857.3167],[-80.6974,8.6644,1123.9854],[-80.6856,8.6633,903.155],[-80.6908,8.6834,619.0082],[-80.6993,8.6889,653.3058],[-80.7048,8.7057,551.9854],[-80.7018,8.7208,348.2288],[-80.7034,8.7267,279.7535],[-80.7009,8.7321,257.9843],[-80.6946,8.7359,354.2646],[-80.6934,8.7407,318.4787],[-80.6874,8.748,227.7736],[-80.6878,8.7543,142.9569],[-80.6845,8.7572,95.5054],[-80.6907,8.769,128.1382],[-80.6887,8.7754,158.7792],[-80.677,8.7834,147.1673],[-80.6723,8.7847,174.5096],[-80.6641,8.7917,121.4399],[-80.6554,8.7951,93.5],[-80.6534,8.8053,140.4659],[-80.6542,8.8073,183.0089]]]]}}