{"type": "Feature","bbox": [-82.4272,8.7185,-82.3001,8.8273],"geometry": {"type": "MultiPolygon","coordinates": [[[[-82.3799,8.7338,1072.7628],[-82.3657,8.7297,846.5562],[-82.3581,8.7258,734.8389],[-82.3531,8.7202,850.8864],[-82.3489,8.7185,900.2754],[-82.3462,8.7191,917.3773],[-82.3434,8.7276,1194.1282],[-82.3464,8.7421,1089.467],[-82.3441,8.7461,1180.4413],[-82.3447,8.7539,1366.6477],[-82.3422,8.7658,1641.3478],[-82.3228,8.7844,2058.845],[-82.3147,8.8017,1840.8489],[-82.3075,8.811,1313.5945],[-82.3001,8.8144,1128.9301],[-82.3111,8.818,1411.8379],[-82.3146,8.8158,1431.5756],[-82.3223,8.8187,1237.5406],[-82.3314,8.817,1784.5375],[-82.3402,8.8218,2053.0103],[-82.3681,8.8273,2182.7651],[-82.3753,8.8078,2206.3123],[-82.3796,8.8022,2257.8369],[-82.3832,8.8017,2114.9878],[-82.3895,8.8046,1967.4879],[-82.3957,8.8032,1712.0356],[-82.4014,8.8046,1588.6246],[-82.4052,8.7974,1799.5453],[-82.4078,8.7955,1730.5433],[-82.4247,8.7953,1290.5107],[-82.4234,8.7908,1260.1123],[-82.4241,8.7746,1207.3086],[-82.4272,8.7639,1175.7588],[-82.417,8.7553,1121.8809],[-82.4146,8.7466,1131.4744],[-82.3954,8.7414,1089.7454],[-82.3799,8.7338,1072.7628]]]]}
,"properties": {"GID_3": "PAN.2.4.4_1","GID_0": "PAN","country": "Panama","GID_1": "PAN.2_1","province": "Chiriquí","NL_NAME_1": "NA","GID_2": "PAN.2.4_1","county": "Boquete","NL_NAME_2": "NA","city": "Jaramillo","VARNAME_3": "NA","NL_NAME_3": "NA","TYPE_3": "Corregimiento","ENGTYPE_3": "Municipality","CC_3": "NA","HASC_3": "NA","name": "Jaramillo.city","area_km2": 86.64431,"hist_schema_id": "Elevation0-9000","hist_area_km2": {"725": 0.04191,"750": 0.06287,"775": 0.20957,"800": 0.27244,"825": 0.29339,"850": 0.54487,"875": 0.46104,"900": 0.41913,"925": 0.54486,"950": 0.79634,"975": 0.73346,"1000": 0.75442,"1025": 1.0478,"1050": 1.06875,"1075": 1.67647,"1100": 1.34117,"1125": 1.63454,"1150": 2.05364,"1175": 1.9698,"1200": 1.69737,"1225": 1.88593,"1250": 1.88592,"1275": 1.76017,"1300": 1.92781,"1325": 2.17928,"1350": 1.67636,"1375": 1.52965,"1400": 1.88589,"1425": 1.40393,"1450": 1.55059,"1475": 1.73918,"1500": 1.63441,"1525": 1.61343,"1550": 1.50867,"1575": 1.32009,"1600": 1.36198,"1625": 1.25721,"1650": 1.32006,"1675": 1.65533,"1700": 1.27816,"1725": 1.63436,"1750": 1.69722,"1775": 1.42482,"1800": 1.42482,"1825": 1.50863,"1850": 1.59244,"1875": 1.67624,"1900": 1.94864,"1925": 1.63434,"1950": 2.13721,"1975": 1.90673,"2000": 2.51435,"2025": 1.63431,"2050": 1.5924,"2075": 1.17335,"2100": 1.44573,"2125": 1.25714,"2150": 1.08952,"2175": 1.38285,"2200": 1.46666,"2225": 1.40378,"2250": 1.27807,"2275": 0.92189,"2300": 0.5238,"2325": 0.18857,"2350": 0.14666,"2375": 0.0419}}}