{"type":"Feature","properties":{"GID_3":"PAN.10.3.1_1","GID_0":"PAN","country":"Panama","GID_1":"PAN.10_1","province":"NgöbeBuglé","NL_NAME_1":"NA","GID_2":"PAN.10.3_1","county":"Kusapín","NL_NAME_2":"NA","city":"BahíaAzul","VARNAME_3":"NA","NL_NAME_3":"NA","TYPE_3":"Corregimiento","ENGTYPE_3":"Municipality","CC_3":"NA","HASC_3":"NA","name":"Bahía_Azul.city"},
"geometry":{"type": "MultiPolygon","coordinates": [[[[-81.7568,8.9806,13.7665],[-81.7554,8.9813,13.7665],[-81.756,8.9938,30.98],[-81.7534,9.0135,42.6715],[-81.7593,9.0254,42.1442],[-81.7681,9.0333,43.8661],[-81.7767,9.048,23.5121],[-81.7823,9.0515,23.9296],[-81.7958,9.0492,44.127],[-81.8126,9.0541,44.1223],[-81.8285,9.0636,37.0723],[-81.8331,9.0702,42.2222],[-81.8357,9.0848,24.6762],[-81.84,9.0871,42.4066],[-81.8471,9.0872,44.5186],[-81.8521,9.0899,55.796],[-81.8623,9.1014,32.351],[-81.8675,9.1176,9.4868],[-81.8744,9.121,28.553],[-81.8663,9.1337,38.0494],[-81.846,9.1329,47.266],[-81.8556,9.1388,47.1132],[-81.8668,9.1418,14.4965],[-81.8844,9.1376,6.9801],[-81.8924,9.1401,8.1569],[-81.8924,9.1438,0.0],[-81.9013,9.1468,7.8185],[-81.9054,9.1457,0.0],[-81.9021,9.1404,1.0047],[-81.9037,9.1382,6.9836],[-81.9068,9.1379,3.0626],[-81.9154,9.1429,0.0],[-81.9221,9.1504,7.9387],[-81.9257,9.1501,7.2662],[-81.9288,9.144,0.0],[-81.9354,9.1426,3.6319],[-81.9399,9.1438,1.74],[-81.9388,9.1476,9.7286],[-81.9371,9.1485,0.0],[-81.9374,9.151,1.5358],[-81.9401,9.1518,1.5558],[-81.9404,9.1499,2.3685],[-81.9443,9.1476,2.5258],[-81.9479,9.139,0.0],[-81.9474,9.1365,0.0],[-81.9412,9.1354,0.0],[-81.939,9.1312,0.0],[-81.9346,9.1304,0.0],[-81.9301,9.1262,0.0],[-81.9229,9.1249,1.8932],[-81.9218,9.1224,6.0838],[-81.9157,9.1188,17.9381],[-81.9132,9.1138,0.2155],[-81.9107,9.1165,0.0],[-81.9024,9.1121,13.058],[-81.8971,9.1029,0.0],[-81.8899,9.1007,1.4571],[-81.8904,9.0957,0.3684],[-81.8874,9.0971,7.2833],[-81.876,9.089,3.787],[-81.8724,9.0829,13.1211],[-81.8724,9.0776,2.1309],[-81.8701,9.0757,3.6842],[-81.8668,9.0757,4.7853],[-81.8623,9.0704,0.0],[-81.8618,9.0663,6.0564],[-81.8649,9.0574,2.4799],[-81.861,9.0557,5.6414],[-81.8613,9.0535,0.0],[-81.8557,9.0532,5.581],[-81.8535,9.0476,2.7549],[-81.8476,9.0457,17.6776],[-81.8435,9.0424,10.6707],[-81.8426,9.0365,0.0],[-81.836,9.0324,3.7765],[-81.8346,9.0287,0.0],[-81.8321,9.0285,0.0],[-81.8299,9.0243,0.6183],[-81.826,9.0221,1.5953],[-81.8213,9.0226,1.7447],[-81.8154,9.0187,0.0],[-81.8074,9.0188,5.3403],[-81.8043,9.0149,0.0],[-81.7924,9.0126,2.2417],[-81.791,9.009,1.6094],[-81.7826,9.0082,0.0],[-81.779,9.0029,0.0],[-81.776,9.0015,0.0],[-81.774,8.9971,0.0],[-81.7749,8.9876,3.0668],[-81.7765,8.9851,0.4397],[-81.7715,8.9824,5.7566],[-81.7696,8.9784,0.0],[-81.7625,8.978,12.8567],[-81.7568,8.9806,13.7665]]],
[[[-81.8996,9.0999,1.9613],[-81.9032,9.101,0.0],[-81.9054,9.0974,0.0],[-81.9079,9.0968,0.0],[-81.9001,9.0915,0.0],[-81.8921,9.0929,0.0],[-81.8974,9.0968,0.8584],[-81.9004,9.096,0.0],[-81.8996,9.0999,1.9613]]],
[[[-81.9526,9.1524,0.0],[-81.9529,9.1504,0.0],[-81.951,9.1488,0.0],[-81.9526,9.1515,0.0],[-81.9526,9.1524,0.0]]]]}}