{"type": "Feature","bbox": [-79.8171,9.1907,-79.7151,9.3334],"geometry": {"type": "MultiPolygon","coordinates": [[[[-79.7779,9.2607,25.0],[-79.7793,9.2607,25.0],[-79.7796,9.2599,25.0],[-79.7768,9.2601,25.7226],[-79.7779,9.2607,25.0]]],
[[[-79.7151,9.3187,98.0231],[-79.7219,9.3309,239.2474],[-79.7257,9.3334,258.0117],[-79.7294,9.3332,255.9108],[-79.733,9.3291,253.3557],[-79.737,9.3202,131.9951],[-79.7482,9.3077,46.482],[-79.7586,9.3035,69.4767],[-79.77,9.2955,44.413],[-79.7765,9.2936,70.3176],[-79.7821,9.2964,119.5966],[-79.7825,9.2998,105.9932],[-79.7914,9.3083,152.9935],[-79.7955,9.3045,128.2663],[-79.7942,9.2987,100.867],[-79.8021,9.2818,83.9791],[-79.805,9.2692,46.1361],[-79.8171,9.2557,25.0],[-79.8138,9.2521,25.0],[-79.8085,9.256,25.0],[-79.7968,9.2599,27.6948],[-79.7951,9.259,25.0],[-79.7896,9.2638,26.2916],[-79.7843,9.2615,28.6141],[-79.7865,9.2576,25.0],[-79.784,9.2568,25.0],[-79.7821,9.2576,30.6298],[-79.7826,9.2607,31.0485],[-79.7801,9.2624,30.4321],[-79.7835,9.2649,25.0],[-79.776,9.2624,28.7001],[-79.7774,9.256,26.7961],[-79.7799,9.2554,25.0],[-79.7785,9.2529,27.0452],[-79.7751,9.2532,26.1444],[-79.7763,9.2515,29.0756],[-79.7835,9.2504,27.7878],[-79.7851,9.2549,26.5717],[-79.7874,9.2549,32.6847],[-79.7887,9.2526,25.0],[-79.7962,9.2543,25.0],[-79.7988,9.2532,33.7384],[-79.7993,9.256,27.3172],[-79.801,9.2557,25.0],[-79.8026,9.2535,25.0],[-79.8026,9.2476,28.0511],[-79.8054,9.2488,25.0],[-79.8049,9.2468,27.7301],[-79.8068,9.2471,25.0],[-79.8085,9.2443,32.5106],[-79.8076,9.2376,25.0],[-79.8054,9.2335,35.9305],[-79.8002,9.2371,36.8516],[-79.7984,9.2329,52.4182],[-79.7764,9.2166,131.5277],[-79.7575,9.193,190.5603],[-79.7541,9.1912,199.1592],[-79.752,9.1907,205.8548],[-79.7433,9.2039,201.8879],[-79.7298,9.2148,264.5833],[-79.7266,9.2688,137.8126],[-79.7274,9.2739,124.0045],[-79.7317,9.2801,130.7637],[-79.7322,9.284,124.3742],[-79.7279,9.2951,101.5913],[-79.7278,9.3003,92.7186],[-79.7214,9.3042,64.0843],[-79.7178,9.3086,86.894],[-79.7151,9.3187,98.0231]],
[[-79.7715,9.2738,34.464],[-79.7704,9.2749,27.7084],[-79.7707,9.2724,25.0],[-79.7685,9.2724,27.9351],[-79.7682,9.271,26.9505],[-79.7749,9.2679,27.4256],[-79.7826,9.2687,28.1178],[-79.7776,9.2696,27.2598],[-79.7768,9.2687,26.1469],[-79.7743,9.274,29.6399],[-79.7732,9.2724,29.3906],[-79.7749,9.2693,27.0878],[-79.7737,9.2693,27.0878],[-79.7715,9.2738,34.464]]]]}
,"properties": {"GID_3": "PAN.4.2.8_1","GID_0": "PAN","country": "Panama","GID_1": "PAN.4_1","province": "Colón","NL_NAME_1": "NA","GID_2": "PAN.4.2_1","county": "Colón","NL_NAME_2": "NA","city": "Limón","VARNAME_3": "NA","NL_NAME_3": "NA","TYPE_3": "Corregimiento","ENGTYPE_3": "Municipality","CC_3": "NA","HASC_3": "NA","name": "Limón.city","area_km2": 87.7213,"hist_schema_id": "Elevation0-9000","hist_area_km2": {"25": 8.3703,"50": 14.04119,"75": 13.6434,"100": 12.63899,"125": 11.92759,"150": 9.66799,"175": 6.98953,"200": 5.06422,"225": 3.13908,"250": 1.46479,"275": 0.54406,"300": 0.20923,"325": 0.02092}}}