{"type":"Feature","properties":{"GID_3":"PAN.2.9.2_1","GID_0":"PAN","country":"Panama","GID_1":"PAN.2_1","province":"Chiriquí","NL_NAME_1":"NA","GID_2":"PAN.2.9_1","county":"Remedios","NL_NAME_2":"NA","city":"ElPorvenir","VARNAME_3":"NA","NL_NAME_3":"NA","TYPE_3":"Corregimiento","ENGTYPE_3":"Municipality","CC_3":"NA","HASC_3":"NA","name":"El_Porvenir.city"},
"geometry":{"type": "MultiPolygon","coordinates": [[[[-81.8105,8.2175,5.3728],[-81.808,8.2321,49.5632],[-81.8088,8.2447,22.1382],[-81.8021,8.2526,39.0769],[-81.8048,8.262,41.9156],[-81.8092,8.2689,84.4089],[-81.8102,8.2799,122.0157],[-81.8169,8.2877,101.0131],[-81.8108,8.2981,238.5963],[-81.8171,8.3006,343.898],[-81.8242,8.2962,269.4082],[-81.8293,8.296,237.9946],[-81.8391,8.3026,158.4044],[-81.8385,8.3101,218.1857],[-81.8453,8.3085,112.9918],[-81.848,8.3061,95.3096],[-81.8495,8.2984,116.3271],[-81.849,8.2755,79.9149],[-81.8526,8.2709,60.6706],[-81.8336,8.2527,34.233],[-81.8273,8.2435,22.0843],[-81.8232,8.2412,22.7911],[-81.8165,8.2253,9.8558],[-81.8105,8.2175,5.3728]]]]}}