{"type":"Feature","properties":{"GID_3":"PAN.12.1.2_1","GID_0":"PAN","country":"Panama","GID_1":"PAN.12_1","province":"Panamá","NL_NAME_1":"NA","GID_2":"PAN.12.1_1","county":"Balboa","NL_NAME_2":"NA","city":"LaEsmeralda","VARNAME_3":"NA","NL_NAME_3":"NA","TYPE_3":"Corregimiento","ENGTYPE_3":"Municipality","CC_3":"NA","HASC_3":"NA","name":"La_Esmeralda.city"},
"geometry":{"type": "MultiPolygon","coordinates": [[[[-78.7757,8.1993,0.0],[-78.7779,8.1946,1.1873],[-78.7765,8.1926,0.0],[-78.7732,8.1932,0.0],[-78.7715,8.196,18.8955],[-78.7757,8.1993,0.0]]],
[[[-78.8415,8.2824,15.8725],[-78.8412,8.2835,0.0],[-78.8432,8.2832,15.8725],[-78.8449,8.2807,18.441],[-78.8476,8.281,15.208],[-78.8515,8.2776,20.9274],[-78.8538,8.2776,0.0],[-78.8529,8.274,0.0],[-78.8512,8.274,7.9674],[-78.8526,8.2724,0.0],[-78.8504,8.2718,1.4961],[-78.851,8.2676,0.0],[-78.8485,8.2676,0.0],[-78.8476,8.2704,0.5518],[-78.844,8.2699,0.0],[-78.8432,8.2682,0.0],[-78.8401,8.2685,0.0],[-78.8401,8.2729,0.0],[-78.8371,8.276,0.0],[-78.8412,8.2771,7.7354],[-78.8415,8.2824,15.8725]]],
[[[-78.8887,8.2935,0.0],[-78.8899,8.2943,0.0],[-78.8907,8.2907,0.0],[-78.8885,8.2924,0.0],[-78.8887,8.2935,0.0]]],
[[[-78.9074,8.219,0.0],[-78.9093,8.2193,0.0],[-78.9085,8.2176,0.41],[-78.906,8.2176,0.0],[-78.9074,8.219,0.0]]],
[[[-78.934,8.2754,0.8115],[-78.9346,8.2762,0.0],[-78.934,8.274,0.8115],[-78.9321,8.2726,0.0],[-78.9324,8.2737,0.0],[-78.934,8.2754,0.8115]]],
[[[-78.8933,8.299,8.0632],[-78.8866,8.3049,36.9424],[-78.8859,8.3122,47.9366],[-78.8873,8.315,19.0291],[-78.8937,8.3177,18.3038],[-78.9019,8.3254,42.7424],[-78.9009,8.3387,77.9742],[-78.907,8.3377,63.047],[-78.9085,8.3359,68.8905],[-78.9113,8.3378,57.5663],[-78.9205,8.3262,32.7374],[-78.9277,8.3218,40.1597],[-78.9299,8.308,40.6138],[-78.9345,8.3008,42.3735],[-78.9376,8.2986,38.8958],[-78.9485,8.2988,38.4256],[-78.9556,8.3011,31.1898],[-78.9617,8.3003,22.6114],[-78.9679,8.3027,1.7559],[-78.9649,8.2957,0.0],[-78.9657,8.294,0.0],[-78.9618,8.294,8.6956],[-78.9638,8.2932,0.0],[-78.9621,8.291,0.0],[-78.959,8.2896,0.0],[-78.9521,8.2907,16.1328],[-78.9418,8.2849,9.4487],[-78.9351,8.2768,0.0],[-78.9349,8.2782,0.0],[-78.9351,8.2796,0.0],[-78.9329,8.2804,3.8133],[-78.9326,8.2757,0.0],[-78.9285,8.274,1.3216],[-78.9276,8.2712,8.2522],[-78.9287,8.2693,1.9877],[-78.9326,8.2693,1.5804],[-78.9315,8.2665,12.6095],[-78.9332,8.2646,1.2223],[-78.9307,8.2629,1.3213],[-78.931,8.2593,0.0],[-78.9279,8.2551,0.0],[-78.9282,8.2526,0.0],[-78.924,8.2504,0.0],[-78.9279,8.2415,0.0],[-78.9229,8.2385,6.6123],[-78.9232,8.2365,9.17],[-78.9279,8.2376,0.0],[-78.9287,8.2365,0.0],[-78.9265,8.2337,0.0],[-78.9199,8.2307,2.6683],[-78.9187,8.2279,7.8052],[-78.9115,8.2246,0.0],[-78.9062,8.219,0.0],[-78.9026,8.2229,3.0061],[-78.8974,8.2218,0.0],[-78.8979,8.2265,0.0],[-78.896,8.2288,0.0],[-78.8982,8.231,0.0],[-78.9013,8.2301,0.0],[-78.9018,8.2279,5.2199],[-78.9057,8.2279,14.3029],[-78.9079,8.2296,13.2516],[-78.9107,8.2374,0.0],[-78.9124,8.2374,6.6253],[-78.9124,8.239,4.8967],[-78.9107,8.2385,0.0],[-78.9107,8.2496,0.0],[-78.9124,8.2551,15.2817],[-78.9185,8.2635,0.0],[-78.9224,8.2654,14.0936],[-78.9221,8.2699,10.5529],[-78.919,8.2754,0.0],[-78.9215,8.2838,7.4231],[-78.9179,8.2868,0.0],[-78.9168,8.2915,1.2085],[-78.9196,8.2971,7.9281],[-78.9165,8.2968,0.0],[-78.9135,8.299,4.9875],[-78.9118,8.2935,0.0],[-78.9099,8.2943,1.2024],[-78.9101,8.2979,3.4047],[-78.904,8.3071,21.5421],[-78.9015,8.3085,0.0],[-78.8976,8.3054,0.0],[-78.9001,8.2982,1.1756],[-78.8971,8.296,2.5374],[-78.8933,8.299,8.0632]]]]}}