{"type": "Feature","bbox": [-80.2655,7.759,-80.1927,7.8202],"geometry": {"type": "MultiPolygon","coordinates": [[[[-80.2205,7.8202,6.4554],[-80.2309,7.8108,10.8697],[-80.2273,7.8006,21.7184],[-80.2284,7.7928,17.9874],[-80.2655,7.7731,35.5747],[-80.2633,7.767,39.6873],[-80.2505,7.77,28.6557],[-80.2412,7.7657,42.0672],[-80.2113,7.759,32.7169],[-80.2039,7.7643,17.7251],[-80.1981,7.7652,12.3941],[-80.1927,7.7777,9.3672],[-80.1976,7.7901,9.0344],[-80.1976,7.7974,0.0],[-80.2018,7.7996,15.355],[-80.2049,7.8063,0.0],[-80.2107,7.8099,14.3136],[-80.2205,7.8202,6.4554]]]]}
,"properties": {"GID_3": "PAN.9.2.5_1","GID_0": "PAN","country": "Panama","GID_1": "PAN.9_1","province": "LosSantos","NL_NAME_1": "NA","GID_2": "PAN.9.2_1","county": "LasTablas","NL_NAME_2": "NA","city": "ElManantial","VARNAME_3": "NA","NL_NAME_3": "NA","TYPE_3": "Corregimiento","ENGTYPE_3": "Municipality","CC_3": "NA","HASC_3": "NA","name": "El_Manantial.city","area_km2": 26.53167,"hist_schema_id": "Elevation0-9000","hist_area_km2": {"0": 8.84391,"25": 16.84746,"50": 0.8403}}}