{"type":"Feature","properties":{"GID_3":"PAN.7.6.5_1","GID_0":"PAN","country":"Panama","GID_1":"PAN.7_1","province":"Herrera","NL_NAME_1":"NA","GID_2":"PAN.7.6_1","county":"Pesé","NL_NAME_2":"NA","city":"LasCabras","VARNAME_3":"NA","NL_NAME_3":"NA","TYPE_3":"Corregimiento","ENGTYPE_3":"Municipality","CC_3":"NA","HASC_3":"NA","name":"Las_Cabras.city"},
"geometry":{"type": "MultiPolygon","coordinates": [[[[-80.6062,7.8872,72.7514],[-80.6051,7.883,71.8332],[-80.5962,7.8788,67.1705],[-80.5924,7.8742,77.8099],[-80.6138,7.8587,69.9372],[-80.5997,7.8447,48.5109],[-80.6043,7.8366,58.6962],[-80.6049,7.83,72.3263],[-80.6029,7.8264,72.4234],[-80.591,7.8245,52.0116],[-80.5829,7.8195,58.7917],[-80.5751,7.8174,63.7312],[-80.5734,7.8183,73.4096],[-80.5716,7.8241,59.5524],[-80.5654,7.8242,59.5169],[-80.562,7.8265,59.8228],[-80.5587,7.8345,64.2016],[-80.5549,7.8335,61.1846],[-80.5506,7.8295,53.7246],[-80.5372,7.8315,53.6733],[-80.541,7.8389,54.1156],[-80.5374,7.8472,38.2689],[-80.5383,7.8518,35.0511],[-80.5338,7.8584,47.337],[-80.5307,7.877,30.5725],[-80.5288,7.8798,32.5734],[-80.5236,7.8805,46.0629],[-80.522,7.8823,46.3456],[-80.5241,7.8914,26.9994],[-80.5193,7.8978,24.0682],[-80.5289,7.8952,23.5878],[-80.53,7.8932,25.3443],[-80.5399,7.8919,27.2935],[-80.5422,7.8945,35.0919],[-80.5417,7.9058,37.1776],[-80.5481,7.9058,44.9037],[-80.5546,7.9029,100.395],[-80.5747,7.8989,88.7795],[-80.5775,7.9007,68.9265],[-80.583,7.9092,58.1542],[-80.584,7.9077,57.635],[-80.5826,7.9016,68.1267],[-80.5842,7.8973,106.7185],[-80.5931,7.8934,50.9015],[-80.602,7.8919,61.9342],[-80.6062,7.8872,72.7514]]]]}}