{"type":"Feature","properties":{"GID_3":"PAN.2.4.1_1","GID_0":"PAN","country":"Panama","GID_1":"PAN.2_1","province":"Chiriquí","NL_NAME_1":"NA","GID_2":"PAN.2.4_1","county":"Boquete","NL_NAME_2":"NA","city":"AltoBoquete","VARNAME_3":"NA","NL_NAME_3":"NA","TYPE_3":"Corregimiento","ENGTYPE_3":"Municipality","CC_3":"NA","HASC_3":"NA","name":"Alto_Boquete.city"},
"geometry":{"type": "MultiPolygon","coordinates": [[[[-82.4393,8.7391,1070.4878],[-82.4408,8.7374,1065.1095],[-82.44,8.7191,958.2537],[-82.4494,8.7055,814.3659],[-82.4586,8.6807,700.8405],[-82.4551,8.674,640.2285],[-82.447,8.6487,514.1454],[-82.4403,8.6399,520.7691],[-82.4382,8.633,484.3633],[-82.4327,8.6236,436.6927],[-82.4288,8.6182,404.2194],[-82.4223,8.6151,391.295],[-82.4163,8.608,354.597],[-82.414,8.6084,350.7032],[-82.4111,8.6028,329.1359],[-82.4061,8.6038,326.8806],[-82.393,8.6094,306.2227],[-82.3909,8.6147,319.2636],[-82.3905,8.6229,341.277],[-82.3869,8.6285,350.6695],[-82.3899,8.6383,368.8996],[-82.3874,8.6482,391.978],[-82.3897,8.649,401.6708],[-82.3912,8.6531,477.5958],[-82.4002,8.6592,548.936],[-82.3921,8.6845,527.6477],[-82.3946,8.6939,642.5757],[-82.393,8.7028,730.119],[-82.3902,8.7094,791.9304],[-82.3817,8.7197,898.4134],[-82.3799,8.7338,1072.7628],[-82.3954,8.7414,1089.7454],[-82.414,8.746,1131.4744],[-82.417,8.7553,1121.8809],[-82.4272,8.7639,1175.7588],[-82.4336,8.7606,1048.2999],[-82.4344,8.742,1066.6211],[-82.4393,8.7391,1070.4878]]]]}}