{"type": "Feature","bbox": [-79.2824,9.2328,-78.3735,9.6004],"geometry": {"type": "MultiPolygon","coordinates": [[[[-79.25,9.3473,578.5204],[-79.2537,9.3407,654.8481],[-79.2705,9.335,829.3729],[-79.2722,9.3292,838.9773],[-79.2775,9.3275,818.3044],[-79.2823,9.3216,862.7358],[-79.2824,9.3169,770.3039],[-79.2712,9.3107,681.3152],[-79.2465,9.311,590.6763],[-79.2393,9.3077,567.2812],[-79.2308,9.3135,653.515],[-79.2151,9.3201,544.3445],[-79.2021,9.3305,418.3478],[-79.193,9.3314,353.8795],[-79.1765,9.3386,316.4423],[-79.173,9.3386,292.4222],[-79.1555,9.3318,332.9321],[-79.144,9.3334,221.4386],[-79.1301,9.3394,169.2973],[-79.1195,9.3396,216.6229],[-79.1059,9.3347,465.3174],[-79.0917,9.3203,334.0284],[-79.0902,9.317,442.1014],[-79.0916,9.314,412.6301],[-79.0993,9.3118,274.6866],[-79.102,9.3095,294.3356],[-79.0991,9.3053,461.428],[-79.0727,9.2988,487.8494],[-79.0505,9.2997,462.4782],[-79.0231,9.2951,412.1892],[-79.0089,9.2998,466.7136],[-78.9891,9.3022,428.529],[-78.9623,9.314,341.2154],[-78.9561,9.3131,348.2859],[-78.9402,9.3067,433.1606],[-78.9337,9.3066,373.3232],[-78.9255,9.3096,411.7645],[-78.9078,9.3255,331.0129],[-78.9059,9.3302,334.8138],[-78.9101,9.3389,292.0783],[-78.9102,9.3435,343.12],[-78.9007,9.3532,346.4938],[-78.8961,9.3631,398.6985],[-78.8883,9.3691,511.5541],[-78.8804,9.3677,501.5207],[-78.8703,9.3555,439.5662],[-78.863,9.3543,449.6432],[-78.8531,9.361,377.9872],[-78.8365,9.3684,446.443],[-78.8212,9.3813,467.9481],[-78.8151,9.3836,630.9725],[-78.7832,9.3733,459.0992],[-78.7741,9.3717,411.4142],[-78.7633,9.3663,425.874],[-78.7511,9.365,471.6372],[-78.7415,9.362,530.9615],[-78.732,9.367,564.4172],[-78.7244,9.3816,356.6751],[-78.7205,9.3847,303.6832],[-78.7171,9.385,427.0888],[-78.7141,9.3831,397.7715],[-78.7109,9.3754,228.1026],[-78.7058,9.3727,281.4763],[-78.702,9.3729,343.6489],[-78.6941,9.3775,302.0337],[-78.6911,9.3771,257.2624],[-78.6857,9.3692,270.1809],[-78.674,9.3647,371.6388],[-78.6658,9.3496,437.9168],[-78.6518,9.344,550.9676],[-78.6474,9.3397,531.2377],[-78.6365,9.3359,497.3197],[-78.6306,9.3279,607.6073],[-78.6216,9.3198,559.7048],[-78.612,9.3233,384.7975],[-78.5979,9.3205,326.4154],[-78.5924,9.3259,311.7246],[-78.5893,9.3267,331.1312],[-78.5719,9.323,273.9323],[-78.5586,9.328,340.6153],[-78.5468,9.3271,275.1557],[-78.5337,9.3365,357.339],[-78.5301,9.3435,310.3128],[-78.5229,9.3492,272.3512],[-78.5119,9.3468,322.2369],[-78.5029,9.3472,407.9063],[-78.5015,9.3388,302.2047],[-78.4961,9.3346,281.173],[-78.5036,9.3279,369.7183],[-78.504,9.3235,339.3451],[-78.5008,9.3127,399.4825],[-78.4962,9.3078,468.3533],[-78.489,9.3034,581.0088],[-78.4767,9.3,573.2913],[-78.4752,9.2911,419.9213],[-78.4659,9.278,301.2597],[-78.463,9.2625,483.4225],[-78.4484,9.2459,373.809],[-78.4465,9.24,436.556],[-78.4441,9.2396,578.3645],[-78.4382,9.2447,528.1563],[-78.4338,9.245,506.248],[-78.4258,9.2375,485.4107],[-78.4159,9.2328,553.1498],[-78.4208,9.2391,535.2332],[-78.4247,9.2499,456.938],[-78.4366,9.2605,432.5334],[-78.4379,9.2678,342.9841],[-78.4225,9.2837,291.7274],[-78.4179,9.2915,230.2279],[-78.4123,9.2952,387.4994],[-78.4073,9.3029,98.5029],[-78.4039,9.3042,104.3789],[-78.3996,9.3027,302.8216],[-78.3978,9.3037,307.4035],[-78.3908,9.3357,120.6474],[-78.3829,9.3452,156.7298],[-78.3777,9.3581,67.2428],[-78.3735,9.3643,0.0],[-78.3765,9.3663,4.1635],[-78.3782,9.3699,2.0638],[-78.3771,9.3726,2.7821],[-78.3782,9.3749,0.9416],[-78.3843,9.3737,45.9933],[-78.3865,9.3768,6.0791],[-78.3901,9.3751,32.805],[-78.394,9.3768,3.3483],[-78.3954,9.374,0.0],[-78.3971,9.374,2.6647],[-78.3993,9.3771,0.0],[-78.4046,9.3796,2.0303],[-78.4037,9.3843,0.6427],[-78.4076,9.3832,4.781],[-78.4099,9.3849,2.4151],[-78.4121,9.3818,5.0672],[-78.4168,9.3818,19.786],[-78.4193,9.3849,0.0],[-78.4232,9.386,1.3581],[-78.4232,9.3915,0.0],[-78.4262,9.394,3.8428],[-78.426,9.3999,1.6474],[-78.4296,9.3999,1.8381],[-78.4326,9.4049,1.3655],[-78.4518,9.4065,2.3713],[-78.4565,9.4107,0.0],[-78.461,9.4057,0.7602],[-78.4643,9.4076,0.9238],[-78.4676,9.4076,0.0],[-78.4696,9.406,0.9075],[-78.4729,9.4104,0.0],[-78.4704,9.4162,0.0],[-78.4737,9.4171,0.0],[-78.4793,9.4143,1.4892],[-78.4835,9.4193,0.0],[-78.4951,9.4196,3.5632],[-78.4982,9.4168,0.0],[-78.4979,9.4146,5.146],[-78.5035,9.4154,7.696],[-78.5043,9.4174,0.0],[-78.5096,9.416,2.9115],[-78.5107,9.4182,2.4151],[-78.5165,9.4182,5.7132],[-78.5224,9.4226,0.0],[-78.5257,9.4218,2.9035],[-78.5335,9.4246,3.777],[-78.5335,9.4285,2.6169],[-78.5382,9.429,0.0],[-78.5413,9.4324,0.0],[-78.5482,9.4307,0.0],[-78.5504,9.4357,0.0],[-78.5543,9.4363,3.3431],[-78.554,9.4393,0.0],[-78.5568,9.4404,1.2472],[-78.5574,9.439,1.2472],[-78.5618,9.439,5.5863],[-78.5615,9.4429,0.0],[-78.5637,9.4401,10.0931],[-78.5726,9.4432,4.4004],[-78.5762,9.441,7.6542],[-78.5762,9.4438,0.0],[-78.5796,9.4413,4.5826],[-78.5821,9.4421,0.0],[-78.5837,9.4382,5.4704],[-78.5826,9.434,0.5044],[-78.5865,9.431,0.1277],[-78.589,9.4326,0.0],[-78.594,9.4307,0.1952],[-78.5946,9.4287,0.0],[-78.5932,9.4276,1.0193],[-78.5974,9.4246,0.0],[-78.5965,9.4221,7.7816],[-78.5982,9.4199,2.9383],[-78.5998,9.4207,2.0908],[-78.5987,9.4251,0.4532],[-78.6032,9.4224,0.0],[-78.6035,9.4243,0.0],[-78.6057,9.4232,9.413],[-78.6071,9.4254,3.838],[-78.611,9.4268,0.0],[-78.6101,9.4246,3.9379],[-78.6124,9.4243,1.129],[-78.6129,9.4218,13.2004],[-78.6157,9.4213,0.0],[-78.6179,9.4185,6.1464],[-78.621,9.4187,9.2236],[-78.6215,9.4232,3.7948],[-78.6263,9.4249,1.4694],[-78.6274,9.4282,3.9778],[-78.631,9.431,0.0],[-78.636,9.4285,2.8126],[-78.6354,9.4318,0.0],[-78.6487,9.4326,3.7014],[-78.6468,9.4365,0.0],[-78.6521,9.4354,0.1672],[-78.6535,9.4329,0.2653],[-78.6574,9.4349,0.0],[-78.6565,9.4329,0.0],[-78.6582,9.4318,0.0],[-78.6568,9.4265,2.3784],[-78.6643,9.4238,0.0],[-78.6679,9.4268,2.2365],[-78.6718,9.4262,0.5228],[-78.6729,9.4279,0.4972],[-78.6754,9.4279,14.4456],[-78.6801,9.4326,0.0],[-78.6821,9.4321,0.0],[-78.6857,9.4365,6.5333],[-78.6837,9.4429,0.2511],[-78.6874,9.4435,0.0],[-78.6862,9.4401,0.4398],[-78.6885,9.4418,0.2834],[-78.6904,9.439,0.9566],[-78.6929,9.4401,0.0],[-78.6915,9.4374,0.0],[-78.6957,9.4376,0.0],[-78.6943,9.4349,3.6218],[-78.6976,9.4357,1.601],[-78.6988,9.4385,0.0],[-78.7007,9.4368,9.6051],[-78.7038,9.4374,3.6386],[-78.704,9.4399,1.1239],[-78.7093,9.4399,9.0805],[-78.7107,9.4418,9.0898],[-78.7187,9.4449,10.7263],[-78.716,9.4513,1.9093],[-78.7179,9.451,1.9093],[-78.719,9.4479,3.1116],[-78.7254,9.4507,0.0],[-78.7249,9.4551,0.0],[-78.7271,9.4582,1.5648],[-78.7379,9.4529,2.4155],[-78.7485,9.451,0.7678],[-78.749,9.4485,2.7912],[-78.7529,9.451,0.0],[-78.754,9.4499,0.0],[-78.7515,9.4487,0.6195],[-78.7521,9.4468,6.5769],[-78.7601,9.4465,0.5957],[-78.7637,9.4446,1.7581],[-78.7663,9.4468,0.4126],[-78.7693,9.446,0.6166],[-78.7765,9.4474,0.3129],[-78.7749,9.4521,0.0],[-78.779,9.4499,2.2051],[-78.7796,9.4521,0.0],[-78.784,9.4504,4.2153],[-78.7882,9.4529,0.0],[-78.7899,9.4482,3.9436],[-78.7926,9.4468,0.4147],[-78.7951,9.4482,0.1778],[-78.7949,9.446,0.0],[-78.7968,9.4457,0.0],[-78.7976,9.4432,0.0],[-78.7971,9.4396,0.0],[-78.7954,9.4401,0.0],[-78.796,9.4424,0.0],[-78.7943,9.4424,0.0],[-78.7943,9.444,0.3089],[-78.7929,9.4432,0.2981],[-78.7918,9.439,1.0539],[-78.7929,9.4368,2.2515],[-78.7957,9.4354,4.1845],[-78.7993,9.4365,0.5962],[-78.8015,9.4337,2.4212],[-78.8071,9.4354,5.6136],[-78.8087,9.4376,0.269],[-78.8099,9.4357,0.5133],[-78.816,9.4365,0.3489],[-78.8229,9.4296,1.7578],[-78.8274,9.4304,6.8663],[-78.8318,9.4357,5.8925],[-78.8337,9.4393,3.9628],[-78.8324,9.4418,0.2273],[-78.8346,9.4407,0.0],[-78.8401,9.4429,0.0],[-78.8412,9.4396,3.682],[-78.8449,9.4388,0.0],[-78.8468,9.4401,0.351],[-78.8485,9.436,0.494],[-78.8468,9.4324,4.5887],[-78.849,9.4315,1.2444],[-78.8493,9.4296,9.2345],[-78.8532,9.4301,0.2581],[-78.8521,9.4271,0.1585],[-78.854,9.4282,0.0],[-78.8543,9.4268,0.0],[-78.8524,9.4207,0.0],[-78.8538,9.4204,4.2766],[-78.8557,9.4229,0.0],[-78.859,9.4229,0.0],[-78.8679,9.421,0.6006],[-78.871,9.4187,9.4475],[-78.8712,9.4213,0.8242],[-78.8743,9.4221,0.0],[-78.8735,9.4249,0.0],[-78.8749,9.4276,0.0],[-78.8793,9.4274,0.9224],[-78.8785,9.4301,0.7572],[-78.8799,9.4299,0.7572],[-78.8807,9.426,2.968],[-78.8832,9.4257,1.1162],[-78.8863,9.4279,0.0],[-78.8962,9.4262,0.0],[-78.8993,9.424,0.0],[-78.8974,9.4229,0.0],[-78.8985,9.4215,9.0751],[-78.9029,9.4224,0.4023],[-78.9035,9.4249,1.8045],[-78.9051,9.4249,1.8045],[-78.9049,9.4268,0.0],[-78.9129,9.4268,6.6619],[-78.9196,9.4337,7.5165],[-78.921,9.4413,0.276],[-78.9235,9.444,0.6343],[-78.9221,9.4446,0.6343],[-78.9149,9.439,0.1938],[-78.9146,9.4418,0.1104],[-78.9115,9.4449,0.7161],[-78.9179,9.444,0.0],[-78.9243,9.4468,1.2841],[-78.9201,9.4521,0.0],[-78.9226,9.4518,0.4295],[-78.9285,9.4465,3.109],[-78.936,9.4468,3.4705],[-78.9449,9.4507,0.0],[-78.9476,9.4546,0.5294],[-78.9529,9.4554,5.6233],[-78.9563,9.4585,0.6497],[-78.9604,9.4593,0.0],[-78.9701,9.4546,2.8664],[-78.9754,9.4543,2.0279],[-78.9821,9.459,0.0],[-78.9849,9.456,2.1048],[-78.9904,9.456,0.0],[-78.9915,9.4549,0.2549],[-78.9904,9.454,0.2549],[-78.991,9.449,0.421],[-78.9951,9.4443,2.3298],[-78.9999,9.4429,2.1462],[-78.9999,9.4549,0.0],[-78.9968,9.4557,0.0],[-78.9987,9.4574,0.0],[-79.001,9.456,0.0],[-79.0001,9.4426,2.1462],[-79.0026,9.4435,0.992],[-79.0049,9.4418,8.0951],[-79.0143,9.4415,4.2334],[-79.0243,9.4465,0.0],[-79.026,9.451,0.7097],[-79.0301,9.4513,0.2299],[-79.0312,9.449,0.387],[-79.0299,9.4482,3.1782],[-79.0376,9.4487,1.1161],[-79.0465,9.4429,0.85],[-79.0485,9.4393,2.8973],[-79.0526,9.4385,7.7607],[-79.0607,9.4407,4.2597],[-79.0638,9.4476,2.0355],[-79.069,9.4487,5.7934],[-79.0687,9.4526,6.0036],[-79.066,9.4554,1.1196],[-79.0635,9.4546,0.0],[-79.0615,9.4596,0.0],[-79.0624,9.4643,2.0468],[-79.0671,9.4663,1.4154],[-79.0685,9.471,1.6468],[-79.0729,9.4749,3.4345],[-79.0746,9.4801,2.0479],[-79.0726,9.4851,2.4198],[-79.0676,9.4885,0.0],[-79.0665,9.4913,0.0],[-79.0687,9.4971,0.0],[-79.0754,9.5015,0.0],[-79.0723,9.5087,3.1508],[-79.0749,9.5129,1.3454],[-79.0718,9.514,1.9857],[-79.0674,9.5129,0.0],[-79.0682,9.5171,13.2102],[-79.0632,9.5207,0.2685],[-79.0599,9.5288,14.7069],[-79.0521,9.5349,3.4476],[-79.0379,9.5357,0.1576],[-79.0404,9.5424,0.8544],[-79.0351,9.5365,0.0],[-79.0279,9.5362,0.4494],[-79.0249,9.5379,0.6402],[-79.0246,9.536,0.0],[-79.0201,9.536,2.0596],[-79.0063,9.5401,0.0],[-78.9985,9.5374,3.4691],[-78.9929,9.5404,0.0],[-78.9901,9.5451,0.6575],[-78.9901,9.5476,0.3993],[-78.9962,9.5501,15.8186],[-78.9968,9.5518,0.7928],[-78.9921,9.5499,0.0],[-78.9846,9.5499,0.7625],[-78.9826,9.549,2.38],[-78.9829,9.5474,0.9631],[-78.979,9.5465,0.0],[-78.9699,9.5557,0.0],[-78.9699,9.5582,0.0],[-78.9654,9.5604,0.0],[-78.9685,9.5632,0.8292],[-78.9676,9.5651,0.0],[-78.9715,9.5671,0.0],[-78.9762,9.5643,1.0477],[-78.9788,9.5657,0.0],[-78.986,9.5615,3.9718],[-78.9857,9.5638,0.0],[-78.9929,9.5671,1.1047],[-78.9913,9.5693,0.308],[-78.9935,9.5704,1.3283],[-78.9951,9.5679,1.698],[-78.9996,9.5662,0.0],[-78.9993,9.5621,0.0],[-78.9957,9.5654,1.9333],[-78.996,9.5621,0.0],[-78.9987,9.561,0.3498],[-79.001,9.561,0.8248],[-79.0013,9.5638,0.0],[-79.0043,9.5638,1.4645],[-79.0046,9.5671,0.0],[-79.0137,9.5651,3.8321],[-79.0174,9.5662,0.0],[-79.0193,9.5646,1.3171],[-79.0207,9.5671,0.0],[-79.0243,9.5638,1.5494],[-79.0263,9.5651,2.9849],[-79.0301,9.5646,0.9932],[-79.0315,9.5662,0.0],[-79.0535,9.5646,0.0],[-79.0607,9.5615,5.3514],[-79.0651,9.5632,2.4779],[-79.0715,9.561,10.2949],[-79.0751,9.5615,2.3601],[-79.0782,9.5579,2.5826],[-79.0803,9.5582,3.1033],[-79.0901,9.4794,12.2149],[-79.0959,9.4794,10.3554],[-79.0989,9.4868,10.2285],[-79.1014,9.4869,11.9775],[-79.114,9.4809,21.4022],[-79.1262,9.4696,24.0248],[-79.1326,9.4677,19.4804],[-79.1403,9.4597,29.4834],[-79.1463,9.4486,30.0633],[-79.1498,9.4454,23.3361],[-79.1545,9.4341,30.9185],[-79.1547,9.4278,26.714],[-79.1713,9.393,193.3119],[-79.1855,9.3858,167.0776],[-79.199,9.387,156.8221],[-79.2233,9.3702,377.4756],[-79.2337,9.3591,452.2211],[-79.245,9.3539,543.7974],[-79.25,9.3473,578.5204]]],
[[[-78.7993,9.439,0.0],[-78.8001,9.441,0.0],[-78.8029,9.4399,0.0],[-78.8015,9.4379,0.0],[-78.7993,9.439,0.0]]],
[[[-78.8337,9.4501,0.0],[-78.8324,9.4501,0.0],[-78.8321,9.4532,0.2347],[-78.8337,9.4535,0.0],[-78.8337,9.4501,0.0]]],
[[[-78.8412,9.4713,0.0],[-78.841,9.4726,0.0],[-78.8424,9.4724,0.0],[-78.8432,9.469,1.1617],[-78.8421,9.4696,1.1617],[-78.8412,9.4713,0.0]]],
[[[-78.8162,9.484,0.0],[-78.8187,9.4849,3.0599],[-78.8207,9.4826,2.8738],[-78.8182,9.4818,0.0],[-78.8162,9.484,0.0]]],
[[[-78.7543,9.4988,0.0],[-78.7568,9.4996,0.0],[-78.7576,9.4974,0.0],[-78.7518,9.496,0.0],[-78.7526,9.4979,0.0],[-78.7543,9.4988,0.0]]],
[[[-78.7632,9.4988,0.0],[-78.7651,9.4999,0.0],[-78.7637,9.4968,0.0],[-78.7624,9.4971,0.5968],[-78.7632,9.4988,0.0]]],
[[[-78.801,9.5085,1.3029],[-78.7993,9.5085,0.0],[-78.7988,9.5101,1.8734],[-78.804,9.5076,1.5232],[-78.8012,9.5074,1.3029],[-78.801,9.5085,1.3029]]],
[[[-78.9799,9.4601,0.0],[-78.9801,9.4613,0.0],[-78.9837,9.461,0.0],[-78.9835,9.4599,0.0],[-78.9799,9.4601,0.0]]],
[[[-78.9596,9.4707,0.0],[-78.9607,9.4715,0.0],[-78.9626,9.4715,0.3202],[-78.9618,9.4696,0.1279],[-78.9596,9.4707,0.0]]],
[[[-78.9026,9.5426,0.2174],[-78.9037,9.5443,0.0],[-78.9057,9.5424,0.0],[-78.9043,9.5418,0.0],[-78.9026,9.5426,0.2174]]],
[[[-78.8982,9.5426,0.3413],[-78.8971,9.5438,0.0],[-78.9001,9.544,0.0],[-78.9001,9.5424,0.0],[-78.8982,9.5426,0.3413]]],
[[[-78.8865,9.5457,0.1095],[-78.886,9.5482,0.1188],[-78.8904,9.5471,0.0],[-78.8896,9.5446,0.0],[-78.8865,9.5457,0.1095]]],
[[[-78.8993,9.5465,0.0],[-78.8982,9.5479,0.0],[-78.8999,9.5488,0.0],[-78.901,9.5457,0.0],[-78.8993,9.5465,0.0]]],
[[[-78.9687,9.5474,0.0],[-78.9696,9.5485,0.1697],[-78.9724,9.5479,0.0],[-78.971,9.5465,0.0],[-78.9687,9.5474,0.0]]],
[[[-78.8885,9.5501,0.0],[-78.8904,9.5515,0.0],[-78.8926,9.5485,0.0],[-78.8904,9.5479,0.0],[-78.8885,9.5501,0.0]]],
[[[-78.794,9.5104,0.0],[-78.7968,9.511,0.0],[-78.7971,9.5076,0.0],[-78.7935,9.5087,0.0],[-78.794,9.5104,0.0]]],
[[[-78.8199,9.5713,0.321],[-78.8218,9.5726,0.0],[-78.8293,9.5688,0.0],[-78.8293,9.5674,0.0],[-78.8235,9.5662,0.1984],[-78.819,9.5699,0.2979],[-78.8199,9.5713,0.321]]],
[[[-78.7546,9.5938,0.0],[-78.7582,9.594,0.5497],[-78.7562,9.5918,0.0],[-78.7549,9.5918,0.0],[-78.7546,9.5938,0.0]]],
[[[-78.7451,9.5963,1.9756],[-78.751,9.5965,0.7582],[-78.7535,9.5926,0.0],[-78.7485,9.5918,0.0],[-78.7476,9.5929,0.4883],[-78.7465,9.5899,0.0],[-78.7451,9.5899,0.0],[-78.7432,9.5951,0.0],[-78.7451,9.5963,1.9756]]],
[[[-78.9538,9.5504,0.0],[-78.9565,9.5515,0.0],[-78.9571,9.5501,0.0],[-78.9551,9.5493,0.0],[-78.9538,9.5504,0.0]]],
[[[-78.8863,9.5524,0.0],[-78.8876,9.554,0.0],[-78.8893,9.5529,0.0],[-78.889,9.5513,0.0],[-78.886,9.5513,0.0],[-78.8863,9.5524,0.0]]],
[[[-78.9463,9.5582,0.0],[-78.9443,9.5607,0.0],[-78.9501,9.5596,0.0],[-78.9493,9.5574,0.0],[-78.9463,9.5582,0.0]]],
[[[-78.8779,9.559,0.0],[-78.8779,9.5615,0.0],[-78.8801,9.5624,0.0],[-78.8804,9.5599,0.0],[-78.8779,9.559,0.0]]],
[[[-78.8604,9.5674,0.0],[-78.8601,9.5688,0.0],[-78.8615,9.5654,0.0],[-78.8607,9.5657,0.0],[-78.8604,9.5674,0.0]]],
[[[-78.8763,9.5854,0.0],[-78.8771,9.5874,0.0],[-78.8818,9.586,1.0335],[-78.8799,9.584,0.776],[-78.8763,9.5854,0.0]]],
[[[-78.6843,9.5829,1.0329],[-78.6868,9.5838,0.0],[-78.6871,9.5824,0.0],[-78.6826,9.5804,0.0],[-78.6826,9.5821,0.0],[-78.6843,9.5829,1.0329]]],
[[[-78.6721,9.5874,0.0],[-78.6743,9.5882,0.5903],[-78.6768,9.5851,0.0],[-78.6707,9.5832,0.0],[-78.6721,9.5874,0.0]]],
[[[-78.7457,9.5849,0.7063],[-78.7457,9.5868,2.2303],[-78.7493,9.5863,0.0],[-78.749,9.5851,0.0],[-78.7457,9.5849,0.7063]]],
[[[-78.686,9.5918,1.3685],[-78.6935,9.5915,0.0],[-78.6943,9.5887,0.0],[-78.6913,9.5871,0.0],[-78.6946,9.5882,0.0],[-78.6951,9.5871,0.0],[-78.6896,9.584,1.4645],[-78.6849,9.5868,0.0],[-78.6851,9.589,3.8956],[-78.6796,9.5904,0.0],[-78.6815,9.5913,0.2016],[-78.6854,9.5896,3.8956],[-78.686,9.5918,1.3685]]],
[[[-78.7135,9.589,0.547],[-78.7126,9.5907,0.0],[-78.7168,9.5887,2.3247],[-78.7179,9.5863,0.0],[-78.714,9.5871,2.4233],[-78.7135,9.589,0.547]]],
[[[-78.6986,9.5932,0.0],[-78.7004,9.5943,0.0],[-78.7046,9.5932,2.7509],[-78.7079,9.5913,0.6213],[-78.7079,9.589,0.0],[-78.701,9.5862,0.0],[-78.6979,9.5868,0.0],[-78.696,9.589,0.7619],[-78.6986,9.5932,0.0]]],
[[[-78.7726,9.5988,0.9531],[-78.7749,9.6001,0.9448],[-78.7735,9.5979,0.0],[-78.7746,9.5943,0.0],[-78.769,9.594,0.0],[-78.769,9.596,0.0],[-78.7726,9.5988,0.9531]]],
[[[-78.7757,9.5996,0.0],[-78.7801,9.6004,0.6135],[-78.7818,9.5985,0.0],[-78.779,9.5971,0.0],[-78.7757,9.5996,0.0]]],
[[[-78.6618,9.4254,1.4612],[-78.6601,9.4276,0.0],[-78.6629,9.4274,0.0],[-78.6632,9.4257,0.1464],[-78.6618,9.4254,1.4612]]],
[[[-78.6651,9.4274,1.348],[-78.666,9.429,0.0],[-78.6693,9.4285,0.0],[-78.6668,9.4265,2.2365],[-78.6651,9.4274,1.348]]],
[[[-78.6251,9.4313,0.0],[-78.6271,9.4324,0.0],[-78.6271,9.4296,0.0],[-78.6263,9.4296,0.0],[-78.6251,9.4313,0.0]]],
[[[-78.5915,9.4354,0.0],[-78.5957,9.4351,0.302],[-78.599,9.4299,0.0],[-78.5985,9.4274,0.3352],[-78.5957,9.4285,0.0],[-78.5932,9.4332,0.1138],[-78.5915,9.4332,0.0],[-78.5915,9.4354,0.0]]],
[[[-78.4804,9.426,0.0],[-78.4818,9.4271,0.0],[-78.4824,9.426,0.0],[-78.4812,9.4212,0.0],[-78.4793,9.4243,0.0],[-78.4804,9.426,0.0]]],
[[[-78.479,9.429,0.0],[-78.4815,9.4299,0.0],[-78.4818,9.4279,0.0],[-78.4793,9.4276,0.0],[-78.479,9.429,0.0]]],
[[[-78.5204,9.4321,0.2623],[-78.5226,9.4329,0.5437],[-78.5224,9.4307,0.9814],[-78.5196,9.4301,0.0],[-78.5204,9.4321,0.2623]]],
[[[-78.5896,9.4393,0.0],[-78.5912,9.4404,0.0],[-78.5943,9.4388,0.2479],[-78.5915,9.439,0.0],[-78.5924,9.4374,0.85],[-78.591,9.4349,0.0],[-78.5888,9.4349,0.0],[-78.5876,9.4368,0.4817],[-78.5896,9.4393,0.0]]],
[[[-78.5826,9.4451,0.0],[-78.5821,9.4471,0.0],[-78.5837,9.4474,0.0],[-78.5843,9.4454,1.387],[-78.5865,9.4463,0.0],[-78.5865,9.4446,0.5033],[-78.5888,9.4454,0.1581],[-78.5899,9.4438,0.1581],[-78.5849,9.4426,0.3331],[-78.584,9.4451,0.0],[-78.5826,9.4451,0.0]]],
[[[-78.5729,9.4474,0.0],[-78.579,9.4479,0.0],[-78.5771,9.4451,0.0],[-78.5676,9.4424,0.0],[-78.5671,9.4446,0.0],[-78.5729,9.4474,0.0]]],
[[[-78.564,9.4463,0.7439],[-78.5649,9.4474,0.0],[-78.5674,9.4465,0.9253],[-78.5654,9.4449,0.0],[-78.564,9.4463,0.7439]]],
[[[-78.5518,9.4529,4.4936],[-78.5546,9.4537,3.9797],[-78.5563,9.4524,0.0],[-78.551,9.4515,0.0],[-78.5518,9.4529,4.4936]]],
[[[-78.5993,9.4318,0.0],[-78.5987,9.4332,0.2899],[-78.5999,9.4337,0.2899],[-78.6004,9.4307,0.0],[-78.5993,9.4318,0.0]]],
[[[-78.5979,9.4354,0.0],[-78.5982,9.4374,0.0],[-78.5999,9.4374,0.0],[-78.6018,9.4351,0.0],[-78.5987,9.4343,0.8399],[-78.5979,9.4354,0.0]]],
[[[-78.6113,9.4579,2.291],[-78.6151,9.4587,0.0],[-78.614,9.4562,0.0],[-78.6157,9.456,0.0],[-78.6101,9.4546,0.0],[-78.609,9.4574,0.0],[-78.6113,9.4579,2.291]]],
[[[-78.619,9.4646,0.0],[-78.6193,9.4663,0.0],[-78.6201,9.4663,0.0],[-78.6204,9.4632,0.0],[-78.619,9.4646,0.0]]],
[[[-78.5774,9.4715,0.0],[-78.5779,9.4735,0.0],[-78.5807,9.4735,0.0],[-78.581,9.4718,0.0],[-78.5774,9.4715,0.0]]],
[[[-78.5824,9.4729,1.9095],[-78.5857,9.474,0.0],[-78.586,9.4713,2.9442],[-78.5824,9.4707,1.3087],[-78.5824,9.4729,1.9095]]],
[[[-78.5165,9.4757,0.0],[-78.519,9.4765,0.0],[-78.5199,9.4754,0.0],[-78.5135,9.4726,0.0],[-78.5113,9.4732,0.0],[-78.5126,9.4749,1.7964],[-78.5165,9.4757,0.0]]],
[[[-78.5643,9.4849,0.0],[-78.5665,9.486,0.0],[-78.5671,9.4846,0.0],[-78.5657,9.4837,0.0],[-78.5643,9.4849,0.0]]],
[[[-78.6801,9.4363,0.0],[-78.6824,9.4374,0.0],[-78.6829,9.4357,0.8464],[-78.6785,9.4335,0.0],[-78.6796,9.4346,0.0],[-78.6801,9.4363,0.0]]],
[[[-78.6868,9.476,0.0],[-78.6868,9.4771,0.0],[-78.6888,9.4768,0.857],[-78.6937,9.4732,0.0],[-78.6954,9.4696,0.0],[-78.6943,9.4696,0.0],[-78.6924,9.4726,0.3292],[-78.6868,9.476,0.0]]],
[[[-78.7093,9.4771,0.0],[-78.7101,9.479,0.0],[-78.7138,9.4776,0.59],[-78.7118,9.4757,0.0],[-78.7093,9.4771,0.0]]],
[[[-78.7165,9.4787,0.0],[-78.7182,9.4799,0.0],[-78.7193,9.4793,0.0],[-78.7187,9.4779,0.0],[-78.7165,9.4787,0.0]]],
[[[-78.6285,9.4785,0.0],[-78.6304,9.4796,0.0],[-78.6287,9.4768,1.6835],[-78.6293,9.4746,1.3744],[-78.6249,9.4718,0.0],[-78.6249,9.4735,0.0],[-78.6285,9.4785,0.0]]],
[[[-78.6524,9.4749,0.0],[-78.6521,9.4774,0.0],[-78.6554,9.476,0.7574],[-78.6535,9.4746,0.0],[-78.6524,9.4749,0.0]]],
[[[-78.6174,9.4779,0.0],[-78.6185,9.4804,1.1243],[-78.6215,9.4796,0.0],[-78.621,9.4782,0.0],[-78.6174,9.4779,0.0]]],
[[[-78.634,9.4821,1.2791],[-78.6354,9.484,0.0],[-78.6396,9.4838,0.0],[-78.6365,9.4812,0.0],[-78.634,9.4821,1.2791]]],
[[[-78.6729,9.4835,0.0],[-78.6732,9.4849,0.7936],[-78.6765,9.4843,0.0],[-78.6793,9.4812,0.0],[-78.6749,9.4821,3.9584],[-78.6729,9.4835,0.0]]],
[[[-78.7387,9.4929,0.7003],[-78.7421,9.4949,0.0],[-78.7399,9.4915,0.0],[-78.7326,9.4876,0.7261],[-78.7324,9.4851,0.0],[-78.7296,9.4829,0.0],[-78.7237,9.4812,0.0],[-78.726,9.486,0.0],[-78.7324,9.4882,0.7261],[-78.7321,9.4896,0.0],[-78.734,9.4893,0.0],[-78.7387,9.4929,0.7003]]],
[[[-78.7182,9.5776,2.73],[-78.7185,9.5793,0.0],[-78.724,9.5785,1.1475],[-78.7232,9.5771,1.1475],[-78.7182,9.5776,2.73]]],
[[[-78.7257,9.5776,0.0],[-78.7268,9.5801,2.4513],[-78.7304,9.5801,0.0],[-78.7276,9.5776,0.0],[-78.7257,9.5776,0.0]]],
[[[-78.6676,9.4824,0.0],[-78.6687,9.484,0.0],[-78.6718,9.484,0.0],[-78.6693,9.4815,0.0],[-78.6676,9.4824,0.0]]],
[[[-78.6721,9.5774,1.061],[-78.6712,9.5774,1.061],[-78.6712,9.5801,1.2626],[-78.6746,9.5776,2.9164],[-78.6721,9.5774,1.061]]]]}
,"properties": {"GID_3": "PAN.8.1.2_1","GID_0": "PAN","country": "Panama","GID_1": "PAN.8_1","province": "KunaYala","NL_NAME_1": "NA","GID_2": "PAN.8.1_1","county": "KunaYala","NL_NAME_2": "NA","city": "Narganá","VARNAME_3": "NA","NL_NAME_3": "NA","TYPE_3": "Corregimiento","ENGTYPE_3": "Municipality","CC_3": "NA","HASC_3": "NA","name": "Narganá.city","area_km2": 1126.3267,"hist_schema_id": "Elevation0-9000","hist_area_km2": {"0": 102.3941,"25": 136.6373,"50": 104.0807,"75": 97.5601,"100": 82.0637,"125": 64.6818,"150": 56.0221,"175": 48.8266,"200": 41.5679,"225": 34.4764,"250": 33.849,"275": 39.121,"300": 35.2929,"325": 32.8246,"350": 43.4946,"375": 31.5071,"400": 26.4235,"425": 22.8662,"450": 18.3473,"475": 13.0125,"500": 12.4059,"525": 12.1339,"550": 8.2637,"575": 7.3851,"600": 5.6905,"625": 3.6822,"650": 3.3474,"675": 2.4059,"700": 1.2762,"725": 1.067,"750": 0.7323,"775": 0.7114,"800": 0.8578,"825": 0.6067,"850": 0.4184,"875": 0.2929}}}