{"type": "Feature","bbox": [-80.1704,8.6114,-79.731,9.0032],"geometry": {"type": "MultiPolygon","coordinates": [[[[-79.7418,8.6749,0.7963],[-79.744,8.6754,3.3725],[-79.7438,8.6724,2.4567],[-79.7412,8.6693,2.5967],[-79.7399,8.6732,0.0],[-79.7418,8.6749,0.7963]]],
[[[-79.7435,8.7021,0.0],[-79.7454,8.7024,0.0],[-79.744,8.7004,16.3218],[-79.7449,8.6976,0.0],[-79.7424,8.6968,0.0],[-79.7418,8.7001,0.0],[-79.7435,8.7021,0.0]]],
[[[-79.7385,8.7118,0.0],[-79.7415,8.7121,0.0],[-79.7415,8.7099,0.0],[-79.7393,8.7096,1.8825],[-79.7385,8.7118,0.0]]],
[[[-79.7426,8.7426,0.0],[-79.7454,8.7432,2.6731],[-79.7482,8.7385,2.6532],[-79.7465,8.7374,15.6784],[-79.7432,8.7382,0.0],[-79.7426,8.7426,0.0]]],
[[[-79.8285,8.6415,0.0],[-79.8282,8.6454,0.0],[-79.831,8.6451,6.9506],[-79.8326,8.6415,0.0],[-79.8299,8.6399,0.0],[-79.8285,8.6415,0.0]]],
[[[-79.796,8.6654,0.0],[-79.7654,8.6774,13.6973],[-79.7657,8.6793,38.3713],[-79.7554,8.6913,5.6972],[-79.7526,8.6921,0.0],[-79.7596,8.696,2.3188],[-79.7596,8.7026,1.5679],[-79.7574,8.7079,5.2818],[-79.7507,8.7068,0.0],[-79.7499,8.7115,0.0],[-79.746,8.711,0.0],[-79.7451,8.7121,16.9524],[-79.7479,8.7168,0.0],[-79.7524,8.7185,0.0],[-79.7468,8.7201,0.0],[-79.7443,8.7232,0.0],[-79.7424,8.7229,0.0],[-79.7432,8.7265,5.6838],[-79.746,8.7279,6.086],[-79.7529,8.7268,1.4237],[-79.7526,8.7304,0.0],[-79.7471,8.7321,32.6675],[-79.7471,8.734,12.6998],[-79.7501,8.736,0.0],[-79.7524,8.7349,14.7305],[-79.7529,8.7379,0.0],[-79.7554,8.7371,20.7895],[-79.7554,8.7393,1.479],[-79.7599,8.7435,4.4066],[-79.7574,8.7479,21.0716],[-79.7576,8.7535,4.1854],[-79.7615,8.754,55.8755],[-79.7646,8.7582,1.2967],[-79.7618,8.7618,20.3479],[-79.7615,8.7657,17.8353],[-79.7632,8.7671,3.7486],[-79.7624,8.7699,1.5195],[-79.7679,8.7713,2.4937],[-79.7682,8.7746,0.0],[-79.7721,8.7788,3.2804],[-79.7727,8.7777,4.9075],[-79.7856,8.7837,49.2282],[-79.7922,8.8018,17.7214],[-79.7966,8.8018,7.8458],[-79.8014,8.7982,81.1623],[-79.8036,8.7998,69.5419],[-79.8082,8.8,12.1361],[-79.8168,8.798,35.3902],[-79.8246,8.8033,34.1241],[-79.8321,8.8141,121.5099],[-79.8276,8.8305,130.3182],[-79.8402,8.8271,68.4905],[-79.8497,8.8168,119.6159],[-79.853,8.8179,127.2326],[-79.8542,8.8129,155.2561],[-79.8572,8.8111,183.1528],[-79.8759,8.8186,92.6342],[-79.8805,8.8191,151.8514],[-79.8987,8.8152,109.8829],[-79.9051,8.8084,221.8249],[-79.908,8.8072,133.856],[-79.9128,8.8094,131.6569],[-79.9226,8.8208,226.0531],[-79.9315,8.8186,236.4338],[-79.9387,8.8199,178.8039],[-79.9383,8.835,169.3682],[-79.9509,8.83,183.1313],[-79.9565,8.8321,181.65],[-79.9603,8.8364,182.9237],[-79.9687,8.8397,252.7001],[-79.9772,8.8604,270.3685],[-79.9768,8.8688,261.0051],[-79.98,8.8828,279.5505],[-79.9802,8.8898,236.4447],[-79.9756,8.9064,191.0464],[-79.9846,8.9231,237.4537],[-79.9833,8.9256,223.9091],[-79.9759,8.9272,193.1938],[-79.9714,8.93,142.524],[-79.9848,8.9638,99.1603],[-79.9905,8.9724,81.3756],[-79.9937,8.9709,80.3197],[-80.0513,8.9764,27.5598],[-80.0555,8.9751,64.9579],[-80.0922,9.0032,136.6991],[-80.1157,8.9732,157.257],[-80.1362,8.9658,207.9924],[-80.1415,8.9567,36.9164],[-80.145,8.9452,37.5777],[-80.1423,8.9399,29.3294],[-80.1368,8.9347,35.0228],[-80.139,8.9263,53.0788],[-80.1475,8.9195,45.5462],[-80.1494,8.9105,55.8326],[-80.1541,8.9109,61.6764],[-80.155,8.9036,75.4314],[-80.16,8.8975,152.835],[-80.169,8.8903,102.1146],[-80.1653,8.8723,170.6356],[-80.1662,8.8672,176.1305],[-80.1641,8.8466,238.3129],[-80.1704,8.8317,182.9452],[-80.162,8.8196,200.0581],[-80.1559,8.7812,310.308],[-80.151,8.7774,270.9922],[-80.1491,8.7685,333.3265],[-80.1435,8.759,401.0547],[-80.1383,8.7535,478.4915],[-80.1304,8.7504,359.4503],[-80.1264,8.7461,302.7159],[-80.1242,8.727,508.4845],[-80.1198,8.7161,397.8233],[-80.1149,8.7123,395.8785],[-80.1165,8.7029,459.1071],[-80.1138,8.697,499.2256],[-80.1148,8.6878,533.0528],[-80.1109,8.6757,693.3364],[-80.112799999999993,8.664,887.0435],[-80.1183,8.6555,650.4899],[-80.1185,8.6455,767.0868],[-80.117,8.6375,838.1429],[-80.1117,8.628,829.0377],[-80.113,8.616,654.4797],[-80.1115,8.6119,630.953],[-80.1091,8.6114,670.2891],[-80.0953,8.6229,724.3029],[-80.0604,8.6549,888.1025],[-80.055,8.665,1037.1703],[-80.0436,8.6805,837.6922],[-80.0246,8.6924,678.4813],[-80.0153,8.6955,546.3553],[-79.9956,8.6964,677.1635],[-79.9861,8.6943,635.783],[-79.9804,8.6912,585.1514],[-79.9736,8.6905,602.8058],[-79.9698,8.691,585.9155],[-79.9579,8.6981,739.0657],[-79.9504,8.6968,770.7646],[-79.937,8.6907,872.0695],[-79.9202,8.6777,731.4978],[-79.9124,8.6685,508.2496],[-79.8952,8.6784,198.349],[-79.8803,8.6911,57.3073],[-79.8738,8.6932,47.8241],[-79.8667,8.6914,42.0061],[-79.8587,8.6947,25.2411],[-79.8538,8.6937,20.3114],[-79.8472,8.6885,8.6573],[-79.8447,8.6823,7.0046],[-79.8482,8.6663,2.0189],[-79.8465,8.6613,3.6373],[-79.8521,8.6571,0.0],[-79.8524,8.6549,0.0],[-79.8424,8.6501,0.0],[-79.8349,8.6426,2.3943],[-79.8276,8.6476,2.7284],[-79.8271,8.651,3.5318],[-79.8254,8.6507,3.131],[-79.8213,8.6563,1.1326],[-79.8168,8.6565,0.0],[-79.8096,8.6524,4.003],[-79.8051,8.6529,3.9217],[-79.801,8.6613,0.0],[-79.796,8.6654,0.0]]],
[[[-79.7524,8.7443,0.0],[-79.7546,8.7449,4.9895],[-79.7551,8.7421,0.0],[-79.7524,8.7432,0.0],[-79.7524,8.7443,0.0]]],
[[[-79.7326,8.7785,6.537],[-79.7337,8.779,0.0],[-79.731,8.7763,5.0311],[-79.731,8.7779,5.5038],[-79.7326,8.7785,6.537]]],
[[[-79.7704,8.7812,2.9979],[-79.7699,8.7818,2.9979],[-79.7699,8.7826,3.5021],[-79.7709,8.781,2.9979],[-79.7704,8.7812,2.9979]]]]}
,"properties": {"GID_2": "PAN.11.2_1","GID_0": "PAN","country": "Panama","GID_1": "PAN.11_1","province": "PanamáOeste","NL_NAME_1": "NA","county": "Capira","VARNAME_2": "NA","NL_NAME_2": "NA","TYPE_2": "Distrito","ENGTYPE_2": "District","CC_2": "NA","HASC_2": "PA.PN.CA","name": "Capira.county","area_km2": 1005.1065,"hist_schema_id": "Elevation0-9000","hist_area_km2": {"0": 56.9015,"25": 28.3731,"50": 24.9107,"75": 31.6353,"100": 56.6936,"125": 76.8223,"150": 67.6043,"175": 74.938,"200": 81.6234,"225": 85.1447,"250": 67.5477,"275": 52.8415,"300": 41.2565,"325": 33.6515,"350": 24.7469,"375": 18.4403,"400": 15.5068,"425": 13.6211,"450": 11.1905,"475": 11.2745,"500": 9.661,"525": 9.4307,"550": 7.1254,"575": 8.1944,"600": 7.3561,"625": 6.8322,"650": 7.2305,"675": 7.2515,"700": 6.539,"725": 6.8116,"750": 7.0003,"775": 8.0902,"800": 6.2248,"825": 6.9795,"850": 4.5272,"875": 3.2697,"900": 3.2698,"925": 2.7248,"950": 3.1441,"975": 2.117,"1000": 2.3476,"1025": 1.9703,"1050": 1.1738,"1075": 0.7336,"1100": 0.2935,"1125": 0.0838}}}