{"type": "Feature","bbox": [-79.6784,9.2035,-79.5868,9.2839],"geometry": {"type": "MultiPolygon","coordinates": [[[[-79.6085,9.2246,72.5],[-79.6104,9.2251,72.8353],[-79.6096,9.2226,72.5],[-79.6082,9.2235,72.5],[-79.6085,9.2246,72.5]]],
[[[-79.6784,9.2332,60.9273],[-79.6667,9.219,43.8662],[-79.6589,9.2134,41.8435],[-79.6421,9.2071,26.6246],[-79.6363,9.2082,27.1825],[-79.6207,9.2035,64.6334],[-79.6188,9.2104,51.6764],[-79.6165,9.2118,53.625],[-79.6137,9.211,75.2076],[-79.6129,9.2168,72.5],[-79.6185,9.2162,77.5073],[-79.6193,9.2143,75.6017],[-79.619,9.2193,72.5],[-79.6215,9.2212,104.3513],[-79.6171,9.2224,72.5],[-79.6132,9.2274,121.8661],[-79.6093,9.226,79.46],[-79.6085,9.2285,72.5],[-79.6071,9.2285,72.5],[-79.6026,9.2279,83.8191],[-79.5996,9.2249,72.5],[-79.6007,9.2204,72.5],[-79.5987,9.2201,72.5],[-79.5971,9.2221,93.9691],[-79.5893,9.2207,78.7724],[-79.5901,9.2235,72.5],[-79.5888,9.2249,76.0201],[-79.5907,9.2271,87.3207],[-79.5885,9.229,83.6967],[-79.5901,9.231,74.8404],[-79.5868,9.234,74.7261],[-79.5888,9.2343,79.6485],[-79.5896,9.2382,75.3475],[-79.5932,9.2415,76.1387],[-79.5946,9.241,99.3768],[-79.6001,9.2473,78.9501],[-79.6077,9.2472,74.6776],[-79.608,9.2521,87.7234],[-79.6154,9.2625,149.9973],[-79.6249,9.2632,172.824],[-79.6374,9.2678,56.4095],[-79.6403,9.2766,85.2618],[-79.6521,9.2839,125.4592],[-79.6564,9.2817,139.4878],[-79.6598,9.2492,84.9356],[-79.6668,9.2412,102.6558],[-79.6784,9.2332,60.9273]]]]}
,"properties": {"GID_3": "PAN.4.2.13_1","GID_0": "PAN","country": "Panama","GID_1": "PAN.4_1","province": "Colón","NL_NAME_1": "NA","GID_2": "PAN.4.2_1","county": "Colón","NL_NAME_2": "NA","city": "SanJuan","VARNAME_3": "NA","NL_NAME_3": "NA","TYPE_3": "Corregimiento","ENGTYPE_3": "Municipality","CC_3": "NA","HASC_3": "NA","name": "San_Juan.city","area_km2": 45.20267,"hist_schema_id": "Elevation0-9000","hist_area_km2": {"25": 2.13473,"50": 13.58187,"75": 7.78489,"100": 12.28419,"125": 5.0224,"150": 2.19729,"175": 1.08818,"200": 0.81614,"225": 0.29297}}}