{"type": "Feature","bbox": [-79.8677,8.6662,-79.731,8.7826],"geometry": {"type": "MultiPolygon","coordinates": [[[[-79.7421,8.6749,0.7963],[-79.744,8.6754,3.3725],[-79.7438,8.6724,2.4567],[-79.7412,8.6693,2.5967],[-79.7399,8.6732,0.0],[-79.7421,8.6749,0.7963]]],
[[[-79.744,8.7021,0.0],[-79.7454,8.7024,0.0],[-79.744,8.7004,16.3218],[-79.7449,8.6976,0.0],[-79.7424,8.6968,0.0],[-79.7418,8.7001,0.0],[-79.744,8.7021,0.0]]],
[[[-79.739,8.7118,14.4343],[-79.7415,8.7121,0.0],[-79.7415,8.7099,0.0],[-79.7393,8.7096,1.8825],[-79.739,8.7118,14.4343]]],
[[[-79.7329,8.7787,6.537],[-79.7321,8.776,5.0311],[-79.731,8.7763,5.0311],[-79.731,8.7779,5.5038],[-79.7329,8.7787,6.537]]],
[[[-79.7955,8.6738,0.0],[-79.7951,8.6662,0.0],[-79.7654,8.6774,13.6973],[-79.7657,8.6793,38.3713],[-79.7554,8.6913,5.6972],[-79.7526,8.6921,0.0],[-79.7596,8.696,2.3188],[-79.7596,8.7026,1.5679],[-79.7574,8.7079,5.2818],[-79.7507,8.7068,0.0],[-79.7499,8.7115,0.0],[-79.746,8.711,0.0],[-79.7451,8.7121,16.9524],[-79.7479,8.7168,0.0],[-79.7524,8.7185,0.0],[-79.7468,8.7201,0.0],[-79.7443,8.7232,0.0],[-79.7424,8.7229,0.0],[-79.7432,8.7265,5.6838],[-79.746,8.7279,6.086],[-79.7529,8.7268,1.4237],[-79.7526,8.7304,0.0],[-79.7471,8.7321,32.6675],[-79.7471,8.734,12.6998],[-79.7501,8.736,0.0],[-79.7524,8.7349,14.7305],[-79.7529,8.7379,0.0],[-79.7554,8.7371,20.7895],[-79.7554,8.7393,1.479],[-79.7599,8.7435,4.4066],[-79.7574,8.7479,21.0716],[-79.7576,8.7535,4.1854],[-79.7615,8.754,55.8755],[-79.7646,8.7582,1.2967],[-79.7618,8.7618,20.3479],[-79.7615,8.7657,17.8353],[-79.7632,8.7671,3.7486],[-79.7624,8.7699,1.5195],[-79.7679,8.7713,2.4937],[-79.7682,8.7746,0.0],[-79.7721,8.7788,3.2804],[-79.7909,8.7726,11.3136],[-79.8013,8.7656,15.5553],[-79.8117,8.763,104.8525],[-79.8256,8.7442,204.9533],[-79.8399,8.7475,206.2141],[-79.8509,8.7473,168.5757],[-79.8588,8.7411,201.7066],[-79.8658,8.7391,210.1535],[-79.8677,8.7372,150.5171],[-79.8661,8.7296,209.5971],[-79.8599,8.7261,98.3926],[-79.8555,8.7203,11.6405],[-79.8428,8.7166,3.653],[-79.8358,8.7041,3.5505],[-79.816,8.6981,3.7327],[-79.8153,8.6951,8.1594],[-79.8178,8.6894,6.2304],[-79.8155,8.6858,1.9924],[-79.8104,8.6847,6.5986],[-79.8064,8.6873,28.9788],[-79.8029,8.6838,0.0],[-79.7967,8.6853,8.2815],[-79.7955,8.6738,0.0]]],
[[[-79.7432,8.7426,5.1],[-79.7454,8.7432,2.6731],[-79.7482,8.7385,2.6532],[-79.7465,8.7374,15.6784],[-79.7432,8.7382,0.0],[-79.7432,8.7426,5.1]]],
[[[-79.7529,8.7443,0.0],[-79.7551,8.7443,0.0],[-79.7551,8.7421,0.0],[-79.7524,8.7432,0.0],[-79.7529,8.7443,0.0]]],
[[[-79.7701,8.7818,2.9979],[-79.7699,8.7826,3.5021],[-79.7709,8.781,2.9979],[-79.7701,8.7812,2.9979],[-79.7701,8.7818,2.9979]]]]}
,"properties": {"GID_3": "PAN.11.2.4_1","GID_0": "PAN","country": "Panama","GID_1": "PAN.11_1","province": "PanamáOeste","NL_NAME_1": "NA","GID_2": "PAN.11.2_1","county": "Capira","NL_NAME_2": "NA","city": "Cermeño","VARNAME_3": "NA","NL_NAME_3": "NA","TYPE_3": "Corregimiento","ENGTYPE_3": "Municipality","CC_3": "NA","HASC_3": "NA","name": "Cermeño.city","area_km2": 90.26129,"hist_schema_id": "Elevation0-9000","hist_area_km2": {"0": 22.8434,"25": 16.97476,"50": 8.23601,"75": 7.39776,"100": 6.39186,"125": 6.22425,"150": 5.38598,"175": 4.61052,"200": 5.07151,"225": 4.5895,"250": 1.80226,"275": 0.52391,"300": 0.18861,"325": 0.02096}}}