{"type": "Feature","bbox": [-81.7638,8.277,-81.7241,8.3842],"geometry": {"type": "MultiPolygon","coordinates": [[[[-81.7399,8.277,77.0092],[-81.7333,8.2775,201.9372],[-81.7301,8.2807,211.1947],[-81.7265,8.2995,180.3341],[-81.7282,8.3106,160.2815],[-81.7241,8.3348,366.2559],[-81.7414,8.365,437.6508],[-81.7401,8.3804,646.8636],[-81.7482,8.3842,704.9861],[-81.7597,8.3603,562.4915],[-81.7636,8.3391,426.8414],[-81.7627,8.3284,324.1235],[-81.7638,8.3187,280.1937],[-81.758,8.3156,318.3624],[-81.7516,8.3061,181.4955],[-81.7483,8.2986,247.6815],[-81.7457,8.2857,129.939],[-81.7399,8.277,77.0092]]]]}
,"properties": {"GID_3": "PAN.10.5.4_1","GID_0": "PAN","country": "Panama","GID_1": "PAN.10_1","province": "NgöbeBuglé","NL_NAME_1": "NA","GID_2": "PAN.10.5_1","county": "Müna","NL_NAME_2": "NA","city": "CerroPuerco","VARNAME_3": "NA","NL_NAME_3": "NA","TYPE_3": "Corregimiento","ENGTYPE_3": "Municipality","CC_3": "NA","HASC_3": "NA","name": "Cerro_Puerco.city","area_km2": 31.57275,"hist_schema_id": "Elevation0-9000","hist_area_km2": {"75": 0.20981,"100": 1.34276,"125": 2.83231,"150": 3.3148,"175": 3.39865,"200": 2.8112,"225": 2.34961,"250": 2.07686,"275": 1.59434,"300": 1.38455,"325": 1.86703,"350": 1.00693,"375": 0.81812,"400": 0.8391,"425": 0.52443,"450": 0.67127,"475": 0.52443,"500": 0.7342,"525": 0.44052,"550": 0.77614,"575": 0.37758,"600": 0.27269,"625": 0.31464,"650": 0.33562,"675": 0.41953,"700": 0.20976,"725": 0.10488,"750": 0.02098}}}