{"type":"Feature","properties":{"GID_3":"PAN.2.7.2_1","GID_0":"PAN","country":"Panama","GID_1":"PAN.2_1","province":"Chiriquí","NL_NAME_1":"NA","GID_2":"PAN.2.7_1","county":"Dolega","NL_NAME_2":"NA","city":"DosRíos","VARNAME_3":"NA","NL_NAME_3":"NA","TYPE_3":"Corregimiento","ENGTYPE_3":"Municipality","CC_3":"NA","HASC_3":"NA","name":"Dos_Ríos.city"},
"geometry":{"type": "MultiPolygon","coordinates": [[[[-82.4111,8.6028,329.1359],[-82.4146,8.5933,303.9821],[-82.414,8.5824,281.55],[-82.41,8.5753,258.2415],[-82.4014,8.5503,204.7693],[-82.3928,8.5374,180.6334],[-82.3915,8.533,163.8335],[-82.3862,8.5279,154.6018],[-82.3825,8.5133,135.8479],[-82.3823,8.508,210.2888],[-82.3902,8.4978,177.6267],[-82.3862,8.4925,157.408],[-82.3806,8.495,142.0842],[-82.3773,8.4934,140.7555],[-82.3716,8.4835,101.5137],[-82.3644,8.4854,103.7135],[-82.3609,8.4839,96.8503],[-82.3584,8.4882,97.3546],[-82.3621,8.4948,111.3118],[-82.3595,8.5056,127.3655],[-82.3617,8.5124,136.6149],[-82.3611,8.5235,144.912],[-82.3752,8.5407,176.7426],[-82.3847,8.5565,200.4421],[-82.3902,8.5589,211.4473],[-82.3935,8.5636,218.0351],[-82.3985,8.5654,225.0741],[-82.4,8.5675,234.5052],[-82.401,8.5748,244.8307],[-82.4046,8.5815,265.6283],[-82.4061,8.592,289.6129],[-82.4111,8.6028,329.1359]]]]}}