{"type": "Feature","bbox": [-80.239,7.5183,-80.1682,7.6827],"geometry": {"type": "MultiPolygon","coordinates": [[[[-80.2188,7.5315,47.9632],[-80.2156,7.5278,123.1636],[-80.217,7.5234,63.1906],[-80.2155,7.5183,43.808],[-80.1862,7.5532,226.8999],[-80.1825,7.5607,306.3618],[-80.1864,7.5633,217.5019],[-80.2055,7.5677,280.7936],[-80.2082,7.5711,267.8123],[-80.2056,7.5762,216.6214],[-80.2076,7.589,187.3404],[-80.2043,7.5983,120.4554],[-80.2076,7.6061,119.1701],[-80.2057,7.6237,100.9338],[-80.2006,7.6294,78.818],[-80.1927,7.6339,60.3099],[-80.1868,7.6342,68.7679],[-80.1774,7.638,57.2141],[-80.1682,7.637,58.5768],[-80.1733,7.6489,61.8813],[-80.1824,7.6611,44.7096],[-80.1882,7.6822,37.5908],[-80.193,7.6827,37.1901],[-80.197,7.6808,24.1712],[-80.2069,7.6694,35.0986],[-80.2191,7.6646,41.8842],[-80.2215,7.6532,85.6611],[-80.2167,7.6455,67.3659],[-80.2168,7.6412,92.7357],[-80.2247,7.6354,95.7232],[-80.233,7.6338,121.0165],[-80.239,7.6183,184.4199],[-80.2337,7.6066,176.6496],[-80.2303,7.5587,120.9478],[-80.2284,7.5574,120.9478],[-80.2169,7.5589,137.761],[-80.2123,7.5635,163.9497],[-80.2098,7.5616,157.4362],[-80.2065,7.5549,143.3131],[-80.2075,7.5484,116.2209],[-80.2117,7.5455,98.2942],[-80.2188,7.5315,47.9632]]]]}
,"properties": {"GID_3": "PAN.9.6.1_1","GID_0": "PAN","country": "Panama","GID_1": "PAN.9_1","province": "LosSantos","NL_NAME_1": "NA","GID_2": "PAN.9.6_1","county": "Pocrí","NL_NAME_2": "NA","city": "ElCañafístulo","VARNAME_3": "NA","NL_NAME_3": "NA","TYPE_3": "Corregimiento","ENGTYPE_3": "Municipality","CC_3": "NA","HASC_3": "NA","name": "El_Cañafístulo.city","area_km2": 54.85025,"hist_schema_id": "Elevation0-9000","hist_area_km2": {"25": 2.60554,"50": 7.5648,"75": 6.57742,"100": 7.67033,"125": 6.15748,"150": 5.08596,"175": 5.00208,"200": 5.71667,"225": 4.66581,"250": 2.26988,"275": 0.90375,"300": 0.3573,"325": 0.16814,"350": 0.10509}}}