{"type": "Feature","bbox": [-79.7646,8.8427,-79.7026,8.9041],"geometry": {"type": "MultiPolygon","coordinates": [[[[-79.7251,8.8482,1.2801],[-79.7251,8.8485,1.2801],[-79.7274,8.8485,0.0],[-79.724,8.8463,0.0],[-79.7251,8.8482,1.2801]]],
[[[-79.7036,8.8765,0.0],[-79.7026,8.8813,16.1079],[-79.7053,8.8923,8.1865],[-79.7147,8.9041,7.9349],[-79.7257,8.9036,14.8773],[-79.733,8.9008,19.2774],[-79.7401,8.8942,52.9703],[-79.759,8.8691,58.0374],[-79.7646,8.8502,59.4],[-79.7643,8.8452,56.2049],[-79.7612,8.8427,26.1115],[-79.7511,8.8439,16.4401],[-79.7438,8.8431,0.0],[-79.7424,8.8449,2.2934],[-79.7393,8.8438,0.0],[-79.7404,8.849,0.0],[-79.734,8.8482,0.0],[-79.7299,8.8501,0.0],[-79.7296,8.8551,2.0797],[-79.7201,8.8624,12.175],[-79.706,8.856,0.5677],[-79.7049,8.8588,0.0],[-79.7101,8.8607,4.2097],[-79.7124,8.866,4.9548],[-79.7101,8.8704,2.9264],[-79.7085,8.8701,0.0],[-79.709,8.8687,0.0],[-79.7068,8.8699,0.0],[-79.7087,8.8729,0.0],[-79.7068,8.876,1.4223],[-79.7036,8.8765,0.0]]]]}
,"properties": {"GID_3": "PAN.11.4.17_1","GID_0": "PAN","country": "Panama","GID_1": "PAN.11_1","province": "PanamáOeste","NL_NAME_1": "NA","GID_2": "PAN.11.4_1","county": "LaChorrera","NL_NAME_2": "NA","city": "PuertoCaimito","VARNAME_3": "NA","NL_NAME_3": "NA","TYPE_3": "Corregimiento","ENGTYPE_3": "Municipality","CC_3": "NA","HASC_3": "NA","name": "Puerto_Caimito.city","area_km2": 28.28045,"hist_schema_id": "Elevation0-9000","hist_area_km2": {"0": 6.53599,"25": 12.06623,"50": 9.42685,"75": 0.18854,"100": 0.0419,"125": 0.02095}}}