{"type":"Feature","properties":{"GID_2":"PAN.7.2_1","GID_0":"PAN","country":"Panama","GID_1":"PAN.7_1","province":"Herrera","NL_NAME_1":"NA","county":"LasMinas","VARNAME_2":"NA","NL_NAME_2":"NA","TYPE_2":"Distrito","ENGTYPE_2":"District","CC_2":"NA","HASC_2":"PA.HE.LN","name":"Las_Minas.county"},
"geometry":{"type": "MultiPolygon","coordinates": [[[[-80.7859,7.6298,798.6643],[-80.7836,7.6323,812.5088],[-80.7784,7.6309,804.5022],[-80.7666,7.6317,709.8239],[-80.7577,7.6267,708.8406],[-80.7452,7.6329,634.1509],[-80.7423,7.6361,571.3438],[-80.736,7.6376,578.3203],[-80.72,7.6819,444.3209],[-80.7041,7.7375,336.8078],[-80.7006,7.7658,272.0862],[-80.7033,7.7709,350.9912],[-80.6987,7.7747,306.4558],[-80.6966,7.7837,266.2021],[-80.6965,7.7903,302.3439],[-80.7003,7.7945,365.3884],[-80.6993,7.8005,216.0397],[-80.7004,7.8052,209.3673],[-80.7196,7.8155,265.4359],[-80.7237,7.8263,225.032],[-80.7269,7.8288,194.854],[-80.731,7.8387,152.5062],[-80.7371,7.8458,135.5203],[-80.7511,7.8459,160.2679],[-80.7553,7.8397,232.3429],[-80.771,7.841,210.3195],[-80.7803,7.8081,287.995],[-80.785,7.804,359.091],[-80.7962,7.8007,411.4995],[-80.8072,7.8008,407.8724],[-80.8215,7.809,335.4794],[-80.8288,7.7997,193.2],[-80.8357,7.7944,189.6115],[-80.8344,7.7881,303.2677],[-80.837,7.7829,313.9285],[-80.8462,7.7797,280.0345],[-80.8515,7.7808,272.6963],[-80.8561,7.7779,321.1294],[-80.8627,7.7801,301.967],[-80.8704,7.7802,197.3195],[-80.8714,7.7783,194.3176],[-80.8774,7.7797,221.5632],[-80.8864,7.7787,277.3489],[-80.8911,7.7834,268.7089],[-80.8977,7.783,202.1357],[-80.9039,7.7852,209.0484],[-80.915,7.78,151.2995],[-80.9213,7.7753,91.608],[-80.936,7.7601,233.2789],[-80.9258,7.7608,246.693],[-80.9005,7.744,319.4689],[-80.9006,7.7351,266.3656],[-80.9074,7.7311,203.6838],[-80.8995,7.6866,333.5586],[-80.8953,7.6786,263.1637],[-80.8303,7.5722,643.0911],[-80.8227,7.5575,330.9416],[-80.8106,7.5494,270.7127],[-80.7934,7.5458,479.9786],[-80.7932,7.5543,689.4537],[-80.7859,7.596,792.1702],[-80.7902,7.5989,807.4236],[-80.7886,7.6079,835.0362],[-80.7915,7.612,896.7758],[-80.7928,7.6204,816.2808],[-80.7859,7.6298,798.6643]]]]}}