{"type": "Feature","bbox": [-81.8391,8.2688,-81.7533,8.3278],"geometry": {"type": "MultiPolygon","coordinates": [[[[-81.8101,8.2794,122.0157],[-81.8026,8.2713,123.8315],[-81.7957,8.2715,140.3986],[-81.7887,8.2688,132.9937],[-81.7841,8.2688,208.5105],[-81.775,8.2945,274.6562],[-81.7533,8.3085,244.7613],[-81.758,8.3156,318.3624],[-81.7638,8.3187,280.1937],[-81.7628,8.324,339.2596],[-81.7837,8.3278,181.0595],[-81.8089,8.3243,327.1162],[-81.8147,8.3208,257.4142],[-81.8243,8.3097,418.3095],[-81.8391,8.3033,158.4044],[-81.8316,8.297,184.0486],[-81.828,8.2958,245.5331],[-81.8242,8.2962,269.4082],[-81.8171,8.3006,343.898],[-81.8116,8.2991,270.8406],[-81.8109,8.2969,201.6098],[-81.8169,8.2877,101.0131],[-81.8101,8.2794,122.0157]]]]}
,"properties": {"GID_3": "PAN.10.6.1_1","GID_0": "PAN","country": "Panama","GID_1": "PAN.10_1","province": "NgöbeBuglé","NL_NAME_1": "NA","GID_2": "PAN.10.6_1","county": "NoleDuima","NL_NAME_2": "NA","city": "CerroIglesias","VARNAME_3": "NA","NL_NAME_3": "NA","TYPE_3": "Corregimiento","ENGTYPE_3": "Municipality","CC_3": "NA","HASC_3": "NA","name": "Cerro_Iglesias.city","area_km2": 32.81273,"hist_schema_id": "Elevation0-9000","hist_area_km2": {"100": 0.1049,"125": 0.71335,"150": 1.72039,"175": 2.09803,"200": 2.22391,"225": 2.34976,"250": 2.34975,"275": 2.32878,"300": 2.20289,"325": 1.9721,"350": 2.22389,"375": 2.45466,"400": 1.51056,"425": 1.82525,"450": 1.82526,"475": 1.59447,"500": 1.46858,"525": 0.69232,"550": 0.37763,"575": 0.25175,"600": 0.1049,"625": 0.1049,"650": 0.04196,"675": 0.1049,"700": 0.16784}}}