{"type":"Feature","properties":{"GID_3":"PAN.12.7.5_1","GID_0":"PAN","country":"Panama","GID_1":"PAN.12_1","province":"Panamá","NL_NAME_1":"NA","GID_2":"PAN.12.7_1","county":"SanMiguelito","NL_NAME_2":"NA","city":"JoséDomingoEspinar","VARNAME_3":"NA","NL_NAME_3":"NA","TYPE_3":"Corregimiento","ENGTYPE_3":"Municipality","CC_3":"NA","HASC_3":"NA","name":"José_Domingo_Espinar.city"},
"geometry":{"type": "MultiPolygon","coordinates": [[[[-79.4551,9.0526,17.8384],[-79.4551,9.0617,35.008],[-79.4597,9.0646,55.681399999999996],[-79.4768,9.0624,54.3489],[-79.4823,9.0538,86.6817],[-79.4829,9.0446,52.1779],[-79.4881,9.0445,26.4084],[-79.4844,9.0388,32.1804],[-79.4791,9.0402,13.9789],[-79.4764,9.0377,14.7539],[-79.479,9.0351,12.1752],[-79.4742,9.0334,12.3962],[-79.4732,9.0371,15.5826],[-79.4667,9.0445,34.045],[-79.4604,9.0476,13.341],[-79.4551,9.0526,17.8384]]]]}}