{"type":"Feature","properties":{"GID_2":"PAN.9.6_1","GID_0":"PAN","country":"Panama","GID_1":"PAN.9_1","province":"LosSantos","NL_NAME_1":"NA","county":"Pocrí","VARNAME_2":"NA","NL_NAME_2":"NA","TYPE_2":"Distrito","ENGTYPE_2":"District","CC_2":"NA","HASC_2":"PA.LS.PC","name":"Pocrí.county"},
"geometry":{"type": "MultiPolygon","coordinates": [[[[-80.1206,7.5712,59.9684],[-80.1221,7.577,44.6279],[-80.116,7.5856,40.1163],[-80.0907,7.5946,18.9768],[-80.0905,7.6031,21.8881],[-80.0861,7.6179,28.8079],[-80.082,7.6214,23.003],[-80.0769,7.6311,8.9148],[-80.0656,7.6415,17.9236],[-80.0654,7.6438,1.9649],[-80.0668,7.6457,1.3287],[-80.069,7.6446,15.5485],[-80.0685,7.6504,19.5434],[-80.079,7.6601,5.7189],[-80.0857,7.669,0.0],[-80.0896,7.679,1.7453],[-80.1001,7.6879,5.6858],[-80.1057,7.6971,1.4061],[-80.1115,7.6996,3.4288],[-80.119,7.6996,4.4938],[-80.1143,7.7032,1.415],[-80.1221,7.711,7.7339],[-80.1263,7.7188,4.3119],[-80.1274,7.7265,0.0],[-80.1413,7.7463,0.0],[-80.1471,7.7513,0.0],[-80.1526,7.7535,10.1236],[-80.1557,7.7571,0.0],[-80.1599,7.7562,5.5843],[-80.1648,7.7576,0.0],[-80.1663,7.751,2.0559],[-80.164,7.7471,8.1321],[-80.1654,7.7454,2.5],[-80.1647,7.7328,13.8406],[-80.1725,7.73,7.8102],[-80.1809,7.7294,12.6587],[-80.1834,7.7248,23.1943],[-80.1817,7.7111,8.0283],[-80.1874,7.7003,29.4397],[-80.186,7.6965,34.7992],[-80.1805,7.6931,48.4567],[-80.1767,7.6878,54.9639],[-80.1753,7.6813,59.659],[-80.1789,7.6803,46.5537],[-80.193,7.6827,37.1901],[-80.197,7.6808,24.1712],[-80.2069,7.6694,35.0986],[-80.2186,7.6652,41.8842],[-80.2205,7.6618,40.5299],[-80.2215,7.6532,85.6611],[-80.2167,7.6455,67.3659],[-80.2168,7.6412,92.7357],[-80.2247,7.6354,95.7232],[-80.233,7.6338,121.0165],[-80.2368,7.6251,125.6217],[-80.2391,7.6173,184.4199],[-80.2337,7.6066,176.6496],[-80.2306,7.5595,142.7551],[-80.2284,7.5574,120.9478],[-80.2169,7.5589,137.761],[-80.2123,7.5635,163.9497],[-80.2098,7.5616,157.4362],[-80.2065,7.5549,143.3131],[-80.2075,7.5484,116.2209],[-80.2117,7.5455,98.2942],[-80.2188,7.5315,47.9632],[-80.2156,7.5278,123.1636],[-80.217,7.5234,63.1906],[-80.2155,7.5183,43.808],[-80.1862,7.5532,226.8999],[-80.1825,7.5607,306.3618],[-80.1697,7.5359,197.4034],[-80.1687,7.5263,178.8505],[-80.1603,7.5306,155.6771],[-80.1458,7.528,123.3774],[-80.1363,7.5301,119.4834],[-80.1312,7.5436,98.4763],[-80.1231,7.5483,94.3256],[-80.1164,7.5591,74.8021],[-80.1162,7.5629,88.7985],[-80.1206,7.5712,59.9684]]]]}}