{"type": "Feature","bbox": [-81.6285,8.078,-81.506,8.1864],"geometry": {"type": "MultiPolygon","coordinates": [[[[-81.6118,8.1586,170.5046],[-81.6115,8.142,131.4316],[-81.6197,8.1341,30.7985],[-81.6166,8.1282,191.7359],[-81.6187,8.1133,107.689],[-81.6136,8.1065,58.548],[-81.6163,8.1006,132.4003],[-81.6222,8.0988,30.3698],[-81.6252,8.0961,87.2386],[-81.6285,8.0796,150.8985],[-81.6077,8.0844,278.5406],[-81.6007,8.0933,361.7468],[-81.597,8.0951,354.7628],[-81.59,8.094,427.9476],[-81.584,8.0885,275.3353],[-81.5805,8.0874,244.7741],[-81.5717,8.089,196.7695],[-81.5698,8.0876,245.8611],[-81.5665,8.094,223.5216],[-81.5588,8.0951,264.1541],[-81.5556,8.0947,281.8605],[-81.5541,8.0928,231.1928],[-81.5578,8.0862,94.9164],[-81.5575,8.0807,167.9359],[-81.5552,8.0782,174.4076],[-81.5526,8.078,140.0895],[-81.5399,8.0886,131.912],[-81.5284,8.0932,283.9718],[-81.5165,8.0923,406.2562],[-81.506,8.1014,395.1306],[-81.5081,8.1274,225.0186],[-81.5101,8.1348,218.4043],[-81.5158,8.136,283.1099],[-81.5222,8.1315,245.2212],[-81.5261,8.1321,330.1331],[-81.5281,8.135,310.3465],[-81.5288,8.1505,201.0952],[-81.531,8.1536,197.3499],[-81.537,8.1564,214.3533],[-81.5506,8.1549,320.6843],[-81.5672,8.155,540.2006],[-81.5708,8.1563,545.9926],[-81.5733,8.1606,400.2485],[-81.5729,8.1666,315.2415],[-81.5784,8.1702,218.0482],[-81.5791,8.1833,50.4879],[-81.5805,8.1864,131.316],[-81.5963,8.1788,267.1273],[-81.5983,8.1759,285.5881],[-81.5983,8.1688,61.8322],[-81.6008,8.1662,82.0193],[-81.6079,8.1644,164.427],[-81.6118,8.1586,170.5046]]]]}
,"properties": {"GID_3": "PAN.13.5.1_1","GID_0": "PAN","country": "Panama","GID_1": "PAN.13_1","province": "Veraguas","NL_NAME_1": "NA","GID_2": "PAN.13.5_1","county": "LasPalmas","NL_NAME_2": "NA","city": "CerrodeCasa","VARNAME_3": "NA","NL_NAME_3": "NA","TYPE_3": "Corregimiento","ENGTYPE_3": "Municipality","CC_3": "NA","HASC_3": "NA","name": "Cerrode_Casa.city","area_km2": 92.08057,"hist_schema_id": "Elevation0-9000","hist_area_km2": {"25": 0.48273,"50": 1.44816,"75": 1.88896,"100": 2.35074,"125": 2.79153,"150": 2.9175,"175": 3.31629,"200": 4.59671,"225": 6.40189,"250": 7.87116,"275": 8.102,"300": 8.37486,"325": 8.10202,"350": 7.97602,"375": 6.21291,"400": 5.77212,"425": 3.58919,"450": 2.53971,"475": 1.42726,"500": 1.86801,"525": 1.86801,"550": 0.67163,"575": 0.62965,"600": 0.44075,"625": 0.41977,"650": 0.02099}}}