{"type": "Feature","bbox": [-78.3093,7.9834,-78.083,8.559],"geometry": {"type": "MultiPolygon","coordinates": [[[[-78.0892,8.1525,86.7951],[-78.09,8.1657,53.3604],[-78.0968,8.1841,69.8424],[-78.1009,8.2012,172.8154],[-78.1133,8.2261,76.792],[-78.1331,8.255,77.4167],[-78.1327,8.259,124.5386],[-78.1289,8.2661,208.7178],[-78.1104,8.2779,140.8691],[-78.1089,8.282,105.0763],[-78.114,8.2927,160.4732],[-78.1185,8.3126,29.7294],[-78.123,8.3218,20.2139],[-78.1197,8.3333,20.9105],[-78.12,8.3369,26.1418],[-78.1293,8.3398,24.0302],[-78.1343,8.345,13.7333],[-78.1356,8.3485,20.4424],[-78.1355,8.3518,12.12],[-78.1325,8.3559,12.392],[-78.1335,8.3596,0.0],[-78.1265,8.3665,0.0],[-78.126,8.369,0.0],[-78.1304,8.3746,14.2038],[-78.1351,8.3874,0.0],[-78.1368,8.3963,0.0],[-78.1357,8.4054,15.4232],[-78.1471,8.4182,0.0],[-78.156,8.4185,9.1271],[-78.1571,8.4149,9.0596],[-78.1604,8.4138,0.0],[-78.161,8.4018,2.1232],[-78.1632,8.3985,0.0],[-78.1632,8.394,0.0],[-78.1588,8.386,0.0],[-78.159,8.3824,0.0],[-78.1632,8.3749,8.6639],[-78.1671,8.374,0.0],[-78.1668,8.3699,3.331],[-78.1699,8.3696,6.9827],[-78.1715,8.3643,9.2313],[-78.174,8.3635,12.5359],[-78.1754,8.3537,5.5374],[-78.181,8.3521,2.5102],[-78.1796,8.351,5.0854],[-78.1799,8.3446,1.4042],[-78.1768,8.3421,0.0],[-78.1868,8.339,0.0],[-78.1918,8.3346,0.0],[-78.191,8.3313,10.6505],[-78.1865,8.3276,7.1055],[-78.184,8.3213,0.0],[-78.1862,8.3193,0.0],[-78.1918,8.3196,0.0],[-78.1929,8.3179,0.0],[-78.1865,8.3151,2.99],[-78.184,8.3035,2.1147],[-78.1862,8.301,3.6924],[-78.1926,8.299,0.0],[-78.1993,8.289,15.5541],[-78.1899,8.2824,22.6794],[-78.189,8.2801,15.8855],[-78.1907,8.2799,3.4756],[-78.1937,8.2835,11.06],[-78.2012,8.2879,0.0],[-78.2026,8.2796,0.0],[-78.2096,8.279,1.3269],[-78.214,8.2751,6.2052],[-78.2176,8.2751,5.473],[-78.2204,8.2732,0.0],[-78.2179,8.2676,21.7468],[-78.2196,8.2701,3.2149],[-78.2238,8.2699,0.0],[-78.2262,8.2749,0.0],[-78.2321,8.2704,7.1698],[-78.2415,8.2757,0.0],[-78.2487,8.2896,0.0],[-78.2518,8.2918,1.7724],[-78.2529,8.296,2.7465],[-78.256,8.2971,0.0],[-78.261,8.296,0.0],[-78.2601,8.294,9.4794],[-78.2674,8.2835,9.5745],[-78.2693,8.2851,0.0],[-78.2743,8.2849,24.6271],[-78.2765,8.2874,0.0],[-78.2787,8.2865,28.3235],[-78.279,8.2832,0.0],[-78.2718,8.2799,0.0],[-78.2707,8.2751,0.0],[-78.2663,8.2743,20.7849],[-78.2663,8.2676,10.5297],[-78.2721,8.259,0.0],[-78.2835,8.2499,4.1475],[-78.2835,8.2471,13.6776],[-78.2876,8.2515,0.0],[-78.2885,8.2551,7.1481],[-78.2946,8.2551,7.5772],[-78.2954,8.259,0.0],[-78.2985,8.2551,5.8523],[-78.3071,8.2585,4.741],[-78.3093,8.2535,0.0],[-78.3063,8.2526,45.4464],[-78.3079,8.2487,0.0],[-78.3037,8.2415,4.3882],[-78.2996,8.2376,4.1789],[-78.2971,8.2376,7.502],[-78.294,8.2326,44.0614],[-78.2951,8.2285,3.9067],[-78.291,8.2276,2.0068],[-78.2885,8.2232,0.0],[-78.2887,8.2199,0.0],[-78.2862,8.2207,10.6477],[-78.2857,8.2185,0.0],[-78.2779,8.2163,12.1316],[-78.2771,8.2079,7.9507],[-78.2735,8.2072,15.7898],[-78.2686,8.2147,15.3191],[-78.2603,8.2213,79.8365],[-78.2305,8.2316,55.8204],[-78.2225,8.2459,24.168],[-78.2134,8.2555,25.9055],[-78.2073,8.2452,27.0594],[-78.2077,8.2379,27.5035],[-78.1968,8.2079,64.3927],[-78.1673,8.1767,189.3874],[-78.1702,8.1732,217.661],[-78.1704,8.1703,164.2835],[-78.1747,8.1675,118.2613],[-78.1776,8.1594,113.7182],[-78.1817,8.1549,139.7951],[-78.1828,8.1487,91.4029],[-78.1637,8.1332,169.0569],[-78.1516,8.1136,145.6588],[-78.1514,8.0932,132.1428],[-78.1478,8.0712,289.6292],[-78.1423,8.0594,219.6059],[-78.1353,8.0508,271.4944],[-78.1317,8.0427,274.4389],[-78.126,8.0381,236.3388],[-78.126,8.0338,255.53],[-78.1232,8.0336,191.4452],[-78.1231,8.0308,192.3456],[-78.1204,8.0292,238.2386],[-78.1219,8.0234,309.9641],[-78.1186,8.0177,283.1263],[-78.1157,8.0069,286.4303],[-78.1146,7.9933,265.8431],[-78.1099,7.9834,210.7045],[-78.0906,8.0015,288.6151],[-78.0875,8.0075,243.3755],[-78.0848,8.0229,155.998],[-78.083,8.0604,230.8145],[-78.0836,8.09,145.2015],[-78.0891,8.1376,144.2218],[-78.0892,8.1525,86.7951]]],
[[[-78.2157,8.3438,0.0],[-78.2185,8.344,0.0],[-78.2187,8.3385,0.0],[-78.2174,8.336,0.0],[-78.2143,8.3371,0.0],[-78.2138,8.339,0.0],[-78.2132,8.3426,0.0],[-78.2157,8.3438,0.0]]],
[[[-78.2038,8.376,0.0],[-78.2057,8.3765,0.0],[-78.2054,8.3743,3.9452],[-78.2038,8.374,3.9452],[-78.2038,8.376,0.0]]],
[[[-78.1996,8.3771,0.0],[-78.2001,8.3787,0.0],[-78.2018,8.3782,0.0],[-78.2007,8.3757,0.0],[-78.1996,8.3771,0.0]]],
[[[-78.1913,8.3821,0.0],[-78.1918,8.3843,0.0],[-78.1929,8.3843,0.0],[-78.1929,8.3818,0.0],[-78.1913,8.3821,0.0]]],
[[[-78.186,8.3879,8.9133],[-78.1868,8.389,0.0],[-78.1901,8.3882,13.8052],[-78.1915,8.3849,0.0],[-78.1888,8.3849,0.0],[-78.186,8.3879,8.9133]]],
[[[-78.1854,8.3965,3.0],[-78.1868,8.3971,0.0],[-78.1876,8.3929,0.0],[-78.1835,8.3938,7.663],[-78.1837,8.3965,9.8896],[-78.1854,8.3965,3.0]]],
[[[-78.1835,8.419,18.099],[-78.1854,8.4201,1.7024],[-78.1865,8.4171,4.3069],[-78.1851,8.4165,0.0],[-78.1835,8.419,18.099]]],
[[[-78.206,8.3849,9.2516],[-78.2085,8.3854,29.4913],[-78.2093,8.3837,0.0],[-78.2085,8.3801,0.0],[-78.2054,8.3785,0.0],[-78.2035,8.384,10.0098],[-78.206,8.3849,9.2516]]],
[[[-78.2179,8.5151,0.0],[-78.2174,8.5179,0.0],[-78.2187,8.5182,0.0],[-78.2187,8.5149,0.0],[-78.2179,8.5151,0.0]]],
[[[-78.1451,8.424,0.0],[-78.146,8.4251,6.0075],[-78.1476,8.4246,6.0075],[-78.1465,8.4221,2.8132],[-78.1451,8.424,0.0]]],
[[[-78.1479,8.4274,0.0],[-78.1499,8.4285,0.7118],[-78.1499,8.4251,0.0],[-78.1482,8.4251,0.0],[-78.1479,8.4274,0.0]]],
[[[-78.1382,8.4282,0.0],[-78.1387,8.4304,0.0],[-78.1393,8.4304,0.0],[-78.139,8.4279,0.0],[-78.1382,8.4282,0.0]]],
[[[-78.1396,8.4385,0.0],[-78.1407,8.4399,0.0],[-78.1401,8.434,0.0],[-78.1387,8.4354,0.0],[-78.1396,8.4385,0.0]]],
[[[-78.1485,8.4451,8.5875],[-78.1565,8.4451,0.0],[-78.156,8.4371,15.7755],[-78.1543,8.4337,3.9022],[-78.1524,8.4332,0.0],[-78.146,8.436,0.0],[-78.1485,8.4451,8.5875]]],
[[[-78.1515,8.4613,0.0],[-78.1521,8.4624,0.0],[-78.1543,8.4621,0.0],[-78.1526,8.4596,0.0],[-78.1515,8.4613,0.0]]],
[[[-78.1585,8.4446,12.3268],[-78.1635,8.4449,10.0834],[-78.1671,8.4407,0.0],[-78.1671,8.4335,0.0],[-78.1637,8.424,66.7482],[-78.1649,8.4224,0.0],[-78.1601,8.4182,0.0],[-78.1582,8.4207,10.4673],[-78.1507,8.4201,0.0],[-78.1504,8.4213,7.9223],[-78.151,8.4301,5.1234],[-78.1551,8.4337,3.9022],[-78.1551,8.4351,0.0],[-78.1574,8.4357,3.862],[-78.1585,8.4446,12.3268]]],
[[[-78.2228,8.5326,0.0],[-78.2251,8.5327,4.2181],[-78.2254,8.5265,0.7816],[-78.2235,8.5268,0.0],[-78.2232,8.5313,0.0],[-78.2185,8.5307,3.8798],[-78.2213,8.5263,0.0],[-78.2218,8.521,6.6441],[-78.2199,8.5187,0.0],[-78.2196,8.5238,6.3832],[-78.2182,8.5243,6.3832],[-78.2138,8.5129,0.0],[-78.2138,8.5101,0.0],[-78.216,8.5107,0.0],[-78.2154,8.5018,0.0],[-78.2126,8.5043,3.7516],[-78.2107,8.5029,0.6],[-78.2074,8.4899,7.0233],[-78.2165,8.4951,14.5868],[-78.2162,8.4879,0.0],[-78.2243,8.4732,0.0],[-78.2249,8.4657,10.8546],[-78.2193,8.4632,0.0],[-78.2146,8.4579,0.6027],[-78.2135,8.454,0.8696],[-78.2107,8.4538,8.5341],[-78.211,8.4457,1.0833],[-78.216,8.441,0.0],[-78.2121,8.4393,0.0],[-78.2093,8.4401,19.26],[-78.2074,8.4346,23.9975],[-78.2107,8.4365,3.9353],[-78.2121,8.4329,0.0],[-78.2107,8.4307,3.668],[-78.2151,8.4315,2.0335],[-78.2162,8.4299,0.0],[-78.2162,8.4365,4.2959],[-78.2193,8.4376,0.0],[-78.219,8.4329,0.0],[-78.2207,8.4329,22.8995],[-78.2232,8.4374,0.0],[-78.2235,8.4343,13.1378],[-78.2271,8.4321,0.0],[-78.2335,8.4299,8.9861],[-78.2396,8.4299,10.8552],[-78.2454,8.4324,9.0756],[-78.2471,8.4354,18.7212],[-78.2532,8.4368,0.0],[-78.2515,8.4229,1.1893],[-78.2671,8.4112,0.4178],[-78.2674,8.4057,0.0],[-78.2624,8.4024,0.4215],[-78.2626,8.3982,0.0],[-78.2607,8.3963,44.6554],[-78.261,8.3921,40.5357],[-78.2593,8.389,0.0],[-78.2554,8.3932,33.4895],[-78.2513,8.391,2.2388],[-78.251,8.3868,0.0],[-78.2485,8.3843,22.6744],[-78.249,8.3785,0.0],[-78.2476,8.3787,0.0],[-78.2482,8.3821,0.0],[-78.2468,8.3843,22.6744],[-78.2374,8.3849,0.0],[-78.2351,8.3882,0.0],[-78.2257,8.3862,0.0],[-78.2201,8.3949,8.3209],[-78.2174,8.3935,0.0],[-78.2171,8.3965,0.0],[-78.2151,8.3965,0.0],[-78.216,8.4015,5.114],[-78.2146,8.4035,0.0],[-78.2101,8.4043,0.8189],[-78.2051,8.4024,1.6815],[-78.1976,8.4049,0.0],[-78.1935,8.4085,2.7844],[-78.1896,8.4087,0.0],[-78.1874,8.4118,2.3974],[-78.1885,8.419,1.4494],[-78.1854,8.4263,8.4156],[-78.1879,8.431,10.3218],[-78.1876,8.4421,0.0],[-78.191,8.4426,0.0],[-78.189,8.4449,0.0],[-78.1888,8.4496,2.261],[-78.1849,8.4496,0.0],[-78.1771,8.459,16.8831],[-78.1724,8.4585,0.0],[-78.1629,8.4701,0.0],[-78.1532,8.4704,0.0],[-78.1424,8.4654,0.0],[-78.1282,8.4463,13.0102],[-78.1254,8.4371,0.0],[-78.1229,8.436,5.5224],[-78.1221,8.4312,0.0],[-78.1182,8.4299,5.6715],[-78.1174,8.4268,0.0],[-78.1057,8.4118,0.0],[-78.1004,8.4112,0.0],[-78.0979,8.4215,16.4601],[-78.1007,8.4312,22.9985],[-78.1026,8.4476,0.0],[-78.104,8.4507,0.0],[-78.1107,8.4543,0.0],[-78.1146,8.4601,17.9322],[-78.1188,8.4751,0.0],[-78.1207,8.4768,5.2469],[-78.1218,8.4846,21.859],[-78.1207,8.4932,0.0],[-78.116,8.5004,0.0],[-78.1087,8.5057,0.0],[-78.1065,8.5093,0.0],[-78.1065,8.5129,0.0],[-78.1132,8.5171,0.0],[-78.1193,8.5174,0.0],[-78.1212,8.516,7.7958],[-78.121,8.5187,0.0],[-78.1229,8.519,0.0],[-78.1288,8.5185,9.0892],[-78.1335,8.5154,8.76],[-78.1343,8.5126,0.0],[-78.1365,8.5129,0.9711],[-78.1338,8.5196,10.1731],[-78.1307,8.5197,2.267],[-78.1299,8.5226,0.507],[-78.1357,8.5285,8.4427],[-78.1333,8.5411,11.9209],[-78.1415,8.5526,43.396],[-78.1485,8.5581,14.753],[-78.1553,8.559,21.2921],[-78.1608,8.5505,86.5782],[-78.1704,8.5405,58.9994],[-78.1779,8.5284,30.1138],[-78.1874,8.5229,12.8015],[-78.2054,8.5236,13.6049],[-78.219,8.5317,3.8798],[-78.2228,8.5326,0.0]]]]}
,"properties": {"GID_3": "PAN.5.1.7_1","GID_0": "PAN","country": "Panama","GID_1": "PAN.5_1","province": "Darién","NL_NAME_1": "NA","GID_2": "PAN.5.1_1","county": "Chepigana","NL_NAME_2": "NA","city": "LaPalma","VARNAME_3": "NA","NL_NAME_3": "NA","TYPE_3": "Corregimiento","ENGTYPE_3": "Municipality","CC_3": "NA","HASC_3": "NA","name": "La_Palma.city","area_km2": 529.5606,"hist_schema_id": "Elevation0-9000","hist_area_km2": {"0": 41.7001,"25": 172.7037,"50": 72.7777,"75": 41.2475,"100": 25.6603,"125": 32.2739,"150": 35.0684,"175": 32.5726,"200": 25.0176,"225": 18.26,"250": 14.5031,"275": 7.8284,"300": 4.0503,"325": 2.3713,"350": 1.5739,"375": 0.8814,"400": 0.4407,"425": 0.2099,"450": 0.1889,"475": 0.1469,"500": 0.084}}}