{"type":"Feature","properties":{"GID_3":"PAN.3.5.2_1","GID_0":"PAN","country":"Panama","GID_1":"PAN.3_1","province":"Coclé","NL_NAME_1":"NA","GID_2":"PAN.3.5_1","county":"Olá","NL_NAME_2":"NA","city":"ElPalmar","VARNAME_3":"NA","NL_NAME_3":"NA","TYPE_3":"Corregimiento","ENGTYPE_3":"Municipality","CC_3":"NA","HASC_3":"NA","name":"El_Palmar.city"},
"geometry":{"type": "MultiPolygon","coordinates": [[[[-80.716,8.6327,740.1184],[-80.7251,8.637,906.5226],[-80.7318,8.6373,981.6829],[-80.7389,8.6402,1119.6379],[-80.7434,8.6393,1262.6602],[-80.746,8.6059,1616.5461],[-80.7556,8.5912,1252.8568],[-80.7632,8.5682,1009.6095],[-80.7704,8.5583,1424.0166],[-80.7786,8.5513,1489.4731],[-80.7593,8.5566,1148.2529],[-80.7479,8.5537,1291.6965],[-80.7351,8.557,1289.1346],[-80.7323,8.5556,1167.9554],[-80.7278,8.5484,1360.7804],[-80.7268,8.5434,1335.6084],[-80.729,8.4982,693.8611],[-80.7234,8.4985,524.5638],[-80.7201,8.5009,587.8869],[-80.72,8.5076,757.2252],[-80.7156,8.5134,735.6904],[-80.7141,8.5223,798.6771],[-80.7087,8.5334,1036.1912],[-80.7016,8.5411,949.182],[-80.6909,8.5408,919.8323],[-80.6758,8.5492,1062.8369],[-80.6675,8.5504,891.097],[-80.6609,8.5472,824.7709],[-80.6461,8.5527,583.6954],[-80.638,8.5504,411.8201],[-80.6344,8.5442,394.3625],[-80.6306,8.5425,345.5179],[-80.6211,8.5417,333.9907],[-80.6205,8.5454,382.7018],[-80.6127,8.5474,421.7356],[-80.6272,8.5594,532.7516],[-80.635,8.5627,555.1935],[-80.6384,8.5923,472.6908],[-80.6463,8.5988,599.1102],[-80.6543,8.602,557.6116],[-80.6601,8.6019,497.3286],[-80.6699,8.5991,598.2764],[-80.6811,8.6002,521.7047],[-80.6918,8.6073,914.0767],[-80.6976,8.6154,812.5319],[-80.716,8.6327,740.1184]]]]}}