{"type": "Feature","bbox": [-80.3366,7.7811,-80.2808,7.8246],"geometry": {"type": "MultiPolygon","coordinates": [[[[-80.3336,7.7888,17.5816],[-80.3227,7.7962,21.9239],[-80.3159,7.7974,21.3201],[-80.314,7.7884,15.2283],[-80.3042,7.7813,20.9069],[-80.2888,7.7811,28.7682],[-80.2865,7.7826,33.8529],[-80.283,7.7897,60.1787],[-80.2808,7.7994,34.0342],[-80.2952,7.8115,18.8499],[-80.2959,7.8246,11.1409],[-80.3337,7.8097,39.8211],[-80.3366,7.805,50.2752],[-80.3336,7.7888,17.5816]]]]}
,"properties": {"GID_3": "PAN.9.1.7_1","GID_0": "PAN","country": "Panama","GID_1": "PAN.9_1","province": "LosSantos","NL_NAME_1": "NA","GID_2": "PAN.9.1_1","county": "Guararé","NL_NAME_2": "NA","city": "LaPasera","VARNAME_3": "NA","NL_NAME_3": "NA","TYPE_3": "Corregimiento","ENGTYPE_3": "Municipality","CC_3": "NA","HASC_3": "NA","name": "La_Pasera.city","area_km2": 17.30894,"hist_schema_id": "Elevation0-9000","hist_area_km2": {"0": 0.81921,"25": 13.50686,"50": 2.7518,"75": 0.21006,"100": 0.02101}}}