{"type": "Feature","bbox": [-82.5714,8.6008,-82.2257,8.8836],"geometry": {"type": "MultiPolygon","coordinates": [[[[-82.3644,8.8259,2233.2852],[-82.3732,8.831,1922.5934],[-82.3812,8.8335,1767.8962],[-82.3847,8.8382,1694.6987],[-82.402,8.8437,1603.4771],[-82.4102,8.8442,1542.8389],[-82.4241,8.8522,1591.7726],[-82.4319,8.8528,1695.7104],[-82.4449,8.8576,1891.9108],[-82.4587,8.8694,2032.561],[-82.4706,8.8722,1812.6328],[-82.4872,8.8836,1891.6554],[-82.5074,8.8834,2255.4866],[-82.5159,8.8808,2379.7393],[-82.5302,8.8655,2833.3237],[-82.5347,8.8629,2729.4688],[-82.5471,8.8729,2254.8547],[-82.5457,8.8689,2386.321],[-82.546,8.8569,2259.9668],[-82.5476,8.8507,2152.4265],[-82.5511,8.7877,2481.9758],[-82.5577,8.7763,2204.8799],[-82.5647,8.7691,2330.0442],[-82.5714,8.7653,1994.2996],[-82.569,8.7601,1908.0284],[-82.5466,8.7664,1862.545],[-82.5261,8.7654,2186.2964],[-82.5152,8.7703,2192.585],[-82.5106,8.7682,2038.5557],[-82.5037,8.7592,1671.4398],[-82.5008,8.7468,1414.7263],[-82.4907,8.7432,1305.3416],[-82.4828,8.7324,1030.2891],[-82.4714,8.7268,920.1375],[-82.4672,8.7139,859.35],[-82.4545,8.6912,753.9108],[-82.4588,8.6815,700.8405],[-82.447,8.6487,514.1454],[-82.4403,8.6399,520.7691],[-82.4382,8.633,484.3633],[-82.4288,8.6182,404.2194],[-82.4223,8.6151,391.295],[-82.4163,8.608,354.597],[-82.414,8.6084,350.7032],[-82.4111,8.6028,329.1359],[-82.3966,8.6068,312.6717],[-82.393,8.6094,306.2227],[-82.3909,8.6147,319.2636],[-82.3905,8.6229,341.277],[-82.3869,8.6285,350.6695],[-82.3899,8.6383,368.8996],[-82.3874,8.6482,391.978],[-82.379,8.6425,361.1933],[-82.3672,8.6216,291.5505],[-82.3585,8.6104,265.3185],[-82.3491,8.6033,236.0194],[-82.3334,8.6008,261.3584],[-82.3386,8.6136,291.0867],[-82.3365,8.6176,382.0424],[-82.3354,8.6265,490.2269],[-82.3333,8.6288,517.127],[-82.3251,8.6312,627.0113],[-82.3186,8.63,649.0875],[-82.3156,8.636,560.9054],[-82.3305,8.654,402.9562],[-82.3303,8.6579,441.0939],[-82.3272,8.6623,559.6342],[-82.3266,8.6687,562.7258],[-82.3237,8.6709,543.9279],[-82.3124,8.6727,484.2263],[-82.3085,8.6777,477.3851],[-82.2854,8.684,434.6186],[-82.2592,8.6791,773.8735],[-82.257,8.6883,1055.9506],[-82.2588,8.6923,1176.6208],[-82.2606,8.7066,1153.2455],[-82.2582,8.7139,1209.5874],[-82.2531,8.7216,1485.7786],[-82.2507,8.7326,1288.8788],[-82.2361,8.7504,1169.2539],[-82.2257,8.7677,1425.4801],[-82.2363,8.7687,1501.1935],[-82.2426,8.7747,1688.0878],[-82.2516,8.7719,1692.8656],[-82.2551,8.7746,1793.6299],[-82.2568,8.7674,1651.8104],[-82.2608,8.7664,1569.9276],[-82.2719,8.7764,1433.8529],[-82.2844,8.7964,1312.5878],[-82.3005,8.8146,1216.4197],[-82.3111,8.818,1411.8379],[-82.3146,8.8158,1431.5756],[-82.3223,8.8187,1237.5406],[-82.3314,8.817,1784.5375],[-82.3402,8.8218,2053.0103],[-82.3644,8.8259,2233.2852]]]]}
,"properties": {"GID_2": "PAN.2.4_1","GID_0": "PAN","country": "Panama","GID_1": "PAN.2_1","province": "Chiriquí","NL_NAME_1": "NA","county": "Boquete","VARNAME_2": "NA","NL_NAME_2": "NA","TYPE_2": "Distrito","ENGTYPE_2": "District","CC_2": "NA","HASC_2": "PA.CH.BQ","name": "Boquete.county","area_km2": 604.2686,"hist_schema_id": "Elevation0-9000","hist_area_km2": {"200": 0.2096,"225": 1.4465,"250": 3.1234,"275": 3.6474,"300": 3.3538,"325": 5.8903,"350": 11.0675,"375": 12.3669,"400": 10.669,"425": 11.0461,"450": 10.8155,"475": 10.6686,"500": 10.9829,"525": 9.7881,"550": 9.3269,"575": 8.4675,"600": 7.3566,"625": 6.3715,"650": 6.0989,"675": 5.7216,"700": 5.491,"725": 5.2395,"750": 6.1826,"775": 5.449,"800": 4.925,"825": 5.4908,"850": 5.6375,"875": 5.8471,"900": 6.371,"925": 5.7841,"950": 6.9786,"975": 8.0264,"1000": 7.691,"1025": 7.2089,"1050": 8.1938,"1075": 8.8433,"1100": 8.005,"1125": 7.544,"1150": 8.2354,"1175": 7.9001,"1200": 7.6066,"1225": 7.7743,"1250": 7.816,"1275": 7.2922,"1300": 7.2293,"1325": 7.2921,"1350": 6.9778,"1375": 7.2082,"1400": 7.3758,"1425": 6.391,"1450": 6.6842,"1475": 7.1452,"1500": 7.4804,"1525": 6.8517,"1550": 5.5945,"1575": 5.8878,"1600": 6.1601,"1625": 5.6992,"1650": 6.3067,"1675": 6.6001,"1700": 5.9086,"1725": 5.9505,"1750": 6.5371,"1775": 6.0133,"1800": 5.2799,"1825": 6.1808,"1850": 6.2856,"1875": 6.118,"1900": 6.6208,"1925": 6.6416,"1950": 6.7465,"1975": 6.8303,"2000": 7.4588,"2025": 6.055,"2050": 5.8036,"2075": 5.1331,"2100": 5.594,"2125": 5.1121,"2150": 4.5045,"2175": 4.5046,"2200": 4.4417,"2225": 3.9808,"2250": 3.897,"2275": 3.2894,"2300": 2.2837,"2325": 2.3675,"2350": 2.2418,"2375": 1.6552,"2400": 1.9904,"2425": 2.0532,"2450": 1.697,"2475": 1.9694,"2500": 1.9904,"2525": 1.9904,"2550": 1.8018,"2575": 1.6342,"2600": 1.718,"2625": 1.6971,"2650": 1.4876,"2675": 1.1942,"2700": 1.278,"2725": 1.0266,"2750": 0.9847,"2775": 1.0057,"2800": 0.9219,"2825": 0.7333,"2850": 0.88,"2875": 0.7543,"2900": 0.5867,"2925": 0.7124,"2950": 0.7752,"2975": 0.8171,"3000": 0.6495,"3025": 0.7962,"3050": 0.9009,"3075": 0.5238,"3100": 0.6914,"3125": 0.7124,"3150": 0.6495,"3175": 0.5448,"3200": 0.5657,"3225": 0.3771,"3250": 0.3981,"3275": 0.4609,"3300": 0.3352,"3325": 0.2933,"3350": 0.1467,"3375": 0.0838,"3400": 0.0838,"3425": 0.0629,"3450": 0.021}}}