{"type": "Feature","bbox": [-80.7294,7.5109,-80.5453,7.5877],"geometry": {"type": "MultiPolygon","coordinates": [[[[-80.7294,7.5109,1048.8081],[-80.6396,7.5159,237.5453],[-80.5729,7.5288,169.1656],[-80.5692,7.5338,276.0103],[-80.5644,7.5369,228.3241],[-80.5517,7.5381,236.073],[-80.5453,7.5404,222.2825],[-80.5512,7.5495,356.0685],[-80.5527,7.5586,322.1089],[-80.5588,7.5568,239.1211],[-80.5673,7.5595,344.9383],[-80.5781,7.5763,350.2976],[-80.598,7.579,254.0286],[-80.6179,7.5877,321.5206],[-80.6217,7.581,242.286],[-80.6302,7.5787,192.8576],[-80.6543,7.5621,223.0916],[-80.6642,7.5649,254.1963],[-80.6742,7.5772,241.2085],[-80.7294,7.5109,1048.8081]]]]}
,"properties": {"GID_3": "PAN.9.4.2_1","GID_0": "PAN","country": "Panama","GID_1": "PAN.9_1","province": "LosSantos","NL_NAME_1": "NA","GID_2": "PAN.9.4_1","county": "Macaracas","NL_NAME_2": "NA","city": "BajosdeGüera","VARNAME_3": "NA","NL_NAME_3": "NA","TYPE_3": "Corregimiento","ENGTYPE_3": "Municipality","CC_3": "NA","HASC_3": "NA","name": "Bajosde_Güera.city","area_km2": 96.70682,"hist_schema_id": "Elevation0-9000","hist_area_km2": {"100": 1.70256,"125": 6.36867,"150": 9.81568,"175": 10.29915,"200": 10.78257,"225": 8.2813,"250": 5.82213,"275": 5.38069,"300": 4.45588,"325": 3.84636,"350": 3.80436,"375": 3.84639,"400": 2.98464,"425": 2.9636,"450": 2.35409,"475": 2.08084,"500": 2.0388,"525": 1.24014,"550": 1.13504,"575": 1.02996,"600": 0.84078,"625": 0.79874,"650": 0.77772,"675": 0.60956,"700": 0.69364,"725": 0.42039,"750": 0.48345,"775": 0.5465,"800": 0.29427,"825": 0.29427,"850": 0.27325,"875": 0.18917,"900": 0.1051,"925": 0.08408,"950": 0.02102,"975": 0.04204}}}