{"type": "Feature","bbox": [-80.6925,8.0129,-80.5916,8.0778],"geometry": {"type": "MultiPolygon","coordinates": [[[[-80.6774,8.0129,38.1816],[-80.6742,8.0258,50.7668],[-80.6692,8.028,49.1522],[-80.6635,8.0355,42.9017],[-80.6538,8.053,38.4555],[-80.6491,8.0534,35.7994],[-80.6437,8.059,27.5521],[-80.6295,8.0558,33.93],[-80.6345,8.0376,61.7742],[-80.6323,8.0339,53.7222],[-80.6335,8.0239,49.1537],[-80.6322,8.0223,54.9961],[-80.6149,8.0292,72.0303],[-80.6115,8.0334,76.0309],[-80.5992,8.0357,140.5315],[-80.5962,8.0411,48.6881],[-80.5965,8.0503,58.382],[-80.5916,8.0574,84.2756],[-80.6081,8.0633,44.6221],[-80.612799999999993,8.0679,17.6448],[-80.6141,8.0732,22.7461],[-80.6232,8.0732,16.4852],[-80.6272,8.0757,21.4288],[-80.6388,8.0735,26.817],[-80.6423,8.0739,31.7254],[-80.6469,8.0778,29.6154],[-80.6534,8.0756,17.2224],[-80.6579,8.0767,17.9039],[-80.6646,8.0682,21.451],[-80.6665,8.069,18.9814],[-80.6683,8.0676,19.3195],[-80.6699,8.07,16.7493],[-80.675,8.0691,24.0125],[-80.6841,8.0623,33.1151],[-80.685,8.0584,32.1101],[-80.6925,8.0487,40.9981],[-80.6857,8.0391,42.8763],[-80.6867,8.0366,49.7103],[-80.685,8.0313,35.4363],[-80.6888,8.0263,30.6738],[-80.6875,8.0241,31.6231],[-80.6822,8.022,35.1444],[-80.6813,8.0187,38.868899999999996],[-80.679,8.0193,35.3509],[-80.6774,8.0129,38.1816]]]]}
,"properties": {"GID_3": "PAN.7.5.7_1","GID_0": "PAN","country": "Panama","GID_1": "PAN.7_1","province": "Herrera","NL_NAME_1": "NA","GID_2": "PAN.7.5_1","county": "Parita","NL_NAME_2": "NA","city": "Potuga","VARNAME_3": "NA","NL_NAME_3": "NA","TYPE_3": "Corregimiento","ENGTYPE_3": "Municipality","CC_3": "NA","HASC_3": "NA","name": "Potuga.city","area_km2": 38.18667,"hist_schema_id": "Elevation0-9000","hist_area_km2": {"25": 20.30014,"50": 9.53107,"75": 5.29041,"100": 1.59551,"125": 0.77676,"150": 0.41987,"175": 0.23093,"200": 0.04199}}}