{"type": "Feature","bbox": [-80.169,7.4271,-80.0782,7.577],"geometry": {"type": "MultiPolygon","coordinates": [[[[-80.0782,7.441,7.2161],[-80.087,7.4478,43.1069],[-80.087,7.4529,26.0618],[-80.0895,7.4561,41.4877],[-80.1061,7.4686,80.5309],[-80.1159,7.4859,145.2101],[-80.1062,7.4909,95.9735],[-80.1013,7.4998,118.9188],[-80.0968,7.5032,108.7925],[-80.088,7.5055,86.7076],[-80.0792,7.5109,70.7683],[-80.0797,7.5377,62.0485],[-80.0888,7.5402,70.0921],[-80.0935,7.539,75.2992],[-80.0977,7.5451,80.4993],[-80.0882,7.5577,66.7085],[-80.0865,7.5635,54.9092],[-80.1012,7.5655,53.5591],[-80.1089,7.5649,67.1836],[-80.1112,7.5725,64.1391],[-80.1221,7.577,44.6279],[-80.116,7.5603,74.8021],[-80.1231,7.5483,94.3256],[-80.1312,7.5436,98.4763],[-80.1352,7.5311,111.1764],[-80.1458,7.528,123.3774],[-80.1603,7.5306,155.6771],[-80.1687,7.5263,178.8505],[-80.1655,7.5231,186.6376],[-80.1508,7.5194,160.0589],[-80.1486,7.5169,153.4312],[-80.1525,7.5089,193.5361],[-80.1516,7.5012,227.3891],[-80.156,7.4918,196.6578],[-80.1568,7.4849,128.3009],[-80.1599,7.4806,112.1346],[-80.1661,7.4783,88.4607],[-80.169,7.475,36.4431],[-80.1674,7.4656,59.5311],[-80.1487,7.4546,6.0638],[-80.1366,7.4401,4.5749],[-80.1301,7.4396,5.6891],[-80.1256,7.4313,1.0226],[-80.1082,7.4307,7.0972],[-80.1029,7.4299,0.0],[-80.0985,7.4271,0.0],[-80.0954,7.4285,0.0],[-80.0907,7.4357,6.8576],[-80.0813,7.4346,0.0],[-80.0801,7.4399,0.0],[-80.0782,7.441,7.2161]]]]}
,"properties": {"GID_3": "PAN.9.5.1_1","GID_0": "PAN","country": "Panama","GID_1": "PAN.9_1","province": "LosSantos","NL_NAME_1": "NA","GID_2": "PAN.9.5_1","county": "Pedasí","NL_NAME_2": "NA","city": "LosAsientos","VARNAME_3": "NA","NL_NAME_3": "NA","TYPE_3": "Corregimiento","ENGTYPE_3": "Municipality","CC_3": "NA","HASC_3": "NA","name": "Los_Asientos.city","area_km2": 89.02407,"hist_schema_id": "Elevation0-9000","hist_area_km2": {"0": 4.39392,"25": 7.3372,"50": 6.60078,"75": 13.74724,"100": 17.59398,"125": 17.5523,"150": 13.34821,"175": 6.1802,"200": 1.6186,"225": 0.65164}}}