{"type": "Feature","bbox": [-80.8661,7.9623,-80.815,8.0709],"geometry": {"type": "MultiPolygon","coordinates": [[[[-80.815,7.9991,90.0166],[-80.8186,8.0047,86.3893],[-80.8213,8.017,69.9508],[-80.8256,8.0209,62.9413],[-80.8287,8.0273,55.4161],[-80.8358,8.0296,71.7868],[-80.8342,8.0381,53.038],[-80.8366,8.0401,49.5872],[-80.8369,8.0453,46.6668],[-80.8426,8.0569,40.3418],[-80.8383,8.0606,36.5092],[-80.8361,8.0663,34.8499],[-80.8286,8.0646,41.6974],[-80.8245,8.0662,33.4244],[-80.8296,8.0709,34.9494],[-80.8466,8.0708,42.5943],[-80.8542,8.068,39.0145],[-80.8618,8.0629,39.648],[-80.8656,8.0505,44.8223],[-80.8661,8.043,45.6687],[-80.8642,8.0386,49.0137],[-80.8539,8.0265,52.5165],[-80.8487,8.0151,64.8037],[-80.8499,8.0029,79.0924],[-80.8528,7.9966,81.3051],[-80.8531,7.9858,127.4348],[-80.8505,7.9794,101.879],[-80.8435,7.9732,148.4707],[-80.8436,7.9668,144.4402],[-80.8466,7.9623,156.7547],[-80.8427,7.9637,153.4725],[-80.8398,7.9789,146.5909],[-80.8386,7.9803,132.7668],[-80.8344,7.9797,131.2384],[-80.8315,7.9913,75.0538],[-80.8285,7.9965,85.4228],[-80.815,7.9991,90.0166]]]]}
,"properties": {"GID_3": "PAN.13.1.4_1","GID_0": "PAN","country": "Panama","GID_1": "PAN.13_1","province": "Veraguas","NL_NAME_1": "NA","GID_2": "PAN.13.1_1","county": "Atalaya","NL_NAME_2": "NA","city": "LaMontañuela","VARNAME_3": "NA","NL_NAME_3": "NA","TYPE_3": "Corregimiento","ENGTYPE_3": "Municipality","CC_3": "NA","HASC_3": "NA","name": "La_Montañuela.city","area_km2": 29.85434,"hist_schema_id": "Elevation0-9000","hist_area_km2": {"25": 1.3855,"50": 12.84813,"75": 9.23785,"100": 3.0864,"125": 2.07865,"150": 1.07084,"175": 0.14698}}}