{"type": "Feature","bbox": [-82.4641,8.221,-82.2818,8.3874],"geometry": {"type": "MultiPolygon","coordinates": [[[[-82.3568,8.279,0.0],[-82.359,8.2796,1.63],[-82.3629,8.2746,0.8877],[-82.3676,8.2724,0.0],[-82.3712,8.2735,1.9989],[-82.3737,8.2782,0.0],[-82.3751,8.2782,0.0],[-82.3779,8.2712,0.0],[-82.3799,8.2754,0.0],[-82.3851,8.276,0.0],[-82.391,8.2685,4.2523],[-82.4015,8.2618,0.0],[-82.4029,8.2574,0.7109],[-82.3999,8.2532,5.6411],[-82.404,8.2557,7.3681],[-82.4051,8.2599,0.0],[-82.4218,8.2574,0.0],[-82.4296,8.259,1.1792],[-82.4304,8.2615,0.5821],[-82.4326,8.2621,0.0],[-82.4332,8.2579,7.4095],[-82.4276,8.2496,0.9868],[-82.4176,8.2435,0.0],[-82.3929,8.221,3.7109],[-82.3835,8.2254,0.0],[-82.3743,8.2276,0.0],[-82.3732,8.2299,0.0],[-82.3751,8.231,12.4491],[-82.3751,8.2332,11.8285],[-82.3682,8.2335,0.0],[-82.3626,8.2365,2.4873],[-82.3593,8.2357,2.5732],[-82.3574,8.2374,5.0038],[-82.3535,8.2374,7.8895],[-82.3471,8.2351,1.1904],[-82.3421,8.2376,4.8736],[-82.3421,8.2354,1.1807],[-82.3451,8.2337,0.0],[-82.3437,8.2332,0.0],[-82.3401,8.2349,1.6229],[-82.3399,8.2385,2.9016],[-82.3262,8.2371,1.6009],[-82.3226,8.2393,0.0],[-82.3374,8.2474,0.0],[-82.3412,8.2468,15.5284],[-82.3443,8.2418,13.0913],[-82.3487,8.2413,6.7533],[-82.351,8.2435,16.7069],[-82.3529,8.2496,5.5864],[-82.356,8.2493,5.0141],[-82.3549,8.251,10.0704],[-82.3518,8.251,13.5867],[-82.3499,8.249,2.4171],[-82.3496,8.2437,0.0],[-82.3476,8.2424,4.1885],[-82.3396,8.2487,6.0474],[-82.3329,8.249,31.6141],[-82.3315,8.2474,0.0],[-82.324,8.2457,4.51],[-82.316,8.2457,7.9789],[-82.3171,8.2499,8.6161],[-82.3265,8.2515,3.4785],[-82.3357,8.2579,4.2113],[-82.3426,8.2593,0.0],[-82.3432,8.256,6.4292],[-82.3476,8.2543,7.2315],[-82.3449,8.2593,1.6987],[-82.351,8.2615,9.7659],[-82.344,8.2638,8.6395],[-82.3429,8.2668,0.0],[-82.3474,8.2704,14.6176],[-82.3501,8.2754,17.6034],[-82.3568,8.279,0.0]]],
[[[-82.4199,8.2688,0.0],[-82.4204,8.2701,0.0],[-82.4251,8.2693,1.6162],[-82.4235,8.2665,1.4987],[-82.419,8.2654,0.0],[-82.4185,8.2674,2.0386],[-82.4199,8.2688,0.0]]],
[[[-82.4299,8.2712,0.0],[-82.4304,8.2732,0.0],[-82.4351,8.2724,0.0],[-82.4346,8.2701,0.0],[-82.4299,8.2712,0.0]]],
[[[-82.4388,8.2746,0.0],[-82.4413,8.2746,0.0],[-82.4396,8.2735,0.0],[-82.441,8.2699,0.0],[-82.4362,8.271,0.0],[-82.4388,8.2746,0.0]]],
[[[-82.3507,8.2487,7.0818],[-82.3521,8.2493,5.5864],[-82.351,8.2465,0.0],[-82.3507,8.2465,0.0],[-82.3507,8.2487,7.0818]]],
[[[-82.3149,8.2707,1.3083],[-82.3163,8.2712,1.3083],[-82.3182,8.2668,8.7083],[-82.3232,8.2626,0.0],[-82.3249,8.2579,5.3393],[-82.3174,8.2576,7.412],[-82.3124,8.2613,0.0],[-82.311,8.2662,0.0],[-82.3149,8.2707,1.3083]]],
[[[-82.2818,8.2788,0.0],[-82.2837,8.2793,0.0],[-82.2996,8.2613,50.2226],[-82.3015,8.261,4.426],[-82.304,8.2557,26.2322],[-82.299,8.2571,40.545],[-82.2932,8.2635,1.9316],[-82.2904,8.2629,0.0],[-82.2829,8.2724,0.0],[-82.2818,8.2788,0.0]]],
[[[-82.3426,8.2899,0.0],[-82.3465,8.2904,0.0],[-82.3518,8.2857,0.8165],[-82.3651,8.2899,7.8377],[-82.3757,8.289,0.0],[-82.3857,8.2863,3.3094],[-82.3946,8.2874,0.0],[-82.3968,8.2785,4.3759],[-82.3987,8.2796,0.0],[-82.4032,8.2765,11.6462],[-82.4137,8.276,0.0],[-82.4196,8.2735,0.0],[-82.4176,8.2635,0.0],[-82.4129,8.2618,0.0],[-82.4079,8.2624,4.6592],[-82.3951,8.2687,0.0],[-82.3907,8.2718,0.0],[-82.3838,8.2829,17.5374],[-82.3776,8.2874,5.5827],[-82.374,8.2874,3.2462],[-82.3721,8.2818,0.0],[-82.369,8.2813,0.0],[-82.3649,8.2768,0.0],[-82.3599,8.2807,2.8758],[-82.3571,8.2807,5.5441],[-82.3496,8.2765,3.2759],[-82.3421,8.2676,0.0],[-82.3412,8.261,1.7443],[-82.3276,8.2568,0.0],[-82.3257,8.2624,3.5652],[-82.3196,8.2693,0.9352],[-82.319,8.2785,3.3853],[-82.3238,8.2835,17.4985],[-82.3326,8.2835,9.7773],[-82.3385,8.2899,0.0],[-82.3426,8.2899,0.0]]],
[[[-82.3293,8.3171,0.0],[-82.334,8.3174,0.0],[-82.3326,8.3151,1.3408],[-82.3337,8.3118,1.8464],[-82.3396,8.3043,0.0],[-82.3393,8.3026,0.803],[-82.3371,8.3035,14.5447],[-82.3374,8.2963,10.1854],[-82.3351,8.294,16.1731],[-82.3346,8.2904,0.0],[-82.3271,8.2874,11.969],[-82.3121,8.2879,6.1996],[-82.3007,8.2826,0.6029],[-82.296,8.2857,0.0],[-82.2954,8.2871,0.0],[-82.3012,8.2904,7.2756],[-82.3068,8.2974,5.3476],[-82.3096,8.3046,1.715],[-82.3118,8.3057,0.0],[-82.311,8.3088,0.0],[-82.3124,8.3115,0.0],[-82.3243,8.3138,3.0415],[-82.3293,8.3171,0.0]]],
[[[-82.3196,8.3185,2.8262],[-82.3249,8.3185,0.7923],[-82.3254,8.3168,0.0],[-82.3224,8.3146,1.2764],[-82.3171,8.3143,1.5218],[-82.3168,8.3165,0.0],[-82.3196,8.3185,2.8262]]],
[[[-82.3346,8.3226,1.3321],[-82.3346,8.3229,1.3321],[-82.3348,8.3226,1.3321],[-82.3346,8.3226,1.3321]]],
[[[-82.3757,8.2849,0.0],[-82.3815,8.2829,0.509],[-82.3832,8.2776,0.0],[-82.376,8.2788,0.0],[-82.3754,8.2799,0.0],[-82.3776,8.281,1.3291],[-82.3751,8.2818,0.307],[-82.3757,8.2849,0.0]]],
[[[-82.429,8.2921,0.0],[-82.4301,8.2935,0.0],[-82.4318,8.2893,0.0],[-82.4285,8.2915,0.0],[-82.429,8.2921,0.0]]],
[[[-82.394,8.3348,16.7938],[-82.4053,8.3347,12.1967],[-82.4105,8.3415,6.1661],[-82.4126,8.3402,0.0],[-82.4147,8.3348,9.4641],[-82.4213,8.3351,11.2718],[-82.4243,8.3327,0.0],[-82.4261,8.3249,7.0906],[-82.4284,8.3247,14.6558],[-82.4304,8.327,4.4854],[-82.4319,8.3413,0.0],[-82.4224,8.3501,16.1202],[-82.4151,8.3534,19.4548],[-82.4105,8.3633,5.4235],[-82.4114,8.3691,13.7733],[-82.4169,8.3764,9.2627],[-82.4196,8.3843,9.479],[-82.4229,8.3874,17.7625],[-82.4264,8.3872,21.7336],[-82.4361,8.3771,14.3254],[-82.4362,8.3734,5.172],[-82.433,8.3715,9.9005],[-82.4356,8.3679,8.5993],[-82.4382,8.3675,14.4427],[-82.4391,8.3646,7.9976],[-82.438,8.3603,11.406],[-82.4409,8.358,16.4166],[-82.4378,8.3568,19.7954],[-82.4359,8.3594,4.9787],[-82.4344,8.3584,7.5882],[-82.4355,8.352,18.9947],[-82.4471,8.3516,20.2211],[-82.4483,8.3588,20.3812],[-82.4585,8.3665,2.869],[-82.4562,8.3534,23.8206],[-82.4582,8.3447,24.3751],[-82.4563,8.3375,11.5958],[-82.4593,8.3347,9.1987],[-82.4571,8.328,23.1228],[-82.4625,8.3264,29.6552],[-82.4641,8.3214,19.7549],[-82.4621,8.3207,14.2671],[-82.4624,8.3174,20.3428],[-82.4568,8.3118,8.9107],[-82.4543,8.3065,0.0],[-82.4504,8.3082,0.0],[-82.4501,8.3138,6.6609],[-82.4476,8.3176,8.8636],[-82.4479,8.3224,0.0],[-82.444,8.3213,20.5786],[-82.439,8.3093,0.0],[-82.4388,8.3049,0.0],[-82.4321,8.3046,8.6368],[-82.4287,8.3012,0.0],[-82.4265,8.301,4.6396],[-82.4251,8.3026,0.0],[-82.4262,8.3104,12.1668],[-82.4249,8.316,3.7884],[-82.4235,8.3065,15.1953],[-82.4246,8.3015,4.2526],[-82.4282,8.3001,26.3619],[-82.4332,8.3029,2.2183],[-82.4388,8.3035,0.0],[-82.439,8.2993,0.0],[-82.4365,8.2965,0.0],[-82.4313,8.2987,5.6477],[-82.4254,8.294,3.1614],[-82.4218,8.2962,0.0],[-82.4179,8.3076,22.374],[-82.4143,8.3082,3.3115],[-82.4124,8.3063,0.0],[-82.409,8.306,5.7594],[-82.4076,8.3076,4.6033],[-82.4076,8.3063,5.7594],[-82.4112,8.3032,6.1892],[-82.4054,8.3065,6.5568],[-82.4096,8.3024,6.1892],[-82.411,8.3024,6.1892],[-82.4154,8.3065,7.0278],[-82.4174,8.3057,14.6852],[-82.4201,8.2879,0.0],[-82.4171,8.2849,1.0746],[-82.4135,8.284,10.8226],[-82.4007,8.2874,0.0],[-82.3971,8.2907,6.9953],[-82.391,8.2929,4.2932],[-82.3913,8.2974,1.958],[-82.3951,8.3007,1.5314],[-82.3962,8.306,11.9374],[-82.3943,8.3007,1.5314],[-82.3904,8.2976,11.57],[-82.3899,8.2921,4.2932],[-82.3776,8.2899,0.0],[-82.3757,8.2915,12.2518],[-82.3671,8.2912,0.0],[-82.3649,8.2926,0.0],[-82.369,8.3029,3.1286],[-82.3724,8.306,0.0],[-82.3746,8.3115,12.4565],[-82.3729,8.3165,4.1465],[-82.3771,8.3185,5.961],[-82.374,8.3188,8.2701],[-82.3715,8.3154,6.5315],[-82.3726,8.3101,0.0],[-82.3635,8.2974,4.9255],[-82.3629,8.2924,1.3843],[-82.3582,8.2915,0.0],[-82.3565,8.2896,0.0],[-82.3546,8.2901,0.0],[-82.3515,8.2874,1.903],[-82.3474,8.2968,0.0],[-82.3504,8.299,7.7406],[-82.3526,8.3035,11.7406],[-82.3501,8.3026,2.5555],[-82.3479,8.2987,6.3096],[-82.3443,8.2982,0.0],[-82.3432,8.3051,0.0],[-82.3371,8.3143,0.0],[-82.3426,8.3249,3.098],[-82.3457,8.3271,1.809],[-82.344,8.3276,1.809],[-82.3446,8.3301,5.1612],[-82.3476,8.3321,0.0],[-82.3535,8.3313,3.6435],[-82.3676,8.3231,8.5753],[-82.3736,8.3242,16.7356],[-82.3733,8.3284,19.7782],[-82.3758,8.3306,16.9533],[-82.382,8.3311,23.1905],[-82.3841,8.3263,26.8737],[-82.3871,8.3244,24.4967],[-82.3926,8.329,27.2115],[-82.3924,8.3336,22.4769],[-82.394,8.3348,16.7938]]]]}
,"properties": {"GID_3": "PAN.2.6.7_1","GID_0": "PAN","country": "Panama","GID_1": "PAN.2_1","province": "Chiriquí","NL_NAME_1": "NA","GID_2": "PAN.2.6_1","county": "David","NL_NAME_2": "NA","city": "Pedregal","VARNAME_3": "NA","NL_NAME_3": "NA","TYPE_3": "Corregimiento","ENGTYPE_3": "Municipality","CC_3": "NA","HASC_3": "NA","name": "Pedregal.city","area_km2": 136.7508,"hist_schema_id": "Elevation0-9000","hist_area_km2": {"0": 73.0972,"25": 60.9679,"50": 1.8464,"75": 0.7134,"100": 0.1259}}}