{"type":"Feature","properties":{"GID_3":"PAN.7.6.1_1","GID_0":"PAN","country":"Panama","GID_1":"PAN.7_1","province":"Herrera","NL_NAME_1":"NA","GID_2":"PAN.7.6_1","county":"Pesé","NL_NAME_2":"NA","city":"ElBarrero","VARNAME_3":"NA","NL_NAME_3":"NA","TYPE_3":"Corregimiento","ENGTYPE_3":"Municipality","CC_3":"NA","HASC_3":"NA","name":"El_Barrero.city"},
"geometry":{"type": "MultiPolygon","coordinates": [[[[-80.5033,7.9422,39.2836],[-80.546,7.946,49.361],[-80.5499,7.9375,61.1303],[-80.5571,7.9326,59.1395],[-80.5579,7.9247,66.6006],[-80.5646,7.9279,66.3364],[-80.5675,7.9275,69.9853],[-80.5744,7.9211,79.7851],[-80.5895,7.9124,78.2848],[-80.5981,7.9054,61.7164],[-80.6094,7.9001,64.4446],[-80.6062,7.8872,72.7514],[-80.602,7.8919,61.9342],[-80.5931,7.8934,50.9015],[-80.5842,7.8973,106.7185],[-80.5826,7.9016,68.1267],[-80.584,7.9077,57.635],[-80.583,7.9092,58.1542],[-80.5775,7.9007,68.9265],[-80.5747,7.8989,88.7795],[-80.5546,7.9029,100.395],[-80.5481,7.9058,44.9037],[-80.5417,7.9058,37.1776],[-80.5422,7.8945,35.0919],[-80.5399,7.8919,27.2935],[-80.53,7.8932,25.3443],[-80.5289,7.8952,23.5878],[-80.5158,7.8997,32.7369],[-80.5027,7.9092,38.8152],[-80.5019,7.9148,32.8619],[-80.4989,7.9186,30.959],[-80.4994,7.9203,33.7959],[-80.5042,7.9207,19.9528],[-80.5068,7.9234,19.7627],[-80.5033,7.9422,39.2836]]]]}}