{"type":"Feature","properties":{"GID_3":"PAN.7.1.3_1","GID_0":"PAN","country":"Panama","GID_1":"PAN.7_1","province":"Herrera","NL_NAME_1":"NA","GID_2":"PAN.7.1_1","county":"Chitré","NL_NAME_2":"NA","city":"LlanoBonito","VARNAME_3":"NA","NL_NAME_3":"NA","TYPE_3":"Corregimiento","ENGTYPE_3":"Municipality","CC_3":"NA","HASC_3":"NA","name":"Llano_Bonito.city"},
"geometry":{"type": "MultiPolygon","coordinates": [[[[-80.4124,8.0087,11.632],[-80.4162,7.9966,8.3895],[-80.4173,7.9798,11.4587],[-80.425,7.9722,21.0679],[-80.4207,7.9664,25.2624],[-80.4175,7.9662,25.6103],[-80.4127,7.9708,11.3974],[-80.405,7.9715,7.8636],[-80.4023,7.9765,6.0797],[-80.3982,7.9761,4.1738],[-80.3963,7.9788,5.2172],[-80.3921,7.9799,4.7986],[-80.3941,7.9867,6.6286],[-80.3928,7.9887,11.0304],[-80.3858,7.9945,8.8973],[-80.3723,7.9998,21.393],[-80.3701,8.0032,13.9013],[-80.3662,8.004,0.0],[-80.3715,8.0049,1.7043],[-80.3737,8.0024,6.139],[-80.3796,8.001,0.0],[-80.3826,7.9974,11.0187],[-80.3851,7.9982,0.0],[-80.3876,7.9962,2.1592],[-80.3868,7.9979,5.864],[-80.3932,8.0029,3.3818],[-80.399,8.0037,8.4439],[-80.4004,8.0018,7.1334],[-80.4032,8.0015,2.9864],[-80.4054,8.0062,3.9285],[-80.4124,8.0087,11.632]]]]}}