{"type":"Feature","properties":{"GID_3":"PAN.9.2.24_1","GID_0":"PAN","country":"Panama","GID_1":"PAN.9_1","province":"LosSantos","NL_NAME_1":"NA","GID_2":"PAN.9.2_1","county":"LasTablas","NL_NAME_2":"NA","city":"Vallerriquito","VARNAME_3":"NA","NL_NAME_3":"NA","TYPE_3":"Corregimiento","ENGTYPE_3":"Municipality","CC_3":"NA","HASC_3":"NA","name":"Vallerriquito.city"},
"geometry":{"type": "MultiPolygon","coordinates": [[[[-80.2917,7.6206,312.559],[-80.288,7.6492,171.4802],[-80.2813,7.6576,150.18],[-80.2756,7.6612,115.8367],[-80.2724,7.6699,80.5421],[-80.2765,7.6737,67.3898],[-80.2797,7.6817,98.8757],[-80.3005,7.6613,228.0977],[-80.3054,7.6512,267.1104],[-80.3103,7.6457,331.6723],[-80.339,7.6316,383.1752],[-80.3418,7.6239,205.0103],[-80.339,7.6138,187.7024],[-80.3315,7.6121,199.7495],[-80.3263,7.6081,193.7421],[-80.3259,7.6045,162.6333],[-80.3224,7.5998,186.6835],[-80.3215,7.587,208.4773],[-80.3136,7.5893,146.6894],[-80.3091,7.5879,139.6397],[-80.3047,7.5841,133.3385],[-80.3009,7.5716,133.473],[-80.2852,7.5887,286.6712],[-80.2894,7.5999,313.5697],[-80.2835,7.6095,189.553],[-80.2914,7.6142,217.0846],[-80.2917,7.6206,312.559]]]]}}