{"type": "Feature","bbox": [-80.3918,8.2899,-80.2617,8.5058],"geometry": {"type": "MultiPolygon","coordinates": [[[[-80.2617,8.4883,97.5273],[-80.2878,8.4954,91.1435],[-80.2969,8.5058,80.0416],[-80.3009,8.4869,51.6731],[-80.2984,8.4756,73.6105],[-80.3104,8.4523,41.1428],[-80.3072,8.4445,41.0267],[-80.307,8.4317,28.9447],[-80.3106,8.4234,30.8024],[-80.3147,8.4056,25.6527],[-80.3133,8.3951,18.4654],[-80.3209,8.3838,15.2768],[-80.3184,8.373,10.2762],[-80.318,8.3462,6.1999],[-80.3193,8.3386,7.1895],[-80.3437,8.3319,2.4763],[-80.3486,8.3253,2.7854],[-80.3452,8.316,5.2656],[-80.3513,8.3055,25.1785],[-80.3601,8.305,27.1439],[-80.3696,8.3094,25.0128],[-80.3762,8.3072,7.873],[-80.3918,8.3074,15.8729],[-80.3885,8.3029,2.196],[-80.3812,8.3032,6.6873],[-80.3868,8.3015,0.0],[-80.3835,8.2946,3.0401],[-80.3838,8.2899,0.7047],[-80.3771,8.2899,0.0],[-80.3712,8.2949,3.9394],[-80.3582,8.301,14.6224],[-80.3535,8.2999,0.0],[-80.3482,8.3021,22.0439],[-80.3368,8.3013,5.204],[-80.341,8.299,5.0248],[-80.3457,8.2993,0.0],[-80.3499,8.296,0.6023],[-80.3565,8.2974,0.0],[-80.3582,8.296,2.6707],[-80.3543,8.294,1.6146],[-80.3141,8.3046,0.0],[-80.3127,8.3118,18.7143],[-80.3135,8.3243,7.7829],[-80.3096,8.3474,8.1425],[-80.3064,8.3515,8.8974],[-80.3008,8.354,15.2792],[-80.2953,8.3589,12.083],[-80.2923,8.3668,15.1124],[-80.2869,8.3702,19.392],[-80.2846,8.3762,17.9],[-80.2812,8.3798,21.9721],[-80.2849,8.3964,22.1313],[-80.2804,8.4023,27.2434],[-80.28,8.4104,33.8241],[-80.2736,8.4205,42.4623],[-80.2778,8.4255,41.0523],[-80.2725,8.4316,46.8321],[-80.2744,8.4373,40.5962],[-80.2728,8.4476,51.5554],[-80.2652,8.4562,68.8738],[-80.27,8.465,53.9371],[-80.2687,8.4686,68.9586],[-80.263,8.473,80.5058],[-80.2617,8.4883,97.5273]]]]}
,"properties": {"GID_3": "PAN.3.2.7_1","GID_0": "PAN","country": "Panama","GID_1": "PAN.3_1","province": "Coclé","NL_NAME_1": "NA","GID_2": "PAN.3.2_1","county": "Antón","NL_NAME_2": "NA","city": "JuanDiaz","VARNAME_3": "NA","NL_NAME_3": "NA","TYPE_3": "Corregimiento","ENGTYPE_3": "Municipality","CC_3": "NA","HASC_3": "NA","name": "Juan_Diaz.city","area_km2": 80.64837,"hist_schema_id": "Elevation0-9000","hist_area_km2": {"0": 16.00653,"25": 34.46391,"50": 18.45547,"75": 9.89807,"100": 1.71954,"125": 0.10485}}}