{"type": "Feature","bbox": [-80.7039,7.6363,-80.6107,7.6887],"geometry": {"type": "MultiPolygon","coordinates": [[[[-80.6559,7.6882,319.3298],[-80.6651,7.6841,308.9078],[-80.6736,7.6868,270.5859],[-80.6854,7.6857,305.4433],[-80.6959,7.6595,374.1946],[-80.7039,7.6564,373.9575],[-80.6958,7.6488,390.6217],[-80.6921,7.651,346.8456],[-80.6831,7.6445,402.4906],[-80.6721,7.6424,397.0925],[-80.6611,7.6363,309.6618],[-80.6503,7.643,369.9976],[-80.6444,7.6417,271.579],[-80.6402,7.6375,218.4053],[-80.6391,7.6429,217.7324],[-80.6336,7.6454,190.4732],[-80.6285,7.6513,191.8551],[-80.6207,7.6525,165.6474],[-80.6141,7.6552,163.8321],[-80.6107,7.6587,161.3195],[-80.6152,7.6617,162.6517],[-80.618,7.6615,177.2936],[-80.6209,7.6668,168.6307],[-80.621,7.6733,166.6312],[-80.6193,7.6757,119.5987],[-80.6207,7.6794,134.9598],[-80.62,7.6839,206.4609],[-80.625,7.6844,161.3085],[-80.6301,7.6887,218.2918],[-80.6327,7.6818,151.3713],[-80.6473,7.679,193.7321],[-80.6552,7.682,314.7068],[-80.6559,7.6882,319.3298]]]]}
,"properties": {"GID_3": "PAN.7.3.3_1","GID_0": "PAN","country": "Panama","GID_1": "PAN.7_1","province": "Herrera","NL_NAME_1": "NA","GID_2": "PAN.7.3_1","county": "LosPozos","NL_NAME_2": "NA","city": "ElCedro","VARNAME_3": "NA","NL_NAME_3": "NA","TYPE_3": "Corregimiento","ENGTYPE_3": "Municipality","CC_3": "NA","HASC_3": "NA","name": "El_Cedro.city","area_km2": 36.56237,"hist_schema_id": "Elevation0-9000","hist_area_km2": {"125": 0.52531,"150": 2.12227,"175": 3.50913,"200": 2.98381,"225": 3.69825,"250": 3.78231,"275": 4.30763,"300": 4.2656,"325": 3.27802,"350": 2.98385,"375": 2.08031,"400": 1.49193,"425": 0.73546,"450": 0.69343,"475": 0.10506}}}