{"type":"Feature","properties":{"GID_3":"PAN.2.8.5_1","GID_0":"PAN","country":"Panama","GID_1":"PAN.2_1","province":"Chiriquí","NL_NAME_1":"NA","GID_2":"PAN.2.8_1","county":"Gualaca","NL_NAME_2":"NA","city":"Rincón","VARNAME_3":"NA","NL_NAME_3":"NA","TYPE_3":"Corregimiento","ENGTYPE_3":"Municipality","CC_3":"NA","HASC_3":"NA","name":"Rincón.city"},
"geometry":{"type": "MultiPolygon","coordinates": [[[[-82.2963,8.4267,44.9744],[-82.2916,8.4273,51.7497],[-82.2858,8.4246,43.6775],[-82.2809,8.4248,39.4621],[-82.269,8.4322,53.2561],[-82.2599,8.4226,84.6323],[-82.2505,8.4187,62.7593],[-82.2485,8.4186,58.7825],[-82.2422,8.4235,88.3707],[-82.2345,8.4191,131.7576],[-82.2139,8.4228,430.5195],[-82.2054,8.4208,440.616],[-82.2074,8.4357,446.1666],[-82.2075,8.4549,189.4701],[-82.2021,8.4577,167.178],[-82.1961,8.4538,162.544],[-82.1883,8.4642,204.9083],[-82.2082,8.4843,349.3795],[-82.2099,8.4958,381.8164],[-82.2135,8.4995,300.9341],[-82.2181,8.5005,183.1954],[-82.2216,8.4992,226.0553],[-82.2286,8.4901,196.2401],[-82.2353,8.486,121.4207],[-82.2393,8.4871,91.3111],[-82.2414,8.4943,96.4093],[-82.2476,8.4908,77.5688],[-82.2601,8.4887,84.8073],[-82.2627,8.4915,80.6786],[-82.2665,8.4913,79.2019],[-82.2651,8.4865,78.4645],[-82.2676,8.4828,66.9313],[-82.2746,8.4831,69.6644],[-82.2741,8.4742,62.7856],[-82.2804,8.4699,66.6688],[-82.2843,8.4581,48.5836],[-82.2848,8.4449,46.8876],[-82.2944,8.4319,46.5173],[-82.2963,8.4267,44.9744]]]]}}