{"type":"Feature","properties":{"GID_3":"PAN.2.11.5_1","GID_0":"PAN","country":"Panama","GID_1":"PAN.2_1","province":"Chiriquí","NL_NAME_1":"NA","GID_2":"PAN.2.11_1","county":"SanFélix","NL_NAME_2":"NA","city":"SantaCruz","VARNAME_3":"NA","NL_NAME_3":"NA","TYPE_3":"Corregimiento","ENGTYPE_3":"Municipality","CC_3":"NA","HASC_3":"NA","name":"Santa_Cruz.city"},
"geometry":{"type": "MultiPolygon","coordinates": [[[[-81.9442,8.266,0.0],[-81.9415,8.2584,11.7929],[-81.943,8.2485,10.7944],[-81.938,8.2385,6.4839],[-81.9396,8.234,14.3556],[-81.9454,8.2302,1.9214],[-81.9456,8.2271,4.6641],[-81.9523,8.2219,4.8542],[-81.9555,8.2202,0.0],[-81.9578,8.2218,0.0],[-81.9713,8.2132,2.3353],[-81.9738,8.2069,1.8944],[-81.9778,8.2045,8.3754],[-81.9792,8.2016,1.3231],[-81.9529,8.1896,3.5258],[-81.9362,8.1899,3.1442],[-81.9201,8.1865,0.0],[-81.9131,8.1955,25.2446],[-81.902,8.2056,29.8315],[-81.8972,8.2153,33.7456],[-81.8876,8.2199,39.4669],[-81.8851,8.2229,39.9213],[-81.8852,8.2294,38.8536],[-81.8769,8.2425,54.1259],[-81.8738,8.2571,75.706],[-81.8768,8.2758,83.2666],[-81.8859,8.2844,71.8596],[-81.9092,8.2881,14.4575],[-81.9151,8.2959,3.9086],[-81.9288,8.2813,15.3627],[-81.9323,8.2703,16.3179],[-81.9378,8.2669,15.3362],[-81.9442,8.266,0.0]]]]}}