{"type":"Feature","properties":{"GID_2":"PAN.11.7_1","GID_0":"PAN","country":"Panama","GID_1":"PAN.11_1","province":"PanamáOeste","NL_NAME_1":"NA","county":"Taboga","VARNAME_2":"NA","NL_NAME_2":"NA","TYPE_2":"Distrito","ENGTYPE_2":"District","CC_2":"NA","HASC_2":"PA.PN.TB","name":"Taboga.county"},
"geometry":{"type": "MultiPolygon","coordinates": [[[[-79.5921,8.5801,8.5551],[-79.5949,8.5807,0.0],[-79.5951,8.5793,0.0],[-79.5921,8.5796,8.5551],[-79.5918,8.5785,23.9241],[-79.5965,8.5721,2.066],[-79.594,8.5724,148.7594],[-79.5935,8.5699,0.0],[-79.5893,8.5679,0.0],[-79.5854,8.5754,0.0],[-79.5868,8.5793,0.0],[-79.5921,8.5801,8.5551]]],
[[[-79.6121,8.5854,3.7006],[-79.6132,8.5865,0.0],[-79.6126,8.5826,0.0],[-79.611,8.5835,0.0],[-79.6121,8.5854,3.7006]]],
[[[-79.6021,8.6099,35.9804],[-79.6046,8.6096,14.7671],[-79.6062,8.6115,0.0],[-79.6054,8.6079,2.7686],[-79.6071,8.6054,0.0],[-79.6068,8.6018,18.0017],[-79.6118,8.6021,1.7972],[-79.6115,8.5932,0.0],[-79.6087,8.5915,0.0],[-79.6049,8.5974,22.087],[-79.6026,8.5976,2.3022],[-79.599,8.5946,0.0],[-79.5979,8.5954,0.0],[-79.5932,8.5926,0.0],[-79.5935,8.5912,0.0],[-79.5915,8.5915,0.0],[-79.5932,8.5949,0.0],[-79.5918,8.6013,0.0],[-79.5963,8.604,1.9409],[-79.5963,8.6065,0.0],[-79.5985,8.6088,0.0],[-79.6004,8.6101,3.0957],[-79.6021,8.6099,35.9804]]],
[[[-79.5749,8.7413,0.0],[-79.5801,8.7413,4.3555],[-79.5774,8.7332,0.0],[-79.5749,8.7335,0.0],[-79.5749,8.7413,0.0]]],
[[[-79.5338,8.7801,67.1897],[-79.5368,8.781,23.538],[-79.5382,8.7788,3.1819],[-79.5362,8.7688,0.0],[-79.531,8.7746,0.0],[-79.5338,8.7801,67.1897]]],
[[[-79.5515,8.8029,0.0676],[-79.5529,8.8035,0.0676],[-79.5535,8.8007,0.0],[-79.5565,8.7999,20.9937],[-79.5587,8.8026,3.5976],[-79.5663,8.8032,16.2644],[-79.5707,8.7979,0.0],[-79.5715,8.7865,0.0],[-79.5696,8.7857,0.0],[-79.5685,8.7821,0.0],[-79.566,8.7812,0.0],[-79.564,8.7826,0.0],[-79.5618,8.7799,0.0],[-79.5554,8.7799,0.0],[-79.5554,8.7818,0.0],[-79.5512,8.7812,40.4852],[-79.5496,8.774,0.7668],[-79.5457,8.7743,0.0],[-79.5449,8.7757,3.4633],[-79.5435,8.7743,0.0],[-79.5407,8.7774,0.0],[-79.5415,8.7851,0.0],[-79.5457,8.7882,76.5577],[-79.549,8.7868,55.7286],[-79.5551,8.7951,7.9809],[-79.5549,8.7993,0.0],[-79.5515,8.8001,0.0],[-79.5515,8.8029,0.0676]]],
[[[-79.5107,8.8126,42.3994],[-79.5113,8.8146,20.6374],[-79.5226,8.8054,4.1608],[-79.5218,8.8021,28.7856],[-79.5243,8.8004,0.0],[-79.524,8.799,0.0],[-79.5193,8.8021,12.3481],[-79.5165,8.801,0.0],[-79.5165,8.7988,0.0],[-79.5149,8.8013,0.0],[-79.5118,8.8013,0.0],[-79.509,8.8082,7.6736],[-79.5107,8.8126,42.3994]]],
[[[-79.6068,8.8143,2.2311],[-79.6062,8.8149,2.2311],[-79.6062,8.8162,5.5731],[-79.6085,8.8135,0.0],[-79.6068,8.8143,2.2311]]]]}}