{"type": "Feature","bbox": [-82.1398,8.2104,-82.0077,8.4169],"geometry": {"type": "MultiPolygon","coordinates": [[[[-82.1227,8.338,42.1434],[-82.127,8.3288,36.5726],[-82.1373,8.3227,60.6919],[-82.1398,8.3102,45.9801],[-82.1374,8.3048,31.9668],[-82.1306,8.302,34.7287],[-82.1226,8.2918,30.2009],[-82.1139,8.2856,33.9116],[-82.1102,8.2793,29.4372],[-82.1129,8.2697,7.8219],[-82.1208,8.259,4.5094],[-82.1145,8.2446,2.8748],[-82.1153,8.2371,2.2798],[-82.1121,8.2401,0.6158],[-82.1126,8.2376,0.0],[-82.111,8.2368,1.4016],[-82.119,8.2329,7.8261],[-82.1196,8.231,0.0],[-82.1171,8.2257,6.6067],[-82.1132,8.2235,0.0],[-82.1046,8.2235,2.4953],[-82.0921,8.2201,1.3859],[-82.0832,8.2165,0.0],[-82.0815,8.219,8.5422],[-82.0774,8.2201,6.2707],[-82.0665,8.219,16.9172],[-82.0657,8.2154,0.0],[-82.0646,8.2171,16.6115],[-82.0601,8.2165,0.0],[-82.0524,8.2196,2.0277],[-82.0407,8.2182,2.8489],[-82.0204,8.2112,1.6302],[-82.0124,8.2104,0.923],[-82.009,8.2124,2.7585],[-82.0093,8.2146,0.5503],[-82.0151,8.2146,3.5516],[-82.0221,8.2207,0.0],[-82.0271,8.219,12.2294],[-82.0257,8.2212,15.0983],[-82.0204,8.2238,0.0],[-82.0201,8.226,0.0],[-82.021,8.2274,4.5568],[-82.0274,8.2279,16.6825],[-82.0282,8.2307,12.6957],[-82.0251,8.231,0.0],[-82.0268,8.2299,0.0],[-82.026,8.2285,0.6483],[-82.0194,8.2281,6.7235],[-82.0204,8.2315,18.2153],[-82.0231,8.2321,7.8288],[-82.0228,8.2373,0.0],[-82.0265,8.2455,14.792],[-82.0225,8.2489,7.6598],[-82.0222,8.2562,11.5359],[-82.0241,8.2606,2.8237],[-82.0404,8.2672,1.4595],[-82.0545,8.2654,5.543],[-82.0507,8.2801,5.1079],[-82.0528,8.2879,13.6539],[-82.0605,8.3037,11.3474],[-82.0556,8.31,15.9191],[-82.0518,8.3207,26.8951],[-82.042,8.324,29.0383],[-82.0356,8.332,19.8512],[-82.0259,8.3378,38.3537],[-82.0231,8.3412,47.1716],[-82.0223,8.3486,63.8396],[-82.0248,8.3614,95.7832],[-82.0199,8.3612,146.4899],[-82.0163,8.3659,202.5324],[-82.023,8.3714,162.9302],[-82.0181,8.3749,185.3708],[-82.0077,8.3894,346.2242],[-82.0286,8.3848,169.5877],[-82.0322,8.3866,162.7267],[-82.031,8.3942,127.5632],[-82.0239,8.3998,165.9963],[-82.0194,8.4056,174.3254],[-82.0208,8.4092,142.3376],[-82.0186,8.4138,180.486],[-82.02,8.4169,177.2937],[-82.0226,8.4145,137.6734],[-82.022,8.4095,142.3376],[-82.0252,8.4034,100.4305],[-82.0337,8.3994,109.1662],[-82.0396,8.391,88.6933],[-82.0468,8.3843,75.5744],[-82.0531,8.3812,96.1172],[-82.057,8.3711,62.3431],[-82.0602,8.367,76.8912],[-82.0692,8.3613,58.5653],[-82.0727,8.3522,41.8865],[-82.0831,8.3352,48.9775],[-82.0985,8.3285,32.6261],[-82.1058,8.3188,28.2199],[-82.1089,8.3226,31.5616],[-82.1092,8.3317,42.5238],[-82.1188,8.3331,36.8653],[-82.1227,8.338,42.1434]]]]}
,"properties": {"GID_3": "PAN.2.12.5_1","GID_0": "PAN","country": "Panama","GID_1": "PAN.2_1","province": "Chiriquí","NL_NAME_1": "NA","GID_2": "PAN.2.12_1","county": "SanLorenzo","NL_NAME_2": "NA","city": "SanLorenzo","VARNAME_3": "NA","NL_NAME_3": "NA","TYPE_3": "Corregimiento","ENGTYPE_3": "Municipality","CC_3": "NA","HASC_3": "NA","name": "San_Lorenzo.city","area_km2": 145.6678,"hist_schema_id": "Elevation0-9000","hist_area_km2": {"0": 44.1266,"25": 51.299,"50": 23.6639,"75": 12.6496,"100": 5.6219,"125": 3.5032,"150": 1.9299,"175": 1.1118,"200": 0.7132,"225": 0.5664,"250": 0.3776,"275": 0.0629,"300": 0.042}}}