{"type": "Feature","bbox": [-80.6599,7.9273,-80.6018,7.9619],"geometry": {"type": "MultiPolygon","coordinates": [[[[-80.6568,7.9273,65.84],[-80.6501,7.93,54.5397],[-80.6447,7.9292,57.837],[-80.6309,7.9375,47.9049],[-80.6248,7.9369,72.8191],[-80.6176,7.9389,66.0587],[-80.6104,7.9341,47.0715],[-80.6023,7.9377,55.9804],[-80.6018,7.9395,49.2436],[-80.6092,7.9426,83.6762],[-80.6154,7.9522,28.2635],[-80.6254,7.9549,39.7662],[-80.6361,7.9469,75.9903],[-80.6392,7.9428,53.2953],[-80.6417,7.9422,58.5353],[-80.643,7.9444,96.3205],[-80.6425,7.9566,50.9109],[-80.6442,7.9617,42.1757],[-80.6462,7.9619,45.5963],[-80.6543,7.9529,54.5049],[-80.6599,7.9518,90.1865],[-80.6568,7.9273,65.84]]]]}
,"properties": {"GID_3": "PAN.7.5.2_1","GID_0": "PAN","country": "Panama","GID_1": "PAN.7_1","province": "Herrera","NL_NAME_1": "NA","GID_2": "PAN.7.5_1","county": "Parita","NL_NAME_2": "NA","city": "LlanodelaCruz","VARNAME_3": "NA","NL_NAME_3": "NA","TYPE_3": "Corregimiento","ENGTYPE_3": "Municipality","CC_3": "NA","HASC_3": "NA","name": "Llanodela_Cruz.city","area_km2": 11.444334,"hist_schema_id": "Elevation0-9000","hist_area_km2": {"25": 0.461966,"50": 7.244589,"75": 2.897828,"100": 0.797952,"125": 0.041999}}}