{"type":"Feature","properties":{"GID_3":"PAN.9.5.4_1","GID_0":"PAN","country":"Panama","GID_1":"PAN.9_1","province":"LosSantos","NL_NAME_1":"NA","GID_2":"PAN.9.5_1","county":"Pedasí","NL_NAME_2":"NA","city":"Pedasí","VARNAME_3":"NA","NL_NAME_3":"NA","TYPE_3":"Corregimiento","ENGTYPE_3":"Municipality","CC_3":"NA","HASC_3":"NA","name":"Pedasí.city"},
"geometry":{"type": "MultiPolygon","coordinates": [[[[-80.0782,7.441,7.2161],[-80.0685,7.4401,0.0],[-80.0679,7.4418,4.2807],[-80.0704,7.444,16.8819],[-80.0671,7.4465,0.0],[-80.0665,7.449,10.2088],[-80.0579,7.451,1.8772],[-80.0554,7.4532,0.0],[-80.0296,7.4493,0.5474],[-80.0285,7.4524,6.4535],[-80.026,7.4529,2.9433],[-80.0243,7.4557,5.1239],[-80.019,7.4562,0.0],[-80.0179,7.4585,1.8421],[-80.0137,7.4582,0.0],[-80.0137,7.4599,0.0],[-80.0029,7.466,4.9796],[-79.9993,7.4651,0.0],[-79.9976,7.4735,0.0],[-79.9993,7.4749,0.0],[-80.0013,7.4735,6.1566],[-80.0024,7.4782,14.1211],[-79.9987,7.4807,2.9473],[-79.996,7.4779,0.0],[-79.9938,7.4782,0.0],[-79.996,7.4851,0.0],[-79.999,7.4879,3.0942],[-79.9993,7.4999,0.0],[-80.0021,7.5018,10.9512],[-79.9965,7.5093,0.0],[-79.9915,7.5118,0.0],[-79.9912,7.5146,0.0],[-79.9957,7.5204,0.0],[-79.9971,7.526,0.0],[-80.0029,7.5293,4.2717],[-80.0035,7.5365,0.0],[-80.0068,7.5449,20.7043],[-80.0254,7.566,1.9306],[-80.0314,7.5526,12.9013],[-80.0391,7.5464,30.1549],[-80.0459,7.5443,24.7244],[-80.0557,7.5551,37.3508],[-80.0586,7.553,35.8268],[-80.0583,7.5463,39.1087],[-80.0607,7.5418,40.1002],[-80.0797,7.5377,62.0485],[-80.0795,7.5103,62.3928],[-80.088,7.5055,86.7076],[-80.0968,7.5032,108.7925],[-80.1013,7.4998,118.9188],[-80.1062,7.4909,95.9735],[-80.1109,7.4876,132.3335],[-80.1158,7.4864,145.2101],[-80.1061,7.4686,80.5309],[-80.0895,7.4561,41.4877],[-80.087,7.4529,26.0618],[-80.087,7.4478,43.1069],[-80.0782,7.441,7.2161]]]]}}