{"type": "Feature","bbox": [-80.8328,8.3265,-80.7783,8.4299],"geometry": {"type": "MultiPolygon","coordinates": [[[[-80.7926,8.4214,604.8623],[-80.8035,8.4245,516.6109],[-80.8068,8.4276,736.4011],[-80.8191,8.4299,920.1542],[-80.8267,8.412,461.4818],[-80.8279,8.3956,305.4627],[-80.8237,8.3779,222.851],[-80.8284,8.3571,207.5952],[-80.8328,8.3455,184.7737],[-80.8214,8.3325,122.5149],[-80.8162,8.3282,114.8974],[-80.8102,8.3266,131.2475],[-80.8079,8.3265,133.7051],[-80.8052,8.3327,120.9629],[-80.7987,8.3373,109.357],[-80.7912,8.3457,118.5554],[-80.7811,8.3667,186.6966],[-80.785,8.3858,181.0695],[-80.7786,8.4012,325.8909],[-80.7783,8.4051,326.0711],[-80.7808,8.4101,310.3376],[-80.7926,8.4214,604.8623]]]]}
,"properties": {"GID_3": "PAN.13.2.5_1","GID_0": "PAN","country": "Panama","GID_1": "PAN.13_1","province": "Veraguas","NL_NAME_1": "NA","GID_2": "PAN.13.2_1","county": "Calobre","NL_NAME_2": "NA","city": "ElPotrero","VARNAME_3": "NA","NL_NAME_3": "NA","TYPE_3": "Corregimiento","ENGTYPE_3": "Municipality","CC_3": "NA","HASC_3": "NA","name": "El_Potrero.city","area_km2": 47.02786,"hist_schema_id": "Elevation0-9000","hist_area_km2": {"100": 0.39858,"125": 7.06952,"150": 5.3701,"175": 4.30022,"200": 2.97865,"225": 2.3493,"250": 2.58002,"275": 1.90875,"300": 2.55898,"325": 2.55897,"350": 2.72678,"375": 1.97165,"400": 1.34237,"425": 1.44723,"450": 1.15359,"475": 0.69215,"500": 0.81799,"525": 0.79701,"550": 0.85993,"575": 0.46143,"600": 0.3985,"625": 0.35655,"650": 0.46142,"675": 0.33558,"700": 0.16779,"725": 0.16779,"750": 0.27266,"775": 0.16779,"800": 0.06292,"825": 0.10487,"850": 0.10487,"875": 0.04195,"900": 0.02097,"925": 0.02097}}}