{"type":"Feature","properties":{"GID_3":"PAN.10.1.6_1","GID_0":"PAN","country":"Panama","GID_1":"PAN.10_1","province":"NgöbeBuglé","NL_NAME_1":"NA","GID_2":"PAN.10.1_1","county":"Besiko","NL_NAME_2":"NA","city":"Nämnoni","VARNAME_3":"NA","NL_NAME_3":"NA","TYPE_3":"Corregimiento","ENGTYPE_3":"Municipality","CC_3":"NA","HASC_3":"NA","name":"Nämnoni.city"},
"geometry":{"type": "MultiPolygon","coordinates": [[[[-81.9813,8.3353,85.6661],[-81.9647,8.3451,186.139],[-81.9595,8.3555,126.4237],[-81.9454,8.3655,290.5932],[-81.9367,8.3781,324.965],[-81.937,8.3808,159.3683],[-81.9338,8.3816,270.9061],[-81.9244,8.3899,206.8667],[-81.9333,8.4001,236.1757],[-81.9417,8.407,341.0303],[-81.9455,8.4068,377.0492],[-81.9659,8.3919,348.3885],[-81.9817,8.3595,183.2069],[-81.9842,8.358,151.5745],[-81.9945,8.3577,198.5552],[-81.999,8.3544,144.3195],[-82.0022,8.3407,68.9551],[-81.9982,8.3362,115.2502],[-81.99,8.3344,61.7877],[-81.9813,8.3353,85.6661]]]]}}