{"type":"Feature","properties":{"GID_3":"PAN.13.11.7_1","GID_0":"PAN","country":"Panama","GID_1":"PAN.13_1","province":"Veraguas","NL_NAME_1":"NA","GID_2":"PAN.13.11_1","county":"Soná","NL_NAME_2":"NA","city":"QuebradadeOro","VARNAME_3":"NA","NL_NAME_3":"NA","TYPE_3":"Corregimiento","ENGTYPE_3":"Municipality","CC_3":"NA","HASC_3":"NA","name":"Quebradade_Oro.city"},
"geometry":{"type": "MultiPolygon","coordinates": [[[[-81.4071,8.0564,152.571],[-81.3957,8.0326,182.9273],[-81.4072,8.0138,146.816],[-81.4071,8.0116,148.5947],[-81.3869,8.0026,150.3967],[-81.3807,8.0053,183.2001],[-81.3787,8.0167,237.0063],[-81.3729,8.0225,110.7051],[-81.3669,8.0235,83.1281],[-81.3598,8.0218,58.9262],[-81.3422,8.0097,41.3324],[-81.3337,8.0273,49.1066],[-81.3204,8.038,20.2706],[-81.3101,8.0384,68.3085],[-81.2918,8.0342,16.659],[-81.2964,8.0473,134.8498],[-81.3067,8.0659,48.7434],[-81.3172,8.0712,46.9071],[-81.3381,8.0727,78.3145],[-81.3423,8.0766,36.7214],[-81.3451,8.0876,104.5698],[-81.3514,8.0901,49.3255],[-81.3653,8.0898,161.0534],[-81.377,8.0875,63.3682],[-81.3856,8.0779,34.7373],[-81.3911,8.068,42.2545],[-81.4071,8.0564,152.571]]]]}}