{"type":"Feature","properties":{"GID_2":"PAN.4.5_1","GID_0":"PAN","country":"Panama","GID_1":"PAN.4_1","province":"Colón","NL_NAME_1":"NA","county":"Portobelo","VARNAME_2":"NA","NL_NAME_2":"NA","TYPE_2":"Distrito","ENGTYPE_2":"District","CC_2":"NA","HASC_2":"PA.CL.PB","name":"Portobelo.county"},
"geometry":{"type": "MultiPolygon","coordinates": [[[[-79.6872,9.3679,393.6546],[-79.6647,9.367,186.2897],[-79.6588,9.3768,284.1519],[-79.657,9.3954,572.2704],[-79.6582,9.4263,592.9578],[-79.6563,9.4318,489.81],[-79.6485,9.4397,574.5741],[-79.6526,9.448,573.8789],[-79.6511,9.4538,649.308],[-79.6468,9.4547,574.5612],[-79.639,9.4526,596.9886],[-79.6285,9.4524,660.007],[-79.6156,9.4536,650.9511],[-79.6062,9.4609,753.8988],[-79.5951,9.4736,707.9832],[-79.5923,9.4745,761.2826],[-79.5827,9.4729,898.7327],[-79.5621,9.4853,950.1628],[-79.5424,9.4756,276.7836],[-79.5371,9.4744,222.3622],[-79.5344,9.4753,220.861],[-79.5339,9.4789,218.5102],[-79.5315,9.4813,302.8654],[-79.5234,9.482,260.4301],[-79.5164,9.4862,251.8427],[-79.5118,9.4853,252.4346],[-79.5067,9.4908,341.7767],[-79.4909,9.4911,174.4851],[-79.5094,9.5024,147.4713],[-79.516,9.5001,162.6358],[-79.5217,9.4948,254.8169],[-79.5258,9.4939,226.5411],[-79.5287,9.4957,338.1953],[-79.529,9.4988,332.2939],[-79.5247,9.5051,314.906],[-79.5229,9.5125,144.2245],[-79.5244,9.5283,184.0843],[-79.535,9.543,205.7798],[-79.545,9.5463,84.8276],[-79.5538,9.546,71.9521],[-79.5697,9.5506,80.3973],[-79.5748,9.5537,99.8148],[-79.5843,9.5542,81.8105],[-79.5773,9.5643,18.3519],[-79.5686,9.5655,71.9031],[-79.5645,9.568,97.641],[-79.5497,9.5671,22.6939],[-79.5419,9.577,17.427],[-79.5313,9.5788,16.7561],[-79.5241,9.5849,0.0],[-79.5279,9.586,2.4143],[-79.526,9.594,0.0616],[-79.5374,9.5915,1.2899],[-79.5437,9.5935,9.3872],[-79.5415,9.5946,0.0],[-79.5418,9.5976,0.0],[-79.5385,9.5971,1.1845],[-79.5362,9.5988,1.7643],[-79.5346,9.604,5.8714],[-79.5307,9.6037,0.0],[-79.5232,9.6076,0.0],[-79.5237,9.609,0.0],[-79.5304,9.6076,0.0],[-79.5279,9.6129,4.1252],[-79.5298,9.6165,0.0],[-79.5388,9.6174,0.0],[-79.5376,9.6232,2.9924],[-79.5404,9.6226,4.2711],[-79.5415,9.6243,0.0],[-79.5401,9.6299,0.2756],[-79.5379,9.6315,0.0],[-79.539,9.6346,0.0],[-79.5485,9.6296,7.1632],[-79.5524,9.631,0.0],[-79.5576,9.6263,3.2602],[-79.5618,9.6254,0.0],[-79.5646,9.6201,2.6963],[-79.5649,9.6154,6.015],[-79.5676,9.6165,0.0],[-79.5685,9.6193,0.0],[-79.5757,9.6187,35.8164],[-79.5765,9.6157,3.0323],[-79.5793,9.6146,0.0],[-79.5788,9.6126,0.4458],[-79.5821,9.6129,1.5566],[-79.5849,9.6107,2.5607],[-79.5865,9.6088,0.0],[-79.586,9.6062,9.4019],[-79.5879,9.6049,0.0],[-79.5918,9.6093,0.0],[-79.596,9.6085,6.6757],[-79.601,9.6146,5.3994],[-79.6068,9.6135,7.8934],[-79.6054,9.6107,0.7319],[-79.6071,9.6093,0.4473],[-79.6118,9.6096,1.0808],[-79.616,9.6126,7.5076],[-79.6162,9.6151,6.3741],[-79.6215,9.6171,0.0],[-79.6254,9.6146,0.0],[-79.6251,9.6126,21.8558],[-79.6268,9.6126,0.0],[-79.6276,9.6104,30.5989],[-79.631,9.611,2.1219],[-79.6363,9.6085,12.7168],[-79.6343,9.6001,6.3614],[-79.6374,9.6004,0.9527],[-79.6421,9.5976,0.0],[-79.6468,9.5904,22.5533],[-79.6562,9.5938,0.0],[-79.6565,9.5918,0.0],[-79.6546,9.5915,2.1909],[-79.6532,9.5885,23.1013],[-79.6562,9.5874,3.4807],[-79.6568,9.584,0.0],[-79.6615,9.5826,1.1436],[-79.6646,9.584,0.0],[-79.6643,9.5804,7.0058],[-79.6685,9.5821,0.0],[-79.669,9.5751,0.0],[-79.6676,9.5724,0.0],[-79.6726,9.5713,27.9957],[-79.6779,9.564,3.1079],[-79.6804,9.5662,6.3808],[-79.6829,9.5649,45.2264],[-79.6824,9.5621,21.0966],[-79.6801,9.5621,30.4432],[-79.6793,9.5585,0.0],[-79.6757,9.5565,0.0],[-79.659,9.5624,5.3386],[-79.6593,9.5685,2.4769],[-79.6576,9.5649,0.0],[-79.6537,9.5643,9.1546],[-79.6535,9.5626,4.586],[-79.6576,9.5615,0.3919],[-79.6543,9.5574,0.0],[-79.656,9.5543,2.6929],[-79.666,9.5521,0.0],[-79.6721,9.5474,17.0075],[-79.676,9.5476,0.0],[-79.6793,9.5449,0.0],[-79.6751,9.541,0.0],[-79.6738,9.5368,0.0],[-79.6693,9.5351,0.0],[-79.669,9.5332,0.5882],[-79.6746,9.5326,0.0],[-79.6771,9.5299,1.4348],[-79.681,9.5288,0.0],[-79.6829,9.5249,15.199],[-79.6879,9.5213,0.8095],[-79.6871,9.5174,9.5929],[-79.6921,9.5118,0.0],[-79.6893,9.5012,2.4323],[-79.6918,9.5018,0.9551],[-79.699,9.4957,2.7191],[-79.7038,9.4954,0.0],[-79.7046,9.4932,5.062],[-79.7087,9.4915,10.2981],[-79.7099,9.4874,0.0],[-79.7121,9.4854,3.397],[-79.7143,9.4868,1.4427],[-79.7187,9.4854,0.5486],[-79.7201,9.4812,6.2711],[-79.7226,9.4838,0.0],[-79.7251,9.4835,14.2359],[-79.7274,9.476,0.0],[-79.7249,9.4693,4.1719],[-79.7293,9.4685,1.972],[-79.7349,9.4704,0.5788],[-79.7368,9.4685,0.0],[-79.7354,9.4599,0.4977],[-79.7396,9.4551,2.0337],[-79.7382,9.4521,4.5394],[-79.741,9.454,0.0],[-79.744,9.4471,25.4986],[-79.7526,9.4432,4.7011],[-79.7699,9.4451,0.0],[-79.7726,9.4415,1.7897],[-79.7743,9.4432,0.2952],[-79.7776,9.4426,0.6995],[-79.7796,9.4401,2.9209],[-79.7846,9.4418,3.2811],[-79.7877,9.439,5.4995],[-79.7854,9.4354,15.9166],[-79.7893,9.4343,5.1906],[-79.7907,9.4365,0.9785],[-79.7921,9.4354,0.0],[-79.7907,9.4287,7.2166],[-79.7935,9.431,0.0],[-79.7965,9.4304,0.0],[-79.7971,9.4268,0.0],[-79.7951,9.4262,7.7858],[-79.8012,9.4229,0.6694],[-79.8012,9.4188,1.2414],[-79.8035,9.4185,6.4906],[-79.8046,9.4165,6.5339],[-79.8087,9.4174,0.0],[-79.8101,9.4162,2.2895],[-79.807,9.4115,14.5697],[-79.7971,9.4095,26.3043],[-79.7854,9.3963,36.7549],[-79.7676,9.3908,30.9772],[-79.7623,9.3837,92.2756],[-79.7557,9.3827,51.6196],[-79.7463,9.3897,145.8505],[-79.7337,9.3889,129.0502],[-79.7279,9.386,171.1676],[-79.7159,9.3719,351.3761],[-79.712,9.3693,388.1214],[-79.6872,9.3679,393.6546]]],
[[[-79.801,9.4315,3.7817],[-79.8037,9.4318,7.7137],[-79.806,9.4282,0.0],[-79.8012,9.4287,0.0],[-79.801,9.4315,3.7817]]],
[[[-79.7971,9.4374,3.2797],[-79.8004,9.4365,0.0],[-79.8004,9.4332,0.0],[-79.7971,9.4354,2.4433],[-79.7971,9.4374,3.2797]]],
[[[-79.6807,9.5412,0.0],[-79.6801,9.5421,0.0],[-79.6829,9.5399,0.0],[-79.6815,9.5393,0.0],[-79.6807,9.5412,0.0]]],
[[[-79.5993,9.6185,0.0],[-79.601,9.6196,2.2226],[-79.6024,9.6176,14.2201],[-79.6007,9.6171,0.0],[-79.5993,9.6185,0.0]]],
[[[-79.6635,9.5899,0.0],[-79.6651,9.5907,0.0],[-79.6665,9.5893,3.2956],[-79.6651,9.5885,0.0],[-79.6635,9.5899,0.0]]],
[[[-79.666,9.5974,0.0],[-79.6676,9.5982,3.016],[-79.6682,9.5968,2.9552],[-79.6668,9.5946,0.0],[-79.6649,9.5946,1.7681],[-79.6643,9.596,0.0],[-79.666,9.5974,0.0]]],
[[[-79.5585,9.6404,2.0611],[-79.5601,9.6407,0.0],[-79.5604,9.6357,0.0],[-79.5668,9.6349,32.5148],[-79.571,9.6301,0.0],[-79.5687,9.6301,0.0],[-79.5676,9.6276,0.0],[-79.5646,9.6285,0.0],[-79.5632,9.631,2.5856],[-79.5599,9.6313,1.9938],[-79.5551,9.6368,0.0],[-79.5585,9.6404,2.0611]]],
[[[-79.5301,9.6346,0.0],[-79.5307,9.6365,0.0],[-79.5332,9.6354,0.0],[-79.5321,9.6332,0.0],[-79.5301,9.6346,0.0]]],
[[[-79.5226,9.6374,2.0599],[-79.5226,9.639,0.0],[-79.5243,9.6385,2.0599],[-79.524,9.6371,2.0599],[-79.5226,9.6374,2.0599]]],
[[[-79.581,9.6212,4.0293],[-79.5807,9.6226,2.7708],[-79.5826,9.6226,0.0],[-79.5896,9.6207,0.0],[-79.5899,9.6187,0.0],[-79.5882,9.6174,10.2327],[-79.589,9.6149,0.0],[-79.5849,9.614,6.8799],[-79.581,9.6157,9.2432],[-79.5793,9.6185,2.1121],[-79.5815,9.6196,1.2368],[-79.581,9.6212,4.0293]]],
[[[-79.5771,9.6254,0.0],[-79.5774,9.6271,0.0],[-79.5796,9.6263,0.0],[-79.5788,9.6243,0.0],[-79.5771,9.6254,0.0]]],
[[[-79.561,9.6468,22.2865],[-79.5629,9.6468,10.802],[-79.5638,9.6449,0.0],[-79.5607,9.6449,2.9858],[-79.561,9.6468,22.2865]]]]}}