{"type":"Feature","properties":{"GID_3":"PAN.11.2.12_1","GID_0":"PAN","country":"Panama","GID_1":"PAN.11_1","province":"PanamáOeste","NL_NAME_1":"NA","GID_2":"PAN.11.2_1","county":"Capira","NL_NAME_2":"NA","city":"VillaCarmen","VARNAME_3":"NA","NL_NAME_3":"NA","TYPE_3":"Corregimiento","ENGTYPE_3":"Municipality","CC_3":"NA","HASC_3":"NA","name":"Villa_Carmen.city"},
"geometry":{"type": "MultiPolygon","coordinates": [[[[-79.8841,8.7925,154.1594],[-79.8704,8.7885,103.6656],[-79.8624,8.789,133.4952],[-79.8578,8.7939,130.3984],[-79.8554,8.8013,113.0166],[-79.8469,8.8144,93.4931],[-79.853,8.8179,127.2326],[-79.8538,8.8138,138.0893],[-79.856,8.8115,183.1528],[-79.8725,8.8062,92.1333],[-79.8841,8.7925,154.1594]]]]}}