{"type": "Feature","bbox": [-80.1882,7.637,-80.1098,7.7576],"geometry": {"type": "MultiPolygon","coordinates": [[[[-80.1882,7.6822,37.5908],[-80.1824,7.6611,44.7096],[-80.1733,7.6489,61.8813],[-80.1682,7.637,58.5768],[-80.1585,7.6505,38.067],[-80.1511,7.6567,39.6302],[-80.1317,7.6623,21.132],[-80.1253,7.669,13.5299],[-80.1171,7.6831,8.8729],[-80.1098,7.6875,16.5061],[-80.1113,7.6936,26.6304],[-80.1102,7.6947,15.8555],[-80.1127,7.699,3.4288],[-80.119,7.6996,4.4938],[-80.1143,7.7032,1.415],[-80.1215,7.7101,9.708],[-80.1249,7.7157,1.5563],[-80.1268,7.7213,0.0],[-80.1263,7.724,0.0],[-80.1324,7.7349,3.0734],[-80.1429,7.7479,0.0],[-80.1526,7.7535,10.1236],[-80.1557,7.7571,0.0],[-80.1599,7.7562,5.5843],[-80.1648,7.7576,0.0],[-80.1663,7.7554,0.5],[-80.1663,7.751,2.0559],[-80.164,7.7471,8.1321],[-80.1654,7.7454,2.5],[-80.1651,7.7323,13.8406],[-80.1725,7.73,7.8102],[-80.1798,7.7302,12.6587],[-80.1834,7.7248,23.1943],[-80.1817,7.7111,8.0283],[-80.1861,7.7049,21.1129],[-80.1873,7.6989,29.4397],[-80.179,7.6914,58.6734],[-80.1749,7.6826,65.1383],[-80.1777,7.6804,46.5537],[-80.1882,7.6822,37.5908]]]]}
,"properties": {"GID_3": "PAN.9.6.3_1","GID_0": "PAN","country": "Panama","GID_1": "PAN.9_1","province": "LosSantos","NL_NAME_1": "NA","GID_2": "PAN.9.6_1","county": "Pocrí","NL_NAME_2": "NA","city": "Paraíso","VARNAME_3": "NA","NL_NAME_3": "NA","TYPE_3": "Corregimiento","ENGTYPE_3": "Municipality","CC_3": "NA","HASC_3": "NA","name": "Paraíso.city","area_km2": 65.74384,"hist_schema_id": "Elevation0-9000","hist_area_km2": {"0": 14.91717,"25": 37.42082,"50": 12.75445,"75": 0.65139}}}