{"type":"Feature","properties":{"GID_3":"PAN.13.4.4_1","GID_0":"PAN","country":"Panama","GID_1":"PAN.13_1","province":"Veraguas","NL_NAME_1":"NA","GID_2":"PAN.13.4_1","county":"LaMesa","NL_NAME_2":"NA","city":"LlanoGrande","VARNAME_3":"NA","NL_NAME_3":"NA","TYPE_3":"Corregimiento","ENGTYPE_3":"Municipality","CC_3":"NA","HASC_3":"NA","name":"Llano_Grande.city"},
"geometry":{"type": "MultiPolygon","coordinates": [[[[-81.1519,8.0726,41.6766],[-81.1349,8.0883,82.1103],[-81.1218,8.0909,48.7603],[-81.1103,8.091,71.5979],[-81.0962,8.0954,38.1842],[-81.0917,8.0943,41.0687],[-81.0865,8.0887,40.6378],[-81.083,8.0782,43.8882],[-81.0834,8.0728,52.7773],[-81.0731,8.069,50.3719],[-81.0693,8.0695,42.3437],[-81.0672,8.1001,82.7798],[-81.0708,8.1279,59.2399],[-81.0886,8.1376,52.7675],[-81.0933,8.1378,48.812],[-81.1016,8.1342,65.3064],[-81.1174,8.1401,80.5153],[-81.1316,8.1433,109.5091],[-81.1394,8.1422,102.7583],[-81.1485,8.1304,90.83],[-81.1626,8.1192,108.9434],[-81.1635,8.1161,100.5298],[-81.1615,8.0922,87.3623],[-81.1519,8.0726,41.6766]]]]}}