{"type": "Feature","bbox": [-80.4366,7.7156,-80.392,7.7942],"geometry": {"type": "MultiPolygon","coordinates": [[[[-80.3945,7.7942,95.9722],[-80.4066,7.7919,50.1569],[-80.4132,7.7867,59.0982],[-80.4174,7.7786,84.3319],[-80.4249,7.7777,61.6874],[-80.4269,7.7649,93.9823],[-80.4334,7.7559,80.4699],[-80.4323,7.751,113.5694],[-80.4352,7.746,178.7401],[-80.4366,7.7331,148.7594],[-80.4292,7.7309,207.3963],[-80.4251,7.7205,197.9655],[-80.4169,7.7156,157.3075],[-80.4183,7.7221,138.7204],[-80.423,7.7288,145.6833],[-80.4224,7.7326,203.3504],[-80.41,7.7355,209.9342],[-80.4058,7.7384,183.8426],[-80.3989,7.7363,231.2041],[-80.392,7.7495,184.6656],[-80.3923,7.7517,162.4299],[-80.4004,7.7532,183.6899],[-80.4016,7.755,198.5228],[-80.3973,7.7703,105.2855],[-80.3945,7.7942,95.9722]]]]}
,"properties": {"GID_3": "PAN.9.1.9_1","GID_0": "PAN","country": "Panama","GID_1": "PAN.9_1","province": "LosSantos","NL_NAME_1": "NA","GID_2": "PAN.9.1_1","county": "Guararé","NL_NAME_2": "NA","city": "LlanoAbajo","VARNAME_3": "NA","NL_NAME_3": "NA","TYPE_3": "Corregimiento","ENGTYPE_3": "Municipality","CC_3": "NA","HASC_3": "NA","name": "Llano_Abajo.city","area_km2": 22.41573,"hist_schema_id": "Elevation0-9000","hist_area_km2": {"50": 1.21839,"75": 2.12172,"100": 3.10915,"125": 3.73945,"150": 4.55881,"175": 2.87819,"200": 3.13031,"225": 1.38659,"250": 0.25211,"275": 0.02101}}}