{"type":"Feature","properties":{"GID_3":"PAN.13.6.5_1","GID_0":"PAN","country":"Panama","GID_1":"PAN.13_1","province":"Veraguas","NL_NAME_1":"NA","GID_2":"PAN.13.6_1","county":"Montijo","NL_NAME_2":"NA","city":"LlanodeCatival","VARNAME_3":"NA","NL_NAME_3":"NA","TYPE_3":"Corregimiento","ENGTYPE_3":"Municipality","CC_3":"NA","HASC_3":"NA","name":"Llanode_Catival.city"},
"geometry":{"type": "MultiPolygon","coordinates": [[[[-80.8908,7.6707,232.0047],[-80.8995,7.6866,333.5586],[-80.9124,7.682,228.9094],[-80.93,7.6796,112.9502],[-80.9476,7.6817,48.8319],[-80.9596,7.6812,57.4851],[-80.9694,7.6764,26.4964],[-80.9832,7.6747,38.4519],[-80.9977,7.681,9.7896],[-81.0071,7.6879,10.7456],[-81.0093,7.6912,7.2572],[-81.009,7.696,3.1037],[-81.0115,7.6962,3.5776],[-81.0154,7.6957,0.125],[-81.0157,7.6893,8.0193],[-81.0157,7.6829,15.0089],[-81.0121,7.6782,5.623],[-81.0157,7.6807,5.4469],[-81.0176,7.6946,0.8748],[-81.0201,7.696,2.6387],[-81.0276,7.6943,0.0],[-81.0312,7.6918,14.58],[-81.0365,7.6926,0.0],[-81.0401,7.6893,2.4048],[-81.0421,7.6787,9.2809],[-81.0471,7.6815,2.4653],[-81.0504,7.6812,3.3506],[-81.0521,7.676,0.0],[-81.0504,7.664,3.6951],[-81.0474,7.6599,0.0],[-81.0435,7.6579,0.9726],[-81.0365,7.6504,0.0],[-81.0301,7.649,7.1393],[-81.0265,7.646,2.1878],[-81.014,7.6415,2.7356],[-81.006,7.6368,2.8776],[-81.004,7.6318,3.0528],[-81.0051,7.626,2.5825],[-81.0035,7.6237,0.0],[-80.9893,7.6199,10.9316],[-80.9776,7.6099,1.9112],[-80.9743,7.6012,0.0],[-80.9807,7.5887,0.0],[-80.9796,7.586,0.0],[-80.9724,7.5785,0.0],[-80.971,7.579,5.7262],[-80.9657,7.576,3.641],[-80.9504,7.5543,6.7245],[-80.9504,7.5446,8.8135],[-80.9582,7.5385,2.759],[-80.9599,7.5343,1.6476],[-80.959,7.5168,0.0],[-80.966,7.5143,6.1957],[-80.9682,7.5151,4.6498],[-80.9682,7.5113,12.5701],[-80.971,7.509,13.4574],[-80.971,7.5058,16.5336],[-80.9559,7.5081,30.0562],[-80.9436,7.5122,53.2858],[-80.9338,7.5116,101.5335],[-80.9289,7.5082,47.6744],[-80.9231,7.4979,25.5604],[-80.9076,7.4919,52.2865],[-80.8943,7.4791,214.8165],[-80.8867,7.4761,198.207],[-80.8795,7.4774,144.5786],[-80.8761,7.4816,158.7654],[-80.8768,7.5039,246.0363],[-80.8753,7.5105,362.1134],[-80.8724,7.5151,336.2125],[-80.864,7.5213,273.8051],[-80.8589,7.5385,599.9389],[-80.8385,7.5539,480.9342],[-80.8227,7.5575,330.9416],[-80.8409,7.5898,587.8339],[-80.8908,7.6707,232.0047]]]]}}