{"type":"Feature","properties":{"GID_3":"PAN.2.13.9_1","GID_0":"PAN","country":"Panama","GID_1":"PAN.2_1","province":"Chiriquí","NL_NAME_1":"NA","GID_2":"PAN.2.13_1","county":"Tolé","NL_NAME_2":"NA","city":"Veladero","VARNAME_3":"NA","NL_NAME_3":"NA","TYPE_3":"Corregimiento","ENGTYPE_3":"Municipality","CC_3":"NA","HASC_3":"NA","name":"Veladero.city"},
"geometry":{"type": "MultiPolygon","coordinates": [[[[-81.5997,8.2414,179.7269],[-81.6045,8.2479,217.3617],[-81.6071,8.2558,488.8861],[-81.6095,8.2568,480.4394],[-81.6105,8.2622,507.1619],[-81.6198,8.2643,180.2323],[-81.6196,8.2671,182.6137],[-81.614,8.2687,226.0716],[-81.6238,8.2758,167.7126],[-81.6219,8.2779,181.493],[-81.6219,8.2818,231.9442],[-81.6239,8.2831,178.6939],[-81.6241,8.2859,290.1277],[-81.6284,8.2872,253.4819],[-81.627,8.2936,416.70119999999997],[-81.6291,8.2954,372.9631],[-81.6291,8.3051,368.1846],[-81.6344,8.3011,379.9922],[-81.6424,8.3015,415.732],[-81.6447,8.2992,421.0379],[-81.6463,8.2937,214.0936],[-81.6538,8.2843,310.8515],[-81.6548,8.2793,422.7406],[-81.6648,8.273,448.7905],[-81.6603,8.269,411.1481],[-81.6578,8.2584,321.0686],[-81.655,8.2537,335.014],[-81.6634,8.2404,272.7368],[-81.666,8.2309,263.2552],[-81.6695,8.2275,258.122],[-81.67,8.2208,213.6039],[-81.674,8.2122,228.8214],[-81.6663,8.2111,302.087],[-81.6561,8.1982,334.5093],[-81.6582,8.1931,269.2733],[-81.6576,8.1879,289.7058],[-81.6454,8.1871,535.2497],[-81.6427,8.1986,371.2714],[-81.6289,8.219,175.9167],[-81.633,8.2302,256.0424],[-81.6333,8.2348,205.1936],[-81.6202,8.2389,239.2],[-81.6127,8.2432,102.158],[-81.5997,8.2414,179.7269]]]]}}