{"type":"Feature","properties":{"GID_3":"PAN.2.1.7_1","GID_0":"PAN","country":"Panama","GID_1":"PAN.2_1","province":"Chiriquí","NL_NAME_1":"NA","GID_2":"PAN.2.1_1","county":"Alanje","NL_NAME_2":"NA","city":"SantoTomás","VARNAME_3":"NA","NL_NAME_3":"NA","TYPE_3":"Corregimiento","ENGTYPE_3":"Municipality","CC_3":"NA","HASC_3":"NA","name":"Santo_Tomás.city"},
"geometry":{"type": "MultiPolygon","coordinates": [[[[-82.6287,8.451,84.6438],[-82.6355,8.4545,90.7229],[-82.6414,8.4531,88.7676],[-82.6372,8.4325,61.7904],[-82.6368,8.4128,36.1884],[-82.6565,8.3815,19.5363],[-82.6646,8.3745,13.4342],[-82.6754,8.3774,10.0952],[-82.6822,8.37,9.0127],[-82.6896,8.3685,8.2246],[-82.689,8.351,7.3566],[-82.6858,8.3304,0.0],[-82.6657,8.3287,0.0],[-82.651,8.3462,8.6695],[-82.6367,8.3596,12.1598],[-82.6269,8.3664,17.2932],[-82.6238,8.3708,17.7889],[-82.6263,8.3892,25.7721],[-82.6248,8.4045,36.0501],[-82.6274,8.4124,45.5034],[-82.6287,8.451,84.6438]]]]}}