{"type":"Feature","properties":{"GID_2":"PAN.9.1_1","GID_0":"PAN","country":"Panama","GID_1":"PAN.9_1","province":"LosSantos","NL_NAME_1":"NA","county":"Guararé","VARNAME_2":"NA","NL_NAME_2":"NA","TYPE_2":"Distrito","ENGTYPE_2":"District","CC_2":"NA","HASC_2":"PA.LS.GR","name":"Guararé.county"},
"geometry":{"type": "MultiPolygon","coordinates": [[[[-80.3824,7.6897,206.9676],[-80.3827,7.6917,239.7035],[-80.3745,7.7036,214.169],[-80.3692,7.7067,210.7584],[-80.3653,7.7137,168.8824],[-80.3615,7.7166,158.7936],[-80.3599,7.7246,137.1538],[-80.3541,7.732,133.6528],[-80.3469,7.7374,75.2097],[-80.3418,7.7464,156.3928],[-80.3346,7.745,156.6152],[-80.3315,7.7459,134.6721],[-80.3281,7.7533,66.9376],[-80.3168,7.758,29.5324],[-80.3182,7.7655,31.3849],[-80.3104,7.7709,60.4777],[-80.3091,7.7767,31.9866],[-80.3056,7.7803,28.0459],[-80.2958,7.7818,30.1976],[-80.2888,7.7811,28.7682],[-80.2848,7.7863,37.2857],[-80.272,7.7888,37.6957],[-80.2645,7.7882,44.7436],[-80.261,7.7904,35.0301],[-80.2587,7.794,36.4006],[-80.2588,7.7994,33.4073],[-80.254,7.8057,24.9154],[-80.2576,7.8166,10.171],[-80.2503,7.8194,6.7342],[-80.241,7.8295,11.4346],[-80.2388,7.834,0.0],[-80.2418,7.8337,8.0797],[-80.2615,7.8465,14.965],[-80.2682,7.8565,0.0],[-80.2729,7.859,2.2704],[-80.2746,7.8618,2.8571],[-80.2774,7.8621,0.0],[-80.2812,7.866,0.0],[-80.286,7.8651,2.2712],[-80.3012,7.8868,4.1282],[-80.316,7.9007,1.1867],[-80.3163,7.8887,11.7204],[-80.3155,7.8835,9.1209],[-80.321,7.8767,18.5621],[-80.3217,7.869,23.0054],[-80.3257,7.8585,34.9381],[-80.3209,7.8478,31.2776],[-80.3249,7.8375,17.9891],[-80.339,7.8323,33.9061],[-80.3448,7.8233,49.7925],[-80.3477,7.8155,73.2661],[-80.3598,7.8113,56.6012],[-80.3638,7.8017,24.4175],[-80.3623,7.7969,21.9841],[-80.3653,7.7948,24.5668],[-80.3723,7.7925,30.7334],[-80.3764,7.7957,27.4582],[-80.3781,7.799,27.6718],[-80.3871,7.7952,49.0768],[-80.4066,7.7919,50.1569],[-80.4132,7.7867,59.0982],[-80.4174,7.7786,84.3319],[-80.424,7.7782,61.6874],[-80.426,7.7762,60.8699],[-80.4254,7.7707,68.5873],[-80.4269,7.7649,93.9823],[-80.4334,7.7559,80.4699],[-80.4323,7.751,113.5694],[-80.4352,7.746,178.7401],[-80.4366,7.7331,148.7594],[-80.4292,7.7309,207.3963],[-80.4256,7.7212,197.9655],[-80.4169,7.7156,157.3075],[-80.4173,7.7113,174.9141],[-80.4134,7.707,216.4563],[-80.427,7.694,220.2351],[-80.4253,7.6816,276.2273],[-80.422,7.6738,308.2387],[-80.4271,7.666,380.9016],[-80.4288,7.6557,617.8098],[-80.4358,7.6486,680.1078],[-80.4314,7.6384,708.5526],[-80.4159,7.6379,535.1321],[-80.3968,7.6482,431.2007],[-80.391,7.6563,401.7023],[-80.3882,7.6648,351.5052],[-80.3901,7.6782,231.3406],[-80.3824,7.6897,206.9676]]]]}}