{"type": "Feature","bbox": [-80.6721,8.0676,-80.6113,8.1186],"geometry": {"type": "MultiPolygon","coordinates": [[[[-80.6526,8.1159,12.6463],[-80.6606,8.1061,17.8636],[-80.6589,8.1004,13.7637],[-80.6681,8.0822,12.9924],[-80.6721,8.0791,16.9443],[-80.6683,8.0676,19.3195],[-80.6641,8.0685,21.1414],[-80.6582,8.0766,17.9039],[-80.6534,8.0756,17.2224],[-80.649,8.0779,15.1416],[-80.6461,8.0775,29.6154],[-80.6414,8.0736,34.6718],[-80.6278,8.0758,24.0372],[-80.6232,8.0732,16.4852],[-80.6142,8.073,22.7461],[-80.6113,8.0781,10.5726],[-80.612,8.0817,11.3787],[-80.6208,8.092,9.5609],[-80.6256,8.0947,7.48],[-80.6305,8.0951,8.9007],[-80.633,8.1064,9.1433],[-80.6227,8.1159,9.9555],[-80.6233,8.1186,10.2131],[-80.6251,8.1185,10.9245],[-80.6291,8.1136,12.2947],[-80.6346,8.115,13.9082],[-80.6382,8.1113,9.9185],[-80.6413,8.1117,9.0184],[-80.6467,8.1071,9.4262],[-80.6468,8.1123,11.3551],[-80.6507,8.1129,12.2113],[-80.6526,8.1159,12.6463]]]]}
,"properties": {"GID_3": "PAN.7.7.5_1","GID_0": "PAN","country": "Panama","GID_1": "PAN.7_1","province": "Herrera","NL_NAME_1": "NA","GID_2": "PAN.7.7_1","county": "SantaMaría","NL_NAME_2": "NA","city": "SantaMaría","VARNAME_3": "NA","NL_NAME_3": "NA","TYPE_3": "Corregimiento","ENGTYPE_3": "Municipality","CC_3": "NA","HASC_3": "NA","name": "Santa_María.city","area_km2": 19.56379,"hist_schema_id": "Elevation0-9000","hist_area_km2": {"0": 9.99171,"25": 9.50911,"50": 0.06297}}}