{"type": "Feature","bbox": [-79.9857,8.5944,-79.9067,8.6981],"geometry": {"type": "MultiPolygon","coordinates": [[[[-79.9804,8.6912,585.1514],[-79.9857,8.6746,366.4596],[-79.9848,8.6684,321.1837],[-79.9806,8.6607,220.3742],[-79.9823,8.65,149.3551],[-79.9792,8.6472,173.3786],[-79.9744,8.6465,177.9256],[-79.962,8.6503,121.8592],[-79.9586,8.6486,116.1715],[-79.9573,8.6459,106.0298],[-79.9574,8.6409,97.798],[-79.962,8.6306,87.5693],[-79.9629,8.6201,82.3405],[-79.9684,8.6101,65.7889],[-79.9583,8.6051,56.7381],[-79.9403,8.6011,50.3808],[-79.933,8.5944,121.992],[-79.9267,8.6008,232.8958],[-79.9202,8.613,234.8776],[-79.9077,8.6226,38.5652],[-79.9067,8.6252,74.9798],[-79.9138,8.6292,48.4087],[-79.9214,8.6486,432.289],[-79.9286,8.6583,697.2797],[-79.9376,8.6478,382.3181],[-79.9414,8.646,415.3253],[-79.955,8.6588,269.1108],[-79.9616,8.6628,143.7149],[-79.9606,8.671,276.6397],[-79.9631,8.6816,427.4311],[-79.9504,8.6968,770.7646],[-79.9579,8.6981,739.0657],[-79.9698,8.691,585.9155],[-79.9804,8.6912,585.1514]]]]}
,"properties": {"GID_3": "PAN.11.3.2_1","GID_0": "PAN","country": "Panama","GID_1": "PAN.11_1","province": "PanamáOeste","NL_NAME_1": "NA","GID_2": "PAN.11.3_1","county": "Chame","NL_NAME_2": "NA","city": "BuenosAires","VARNAME_3": "NA","NL_NAME_3": "NA","TYPE_3": "Corregimiento","ENGTYPE_3": "Municipality","CC_3": "NA","HASC_3": "NA","name": "Buenos_Aires.city","area_km2": 40.85407,"hist_schema_id": "Elevation0-9000","hist_area_km2": {"25": 0.14674,"50": 3.39596,"75": 4.69568,"100": 3.50074,"125": 3.22818,"150": 2.85082,"175": 2.68313,"200": 2.55735,"225": 2.64119,"250": 2.09614,"275": 1.34152,"300": 1.27863,"325": 1.13188,"350": 0.92226,"375": 0.88033,"400": 1.17375,"425": 1.17375,"450": 0.98511,"475": 0.6707,"500": 0.83837,"525": 0.25151,"550": 0.39823,"575": 0.52397,"600": 0.37727,"625": 0.25151,"650": 0.35632,"675": 0.18864,"700": 0.10479,"725": 0.18864,"750": 0.02096}}}