{"type":"Feature","properties":{"GID_3":"PAN.5.1.6_1","GID_0":"PAN","country":"Panama","GID_1":"PAN.5_1","province":"Darién","NL_NAME_1":"NA","GID_2":"PAN.5.1_1","county":"Chepigana","NL_NAME_2":"NA","city":"Jaqué","VARNAME_3":"NA","NL_NAME_3":"NA","TYPE_3":"Corregimiento","ENGTYPE_3":"Municipality","CC_3":"NA","HASC_3":"NA","name":"Jaqué.city"},
"geometry":{"type": "MultiPolygon","coordinates": [[[[-78.0471,7.4068,0.0],[-78.0485,7.4051,0.0],[-78.0457,7.404,0.0],[-78.046,7.4068,0.0],[-78.0471,7.4068,0.0]]],
[[[-77.798,7.4614,352.1866],[-77.8019,7.4679,497.8826],[-77.8064,7.4667,546.1422],[-77.8347,7.4782,732.0155],[-77.8369,7.49,559.2263],[-77.834,7.5018,568.6174],[-77.8348,7.5126,600.2373],[-77.8372,7.5172,571.8691],[-77.8461,7.5236,695.0617],[-77.8551,7.5258,536.1263],[-77.8787,7.5262,658.2033],[-77.889,7.5257,961.1129],[-77.8965,7.5231,712.4135],[-77.901,7.5255,878.4053],[-77.9077,7.5408,989.7609],[-77.9052,7.5585,945.1079],[-77.9099,7.5656,992.1055],[-77.9158,7.566,972.6133],[-77.9164,7.5736,1090.0031],[-77.9215,7.5832,1068.9481],[-77.9256,7.5958,1031.816],[-77.9258,7.6011,1142.5692],[-77.9233,7.6077,928.0269],[-77.9242,7.619,1041.0616],[-77.926,7.6216,1064.1572],[-77.9448,7.6233,1088.7734],[-77.9523,7.6167,997.4121],[-77.9635,7.6107,1251.6758],[-77.9706,7.6002,1324.969],[-77.9791,7.5944,1165.5134],[-77.9909,7.5903,875.3799],[-77.9963,7.5916,915.7914],[-78.0016,7.5969,815.8525],[-78.0077,7.6192,989.153],[-78.0269,7.617,488.6803],[-78.0372,7.6139,434.7972],[-78.0405,7.611,339.1019],[-78.0419,7.595,505.16],[-78.0439,7.5917,423.7657],[-78.0493,7.5895,347.1046],[-78.057,7.5822,151.8281],[-78.0632,7.5812,131.7589],[-78.0722,7.6097,357.3777],[-78.0774,7.6208,294.2016],[-78.0824,7.6526,473.999],[-78.0854,7.6531,404.5077],[-78.0904,7.6486,524.7314],[-78.0944,7.6482,607.4049],[-78.1032,7.6554,1029.1395],[-78.1089,7.6578,882.864],[-78.1253,7.6736,1335.3799],[-78.1459,7.6793,1336.0745],[-78.1817,7.6646,747.6776],[-78.1807,7.6576,475.453],[-78.1757,7.6464,404.0386],[-78.1586,7.6206,187.125],[-78.1518,7.595,209.3421],[-78.1519,7.586,218.2531],[-78.1568,7.575,85.6517],[-78.1581,7.561,19.7737],[-78.1611,7.5523,107.6045],[-78.1693,7.5367,38.9788],[-78.1633,7.5302,20.0379],[-78.1606,7.5299,19.9203],[-78.1595,7.5265,1.2933],[-78.1568,7.5285,6.8086],[-78.1557,7.5274,7.4648],[-78.1643,7.5218,7.5909],[-78.1657,7.5193,0.0],[-78.1679,7.519,0.0],[-78.1665,7.5154,0.0],[-78.1435,7.5038,6.6346],[-78.1318,7.4951,0.0],[-78.1293,7.4924,39.4009],[-78.1285,7.4868,32.0709],[-78.1332,7.4863,5.7809],[-78.1324,7.4832,3.8404],[-78.1338,7.479,0.0],[-78.1315,7.4782,0.0],[-78.1301,7.4751,0.0],[-78.126,7.4749,0.0],[-78.126,7.4676,0.0],[-78.1226,7.4657,0.0],[-78.124,7.4629,0.0],[-78.1118,7.4565,10.3952],[-78.1082,7.449,13.1055],[-78.106,7.4476,0.0],[-78.1021,7.4499,11.5114],[-78.0987,7.4471,6.0113],[-78.0976,7.4435,0.0],[-78.0957,7.4457,61.2101],[-78.0915,7.4462,6.9082],[-78.089,7.4421,0.0],[-78.0871,7.4421,16.7713],[-78.0851,7.4368,0.0],[-78.0818,7.4363,9.982],[-78.0815,7.434,0.0],[-78.0779,7.4313,150.1882],[-78.0779,7.4271,11.6982],[-78.0757,7.4274,119.8128],[-78.076,7.4257,0.0],[-78.0743,7.4249,14.3441],[-78.0751,7.4207,0.0],[-78.0732,7.4201,0.0],[-78.0726,7.4162,0.0],[-78.0707,7.4162,8.6597],[-78.0701,7.4143,0.0],[-78.0646,7.416,0.0],[-78.0601,7.4207,33.9917],[-78.061,7.4249,6.1149],[-78.0596,7.4268,16.7303],[-78.056,7.4265,0.0],[-78.0507,7.4288,28.4431],[-78.0454,7.4265,0.0],[-78.044,7.4232,0.0],[-78.0465,7.4162,14.2252],[-78.0451,7.4137,0.0],[-78.0429,7.4151,51.2339],[-78.0413,7.4137,2.0106],[-78.0404,7.4093,9.4163],[-78.041,7.4068,16.1806],[-78.0437,7.4071,0.0],[-78.044,7.4032,7.7606],[-78.0474,7.4004,0.0],[-78.0451,7.3988,6.5085],[-78.0465,7.3971,0.0],[-78.0446,7.3943,28.7465],[-78.0446,7.3901,0.0],[-78.0404,7.3893,6.3286],[-78.041,7.3862,0.0],[-78.036,7.3879,6.9825],[-78.0385,7.3899,0.0],[-78.0379,7.3921,6.9794],[-78.0349,7.3924,12.0416],[-78.0329,7.3907,5.6991],[-78.0285,7.3929,5.2228],[-78.0257,7.391,3.1089],[-78.0265,7.3879,12.3417],[-78.0254,7.386,0.0],[-78.024,7.3876,18.6231],[-78.0224,7.3871,31.2508],[-78.0221,7.3846,47.438],[-78.0235,7.3837,7.1533],[-78.0224,7.3804,34.177],[-78.0268,7.3799,0.0],[-78.0249,7.3782,0.0],[-78.0251,7.3751,4.0118],[-78.029,7.371,0.0],[-78.0274,7.3699,0.0],[-78.029,7.3665,0.0],[-78.0271,7.3632,0.0],[-78.0287,7.3521,0.0],[-78.024,7.3515,38.9164],[-78.0235,7.3388,21.9425],[-78.0196,7.3379,68.7399],[-78.0199,7.334,18.0422],[-78.016,7.3315,2.3118],[-78.0107,7.3312,0.0],[-78.0076,7.3257,27.2828],[-78.0046,7.3263,2.789],[-77.999,7.3218,0.3308],[-77.9996,7.3171,3.0254],[-77.9968,7.3115,27.7316],[-77.999,7.3093,0.0],[-77.9993,7.3057,0.0],[-77.9962,7.3074,71.4076],[-77.9976,7.3035,0.0],[-77.9954,7.3065,7.9735],[-77.9926,7.3054,0.0],[-77.9874,7.2985,15.3014],[-77.9876,7.2962,0.0],[-77.9846,7.2974,41.5327],[-77.9804,7.2924,0.0],[-77.9774,7.2938,5.401],[-77.9743,7.2899,0.0],[-77.9754,7.2879,0.0],[-77.9721,7.2876,0.0],[-77.9657,7.2835,0.0],[-77.9654,7.2804,0.0],[-77.9568,7.2804,0.0],[-77.9563,7.2765,0.0],[-77.9518,7.2768,0.0],[-77.9526,7.274,0.0],[-77.9507,7.2732,0.0],[-77.9515,7.2704,0.0],[-77.949,7.264,0.0],[-77.9457,7.2646,38.8666],[-77.9426,7.2621,10.2531],[-77.9396,7.2635,2.9986],[-77.939,7.2615,0.0],[-77.9415,7.2582,0.0],[-77.9388,7.2593,0.0],[-77.9321,7.2537,0.0],[-77.9265,7.2529,0.0],[-77.9246,7.2504,0.0],[-77.9249,7.246,0.0],[-77.9193,7.2446,109.844],[-77.9193,7.2418,0.0],[-77.9135,7.2399,0.0],[-77.9112,7.2418,40.4177],[-77.9099,7.2363,0.0],[-77.9076,7.2365,0.0],[-77.906,7.2393,0.0],[-77.9032,7.2368,0.0],[-77.8974,7.2363,0.0],[-77.8968,7.2335,30.1479],[-77.8985,7.231,2.511],[-77.8957,7.229,4.2574],[-77.896,7.2265,0.0],[-77.8935,7.2274,0.0],[-77.8946,7.2235,0.0],[-77.8935,7.2215,0.0],[-77.8874,7.2232,7.8601],[-77.8871,7.2204,0.0],[-77.8834,7.2184,20.8319],[-77.8803,7.2205,250.6552],[-77.87,7.2354,550.5648],[-77.8595,7.2737,403.3377],[-77.8587,7.2856,278.9048],[-77.8482,7.3031,59.4781],[-77.8475,7.3182,360.9548],[-77.8448,7.3244,281.2911],[-77.8466,7.329,396.6761],[-77.8461,7.3328,507.7512],[-77.8305,7.3606,426.2982],[-77.8244,7.3841,439.3339],[-77.8189,7.3963,559.2661],[-77.817,7.4079,525.1508],[-77.8099,7.4281,590.875],[-77.8039,7.4395,495.571],[-77.798,7.4614,352.1866]]]]}}