{"type": "Feature","bbox": [-79.7991,8.8585,-79.5593,9.1196],"geometry": {"type": "MultiPolygon","coordinates": [[[[-79.5643,8.8601,0.0],[-79.5657,8.8601,0.0],[-79.5651,8.8587,0.0],[-79.5643,8.8596,0.0],[-79.5643,8.8601,0.0]]],
[[[-79.6946,8.8638,0.0],[-79.696,8.8649,0.0],[-79.6965,8.8621,0.0],[-79.6957,8.8593,0.0],[-79.6937,8.8585,0.0],[-79.6946,8.8615,0.0],[-79.6946,8.8638,0.0]]],
[[[-79.5926,8.8779,6.6544],[-79.5943,8.8788,0.0],[-79.5943,8.8757,0.0],[-79.5926,8.8768,0.0],[-79.5926,8.8779,6.6544]]],
[[[-79.7047,8.8903,8.3423],[-79.7026,8.8813,16.1079],[-79.7029,8.8729,0.0],[-79.7004,8.876,5.7247],[-79.6968,8.8713,7.2446],[-79.6971,8.8679,0.0],[-79.6957,8.8676,0.0],[-79.6943,8.8701,0.0],[-79.6915,8.8707,8.1152],[-79.6904,8.8749,0.0],[-79.6826,8.8765,16.5564],[-79.6793,8.8699,1.7548],[-79.6807,8.8671,0.8704],[-79.6799,8.8643,1.1822],[-79.6718,8.8593,0.0],[-79.666,8.8646,5.5527],[-79.6701,8.8696,0.0],[-79.6693,8.8735,4.686],[-79.671,8.8754,18.6882],[-79.6704,8.8796,0.0],[-79.6721,8.8838,9.1836],[-79.6687,8.8851,8.2081],[-79.6687,8.889,11.2922],[-79.6657,8.8888,0.0],[-79.6665,8.8901,0.0],[-79.664,8.8901,0.0],[-79.6621,8.8937,0.0],[-79.6596,8.8937,1.4582],[-79.6585,8.8888,0.0],[-79.6579,8.8915,1.6368],[-79.6551,8.8918,3.4716],[-79.6554,8.8851,0.0],[-79.6515,8.8824,5.136],[-79.6524,8.8796,0.0],[-79.6499,8.8813,0.0],[-79.6471,8.8785,0.0],[-79.6446,8.879,0.0],[-79.6457,8.8851,0.0],[-79.6363,8.886,3.6783],[-79.634,8.8843,0.0],[-79.631,8.8854,0.0],[-79.6299,8.8838,0.0],[-79.6296,8.8854,0.0],[-79.624,8.8854,0.0],[-79.6254,8.8871,6.3871],[-79.6193,8.8874,0.0],[-79.6162,8.8924,4.8448],[-79.606,8.8943,5.7659],[-79.5937,8.8932,14.772],[-79.5929,8.8907,7.8745],[-79.5871,8.8904,0.0],[-79.5815,8.8871,3.3903],[-79.581,8.8885,3.3903],[-79.5835,8.8912,0.0],[-79.5826,8.896,23.5821],[-79.579,8.8982,3.4655],[-79.5721,8.8965,0.0],[-79.5663,8.9001,0.0],[-79.5629,8.9068,0.0],[-79.5593,8.921,0.0],[-79.5593,8.9229,0.0],[-79.5674,8.929,0.0],[-79.5682,8.9313,0.0],[-79.5671,8.9365,0.0],[-79.5643,8.9399,0.0],[-79.5654,8.9421,0.0],[-79.5679,8.9432,0.0],[-79.5718,8.9421,0.0],[-79.574,8.9437,8.3765],[-79.5726,8.9454,0.0],[-79.574,8.9479,3.967],[-79.5718,8.9513,0.0],[-79.5718,8.9546,0.5],[-79.5735,8.9551,0.5],[-79.571,8.9546,0.5],[-79.5715,8.9579,0.5],[-79.5765,8.9624,0.5],[-79.5776,8.9668,0.5],[-79.5846,8.9762,-12.5812],[-79.5832,8.9771,-1.4873],[-79.5815,8.9743,-6.556],[-79.5796,8.9754,1.0],[-79.586,8.9904,2.5],[-79.5837,8.9907,5.6766],[-79.5801,8.986,6.0259],[-79.5776,8.9757,5.8877],[-79.5753,8.9802,9.079],[-79.5764,8.9886,17.5199],[-79.5814,8.995,20.2631],[-79.6046,9.0062,16.5238],[-79.608,9.0143,16.625],[-79.6122,9.0182,25.5268],[-79.6451,9.0382,38.9884],[-79.6551,9.053,25.0],[-79.672,9.067,40.7528],[-79.6807,9.0864,25.0],[-79.6932,9.1037,48.0252],[-79.6918,9.1065,34.0135],[-79.6935,9.1079,31.581],[-79.6971,9.1096,25.0],[-79.7015,9.1093,26.9618],[-79.704,9.1062,38.1293],[-79.7049,9.1087,30.696],[-79.7079,9.1099,33.4771],[-79.7051,9.114,25.0],[-79.7085,9.1149,25.0],[-79.7126,9.1149,25.5035],[-79.7129,9.1138,25.5035],[-79.7101,9.1126,35.0019],[-79.7112,9.1124,35.0019],[-79.7193,9.1149,28.9443],[-79.7237,9.1099,27.1068],[-79.7329,9.1132,35.222],[-79.7354,9.1168,36.0273],[-79.744,9.1196,25.0],[-79.7462,9.1185,25.0],[-79.7462,9.1165,25.0],[-79.7429,9.1112,25.0],[-79.7457,9.1099,32.3676],[-79.7471,9.1129,25.0],[-79.7485,9.1124,25.0],[-79.7482,9.1096,25.0],[-79.746,9.1079,25.0],[-79.7468,9.1068,40.6964],[-79.7507,9.109,25.0],[-79.7515,9.1129,29.0979],[-79.7535,9.1126,57.98],[-79.7513,9.1168,44.9746],[-79.754,9.1193,25.0],[-79.7596,9.1143,25.0],[-79.7599,9.1118,28.205],[-79.7574,9.1024,25.0],[-79.7521,9.0976,50.4646],[-79.7521,9.0957,31.9801],[-79.754,9.0954,55.9732],[-79.7593,9.1018,28.1484],[-79.7607,9.0968,42.3974],[-79.7626,9.0963,38.1466],[-79.7607,9.0988,35.9684],[-79.7613,9.1021,33.2607],[-79.7668,9.1012,30.2335],[-79.7663,9.1051,33.444],[-79.7688,9.1062,27.8332],[-79.771,9.1051,36.0935],[-79.7746,9.0988,28.248],[-79.7732,9.1051,25.0],[-79.7751,9.1065,25.0],[-79.7754,9.1126,25.0],[-79.7801,9.1126,25.0],[-79.7821,9.111,32.8907],[-79.7846,9.1135,35.5429],[-79.7862,9.111,41.6508],[-79.7887,9.1104,25.0],[-79.7851,9.1007,29.8213],[-79.7882,9.1007,26.9834],[-79.7921,9.0985,25.0],[-79.7924,9.0965,34.609],[-79.7943,9.0965,28.4554],[-79.7924,9.0901,39.3724],[-79.7946,9.0887,42.2433],[-79.7949,9.0915,25.0],[-79.7991,9.0893,67.5451],[-79.7989,9.0866,69.0921],[-79.7978,9.0821,42.0796],[-79.7924,9.0843,25.0],[-79.7926,9.0829,30.7781],[-79.7976,9.0815,40.6557],[-79.7944,9.077,118.7244],[-79.7913,9.0654,74.092],[-79.7837,9.0575,65.302],[-79.7701,9.0512,75.5524],[-79.7688,9.0477,53.6058],[-79.7692,9.0348,75.6931],[-79.7564,9.0227,102.6328],[-79.7745,8.9902,129.9897],[-79.7537,8.9732,137.3551],[-79.7519,8.9635,116.2977],[-79.7462,8.9589,101.07],[-79.7457,8.9547,134.55],[-79.7476,8.9487,102.0462],[-79.7568,8.9429,175.1287],[-79.7621,8.9348,112.3845],[-79.7683,8.9307,94.6593],[-79.7682,8.9164,42.9358],[-79.7615,8.9068,18.0322],[-79.7467,8.9108,15.1385],[-79.7391,8.907,16.449],[-79.733,8.9008,19.2774],[-79.7257,8.9036,14.8773],[-79.7147,8.9041,7.9349],[-79.7047,8.8903,8.3423]]],
[[[-79.7615,9.1051,30.2047],[-79.7629,9.106,25.0],[-79.7632,9.1021,33.2607],[-79.7613,9.1026,33.2607],[-79.7615,9.1051,30.2047]]],
[[[-79.764,9.1112,25.0],[-79.7629,9.1079,25.0],[-79.7613,9.112,49.0674],[-79.7626,9.1129,25.0],[-79.764,9.1112,25.0]]],
[[[-79.7221,9.1171,25.0],[-79.726,9.1162,28.5202],[-79.7265,9.114,25.0],[-79.7249,9.1135,31.6833],[-79.7237,9.114,38.6338],[-79.7232,9.111,28.5689],[-79.7204,9.1146,30.3074],[-79.7221,9.1171,25.0]]]]}
,"properties": {"GID_2": "PAN.11.1_1","GID_0": "PAN","country": "Panama","GID_1": "PAN.11_1","province": "PanamáOeste","NL_NAME_1": "NA","county": "Arraiján","VARNAME_2": "NA","NL_NAME_2": "NA","TYPE_2": "Distrito","ENGTYPE_2": "District","CC_2": "NA","HASC_2": "PA.PN.AR","name": "Arraiján.county","area_km2": 422.6291,"hist_schema_id": "Elevation0-9000","hist_area_km2": {"-25": 0.0209,"0": 30.3297,"25": 65.515,"50": 54.0518,"75": 59.6388,"100": 59.0946,"125": 68.6652,"150": 40.4368,"175": 21.6105,"200": 10.8054,"225": 5.1933,"250": 2.4082,"275": 1.4449,"300": 1.0681,"325": 0.5864,"350": 0.5655,"375": 0.3351,"400": 0.2723,"425": 0.2304,"450": 0.1466,"475": 0.1466,"500": 0.0628}}}