{"type":"Feature","properties":{"GID_3":"PAN.11.2.7_1","GID_0":"PAN","country":"Panama","GID_1":"PAN.11_1","province":"PanamáOeste","NL_NAME_1":"NA","GID_2":"PAN.11.2_1","county":"Capira","NL_NAME_2":"NA","city":"ElCacao","VARNAME_3":"NA","NL_NAME_3":"NA","TYPE_3":"Corregimiento","ENGTYPE_3":"Municipality","CC_3":"NA","HASC_3":"NA","name":"El_Cacao.city"},
"geometry":{"type": "MultiPolygon","coordinates": [[[[-80.0033,8.8273,213.7988],[-80.0203,8.8207,393.0892],[-80.03,8.8144,403.1089],[-80.0354,8.808,382.8186],[-80.0502,8.81,196.5417],[-80.0639,8.8058,238.6487],[-80.0694,8.8018,224.8822],[-80.0679,8.7966,288.1439],[-80.0581,8.7799,216.8666],[-80.0583,8.7744,195.2634],[-80.063,8.768,244.9191],[-80.0847,8.759,409.5463],[-80.0913,8.7384,667.0131],[-80.0856,8.727,815.5966],[-80.0857,8.697,774.1646],[-80.0814,8.6836,767.1937],[-80.0874,8.6632,871.0829],[-80.0857,8.6479,970.3802],[-80.0806,8.6362,1032.2505],[-80.0591,8.6563,845.9814],[-80.055,8.665,1037.1703],[-80.0436,8.6805,837.6922],[-80.0246,8.6924,678.4813],[-80.0153,8.6955,546.3553],[-79.9978,8.6965,644.5581],[-79.9877,8.6947,680.9084],[-79.9804,8.6912,585.1514],[-79.9698,8.691,585.9155],[-79.9586,8.6979,739.0657],[-79.9504,8.6968,770.7646],[-79.9458,8.7077,641.0434],[-79.9373,8.7162,483.3792],[-79.9621,8.7345,814.9435],[-79.9669,8.7561,396.4151],[-79.9782,8.7682,400.3774],[-79.9842,8.7944,426.6292],[-79.9956,8.8023,342.1678],[-79.9979,8.8188,355.8777],[-80.0033,8.8273,213.7988]]]]}}