{"type": "Feature","bbox": [-79.0395,8.9867,-78.7587,9.314],"geometry": {"type": "MultiPolygon","coordinates": [[[[-78.8026,9.0954,55.5],[-78.804,9.094,55.5],[-78.8037,9.0913,55.5],[-78.8012,9.0943,56.077],[-78.8026,9.0954,55.5]]],
[[[-78.8021,9.0982,61.4348],[-78.8024,9.0968,55.5],[-78.8007,9.0971,61.4348],[-78.7999,9.1001,56.4649],[-78.8012,9.1001,59.0769],[-78.8021,9.0982,61.4348]]],
[[[-78.7996,9.1446,59.2183],[-78.8032,9.1451,64.1797],[-78.8026,9.1413,55.5],[-78.799,9.1426,63.6236],[-78.7996,9.1446,59.2183]]],
[[[-78.8018,9.1488,55.5],[-78.8035,9.1485,55.5],[-78.8012,9.1463,55.5],[-78.7988,9.1463,55.5],[-78.8001,9.149,55.5],[-78.8018,9.1488,55.5]]],
[[[-78.8282,9.1049,56.6911],[-78.8276,9.1062,58.1999],[-78.8307,9.106,58.6398],[-78.8313,9.1029,55.5],[-78.8293,9.1035,56.0117],[-78.8282,9.1049,56.6911]]],
[[[-78.8518,9.1579,61.9482],[-78.854,9.1587,61.1678],[-78.856,9.1571,59.7144],[-78.8571,9.1582,59.7144],[-78.8587,9.1532,55.5],[-78.8512,9.154,58.3749],[-78.8535,9.1535,63.6999],[-78.8532,9.1524,63.6999],[-78.8565,9.1529,58.0074],[-78.8579,9.1501,55.5],[-78.854,9.1513,61.2987],[-78.851,9.1435,75.7151],[-78.8538,9.1449,67.0338],[-78.8599,9.1407,58.6979],[-78.8574,9.1321,71.8242],[-78.8543,9.131,62.4462],[-78.8526,9.1282,55.5],[-78.8487,9.129,55.5],[-78.8482,9.1307,59.6322],[-78.8465,9.129,56.9622],[-78.839,9.1324,61.284],[-78.816,9.1287,55.5],[-78.8093,9.1301,55.5],[-78.8074,9.1329,61.5284],[-78.8074,9.1343,59.1294],[-78.8129,9.1362,57.2582],[-78.806,9.1349,55.5],[-78.8015,9.1382,56.1487],[-78.8054,9.1404,70.5088],[-78.8068,9.146,55.5],[-78.8087,9.144,74.8172],[-78.8087,9.1457,55.5],[-78.811,9.1463,57.968],[-78.8135,9.144,55.5],[-78.8138,9.146,55.5],[-78.8193,9.1468,69.5569],[-78.8207,9.151,55.5],[-78.8215,9.1485,61.4481],[-78.8251,9.149,55.5],[-78.8257,9.1474,55.5],[-78.8299,9.1521,57.4136],[-78.8326,9.1496,57.0222],[-78.8307,9.1546,58.9297],[-78.829,9.1543,57.1637],[-78.8293,9.1521,57.4136],[-78.8243,9.1529,56.0136],[-78.8224,9.156,55.5],[-78.8249,9.1576,55.5],[-78.831,9.156,59.2756],[-78.8349,9.1579,56.4273],[-78.8379,9.1554,59.6331],[-78.841,9.1557,55.5],[-78.8429,9.1535,56.654],[-78.8421,9.1549,62.1217],[-78.8437,9.1574,55.5],[-78.846,9.1563,60.6066],[-78.8465,9.1582,56.7905],[-78.8518,9.1579,61.9482]]],
[[[-79.0318,9.2966,369.5178],[-79.0395,9.2975,433.131],[-79.0389,9.2769,329.9042],[-79.0341,9.266,380.457],[-79.0339,9.2547,229.699],[-79.0292,9.2454,135.6673],[-79.0256,9.2284,56.2318],[-79.0207,9.2152,29.3094],[-79.0044,9.2136,18.2487],[-78.9907,9.2087,14.8632],[-78.9791,9.209,82.5433],[-78.9746,9.2049,7.6095],[-78.9706,9.1978,25.2094],[-78.9639,9.1928,18.868],[-78.9628,9.1899,16.6938],[-78.9641,9.1876,6.5402],[-78.9785,9.1769,21.8218],[-78.979,9.17,9.8506],[-78.9727,9.1636,10.5747],[-78.9604,9.159,16.1915],[-78.9491,9.1442,23.2208],[-78.9481,9.1389,35.1169],[-78.9493,9.1289,99.6709],[-78.948,9.1238,28.8201],[-78.9425,9.1164,44.5566],[-78.9328,9.1102,63.4923],[-78.9301,9.1054,113.4352],[-78.9288,9.0948,163.7112],[-78.9309,9.0794,296.7943],[-78.9295,9.0699,225.5354],[-78.9161,9.0522,296.621],[-78.9071,9.0333,305.4806],[-78.8969,9.0231,239.7577],[-78.8662,9.0101,143.6834],[-78.8273,9.005,214.9857],[-78.8201,9.0029,379.3556],[-78.8153,8.9983,219.4934],[-78.8106,8.9867,385.1251],[-78.7858,9.0087,174.7352],[-78.7788,9.0206,128.9851],[-78.7699,9.0248,217.945],[-78.7663,9.0287,229.502],[-78.766,9.0386,91.4012],[-78.7621,9.0465,61.4479],[-78.7639,9.0591,75.3547],[-78.7587,9.0757,56.0492],[-78.7688,9.076,58.5684],[-78.7801,9.0804,56.8872],[-78.7821,9.0776,56.2611],[-78.7846,9.0771,56.3901],[-78.7854,9.0785,56.3901],[-78.7882,9.0771,60.1949],[-78.789,9.0785,60.1949],[-78.7865,9.0826,56.0679],[-78.7913,9.084,59.8084],[-78.7918,9.0865,55.5],[-78.7929,9.0863,55.5],[-78.7918,9.0829,62.3611],[-78.7949,9.0818,67.4919],[-78.796,9.0796,70.4143],[-78.8032,9.081,63.4694],[-78.8032,9.0824,55.5],[-78.8054,9.081,64.3993],[-78.8074,9.0851,61.0477],[-78.811,9.0874,55.5],[-78.814,9.0868,60.1285],[-78.8101,9.0832,64.6456],[-78.8165,9.0863,61.02],[-78.816,9.0899,59.5322],[-78.8176,9.0943,56.9764],[-78.821,9.094,55.5],[-78.8213,9.0913,61.6777],[-78.8257,9.0935,70.7855],[-78.8293,9.0988,55.5],[-78.8329,9.0954,64.3602],[-78.8337,9.0974,64.3547],[-78.8315,9.0993,59.8525],[-78.8324,9.1018,57.9104],[-78.8354,9.0996,66.6553],[-78.8351,9.101,55.5],[-78.8376,9.1018,68.596],[-78.8368,9.1038,55.5],[-78.8404,9.104,55.5],[-78.8407,9.1021,63.0462],[-78.8424,9.1021,58.5099],[-78.8446,9.109,55.5],[-78.8468,9.1093,55.5],[-78.8451,9.104,58.9462],[-78.8468,9.1043,58.6857],[-78.8482,9.1076,55.5],[-78.8538,9.1085,71.5462],[-78.8518,9.1093,61.1293],[-78.8551,9.1126,57.2219],[-78.8551,9.1149,56.7669],[-78.8562,9.1135,63.8894],[-78.8613,9.1157,55.5],[-78.8632,9.1143,55.5],[-78.8615,9.1074,60.0022],[-78.8629,9.1074,60.6996],[-78.8643,9.1104,62.4439],[-78.8674,9.1093,60.816],[-78.869,9.1104,72.9897],[-78.8676,9.111,63.3142],[-78.8662,9.1104,60.816],[-78.8649,9.1126,55.5],[-78.8665,9.119,66.9784],[-78.869,9.1193,61.5355],[-78.8737,9.116,60.8883],[-78.8693,9.1196,61.5355],[-78.8671,9.126,70.2839],[-78.8701,9.1265,78.649],[-78.8721,9.1235,117.3737],[-78.8746,9.1246,64.0797],[-78.8754,9.1226,91.4655],[-78.8774,9.1226,75.0938],[-78.8782,9.1246,58.1534],[-78.8826,9.1235,63.0247],[-78.8801,9.126,69.0419],[-78.8763,9.1249,64.0797],[-78.8746,9.1265,61.8469],[-78.8718,9.1251,68.0287],[-78.869,9.1276,78.1336],[-78.8657,9.1265,97.0034],[-78.8674,9.1212,55.5],[-78.8629,9.1165,55.5],[-78.8571,9.1163,55.5],[-78.8524,9.1199,57.3776],[-78.8507,9.1265,59.7031],[-78.8521,9.1271,55.5],[-78.8526,9.1246,59.0396],[-78.856,9.1293,60.7693],[-78.8571,9.1265,61.8772],[-78.8579,9.1282,82.2029],[-78.8568,9.1307,55.5],[-78.8604,9.1351,100.9985],[-78.8615,9.1426,59.9645],[-78.8585,9.1443,85.5479],[-78.8587,9.1463,69.3946],[-78.8621,9.1451,107.4176],[-78.8621,9.1468,71.0013],[-78.8643,9.1465,72.5303],[-78.8635,9.149,55.5],[-78.8651,9.1493,55.5],[-78.8688,9.1435,89.7848],[-78.8701,9.1468,60.4368],[-78.874,9.1468,96.3381],[-78.8715,9.1504,58.7175],[-78.8746,9.151,66.2371],[-78.8729,9.1521,56.4477],[-78.8746,9.1538,56.961],[-78.871,9.1587,55.5],[-78.8751,9.164,55.5],[-78.8749,9.1679,66.5316],[-78.8718,9.1693,55.5],[-78.8726,9.1718,60.6222],[-78.8849,9.1776,70.63],[-78.8829,9.1801,55.5],[-78.8763,9.1776,61.6645],[-78.8757,9.1799,109.2271],[-78.8732,9.1763,63.5885],[-78.8665,9.1724,60.0596],[-78.8668,9.1829,89.941],[-78.8712,9.1846,96.6051],[-78.8674,9.1851,55.5],[-78.8674,9.1896,73.129],[-78.8662,9.1896,73.129],[-78.8643,9.1774,63.2013],[-78.8657,9.1707,72.3239],[-78.8632,9.1704,55.5],[-78.8599,9.1765,55.5],[-78.8596,9.1876,74.2927],[-78.8579,9.1874,74.2927],[-78.856,9.1915,62.9288],[-78.8543,9.1918,58.1175],[-78.863,9.1909,92.7824],[-78.8724,9.1954,82.9155],[-78.8816,9.1853,120.2555],[-78.909,9.2004,22.1951],[-78.916,9.2127,13.8255],[-78.9181,9.2381,119.3548],[-78.9244,9.2439,167.628],[-78.9387,9.2496,281.998],[-78.9443,9.2539,278.9735],[-78.9452,9.2925,410.3617],[-78.9429,9.3073,441.93],[-78.9561,9.3131,348.2859],[-78.9623,9.314,341.2154],[-78.9891,9.3022,428.529],[-79.0089,9.2998,466.7136],[-79.0231,9.2951,412.1892],[-79.0318,9.2966,369.5178]]],
[[[-78.8313,9.1796,55.5],[-78.834,9.1799,55.5],[-78.8379,9.1776,57.9464],[-78.8343,9.1765,55.5],[-78.8301,9.1699,56.6145],[-78.8301,9.1679,57.935],[-78.8326,9.1699,58.3559],[-78.8335,9.1654,55.5],[-78.8329,9.1629,57.669],[-78.8296,9.1618,59.5588],[-78.8318,9.1596,56.5097],[-78.8301,9.1579,55.5],[-78.8265,9.1615,55.5],[-78.8285,9.1637,55.5],[-78.8238,9.1618,55.5],[-78.8224,9.1637,57.1127],[-78.8249,9.164,58.5846],[-78.8246,9.1654,58.5846],[-78.8218,9.1649,55.5],[-78.8218,9.1671,55.5],[-78.8251,9.169,55.9219],[-78.8254,9.174,55.5],[-78.8301,9.1738,55.5],[-78.8293,9.1763,57.0233],[-78.8307,9.1776,55.5],[-78.8296,9.1779,55.5],[-78.8313,9.1796,55.5]]],
[[[-78.8121,9.1637,55.5],[-78.8135,9.1649,55.5],[-78.8154,9.1607,55.5],[-78.8126,9.1612,55.5],[-78.8121,9.1637,55.5]]],
[[[-78.8499,9.1868,78.6763],[-78.8518,9.1871,55.5],[-78.8538,9.1849,55.5],[-78.8549,9.1749,78.7873],[-78.8574,9.1715,65.0767],[-78.854,9.1707,55.5],[-78.8538,9.1651,77.4489],[-78.8557,9.1654,77.4489],[-78.856,9.169,55.5],[-78.8621,9.1665,69.3894],[-78.8693,9.1682,55.5],[-78.8688,9.1646,55.5],[-78.871,9.1624,55.5],[-78.8626,9.161,60.2614],[-78.864,9.1593,65.6156],[-78.8632,9.1576,67.8877],[-78.8654,9.1576,56.8675],[-78.864,9.1551,55.5],[-78.8632,9.1568,59.3086],[-78.8615,9.1565,55.5],[-78.8607,9.1596,61.2785],[-78.859,9.1576,57.5356],[-78.8593,9.161,63.5324],[-78.8579,9.1612,63.5324],[-78.8576,9.1607,70.0048],[-78.8585,9.1593,59.7807],[-78.856,9.1601,55.5],[-78.8554,9.1587,61.1678],[-78.8538,9.1607,63.8163],[-78.8504,9.1585,64.634],[-78.8432,9.1596,61.9139],[-78.8424,9.1557,58.0677],[-78.839,9.1563,55.5],[-78.8404,9.1574,55.5],[-78.8379,9.1587,55.5],[-78.8393,9.1604,55.5],[-78.8351,9.1599,55.5],[-78.8335,9.1624,57.5935],[-78.8351,9.1632,57.5935],[-78.8349,9.1685,55.5],[-78.8376,9.1688,70.5912],[-78.8337,9.1701,55.5],[-78.8346,9.1735,55.5],[-78.8376,9.1746,59.7174],[-78.8468,9.1732,72.5325],[-78.8493,9.1746,55.5],[-78.8507,9.1779,78.6968],[-78.8499,9.1868,78.6763]]],
[[[-78.846,9.1991,128.9861],[-78.8529,9.1924,58.7884],[-78.8512,9.191,59.068],[-78.8518,9.1932,58.7884],[-78.8487,9.1946,70.096],[-78.8457,9.1921,58.3906],[-78.8437,9.1924,79.6546],[-78.844,9.1915,83.6074],[-78.8476,9.1915,61.0188],[-78.8451,9.1812,55.5],[-78.844,9.1815,55.5],[-78.8446,9.1768,55.5],[-78.8424,9.1776,63.5406],[-78.8388,9.1838,84.5294],[-78.8329,9.1838,55.5],[-78.8335,9.1874,101.9967],[-78.8296,9.1826,55.5],[-78.8293,9.1851,70.2491],[-78.8276,9.1824,55.5],[-78.8254,9.1835,55.5],[-78.8254,9.1854,80.0499],[-78.8274,9.186,85.4659],[-78.8274,9.1893,64.3149],[-78.8315,9.1915,120.077],[-78.8299,9.1943,59.6131],[-78.8296,9.1932,55.5],[-78.8288,9.1946,65.5175],[-78.8262,9.1938,55.5],[-78.8274,9.196,85.708],[-78.8246,9.1957,74.1739],[-78.8257,9.1932,75.3706],[-78.8282,9.1924,63.3102],[-78.8243,9.1893,62.2098],[-78.8249,9.1862,60.6104],[-78.8221,9.1835,69.5375],[-78.8246,9.1824,55.5],[-78.8249,9.1812,57.1827],[-78.8224,9.1804,55.5],[-78.8249,9.1804,59.0026],[-78.8249,9.1782,55.5],[-78.8174,9.1843,70.7891],[-78.8163,9.1893,61.1991],[-78.8179,9.1926,60.2363],[-78.8154,9.1924,76.4711],[-78.8146,9.1938,72.8714],[-78.8168,9.1954,78.4801],[-78.8135,9.1957,60.3477],[-78.814,9.194,72.8714],[-78.8087,9.1921,75.02],[-78.816,9.1915,61.0774],[-78.8154,9.1874,55.5],[-78.8132,9.1868,79.0647],[-78.816,9.1854,55.5],[-78.8129,9.1835,87.0367],[-78.8176,9.1821,55.5],[-78.8193,9.1801,55.5],[-78.8187,9.1779,55.5],[-78.821,9.1774,55.5],[-78.816,9.1774,62.2261],[-78.8146,9.179,67.5649],[-78.8124,9.1785,61.5158],[-78.8129,9.1768,55.5],[-78.8101,9.1768,55.5],[-78.809,9.181,82.7954],[-78.8071,9.1807,63.9056],[-78.8063,9.1824,76.5762],[-78.8057,9.1804,69.8336],[-78.8082,9.1793,61.9899],[-78.8085,9.1774,62.046],[-78.8071,9.1771,66.9617],[-78.8068,9.1749,55.5],[-78.8043,9.1763,66.341],[-78.8015,9.1676,70.6374],[-78.8037,9.1649,60.6832],[-78.8068,9.1646,55.5],[-78.8063,9.1615,58.9363],[-78.8079,9.1604,55.5],[-78.8021,9.1612,55.5],[-78.8024,9.1637,60.7828],[-78.8004,9.1618,55.5],[-78.7979,9.1707,56.5172],[-78.8018,9.1732,62.1318],[-78.8029,9.1765,66.341],[-78.8001,9.1801,55.5],[-78.8007,9.1821,63.2177],[-78.7979,9.1796,57.4659],[-78.7962,9.1821,82.384],[-78.7993,9.1946,58.6746],[-78.7982,9.1974,98.2326],[-78.7937,9.1996,55.5],[-78.7937,9.2007,55.5],[-78.7962,9.2004,94.2973],[-78.7951,9.2018,55.5],[-78.7968,9.2038,55.5],[-78.8021,9.2026,59.4642],[-78.7988,9.2054,59.2684],[-78.8085,9.206,63.1068],[-78.8087,9.2076,58.2462],[-78.8104,9.2063,63.1068],[-78.8126,9.2074,55.5],[-78.8199,9.2054,85.5552],[-78.8193,9.2071,55.5],[-78.8207,9.2076,55.5],[-78.8232,9.206,82.4133],[-78.8215,9.2074,55.5],[-78.8221,9.2087,55.5],[-78.8252,9.2055,90.9177],[-78.8365,9.2006,138.0502],[-78.846,9.1991,128.9861]]]]}
,"properties": {"GID_3": "PAN.12.2.4_1","GID_0": "PAN","country": "Panama","GID_1": "PAN.12_1","province": "Panamá","NL_NAME_1": "NA","GID_2": "PAN.12.2_1","county": "Chepo","NL_NAME_2": "NA","city": "ElLlano","VARNAME_3": "NA","NL_NAME_3": "NA","TYPE_3": "Corregimiento","ENGTYPE_3": "Municipality","CC_3": "NA","HASC_3": "NA","name": "El_Llano.city","area_km2": 421.8357,"hist_schema_id": "Elevation0-9000","hist_area_km2": {"0": 6.1742,"25": 27.5429,"50": 33.4474,"75": 53.3138,"100": 49.3796,"125": 43.1845,"150": 36.0484,"175": 28.7452,"200": 26.9249,"225": 26.5062,"250": 22.0251,"275": 15.8271,"300": 11.4082,"325": 8.7692,"350": 8.3706,"375": 6.9683,"400": 6.0054,"425": 5.796,"450": 3.7663,"475": 1.5275,"500": 0.1046}}}