{"type": "Feature","bbox": [-80.077,9.1398,-79.9998,9.2467],"geometry": {"type": "MultiPolygon","coordinates": [[[[-80.0445,9.1398,75.8105],[-80.0348,9.1635,124.9608],[-80.0458,9.177,116.1411],[-80.0379,9.1854,7.9521],[-80.0332,9.1868,9.8345],[-80.0262,9.1833,15.8007],[-80.0249,9.1806,19.496],[-80.0258,9.1684,20.3585],[-80.0219,9.1647,29.4868],[-80.0144,9.1636,88.4416],[-79.9998,9.1669,21.089],[-80.0001,9.1736,25.366],[-80.0094,9.2003,15.0332],[-80.0106,9.2172,30.9038],[-80.0132,9.2279,78.1399],[-80.0142,9.229,86.727],[-80.0181,9.2282,49.3542],[-80.023,9.2336,63.0848],[-80.0334,9.2372,101.9157],[-80.0408,9.2467,76.919],[-80.046,9.2435,60.9071],[-80.0494,9.2337,48.384],[-80.0619,9.2376,43.1698],[-80.0677,9.2376,26.7178],[-80.0724,9.2357,20.8344],[-80.0761,9.2315,21.8388],[-80.077,9.2275,25.5329],[-80.0613,9.2163,67.039],[-80.0638,9.2113,26.2646],[-80.0723,9.2127,18.0738],[-80.077,9.207,23.0375],[-80.0742,9.1867,104.0873],[-80.0711,9.1851,52.8266],[-80.0716,9.1794,82.9438],[-80.0664,9.1742,39.9496],[-80.0619,9.165,92.9502],[-80.0625,9.1589,130.887],[-80.066,9.1518,77.0609],[-80.0622,9.1509,108.3935],[-80.0594,9.1454,109.8641],[-80.0514,9.1452,133.1681],[-80.0445,9.1398,75.8105]]]]}
,"properties": {"GID_3": "PAN.4.1.1_1","GID_0": "PAN","country": "Panama","GID_1": "PAN.4_1","province": "Colón","NL_NAME_1": "NA","GID_2": "PAN.4.1_1","county": "Chagres","NL_NAME_2": "NA","city": "Achiote","VARNAME_3": "NA","NL_NAME_3": "NA","TYPE_3": "Corregimiento","ENGTYPE_3": "Municipality","CC_3": "NA","HASC_3": "NA","name": "Achiote.city","area_km2": 57.95418,"hist_schema_id": "Elevation0-9000","hist_area_km2": {"0": 7.68084,"25": 12.43207,"50": 11.846,"75": 9.31361,"100": 8.35108,"125": 6.02809,"150": 2.28157,"175": 0.02093}}}