{"type": "Feature","bbox": [-80.6807,7.9518,-80.601,8.0591],"geometry": {"type": "MultiPolygon","coordinates": [[[[-80.6599,7.9518,90.1865],[-80.6543,7.9529,54.5049],[-80.6522,7.9677,140.6615],[-80.6397,7.9736,57.879],[-80.6336,7.9854,50.627],[-80.6281,7.9862,46.2742],[-80.6204,7.9906,39.5794],[-80.6025,7.992,28.8716],[-80.601,7.9935,34.955],[-80.6088,7.9988,51.5748],[-80.6093,8.0046,60.3056],[-80.6121,8.0078,64.1466],[-80.6119,8.0144,61.4897],[-80.6149,8.0292,72.0303],[-80.6332,8.0229,54.9961],[-80.6322,8.0335,47.6727],[-80.6345,8.0369,63.4036],[-80.6341,8.0413,55.3753],[-80.6294,8.0549,38.2487],[-80.6314,8.0571,28.3993],[-80.6432,8.0591,27.5521],[-80.6496,8.0532,35.7994],[-80.6534,8.0534,38.4555],[-80.6635,8.0355,42.9017],[-80.6692,8.028,49.1522],[-80.6731,8.0269,50.7668],[-80.6747,8.0246,40.0544],[-80.6774,8.0129,38.1816],[-80.6722,8.0019,44.9309],[-80.6768,7.9915,51.8771],[-80.6765,7.9858,53.6338],[-80.6807,7.9723,72.6631],[-80.6762,7.9708,66.2195],[-80.6679,7.963,59.5327],[-80.6599,7.9518,90.1865]]]]}
,"properties": {"GID_3": "PAN.7.5.1_1","GID_0": "PAN","country": "Panama","GID_1": "PAN.7_1","province": "Herrera","NL_NAME_1": "NA","GID_2": "PAN.7.5_1","county": "Parita","NL_NAME_2": "NA","city": "Cabuya","VARNAME_3": "NA","NL_NAME_3": "NA","TYPE_3": "Corregimiento","ENGTYPE_3": "Municipality","CC_3": "NA","HASC_3": "NA","name": "Cabuya.city","area_km2": 52.88777,"hist_schema_id": "Elevation0-9000","hist_area_km2": {"25": 5.71033,"50": 30.25436,"75": 12.45072,"100": 2.0787,"125": 1.28081,"150": 0.81889,"175": 0.23097,"200": 0.06299}}}