{"type": "Feature","bbox": [-80.6975,8.3239,-80.5436,8.4127],"geometry": {"type": "MultiPolygon","coordinates": [[[[-80.5436,8.3239,16.3234],[-80.5567,8.3321,25.7625],[-80.5507,8.3599,146.4913],[-80.5492,8.3895,27.8308],[-80.5494,8.3964,24.4279],[-80.5542,8.4043,33.5945],[-80.5685,8.4107,47.142],[-80.5761,8.4119,41.891],[-80.5735,8.4,35.2188],[-80.5914,8.367,66.8103],[-80.5937,8.3642,67.4225],[-80.5984,8.3634,148.1401],[-80.6622,8.3839,223.6095],[-80.6691,8.3916,348.1603],[-80.6767,8.4051,216.0199],[-80.6859,8.4127,245.5439],[-80.6833,8.404,195.1365],[-80.6892,8.3986,179.8044],[-80.6906,8.3922,186.1929],[-80.6943,8.3923,146.984],[-80.6975,8.3891,170.743],[-80.6955,8.3866,166.9687],[-80.692,8.3877,145.7394],[-80.6908,8.3906,166.3749],[-80.6854,8.3885,142.3654],[-80.6862,8.3857,149.9266],[-80.6938,8.3788,170.9112],[-80.688,8.3628,139.8975],[-80.6896,8.3551,127.5402],[-80.6852,8.3507,115.9429],[-80.6821,8.342,114.5134],[-80.6743,8.3342,117.2377],[-80.6616,8.3318,110.4257],[-80.6489,8.335,87.117],[-80.6436,8.3324,76.7498],[-80.6097,8.3271,57.787],[-80.6144,8.3304,68.1945],[-80.5941,8.3428,48.591],[-80.5896,8.3396,44.7299],[-80.5836,8.3388,46.3996],[-80.5811,8.3346,31.9857],[-80.5731,8.3307,27.2891],[-80.5436,8.3239,16.3234]]]]}
,"properties": {"GID_3": "PAN.3.4.6_1","GID_0": "PAN","country": "Panama","GID_1": "PAN.3_1","province": "Coclé","NL_NAME_1": "NA","GID_2": "PAN.3.4_1","county": "Natá","NL_NAME_2": "NA","city": "Toza","VARNAME_3": "NA","NL_NAME_3": "NA","TYPE_3": "Corregimiento","ENGTYPE_3": "Municipality","CC_3": "NA","HASC_3": "NA","name": "Toza.city","area_km2": 86.78104,"hist_schema_id": "Elevation0-9000","hist_area_km2": {"0": 0.02098,"25": 9.22962,"50": 23.93471,"75": 18.14539,"100": 13.17361,"125": 7.99211,"150": 3.83866,"175": 3.23031,"200": 1.99268,"225": 1.38438,"250": 1.32146,"275": 0.77611,"300": 0.71318,"325": 0.5244,"350": 0.23074,"375": 0.12586,"400": 0.0839,"425": 0.06293}}}