{"type":"Feature","properties":{"ISO3166-1-Alpha-3":"PAN","country":"Panama","fill":"#F00","id":"1341","name":"Veraguas"},
"geometry":{"type": "MultiPolygon","coordinates": [[[[-81.8072,7.29157,0.0],[-81.80826,7.29344,0.0],[-81.81078,7.29413,0.0],[-81.81456,7.29426,0.0],[-81.81916,7.28872,98.4791],[-81.81876,7.28563,62.9019],[-81.81456,7.27997,96.1825],[-81.81623,7.27131,159.7795],[-81.80089,7.22598,0.0],[-81.79345,7.22598,0.0],[-81.79699,7.23395,0.0],[-81.80089,7.239,0.0],[-81.79239,7.25165,0.0],[-81.77904,7.27749,0.0],[-81.76671,7.28742,0.0],[-81.78051,7.28783,18.9591],[-81.78991,7.29011,12.3806],[-81.798,7.29108,2.2442],[-81.80773,7.28742,27.7527],[-81.8072,7.29157,0.0]]],
[[[-81.04499,7.55414,0.0],[-81.03307,7.57543,0.0],[-81.06159,7.57559,26.4163],[-81.07502,7.57734,18.3612],[-81.08772,7.58161,7.6688],[-81.11807,7.57453,0.0],[-81.13557,7.56818,43.3227],[-81.14916,7.56118,25.564],[-81.15762,7.55158,54.6196],[-81.16405,7.54051,104.854],[-81.17439,7.53144,32.0625],[-81.21044,7.52595,63.8553],[-81.22273,7.52106,8.3772],[-81.2329,7.51337,109.2809],[-81.24258,7.5034,94.6817],[-81.25194,7.49042,94.7665],[-81.24568,7.49006,58.0739],[-81.21809,7.4997,62.5717],[-81.21581,7.49828,87.5492],[-81.20857,7.49559,140.9984],[-81.19913,7.49348,75.0088],[-81.19074,7.49348,6.5527],[-81.18493,7.49698,0.0],[-81.17089,7.51337,30.7677],[-81.14297,7.52766,0.0],[-81.13785,7.53339,0.0],[-81.13439,7.53994,0.0],[-81.12926,7.54531,0.0],[-81.11905,7.54751,20.6843],[-81.10985,7.54706,31.3848],[-81.10334,7.54556,27.9216],[-81.09777,7.54255,34.7707],[-81.09142,7.53754,13.8264],[-81.08275,7.53384,43.224],[-81.07502,7.53535,0.0],[-81.06412,7.54068,0.0],[-81.05285,7.54462,0.0],[-81.04499,7.55414,0.0]]],
[[[-81.73884,7.64427,0.0],[-81.74242,7.64346,0.0],[-81.74535,7.6433,16.0904],[-81.74682,7.64183,20.7142],[-81.74625,7.63687,27.0192],[-81.75251,7.63687,88.0187],[-81.75251,7.64427,10.4538],[-81.75992,7.64427,28.6454],[-81.75731,7.63642,13.4114],[-81.75524,7.62401,20.0175],[-81.75251,7.6164,74.4668],[-81.75992,7.6164,16.7977],[-81.76037,7.62018,1.1658],[-81.77013,7.61481,71.124],[-81.79833,7.59422,105.6597],[-81.8168,7.5904,33.8908],[-81.82445,7.58535,72.9713],[-81.82999,7.57616,75.4192],[-81.83141,7.56818,78.2853],[-81.83178,7.55927,46.8084],[-81.83438,7.54751,27.2742],[-81.83625,7.5467,47.6194],[-81.84895,7.52412,9.2945],[-81.8487,7.52021,18.2113],[-81.85806,7.51752,12.1747],[-81.8789,7.51748,219.105],[-81.8828,7.51679,86.5156],[-81.87511,7.49042,0.5661],[-81.87287,7.48603,46.499],[-81.86465,7.47846,103.1268],[-81.84187,7.43081,156.62],[-81.80004,7.39558,59.3184],[-81.78075,7.38422,239.3973],[-81.7567,7.35773,20.6649],[-81.74625,7.34886,8.0358],[-81.72712,7.34443,0.0],[-81.68423,7.34138,19.0836],[-81.6494,7.32152,43.3827],[-81.62816,7.3216,0.0],[-81.60668,7.32758,19.6009],[-81.588,7.33519,0.0],[-81.61587,7.3867,0.0],[-81.62206,7.39387,0.0],[-81.6525,7.39102,0.0],[-81.66438,7.39728,0.0],[-81.67052,7.39728,0.0],[-81.67789,7.39159,0.0],[-81.68444,7.39501,0.0],[-81.6892,7.40379,0.0],[-81.69103,7.41405,0.0],[-81.69473,7.42398,0.0],[-81.71272,7.44009,0.0],[-81.71898,7.45254,0.0],[-81.71679,7.45751,0.0],[-81.70934,7.48664,0.0],[-81.70836,7.49348,0.0],[-81.67638,7.50552,0.0],[-81.67052,7.51024,0.0],[-81.67178,7.52635,0.0],[-81.67565,7.53213,0.0],[-81.68204,7.53457,47.9139],[-81.69103,7.54068,54.8186],[-81.69384,7.54141,61.367],[-81.70214,7.54019,51.4696],[-81.70531,7.54068,0.0],[-81.70592,7.54312,0.0],[-81.70482,7.55109,0.0],[-81.70531,7.5537,0.0],[-81.71329,7.5659,0.0],[-81.7152,7.56802,0.0],[-81.71618,7.57966,0.0],[-81.73884,7.64427,0.0]]],
[[[-80.83343,8.81455,85.0015],[-80.84069,8.82086,39.763],[-80.85118,8.83272,72.4042],[-80.85684,8.84411,47.3348],[-80.86033,8.85359,46.7476],[-80.86173,8.87416,22.7716],[-80.86198,8.8769,24.9975],[-80.8626,8.88507,7.1255],[-80.88172,8.8857,19.2308],[-80.89892,8.87964,18.1945],[-80.97514,8.84809,0.0],[-81.05358,8.82241,26.9487],[-81.06151,8.81318,37.5988],[-81.07071,8.80683,48.1216],[-81.0799,8.80484,2.1922],[-81.08772,8.80874,18.4144],[-81.13034,8.80174,53.6607],[-81.17478,8.79677,0.0],[-81.21307,8.79181,0.0],[-81.21617,8.79166,0.0],[-81.21594,8.78825,2.3618],[-81.21592,8.7829,3.0019],[-81.22274,8.75776,33.204],[-81.21124,8.68384,54.0851],[-81.21452,8.62322,131.6057],[-81.21054,8.5863,179.1782],[-81.20455,8.56529,341.9098],[-81.19592,8.55232,456.6041],[-81.18832,8.5441,401.0934],[-81.18382,8.53571,435.3118],[-81.18026,8.52656,545.6691],[-81.1716,8.51098,1047.4823],[-81.15607,8.49553,1259.999],[-81.18362,8.4894,912.4373],[-81.19204,8.4894,963.4109],[-81.20325,8.4922,1079.474],[-81.22514,8.50095,1135.3435],[-81.26555,8.5116,1467.3912],[-81.28235,8.52222,1477.2646],[-81.32852,8.55806,1300.4301],[-81.33748,8.56023,1327.5483],[-81.36348,8.55496,1559.3679],[-81.41053,8.55852,1484.2684],[-81.41523,8.56808,1099.5815],[-81.42123,8.57188,1426.1294],[-81.43236,8.57669,1520.9274],[-81.46316,8.58397,1460.4341],[-81.48861,8.59694,1434.5872],[-81.49032,8.55589,1335.5522],[-81.49931,8.5161,1038.0195],[-81.52251,8.46047,722.8283],[-81.52572,8.44385,403.207],[-81.52667,8.4292,354.4991],[-81.52249,8.37933,258.6404],[-81.51933,8.34174,257.0746],[-81.51321,8.31071,189.6177],[-81.51047,8.28123,263.7965],[-81.51311,8.25105,234.3841],[-81.51551,8.24609,262.192],[-81.51714,8.24376,280.5811],[-81.52295,8.23903,177.0003],[-81.57318,8.17612,103.3551],[-81.59791,8.15206,141.603],[-81.60189,8.14506,220.86],[-81.60612,8.1349,318.955],[-81.63176,8.03499,9.6528],[-81.63377,8.02271,19.3706],[-81.63801,8.01124,4.2814],[-81.64248,8.003,23.7107],[-81.66256,7.99765,3.0],[-81.66356,7.99729,3.1541],[-81.6459,7.97309,2.0561],[-81.64261,7.9621,1.25],[-81.64159,7.95466,3.4155],[-81.63846,7.94925,3.718],[-81.63329,7.94587,6.9091],[-81.62588,7.94473,0.0],[-81.62259,7.94794,0.0],[-81.62413,7.95539,0.0],[-81.62894,7.96927,0.0],[-81.6289,7.98184,0.0],[-81.62711,7.98281,3.5378],[-81.62133,7.98135,3.4219],[-81.60912,7.98635,11.0044],[-81.61295,7.97419,3.7759],[-81.61124,7.95962,9.3934],[-81.61587,7.95218,0.0],[-81.60208,7.94001,11.2456],[-81.59801,7.93378,0.0],[-81.59545,7.92487,17.2676],[-81.61295,7.93142,83.147],[-81.61868,7.92202,10.9022],[-81.61962,7.90534,57.1322],[-81.62271,7.89008,0.0],[-81.60802,7.88984,0.0],[-81.59988,7.88504,0.0],[-81.59976,7.87783,53.5011],[-81.60912,7.87027,110.5533],[-81.60912,7.86282,0.0],[-81.60159,7.85598,0.0],[-81.59545,7.85598,0.0],[-81.58898,7.86111,0.0],[-81.5819,7.86249,0.0],[-81.57462,7.86066,0.0],[-81.56749,7.85598,0.0],[-81.56749,7.84919,21.0513],[-81.58178,7.83157,5.2153],[-81.58629,7.82087,19.9633],[-81.588,7.80447,242.8439],[-81.58312,7.7934,0.0],[-81.57388,7.78433,0.0],[-81.56839,7.77603,102.6729],[-81.57494,7.76724,9.5782],[-81.57494,7.7604,0.0],[-81.56322,7.75629,67.6258],[-81.54019,7.73994,0.0],[-81.53905,7.75735,0.0],[-81.52807,7.76057,0.0],[-81.48876,7.74921,39.7801],[-81.49999,7.73867,0.0],[-81.51867,7.72891,92.8655],[-81.52713,7.72626,27.3626],[-81.52579,7.71145,0.0],[-81.50345,7.70197,0.0],[-81.47391,7.69941,0.0],[-81.4508,7.70515,0.0],[-81.4429,7.70047,0.0],[-81.43493,7.69265,0.0],[-81.42821,7.68256,90.0494],[-81.4241,7.67105,0.0],[-81.39696,7.67353,0.0],[-81.31424,7.65054,16.7531],[-81.29117,7.65066,0.0],[-81.27872,7.64606,74.3518],[-81.2733,7.63349,8.7511],[-81.26622,7.63239,0.0],[-81.23404,7.61526,23.2881],[-81.22549,7.60895,0.0],[-81.21805,7.60895,0.0],[-81.21341,7.61542,0.0],[-81.20132,7.62519,0.0],[-81.19754,7.63007,0.0],[-81.19518,7.63886,0.0],[-81.19546,7.6457,0.0],[-81.19754,7.65738,0.0],[-81.19327,7.70075,0.0],[-81.19754,7.71198,15.5151],[-81.21215,7.70612,3.8765],[-81.22549,7.69892,7.7684],[-81.23168,7.69892,3.5329],[-81.23868,7.70746,2.417],[-81.24596,7.71943,20.9096],[-81.23742,7.71511,0.0],[-81.23156,7.71438,26.177],[-81.21805,7.71943,2.9728],[-81.22948,7.73782,3.9862],[-81.23538,7.74384,5.1249],[-81.24596,7.74673,13.1354],[-81.24596,7.75418,0.0],[-81.23205,7.75503,0.0],[-81.21805,7.75418,15.5653],[-81.21805,7.74673,3.8073],[-81.22147,7.7427,3.6786],[-81.22317,7.7392,1.3484],[-81.2224,7.7344,12.22],[-81.21805,7.72626,0.0],[-81.19669,7.74173,4.6886],[-81.17443,7.76301,4.6358],[-81.1647,7.78901,0.0],[-81.18326,7.82368,7.9969],[-81.18163,7.82966,0.0],[-81.1787,7.83686,0.0],[-81.17711,7.84573,9.1976],[-81.18021,7.84687,27.5752],[-81.19754,7.85598,0.0],[-81.2152,7.871,19.2062],[-81.21764,7.87897,8.341],[-81.20438,7.88333,0.0],[-81.20523,7.88992,33.6569],[-81.20816,7.89346,29.253],[-81.21805,7.89753,31.8757],[-81.19994,7.89362,34.7529],[-81.19738,7.87906,30.7792],[-81.19241,7.86335,27.8364],[-81.16714,7.85598,0.0],[-81.15482,7.85383,11.0951],[-81.14236,7.84443,0.0],[-81.13305,7.84231,0.0],[-81.08768,7.84231,0.0],[-81.08768,7.84919,0.0],[-81.0963,7.85305,25.1398],[-81.10216,7.85859,0.0],[-81.10595,7.8664,31.7928],[-81.10818,7.8771,4.2534],[-81.10196,7.8771,3.8163],[-81.09044,7.85786,0.0],[-81.07523,7.87128,0.0],[-81.05358,7.9112,0.0],[-81.0559,7.84939,22.3528],[-81.04886,7.8227,13.328],[-81.02623,7.83552,22.4991],[-81.02005,7.83552,1.2845],[-81.02127,7.8227,5.7158],[-81.02758,7.8168,25.64],[-81.03763,7.81501,20.0552],[-81.05016,7.81501,27.0975],[-81.06082,7.81289,30.4892],[-81.06749,7.80817,9.0406],[-81.0725,7.80353,39.978],[-81.07811,7.80134,19.4223],[-81.08544,7.79434,22.0167],[-81.08609,7.77912,16.9032],[-81.07669,7.7648,9.8907],[-81.05358,7.7604,2.1712],[-81.05325,7.75593,6.8995],[-81.0548,7.75483,5.2148],[-81.05761,7.75495,4.586],[-81.06102,7.75418,15.1889],[-81.05484,7.75003,0.0],[-81.04686,7.74722,0.0],[-81.03714,7.746,0.0],[-81.02623,7.74673,11.23],[-81.04483,7.7167,25.7409],[-81.04332,7.71198,0.0],[-81.03445,7.7093,15.7142],[-81.02184,7.70266,14.2478],[-81.01061,7.69392,11.5099],[-81.00577,7.68533,25.2006],[-81.01785,7.68842,6.6834],[-81.02782,7.68618,2.5],[-81.03519,7.67996,27.8744],[-81.03991,7.67105,11.8588],[-81.04129,7.66169,10.0022],[-81.03751,7.65827,19.8618],[-81.02994,7.65607,10.7464],[-81.02005,7.65054,3.581],[-80.97167,7.60273,7.6747],[-80.97167,7.59589,19.2407],[-80.97912,7.59589,0.0],[-80.97912,7.58906,26.3895],[-80.96898,7.58206,11.1588],[-80.95572,7.56965,83.0643],[-80.94632,7.55569,62.3936],[-80.94774,7.54409,17.7686],[-80.95165,7.53559,33.9504],[-80.95275,7.52546,57.9924],[-80.9547,7.51691,24.6372],[-80.96691,7.50991,30.9398],[-80.96219,7.50247,23.8556],[-80.95462,7.49551,32.9395],[-80.95116,7.49348,17.0521],[-80.91507,7.45466,22.6331],[-80.91019,7.44168,1.9895],[-80.92081,7.41079,9.9197],[-80.92117,7.39204,0.0],[-80.89566,7.37661,3.701],[-80.89159,7.36017,3.5677],[-80.89236,7.34174,18.0687],[-80.89599,7.3284,36.1897],[-80.89993,7.32351,106.6124],[-80.91116,7.31501,75.6803],[-80.91637,7.30793,28.2304],[-80.91714,7.29963,62.1297],[-80.91601,7.27814,8.0742],[-80.92007,7.27375,6.1842],[-80.92557,7.27058,10.3394],[-80.93017,7.26358,97.007],[-80.92972,7.2565,76.0638],[-80.92007,7.25332,39.962],[-80.91055,7.25178,54.3613],[-80.90176,7.24811,27.2117],[-80.89444,7.24343,52.4394],[-80.88907,7.23904,171.2666],[-80.87308,7.21255,87.5534],[-80.86181,7.20572,0.0],[-80.84813,7.21914,93.4641],[-80.8413,7.21914,84.2129],[-80.83621,7.21332,20.855],[-80.83108,7.21137,0.0],[-80.82596,7.21332,0.0],[-80.82079,7.21914,118.8567],[-80.81399,7.21914,181.3564],[-80.79337,7.21357,6.7936],[-80.71312,7.21646,111.4168],[-80.60408,7.23672,112.6609],[-80.60678,7.27183,259.5181],[-80.61329,7.28581,94.2975],[-80.6235,7.2972,329.2986],[-80.64425,7.31258,965.5056],[-80.65337,7.318,853.3663],[-80.66807,7.32281,1110.2394],[-80.66877,7.3273,970.8414],[-80.6666,7.3378,1246.8098],[-80.66714,7.35252,1373.2749],[-80.67347,7.37596,721.9449],[-80.69925,7.41071,462.9131],[-80.71507,7.4589,681.8262],[-80.72207,7.50174,1061.6284],[-80.71969,7.52959,572.1716],[-80.74574,7.55574,453.4524],[-80.75186,7.55923,520.9386],[-80.7723,7.56365,695.6919],[-80.80206,7.58117,759.755],[-80.87922,7.69532,344.941],[-80.88493,7.70865,475.4369],[-80.89167,7.73744,352.4169],[-80.89756,7.75325,308.8768],[-80.90477,7.76327,179.7914],[-80.90947,7.76769,135.0063],[-80.9195,7.7718,165.3358],[-80.94275,7.76583,109.9918],[-80.94699,7.78841,87.9302],[-80.94343,7.90146,85.7571],[-80.93774,7.91107,78.4602],[-80.93291,7.91541,112.8353],[-80.90741,7.92187,165.0145],[-80.88635,7.94435,129.7578],[-80.85777,7.96957,157.4375],[-80.84994,7.98083,98.2748],[-80.83919,8.00036,77.1426],[-80.83798,8.01589,69.0903],[-80.85356,8.05995,37.7342],[-80.81703,8.07362,34.3393],[-80.78096,8.08796,28.8191],[-80.7647,8.10255,35.0218],[-80.74204,8.12979,24.6045],[-80.73238,8.13335,22.448],[-80.71876,8.13297,23.9988],[-80.70975,8.13072,15.51],[-80.68701,8.1326,14.1331],[-80.73406,8.16353,45.4164],[-80.73809,8.18069,11.7528],[-80.71194,8.22707,51.3353],[-80.69745,8.2772,107.1326],[-80.69347,8.30931,106.6918],[-80.71799,8.3489,123.3528],[-80.75667,8.45021,290.0789],[-80.78008,8.49142,373.4676],[-80.80051,8.51858,467.0032],[-80.82209,8.53775,744.5468],[-80.81026,8.54829,1164.3119],[-80.77873,8.55333,1579.7256],[-80.75132,8.58638,977.4485],[-80.73941,8.61524,1102.1088],[-80.7239,8.64611,873.1418],[-80.72579,8.65304,916.6287],[-80.72794,8.65862,773.9797],[-80.73336,8.66443,581.5799],[-80.73812,8.67249,463.0758],[-80.74197,8.69081,706.8623],[-80.73863,8.70283,473.5579],[-80.732919999999993,8.71487,318.557],[-80.72819,8.73014,124.3239],[-80.73354,8.74458,86.4269],[-80.74044,8.75574,86.2999],[-80.76152,8.77949,60.981],[-80.76902,8.78406,71.7886],[-80.78026,8.7889,56.0265],[-80.79783,8.79455,40.4196],[-80.81509,8.80262,31.7233],[-80.83343,8.81455,85.0015]]]]}}