{"type":"Feature","properties":{"featurecla":"River","scalerank":8,"rivernum":806,"dissolve":"806River","name":"Santa3","name_alt":null,"note":null,"min_zoom":7.0,"strokeweig":0.15,"name_en":"Santa Mara","min_label":8.0},
"geometry":{"type": "LineString","coordinates": [[-81.16748046875,8.3504580749941084,365.6281],[-81.158056640624991,8.3226260437441084,356.4237],[-81.143798828125,8.29816315311912,123.4354],[-81.123046875,8.2769717468691084,119.0055],[-81.094580078124991,8.2589053406191084,102.6952],[-80.943530273437489,8.2017764343691084,59.0897],[-80.855224609375,8.18366119999412,44.266]]}}