{"type": "Feature","bbox": [-82.264,7.2024,-80.6147,9.0001],"geometry": {"type": "MultiPolygon","coordinates": [[[[-82.2412,7.4768,0.0],[-82.2438,7.4782,0.0],[-82.2465,7.4765,0.0],[-82.2482,7.4779,0.0],[-82.2487,7.4754,0.0],[-82.2465,7.4746,0.0],[-82.2468,7.4699,0.0],[-82.251,7.471,0.0],[-82.2504,7.4682,0.0],[-82.2471,7.4685,0.0],[-82.2474,7.4662,0.0],[-82.2449,7.4662,0.0],[-82.2451,7.4629,0.0],[-82.2435,7.4637,0.0],[-82.2438,7.4621,0.0],[-82.2407,7.4607,0.0],[-82.2396,7.4632,0.0],[-82.2354,7.4624,0.0],[-82.2326,7.464,0.0],[-82.2318,7.4674,0.0],[-82.2301,7.4679,0.0],[-82.2296,7.4724,0.0],[-82.231,7.4743,0.0],[-82.2374,7.4757,3.4607],[-82.2379,7.4774,0.0],[-82.2412,7.4768,0.0]]],
[[[-82.2571,7.4768,0.0],[-82.2618,7.4782,0.0],[-82.264,7.4765,0.0],[-82.2632,7.4713,0.0],[-82.2571,7.4737,0.0],[-82.2585,7.4685,0.0],[-82.2538,7.4696,0.0],[-82.254,7.476,0.0],[-82.2571,7.4768,0.0]]],
[[[-81.7576,7.8371,24.6879],[-81.7571,7.8404,0.0],[-81.7604,7.8376,17.9115],[-81.7607,7.8349,0.0],[-81.7588,7.8354,0.0],[-81.7576,7.8371,24.6879]]],
[[[-81.7532,7.841,22.7754],[-81.7524,7.8424,0.0],[-81.7537,7.8426,0.0],[-81.7557,7.8401,0.0],[-81.754,7.8401,0.0],[-81.7532,7.841,22.7754]]],
[[[-81.7951,7.8704,0.0],[-81.7946,7.8735,1.9709],[-81.7976,7.8679,0.0],[-81.7957,7.8593,71.9986],[-81.8015,7.8537,1.0042],[-81.7982,7.8493,0.0],[-81.7962,7.8549,21.6451],[-81.7932,7.8515,0.0],[-81.7904,7.851,0.0],[-81.7885,7.8524,33.6194],[-81.7882,7.8499,0.0],[-81.7854,7.8507,0.0],[-81.7865,7.8554,0.0],[-81.7849,7.8604,0.0],[-81.7829,7.8615,0.0],[-81.7835,7.8646,0.0],[-81.7868,7.8657,0.0],[-81.7868,7.8701,0.0],[-81.7901,7.8646,26.6624],[-81.7946,7.8651,24.1435],[-81.7951,7.8704,0.0]]],
[[[-81.7757,7.8676,0.0],[-81.7765,7.8701,0.0],[-81.7796,7.8693,0.4766],[-81.779,7.8674,0.0],[-81.7815,7.8646,4.5677],[-81.7807,7.8607,0.0],[-81.7768,7.8612,0.0],[-81.7757,7.8676,0.0]]],
[[[-81.0001,9.0001,0.0],[-81.0001,8.9999,0.0],[-80.9999,8.9999,0.0],[-80.9999,9.0001,0.0],[-81.0001,9.0001,0.0]]],
[[[-80.8699,8.8857,0.0],[-80.8704,8.8833,0.0],[-80.8604,8.8862,0.0],[-80.8668,8.8868,0.449],[-80.8699,8.8857,0.0]]],
[[[-81.1143,7.9143,0.7982],[-81.1174,7.9149,0.0],[-81.116,7.9101,0.0],[-81.1146,7.9104,0.0],[-81.1143,7.9143,0.7982]]],
[[[-81.1101,7.9157,1.1336],[-81.1087,7.9151,0.0],[-81.109,7.9171,0.0],[-81.1118,7.916,0.5247],[-81.1115,7.9129,0.0],[-81.1107,7.9132,0.0],[-81.1101,7.9157,1.1336]]],
[[[-81.0443,7.9351,12.9075],[-81.0426,7.9371,1.0],[-81.0468,7.9371,5.1766],[-81.0482,7.9343,1.0],[-81.0457,7.9337,7.4384],[-81.0443,7.9351,12.9075]]],
[[[-81.0393,7.9432,1.5],[-81.0387,7.9446,12.5467],[-81.0401,7.946,5.3547],[-81.0401,7.9446,11.3884],[-81.0393,7.9432,1.5]]],
[[[-81.1068,7.8982,0.0],[-81.1129,7.8996,0.0],[-81.1157,7.8982,0.0],[-81.1176,7.8913,0.0],[-81.1137,7.8888,3.2409],[-81.1115,7.8929,2.9806],[-81.1043,7.8951,0.4906],[-81.1068,7.8982,0.0]]],
[[[-81.061,7.9001,4.1646],[-81.0604,7.9021,2.4062],[-81.0649,7.8976,0.0],[-81.0629,7.8976,1.2666],[-81.061,7.9001,4.1646]]],
[[[-81.0676,7.7065,0.0],[-81.0676,7.7082,0.0],[-81.0715,7.7076,0.0],[-81.0707,7.7068,0.0],[-81.0676,7.7065,0.0]]],
[[[-81.0726,7.7104,7.5675],[-81.0762,7.7115,0.0],[-81.0738,7.7087,0.0],[-81.0724,7.709,7.5675],[-81.0726,7.7104,7.5675]]],
[[[-81.5846,7.7332,0.5062],[-81.5818,7.7332,0.0],[-81.5804,7.7346,12.5954],[-81.5832,7.7346,4.5556],[-81.5846,7.7332,0.5062]]],
[[[-81.5413,7.7238,0.0],[-81.5421,7.7254,0.0],[-81.544,7.7224,0.0],[-81.5407,7.7226,0.0],[-81.5413,7.7238,0.0]]],
[[[-81.0993,7.7321,0.0],[-81.1004,7.7335,0.0],[-81.1021,7.7335,0.0],[-81.1004,7.7312,0.0],[-81.0993,7.7321,0.0]]],
[[[-81.2035,7.7193,0.0],[-81.2082,7.7199,0.0],[-81.2149,7.7132,1.5918],[-81.2107,7.711,3.7263],[-81.2029,7.7171,0.0],[-81.2035,7.7193,0.0]]],
[[[-81.1288,7.7635,9.9089],[-81.1312,7.7646,0.0],[-81.1324,7.7632,0.0],[-81.1304,7.7529,0.0],[-81.1318,7.7499,0.0],[-81.1307,7.7426,0.0],[-81.136,7.741,0.0],[-81.1443,7.7415,11.8252],[-81.151,7.7451,4.9138],[-81.1526,7.7451,0.0],[-81.1526,7.7435,0.0],[-81.1474,7.7387,0.0],[-81.1454,7.7332,2.7488],[-81.139,7.7315,0.0],[-81.139,7.7299,0.0],[-81.134,7.7285,0.0],[-81.1315,7.726,0.0],[-81.1299,7.7265,0.0],[-81.1254,7.7232,3.9407],[-81.124,7.7201,0.0],[-81.116,7.7199,0.0],[-81.109,7.7174,9.0696],[-81.1057,7.7182,3.1241],[-81.1015,7.7274,0.0],[-81.1046,7.7343,3.0861],[-81.1043,7.7438,0.0],[-81.106,7.7479,5.2113],[-81.114,7.7529,29.7986],[-81.1235,7.7624,2.4926],[-81.1288,7.7635,9.9089]]],
[[[-81.5837,7.7846,14.7905],[-81.5843,7.7868,0.0],[-81.5882,7.7849,9.2884],[-81.5868,7.7835,0.0],[-81.5837,7.7846,14.7905]]],
[[[-81.7732,7.814,0.0],[-81.7718,7.8157,0.0],[-81.7715,7.8187,0.1901],[-81.7729,7.8182,0.0],[-81.7732,7.814,0.0]]],
[[[-81.741,7.8088,0.6103],[-81.7396,7.8132,0.0],[-81.741,7.8129,0.0],[-81.7421,7.8085,0.0],[-81.741,7.8088,0.6103]]],
[[[-81.7571,7.8232,60.3403],[-81.7585,7.8254,0.0],[-81.7604,7.8235,25.1659],[-81.7585,7.8132,26.6083],[-81.7618,7.8151,32.9572],[-81.7676,7.8146,0.0],[-81.7685,7.8085,0.0],[-81.7663,7.8082,10.1556],[-81.766,7.8068,0.0],[-81.7679,7.8043,0.0],[-81.7682,7.7996,12.6485],[-81.7618,7.7979,1.8502],[-81.7588,7.8065,0.0],[-81.7562,7.8021,0.7278],[-81.7546,7.8037,0.0],[-81.7554,7.8107,20.9269],[-81.754,7.8107,12.0156],[-81.754,7.8129,19.9892],[-81.7551,7.8146,11.6817],[-81.7532,7.8151,11.6817],[-81.7532,7.8171,9.3805],[-81.7554,7.8185,44.5682],[-81.7543,7.8246,10.3202],[-81.7571,7.8232,60.3403]]],
[[[-81.7382,7.8174,0.0],[-81.739,7.8185,1.4943],[-81.7401,7.8171,1.4943],[-81.739,7.8132,0.0],[-81.7385,7.8135,0.0],[-81.7382,7.8174,0.0]]],
[[[-81.5151,7.7529,5.3076],[-81.5182,7.7546,0.0],[-81.5235,7.7513,0.0],[-81.5218,7.7474,11.879],[-81.5185,7.7451,8.2164],[-81.5185,7.7412,0.0],[-81.514,7.7446,0.0],[-81.5162,7.7476,0.0],[-81.5143,7.7504,0.0],[-81.5151,7.7529,5.3076]]],
[[[-81.1729,7.7485,10.6773],[-81.1757,7.7499,0.0],[-81.176,7.7468,0.0],[-81.1735,7.746,2.8705],[-81.1729,7.7485,10.6773]]],
[[[-81.5751,7.7571,0.0],[-81.5774,7.7585,0.0],[-81.5835,7.7551,9.6031],[-81.5771,7.7538,33.0671],[-81.5765,7.7515,0.0],[-81.5779,7.7501,22.9751],[-81.5815,7.7513,13.004],[-81.5832,7.7485,44.3834],[-81.5879,7.7501,16.5353],[-81.591,7.7482,0.0],[-81.589,7.7429,0.0],[-81.5829,7.744,21.5164],[-81.581,7.7407,3.0755],[-81.5762,7.7426,10.3527],[-81.5774,7.7451,6.6519],[-81.5724,7.7454,0.0],[-81.5732,7.7471,47.8964],[-81.571,7.7482,0.0],[-81.5699,7.7554,0.0],[-81.5724,7.7574,0.0],[-81.5751,7.7571,0.0]]],
[[[-81.1676,7.8387,5.7751],[-81.171,7.8396,0.0],[-81.1735,7.8374,0.0],[-81.1785,7.826,1.1926],[-81.1793,7.8204,0.0],[-81.1782,7.8196,0.5999],[-81.1699,7.8193,0.0],[-81.1635,7.8268,0.0],[-81.1621,7.8351,0.0],[-81.1676,7.8387,5.7751]]],
[[[-81.0813,7.8399,1.7704],[-81.0862,7.841,0.0],[-81.0915,7.839,0.0],[-81.0974,7.8312,0.0],[-81.0982,7.8263,1.8662],[-81.0912,7.8187,0.0],[-81.0776,7.8207,10.4005],[-81.074,7.8235,0.0],[-81.0754,7.834,0.0],[-81.0782,7.8385,4.7881],[-81.0813,7.8399,1.7704]]],
[[[-81.8021,7.2213,0.0],[-81.8054,7.2224,0.0],[-81.8065,7.2213,8.0949],[-81.8043,7.2146,63.3706],[-81.8057,7.2093,0.0],[-81.7993,7.2035,0.0],[-81.7957,7.2051,0.0],[-81.7957,7.2079,0.0],[-81.8012,7.2146,2.5254],[-81.8001,7.2179,1.2933],[-81.7976,7.216,0.1143],[-81.7965,7.2171,0.0],[-81.8021,7.2213,0.0]]],
[[[-80.904,7.2346,5.833],[-80.9051,7.2368,0.0],[-80.911,7.2354,0.0],[-80.9096,7.2332,0.0],[-80.911,7.2321,0.0],[-80.9093,7.2315,0.0],[-80.904,7.2346,5.833]]],
[[[-80.9454,7.266,8.4145],[-80.9443,7.2688,0.0],[-80.9549,7.2613,0.0],[-80.9532,7.2599,0.7032],[-80.9454,7.266,8.4145]]],
[[[-81.8187,7.2935,0.0],[-81.8207,7.2946,0.0],[-81.8215,7.2918,6.2481],[-81.8207,7.2821,39.1428],[-81.8246,7.2721,0.8956],[-81.8213,7.271,35.992],[-81.8179,7.261,5.28],[-81.8121,7.2524,39.6399],[-81.811,7.2426,0.0],[-81.8065,7.2385,16.6043],[-81.804,7.2274,1.7011],[-81.8024,7.2262,0.0],[-81.7993,7.2293,2.3214],[-81.7985,7.2329,20.9202],[-81.8024,7.2385,0.0],[-81.8024,7.2415,0.0],[-81.7949,7.2493,1.4231],[-81.7929,7.2549,3.7132],[-81.789,7.2588,11.1221],[-81.789,7.2618,21.3787],[-81.7849,7.2668,0.0],[-81.7865,7.2693,12.1772],[-81.7857,7.2746,0.0],[-81.7821,7.2765,0.0],[-81.781,7.279,35.0533],[-81.7685,7.2835,0.0],[-81.7693,7.2907,0.0],[-81.7765,7.2913,0.0],[-81.7846,7.2868,13.9857],[-81.7882,7.2888,12.3806],[-81.7887,7.2918,2.1231],[-81.796,7.2896,2.5608],[-81.8024,7.2924,0.0],[-81.8063,7.2899,5.6817],[-81.816,7.2893,8.2972],[-81.8185,7.2907,0.0],[-81.8187,7.2935,0.0]]],
[[[-81.2535,7.4676,36.4199],[-81.2521,7.4699,0.0],[-81.2565,7.469,0.0],[-81.2576,7.4671,0.0],[-81.2549,7.4657,1.715],[-81.2535,7.4676,36.4199]]],
[[[-80.9476,7.481,3.4222],[-80.9501,7.4813,5.195],[-80.9496,7.476,0.0],[-80.9474,7.4771,10.6557],[-80.9476,7.481,3.4222]]],
[[[-81.2446,7.4776,0.0],[-81.2443,7.479,0.0],[-81.2474,7.4785,3.6824],[-81.251,7.4754,10.5522],[-81.249,7.4726,0.0],[-81.2515,7.4707,0.785],[-81.246,7.4724,0.0],[-81.2446,7.4776,0.0]]],
[[[-81.6721,7.3174,0.0],[-81.6738,7.3188,0.0],[-81.6749,7.3188,0.0],[-81.674,7.3151,0.0],[-81.6721,7.3174,0.0]]],
[[[-81.7968,7.3849,0.0],[-81.794,7.384,28.2181],[-81.7999,7.3887,0.1032],[-81.8004,7.3871,0.1032],[-81.7968,7.3849,0.0]]],
[[[-80.9388,7.4018,4.887],[-80.9412,7.4029,0.0],[-80.9426,7.3993,0.0],[-80.9465,7.3971,0.0],[-80.9463,7.3957,0.0],[-80.9432,7.3957,2.0887],[-80.9407,7.4007,0.0],[-80.9379,7.4007,0.0],[-80.9388,7.4018,4.887]]],
[[[-81.6446,7.384,1.388],[-81.644,7.3854,0.0],[-81.6454,7.386,0.0],[-81.6454,7.3824,0.0],[-81.6446,7.384,1.388]]],
[[[-80.9326,7.401,15.6562],[-80.9313,7.4015,0.0],[-80.9318,7.4029,0.0],[-80.9349,7.4018,6.9996],[-80.9351,7.3993,1.2695],[-80.9335,7.3993,0.0],[-80.9326,7.401,15.6562]]],
[[[-81.3712,7.6562,8.1579],[-81.3701,7.6582,0.0],[-81.3746,7.6576,0.0],[-81.3737,7.656,15.5538],[-81.3712,7.6562,8.1579]]],
[[[-81.3801,7.6685,0.0],[-81.3801,7.6713,0.0],[-81.3854,7.6713,0.0],[-81.3849,7.6693,0.0],[-81.3812,7.6704,0.0],[-81.3815,7.6682,0.0],[-81.3801,7.6685,0.0]]],
[[[-81.4796,7.6829,0.0],[-81.4851,7.6843,0.0],[-81.4804,7.6815,0.0],[-81.4763,7.6821,0.0],[-81.4768,7.684,0.0],[-81.4796,7.6829,0.0]]],
[[[-81.6249,7.7024,0.0],[-81.6221,7.7021,0.0],[-81.6221,7.7032,0.0],[-81.6251,7.7038,0.0],[-81.6249,7.7024,0.0]]],
[[[-81.6143,7.6971,0.0],[-81.616,7.6968,0.0],[-81.6154,7.6993,0.0],[-81.6185,7.6971,11.1769],[-81.6218,7.6988,0.0],[-81.6329,7.6943,3.949],[-81.6376,7.6951,32.1838],[-81.6396,7.6921,0.0],[-81.634,7.6915,0.0],[-81.6293,7.686,16.1462],[-81.6293,7.6837,0.0],[-81.6254,7.6882,0.0],[-81.6174,7.6854,0.0],[-81.6126,7.6879,14.271],[-81.6129,7.6932,0.0],[-81.6165,7.6951,7.936],[-81.6143,7.6971,0.0]]],
[[[-81.6346,7.7051,0.0],[-81.6329,7.7063,0.0],[-81.6349,7.7063,0.0],[-81.6404,7.7015,0.0],[-81.6401,7.699,0.0],[-81.6382,7.6977,0.0],[-81.6349,7.6993,0.0],[-81.6343,7.7018,6.4974],[-81.6357,7.7035,6.1167],[-81.6346,7.7051,0.0]]],
[[[-81.094,7.5815,11.352],[-81.0993,7.5821,0.0],[-81.1049,7.5799,5.6896],[-81.109,7.576,5.2612],[-81.1176,7.5749,0.0],[-81.1188,7.5721,9.0896],[-81.1221,7.5707,0.0],[-81.1296,7.5687,54.8482],[-81.1393,7.569,0.0],[-81.1438,7.5668,17.3109],[-81.1504,7.5618,0.0],[-81.1551,7.5543,29.9518],[-81.164,7.5462,27.9192],[-81.1668,7.5424,0.0],[-81.1682,7.5365,8.8941],[-81.1718,7.5326,5.6676],[-81.1779,7.5307,9.4967],[-81.1926,7.5315,5.2577],[-81.2012,7.5263,8.5426],[-81.2054,7.5265,22.3383],[-81.2074,7.5285,0.0],[-81.2129,7.5282,4.2599],[-81.2157,7.5265,12.3753],[-81.2157,7.5235,74.4934],[-81.219,7.521,0.0],[-81.2232,7.5221,0.0],[-81.224,7.5196,42.4306],[-81.2318,7.5182,10.1727],[-81.2379,7.5099,17.3869],[-81.2451,7.5038,0.0],[-81.249,7.4968,25.6668],[-81.251,7.4974,0.0],[-81.2521,7.4949,35.3228],[-81.2565,7.4921,0.0],[-81.256,7.4896,11.9184],[-81.2599,7.4882,1.3731],[-81.2573,7.4846,0.0],[-81.2496,7.4821,12.9708],[-81.2485,7.4801,0.0],[-81.2415,7.4846,0.0],[-81.241,7.486,1.6081],[-81.2432,7.4862,38.9582],[-81.244,7.4888,33.7519],[-81.2382,7.4924,0.2698],[-81.2382,7.494,15.4981],[-81.2354,7.4932,0.2572],[-81.231,7.496,0.0],[-81.2288,7.4951,0.0],[-81.2243,7.4982,0.0],[-81.2196,7.4932,8.5091],[-81.2262,7.4865,26.0726],[-81.2235,7.4846,0.0],[-81.2204,7.486,22.537],[-81.216,7.4849,0.0],[-81.216,7.4871,30.4426],[-81.2096,7.4882,0.0],[-81.2068,7.4904,0.0],[-81.2051,7.4893,0.3369],[-81.2046,7.4915,5.0139],[-81.2032,7.4896,0.0],[-81.1965,7.4899,0.0],[-81.1965,7.4935,5.6318],[-81.1929,7.4926,11.4445],[-81.1924,7.491,0.0],[-81.1896,7.4932,6.5527],[-81.1874,7.4918,0.0],[-81.1851,7.4935,0.0],[-81.1876,7.5007,11.451599999999999],[-81.1865,7.5038,21.0411],[-81.184,7.5032,0.0],[-81.1846,7.5054,3.3772],[-81.1804,7.5054,0.0],[-81.1768,7.5085,0.0809],[-81.1754,7.5071,0.0809],[-81.1724,7.5085,0.0],[-81.1732,7.5107,42.0479],[-81.1674,7.5135,0.2376],[-81.1665,7.5163,3.1168],[-81.1632,7.516,0.3012],[-81.1588,7.5182,0.5723],[-81.1568,7.5207,8.724],[-81.1574,7.524,22.6142],[-81.1532,7.5232,0.0],[-81.1462,7.5274,21.2443],[-81.1443,7.529,0.0],[-81.1443,7.5301,0.0],[-81.1476,7.5293,8.4151],[-81.1454,7.5343,0.0],[-81.1468,7.536,15.8383],[-81.1457,7.5376,0.1786],[-81.1324,7.5421,0.0],[-81.1332,7.5443,3.2132],[-81.1235,7.5457,0.0],[-81.1226,7.5479,8.3676],[-81.1062,7.5435,0.7708],[-81.1015,7.5385,0.0],[-81.0974,7.5385,0.0],[-81.0968,7.5365,0.0],[-81.0921,7.5352,7.3884],[-81.0921,7.5326,3.4334],[-81.0896,7.5318,0.0],[-81.0879,7.5285,0.0],[-81.0821,7.5279,0.0],[-81.0774,7.5318,1.4385],[-81.0785,7.5354,20.2143],[-81.0749,7.5349,0.0],[-81.066,7.5424,21.8792],[-81.0632,7.5418,0.0],[-81.0571,7.5446,0.0],[-81.0537,7.5501,8.929],[-81.0554,7.5537,0.0],[-81.0529,7.5565,2.9192],[-81.051,7.5563,0.0],[-81.0507,7.5615,0.0],[-81.046,7.5643,1.9002],[-81.0465,7.5679,6.0587],[-81.0399,7.5682,0.0],[-81.0376,7.5718,0.278],[-81.0435,7.5729,34.0594],[-81.0512,7.5801,0.0],[-81.0549,7.5804,22.9746],[-81.0574,7.5782,17.5518],[-81.0682,7.5782,22.7361],[-81.0724,7.5785,14.8208],[-81.0732,7.5815,0.0],[-81.0813,7.5801,39.5966],[-81.094,7.5815,11.352]]],
[[[-81.7946,7.386,30.017],[-81.791,7.3807,0.0],[-81.7879,7.3793,65.0624],[-81.7882,7.3771,0.0],[-81.7862,7.3746,5.9013],[-81.7835,7.3732,52.0082],[-81.7824,7.369,0.0],[-81.781,7.369,30.9849],[-81.7774,7.3624,19.9947],[-81.7785,7.3601,0.0],[-81.7715,7.3601,2.4301],[-81.7604,7.3512,5.5798],[-81.7546,7.3496,0.0],[-81.7518,7.3515,2.5159],[-81.7462,7.3485,0.0],[-81.7346,7.3474,9.6106],[-81.7246,7.3493,2.7109],[-81.724,7.3465,1.1834],[-81.7154,7.3451,3.4301],[-81.7049,7.3404,0.0],[-81.6929,7.3399,1.0536],[-81.691,7.3454,4.3616],[-81.689,7.3426,6.5387],[-81.6907,7.3396,7.0583],[-81.689,7.3376,6.0635],[-81.6751,7.331,0.9849],[-81.6715,7.3307,23.1529],[-81.669,7.3274,14.0442],[-81.669,7.3243,0.0],[-81.6637,7.326,26.6288],[-81.6582,7.3221,8.0422],[-81.6468,7.3196,7.0664],[-81.644,7.3165,0.0],[-81.6346,7.3171,0.0],[-81.6338,7.3199,12.4391],[-81.6304,7.3201,0.0],[-81.6285,7.3232,1.5951],[-81.619,7.3246,0.0],[-81.6179,7.3271,26.2402],[-81.6157,7.3276,20.067],[-81.5957,7.3257,4.5142],[-81.5926,7.3268,3.1562],[-81.5912,7.3257,3.1562],[-81.5904,7.3276,0.0],[-81.5926,7.3296,0.0],[-81.5918,7.3343,0.0],[-81.596,7.3346,17.5967],[-81.5993,7.3374,0.0],[-81.601,7.3365,15.1376],[-81.6032,7.3401,35.4661],[-81.604,7.354,9.647],[-81.6018,7.3593,0.0],[-81.6029,7.361,0.0],[-81.6065,7.3604,9.5714],[-81.6071,7.3651,3.5016],[-81.6113,7.3649,13.0054],[-81.6124,7.3704,10.7404],[-81.611,7.3757,0.0],[-81.6151,7.3754,17.7151],[-81.616,7.3774,0.0],[-81.621,7.3785,14.4256],[-81.6251,7.3885,0.0],[-81.6326,7.3954,33.58],[-81.6429,7.3963,0.0],[-81.6435,7.3893,3.9798],[-81.6382,7.3896,0.0],[-81.6421,7.3876,0.0],[-81.6426,7.3824,1.4421],[-81.6479,7.3788,0.0],[-81.6543,7.3701,4.2505],[-81.6624,7.3718,3.4906],[-81.6626,7.3724,1.8003],[-81.654,7.3718,16.0722],[-81.6504,7.3785,5.8167],[-81.6465,7.3812,2.8949],[-81.6468,7.3868,6.6146],[-81.6504,7.3951,10.8075],[-81.6518,7.3943,10.8075],[-81.6521,7.3896,6.392],[-81.6574,7.3885,1.5007],[-81.6585,7.3868,6.0778],[-81.6687,7.386,3.0686],[-81.6721,7.3896,1.4652],[-81.674,7.3887,24.5206],[-81.6801,7.3924,0.0],[-81.6818,7.3921,0.0],[-81.6849,7.3871,0.0],[-81.6876,7.3874,4.7309],[-81.6946,7.3938,6.8036],[-81.6949,7.3968,0.0],[-81.6988,7.4001,0.0],[-81.6982,7.4054,0.0],[-81.7012,7.4107,2.0746],[-81.7024,7.4182,16.3101],[-81.6976,7.4204,0.0],[-81.6988,7.4243,0.0],[-81.706,7.4257,6.4389],[-81.7157,7.4332,0.0],[-81.7193,7.4335,50.2247],[-81.726,7.4379,0.0],[-81.7279,7.4468,0.944],[-81.7237,7.4496,0.0],[-81.7224,7.4535,1.6658],[-81.7243,7.4557,2.4335],[-81.724,7.4593,0.0],[-81.7196,7.4587,0.0],[-81.7174,7.4654,0.0],[-81.7193,7.4754,2.7718],[-81.7179,7.4813,0.64],[-81.7187,7.4871,7.2657],[-81.7174,7.4865,0.0],[-81.7129,7.4943,6.2621],[-81.7012,7.4971,5.4828],[-81.6957,7.5024,20.2531],[-81.6854,7.5015,0.0],[-81.6818,7.5026,1.8411],[-81.6754,7.5151,6.028],[-81.6765,7.5268,0.0],[-81.6804,7.5432,1.4693],[-81.684,7.5421,10.9874],[-81.6851,7.544,0.0],[-81.696,7.5437,30.5429],[-81.7076,7.5399,1.986],[-81.7126,7.5454,5.9004],[-81.7146,7.5557,0.0],[-81.719,7.5599,16.6865],[-81.724,7.574,0.0],[-81.7237,7.5854,0.0],[-81.7271,7.5885,6.1782],[-81.7262,7.5918,0.0],[-81.7237,7.5929,0.0],[-81.7249,7.5957,0.9077],[-81.7213,7.5982,0.0],[-81.7237,7.5993,0.0],[-81.7232,7.6015,0.0],[-81.7246,7.6024,0.0],[-81.7254,7.6076,0.0],[-81.7271,7.6085,31.2284],[-81.7276,7.614,0.0],[-81.7343,7.621,0.0],[-81.7337,7.6226,0.6884],[-81.7299,7.6224,0.0],[-81.7299,7.6243,0.0],[-81.7271,7.626,7.4358],[-81.7299,7.6274,2.9134],[-81.729,7.631,6.4456],[-81.7301,7.6318,6.4456],[-81.7351,7.631,0.0],[-81.7401,7.6274,0.0],[-81.7415,7.6287,9.6623],[-81.7412,7.6318,0.0],[-81.7363,7.6365,8.6696],[-81.7429,7.6365,19.3514],[-81.746,7.6388,7.3186],[-81.7457,7.6446,7.534],[-81.7482,7.6451,29.1441],[-81.7487,7.6488,0.0],[-81.7507,7.6493,4.3686],[-81.7524,7.649,10.891],[-81.7515,7.6418,17.3949],[-81.7532,7.6396,6.4796],[-81.7596,7.6421,11.8042],[-81.7588,7.6463,0.0],[-81.7604,7.6465,8.0253],[-81.7646,7.6432,7.0889],[-81.7649,7.641,1.7702],[-81.7632,7.6413,1.8946],[-81.7629,7.6393,0.0],[-81.7657,7.6388,0.0],[-81.7676,7.6349,19.6469],[-81.7701,7.6343,0.0],[-81.7679,7.6332,0.0],[-81.7685,7.6315,0.0],[-81.7643,7.6324,2.5194],[-81.7629,7.6312,0.0],[-81.7621,7.6271,0.0],[-81.7574,7.6221,1.0067],[-81.7579,7.6201,5.0024],[-81.7657,7.6199,20.8704],[-81.774,7.6268,3.1053],[-81.776,7.6271,0.0],[-81.7743,7.6232,0.0],[-81.7765,7.6221,0.0],[-81.7826,7.6249,5.0634],[-81.7857,7.6229,29.0503],[-81.7846,7.6207,16.0973],[-81.7887,7.6174,0.0],[-81.7871,7.614,4.1728],[-81.7907,7.614,0.0],[-81.7937,7.6085,71.6886],[-81.801,7.6029,0.0],[-81.8029,7.5965,31.0208],[-81.8074,7.5951,0.0],[-81.8129,7.5899,13.4768],[-81.8154,7.5899,33.8908],[-81.8179,7.5921,0.0],[-81.8276,7.5929,0.0],[-81.8276,7.5893,0.0],[-81.8337,7.5871,0.0],[-81.8349,7.5851,1.1978],[-81.8324,7.5849,3.4624],[-81.8321,7.5832,10.7256],[-81.8349,7.5813,7.5459],[-81.8365,7.5771,4.1804],[-81.8388,7.5779,0.0],[-81.8385,7.5765,49.2468],[-81.8418,7.5749,0.0],[-81.8412,7.571,10.1435],[-81.8432,7.5638,0.0],[-81.841,7.5624,4.1084],[-81.841,7.5546,1.9985],[-81.8429,7.5485,12.4169],[-81.8468,7.5435,14.6195],[-81.8471,7.5451,1.3945],[-81.854,7.546,0.0],[-81.8554,7.544,29.3772],[-81.8587,7.5435,0.0],[-81.8574,7.5371,89.1534],[-81.8585,7.534,0.0],[-81.8551,7.5315,40.1218],[-81.8554,7.529,9.0344],[-81.8571,7.5237,15.5478],[-81.8621,7.5171,3.9846],[-81.8674,7.5157,0.0],[-81.8768,7.5224,0.0],[-81.8815,7.5237,42.6656],[-81.891,7.5237,3.384],[-81.8915,7.5224,3.384],[-81.8857,7.5185,47.4545],[-81.8896,7.516,0.0],[-81.8907,7.5124,0.0],[-81.8849,7.5135,0.0],[-81.8849,7.5115,0.0],[-81.8804,7.5088,49.1145],[-81.8835,7.5001,0.0],[-81.8812,7.4957,44.7149],[-81.884,7.4951,4.8591],[-81.8857,7.4932,0.0],[-81.8851,7.4912,16.6509],[-81.8882,7.491,0.418],[-81.8868,7.4899,14.1936],[-81.8879,7.4876,3.6087],[-81.8865,7.4871,1.2237],[-81.8854,7.4896,14.1936],[-81.8832,7.4879,4.6683],[-81.8835,7.4901,40.9654],[-81.8757,7.4918,0.5661],[-81.8735,7.4888,22.8238],[-81.8754,7.4815,0.0],[-81.8743,7.4801,0.0],[-81.8707,7.4807,22.5934],[-81.8704,7.4776,0.0],[-81.8685,7.4768,1.716],[-81.8715,7.4718,0.0],[-81.8701,7.4699,0.0],[-81.8676,7.4701,6.7358],[-81.8637,7.464,2.4795],[-81.8618,7.464,3.3422],[-81.8654,7.4626,2.6186],[-81.8649,7.4535,34.6716],[-81.8668,7.4524,0.0],[-81.8662,7.4488,2.4767],[-81.8643,7.4496,2.4767],[-81.8654,7.4451,2.963],[-81.8624,7.4449,0.9923],[-81.861,7.441,-0.4358],[-81.8596,7.4426,48.6763],[-81.859,7.4387,-0.0814],[-81.8532,7.4374,85.6526],[-81.8529,7.4349,2.2019],[-81.8493,7.4332,8.2504],[-81.8463,7.4285,0.0],[-81.8443,7.4285,7.0758],[-81.8426,7.4246,0.6393],[-81.8404,7.4243,16.8735],[-81.8393,7.4224,0.0],[-81.8368,7.4235,19.665],[-81.8354,7.4207,13.343],[-81.8324,7.4213,21.2913],[-81.8288,7.4168,0.0],[-81.8254,7.4165,52.2184],[-81.8265,7.4149,7.2777],[-81.8243,7.4149,21.2133],[-81.8201,7.4107,81.0746],[-81.8207,7.4074,0.6648],[-81.8193,7.406,0.0904],[-81.8143,7.406,2.7039],[-81.8049,7.3982,0.0],[-81.8032,7.3951,1.4007],[-81.8043,7.3915,0.0],[-81.8026,7.389,0.0],[-81.7988,7.3904,1.8299],[-81.7946,7.386,30.017]]],
[[[-81.2063,7.5757,0.0],[-81.2112,7.5762,2.8237],[-81.2121,7.5743,0.0],[-81.2176,7.5721,4.8314],[-81.2187,7.5685,29.1681],[-81.2221,7.5674,11.7333],[-81.2215,7.5576,4.5369],[-81.2237,7.5563,9.7508],[-81.2237,7.5485,0.0],[-81.211,7.5493,3.1157],[-81.2079,7.551,9.9424],[-81.2035,7.5499,0.0],[-81.1951,7.556,5.6004],[-81.1896,7.5563,0.0],[-81.1888,7.5579,0.7654],[-81.1843,7.5587,0.0],[-81.1874,7.564,0.291],[-81.1926,7.5654,14.2372],[-81.1937,7.5685,19.589],[-81.2063,7.5757,0.0]]],
[[[-81.7112,7.5926,0.6974],[-81.7104,7.5938,0.0],[-81.7121,7.5949,0.0],[-81.7126,7.5926,0.0],[-81.7112,7.5926,0.6974]]],
[[[-81.709,7.6229,0.0],[-81.7121,7.6246,0.0],[-81.7132,7.6221,0.0],[-81.7121,7.6218,0.0],[-81.709,7.6229,0.0]]],
[[[-81.779,7.6301,0.0],[-81.779,7.6329,0.0],[-81.7821,7.6315,0.0],[-81.7818,7.6299,0.0],[-81.779,7.6301,0.0]]],
[[[-81.7124,7.6163,1.7937],[-81.7124,7.6188,0.0],[-81.7149,7.6174,0.0],[-81.7138,7.6157,1.7937],[-81.7124,7.6163,1.7937]]],
[[[-81.7065,7.6171,4.5883],[-81.706,7.619,0.0],[-81.709,7.6179,0.0],[-81.7079,7.6165,0.0],[-81.7065,7.6171,4.5883]]],
[[[-81.2751,7.6246,0.0],[-81.2796,7.6251,0.0],[-81.2743,7.6187,0.0],[-81.2715,7.6182,0.0],[-81.2712,7.6218,5.318],[-81.2751,7.6246,0.0]]],
[[[-81.3443,7.6479,14.1912],[-81.3432,7.6507,0.0],[-81.356,7.6493,0.0],[-81.3543,7.6468,0.0],[-81.3443,7.6479,14.1912]]],
[[[-81.6951,7.6329,0.0],[-81.6946,7.6349,0.0],[-81.6974,7.634,4.2649],[-81.6965,7.6321,12.4295],[-81.6951,7.6329,0.0]]],
[[[-81.6968,7.6488,0.0],[-81.6979,7.6515,1.3764],[-81.7004,7.6499,53.0537],[-81.7032,7.651,6.3351],[-81.7063,7.6488,0.0],[-81.7065,7.6465,32.4554],[-81.714,7.6488,0.0],[-81.7171,7.6476,0.0],[-81.7174,7.6457,0.0],[-81.7132,7.6432,2.6409],[-81.7104,7.6382,0.0],[-81.7065,7.6382,1.4569],[-81.7054,7.6363,0.0],[-81.6999,7.6368,0.0],[-81.6982,7.6343,3.7492],[-81.6965,7.6379,0.0],[-81.699,7.639,0.0],[-81.699,7.6415,0.0],[-81.6946,7.6418,0.0],[-81.6907,7.6454,0.0],[-81.6954,7.6465,14.3637],[-81.6968,7.6488,0.0]]],
[[[-81.0607,7.7057,6.2568],[-81.0626,7.7068,0.0],[-81.059,7.7032,0.0],[-81.0593,7.7049,0.0],[-81.0607,7.7057,6.2568]]],
[[[-81.1799,7.8537,0.0],[-81.1762,7.8607,3.5862],[-81.171,7.8607,5.3871],[-81.1646,7.8554,0.0],[-81.1576,7.8529,0.0],[-81.1501,7.8526,0.0],[-81.1407,7.8579,7.6023],[-81.1415,7.8563,15.9591],[-81.1471,7.854,2.2272],[-81.1476,7.8504,0.0],[-81.1457,7.8474,16.4848],[-81.1407,7.8449,0.0],[-81.1287,7.8468,0.0],[-81.1257,7.846,0.0],[-81.1229,7.8482,0.0],[-81.1188,7.8485,3.7854],[-81.1185,7.8504,0.0],[-81.1171,7.849,9.9194],[-81.1188,7.8454,0.0],[-81.1165,7.8437,0.0],[-81.1096,7.8426,0.0],[-81.0926,7.8451,0.0],[-81.0904,7.8479,0.0],[-81.0921,7.8515,0.0],[-81.1096,7.8615,20.1476],[-81.1137,7.8679,11.567],[-81.1185,7.8718,10.4754],[-81.1182,7.8768,0.0],[-81.1176,7.8732,0.0],[-81.1154,7.8735,0.0],[-81.114,7.8851,3.4329],[-81.1193,7.8907,0.0],[-81.1232,7.8999,1.5132],[-81.1218,7.9038,1.309],[-81.1226,7.9071,2.8643],[-81.1199,7.911,0.0],[-81.1204,7.9143,0.0],[-81.1237,7.9151,4.8409],[-81.1229,7.9179,2.2972],[-81.1168,7.9193,2.7024],[-81.1154,7.9182,0.0],[-81.1162,7.9165,0.0],[-81.1132,7.9151,0.7982],[-81.1093,7.9196,1.7232],[-81.106,7.9193,1.4468],[-81.106,7.914,0.0],[-81.114,7.9085,0.0],[-81.1143,7.9049,0.0],[-81.1074,7.9021,3.2574],[-81.101,7.9043,1.5471],[-81.1026,7.9004,1.5632],[-81.1001,7.8976,0.4286],[-81.096,7.9018,0.5155],[-81.0979,7.8915,0.0],[-81.0954,7.8926,0.7473],[-81.0946,7.8899,0.0],[-81.0901,7.8907,5.7655],[-81.0918,7.8879,0.0],[-81.0901,7.8888,3.864],[-81.0901,7.8865,2.7186],[-81.0937,7.8879,0.0],[-81.0926,7.884,0.6807],[-81.0954,7.8851,0.0],[-81.0935,7.881,1.6687],[-81.089,7.8801,0.0],[-81.0885,7.8788,0.0],[-81.0918,7.8796,0.0],[-81.0932,7.8785,4.8237],[-81.0963,7.8835,0.5404],[-81.0971,7.8815,0.0],[-81.0943,7.8768,7.307],[-81.0949,7.8757,0.0],[-81.0982,7.8763,0.0],[-81.0982,7.8874,0.0],[-81.0996,7.8863,0.0],[-81.0987,7.8835,0.0],[-81.1004,7.8826,0.6618],[-81.1004,7.889,0.0],[-81.1032,7.8907,0.0],[-81.109,7.8896,9.6148],[-81.1115,7.8876,0.0],[-81.1113,7.8701,0.0],[-81.109,7.8657,22.5198],[-81.106,7.8635,0.0],[-81.0885,7.8579,0.0],[-81.084,7.8654,0.0],[-81.0765,7.8735,13.9811],[-81.0765,7.8829,14.1615],[-81.0687,7.8996,3.7697],[-81.0604,7.9035,2.4062],[-81.0574,7.9074,0.0],[-81.0571,7.9149,0.0],[-81.061,7.9193,3.3646],[-81.0651,7.9199,7.8419],[-81.0676,7.9226,1.5],[-81.0776,7.9187,16.302],[-81.0801,7.9204,6.8638],[-81.0776,7.9196,3.0],[-81.0663,7.9237,1.5],[-81.0651,7.9212,5.2285],[-81.0604,7.9204,3.3646],[-81.0593,7.9182,0.125],[-81.0554,7.9185,0.0],[-81.0554,7.9268,0.5],[-81.0493,7.9318,7.9765],[-81.0488,7.9368,1.0],[-81.041,7.9382,11.0299],[-81.0387,7.9404,11.9686],[-81.041,7.9438,11.3884],[-81.0407,7.9476,11.9437],[-81.0396,7.9476,11.9437],[-81.0376,7.9438,12.5467],[-81.0376,7.9401,11.9686],[-81.0537,7.926,0.5],[-81.0537,7.9174,0.0],[-81.0551,7.9149,7.404],[-81.0543,7.9043,3.2077],[-81.059,7.8971,10.9534],[-81.0618,7.8954,0.0],[-81.066,7.884,0.0],[-81.0568,7.8854,0.0],[-81.0537,7.8843,7.6755],[-81.0496,7.8785,0.0],[-81.0462,7.8776,11.126],[-81.0437,7.8779,12.6083],[-81.039,7.8818,2.6483],[-81.0365,7.8776,6.9754],[-81.0401,7.8807,0.0],[-81.0437,7.8765,12.6109],[-81.0485,7.8768,15.1336],[-81.0524,7.8787,12.6742],[-81.0554,7.8835,0.0],[-81.0593,7.8818,11.6756],[-81.0635,7.8824,0.0],[-81.0663,7.8796,0.0],[-81.0621,7.8665,0.0],[-81.0629,7.8624,2.2377],[-81.061,7.8601,0.0],[-81.0618,7.8579,22.2837],[-81.0621,7.8607,7.1244],[-81.0646,7.8607,0.0],[-81.066,7.8488,0.0],[-81.0615,7.8326,11.6836],[-81.0624,7.8251,0.0],[-81.0557,7.8221,5.8855],[-81.0304,7.8221,0.0],[-81.0279,7.8257,12.3499],[-81.0212,7.8302,2.9453],[-81.0215,7.8404,0.0],[-81.0251,7.8418,10.7265],[-81.026,7.8437,3.2947],[-81.0207,7.8421,2.2934],[-81.0193,7.8349,2.5773],[-81.0204,7.8282,4.8739],[-81.0168,7.8254,20.4783],[-81.0224,7.8274,0.0],[-81.0288,7.8207,0.0],[-81.0343,7.819,0.0],[-81.0687,7.8176,0.0],[-81.0785,7.8099,0.0],[-81.0863,7.7965,23.6612],[-81.0907,7.7785,0.0],[-81.0904,7.7735,5.3097],[-81.0799,7.7657,2.342],[-81.0751,7.7562,0.0],[-81.0654,7.7568,0.0],[-81.0607,7.7637,5.0352],[-81.0526,7.7587,11.9648],[-81.0535,7.7585,13.909],[-81.0571,7.7607,0.6431],[-81.0604,7.7607,1.9474],[-81.0649,7.7549,0.0],[-81.0646,7.7468,0.0],[-81.0557,7.7507,3.8331],[-81.0401,7.7499,0.0],[-81.0332,7.7529,1.0274],[-81.0285,7.7432,5.0379],[-81.0196,7.7446,2.8872],[-81.0246,7.7421,7.7172],[-81.0287,7.7421,5.0379],[-81.0338,7.7504,3.1137],[-81.0357,7.7513,0.0],[-81.0362,7.7471,0.6202],[-81.044,7.7382,0.0],[-81.0413,7.7343,0.0],[-81.0435,7.7332,0.0],[-81.0329,7.7332,0.0],[-81.0296,7.7296,0.0],[-81.0326,7.7312,0.0],[-81.0362,7.7301,4.4733],[-81.0482,7.731,0.0],[-81.0504,7.7274,2.5675],[-81.0507,7.7196,8.402],[-81.0465,7.711,0.0],[-81.039,7.7157,5.6736],[-81.0437,7.711,0.0],[-81.0437,7.7085,0.0],[-81.0415,7.7063,0.0],[-81.0424,7.7026,0.0],[-81.0346,7.6971,4.1749],[-81.0312,7.6954,0.0],[-81.0235,7.6988,13.7805],[-81.011,7.6988,17.707],[-81.0068,7.6957,5.8692],[-81.006,7.6885,4.2081],[-81.0032,7.6871,8.4853],[-81.0082,7.689,1.5],[-81.009,7.696,3.1037],[-81.0154,7.6957,0.125],[-81.0157,7.6829,15.0089],[-81.0126,7.6782,2.7328],[-81.0163,7.6821,15.0089],[-81.0185,7.6957,2.6387],[-81.0276,7.6943,0.0],[-81.0312,7.6918,14.58],[-81.0365,7.6926,0.0],[-81.0401,7.6893,2.4048],[-81.0424,7.6785,9.2809],[-81.0471,7.6815,2.4653],[-81.051,7.6804,6.7601],[-81.0521,7.6757,0.0],[-81.0504,7.664,3.6951],[-81.0365,7.6504,0.0],[-81.0301,7.649,7.1393],[-81.0265,7.646,2.1878],[-81.014,7.6415,2.7356],[-81.006,7.6368,2.8776],[-81.004,7.6318,3.0528],[-81.0051,7.626,2.5825],[-81.0035,7.6237,0.0],[-80.9893,7.6199,10.9316],[-80.9776,7.6099,1.9112],[-80.9743,7.6012,0.0],[-80.9807,7.5887,0.0],[-80.9796,7.586,0.0],[-80.9724,7.5785,0.0],[-80.9682,7.5779,5.1097],[-80.9635,7.5735,0.0],[-80.9507,7.5549,0.0],[-80.9496,7.549,4.5391],[-80.951,7.5435,11.903],[-80.9582,7.5385,2.759],[-80.9599,7.5343,1.6476],[-80.9585,7.526,10.3952],[-80.9593,7.5162,0.0],[-80.966,7.5143,6.1957],[-80.9682,7.5151,4.6498],[-80.9682,7.5113,12.5701],[-80.971,7.509,13.4574],[-80.9721,7.5021,0.0],[-80.9757,7.5018,0.105],[-80.9762,7.5004,0.0],[-80.9732,7.4985,0.0],[-80.9707,7.499,15.9822],[-80.9665,7.4935,0.0],[-80.9615,7.4946,4.104],[-80.9473,7.4865,0.0],[-80.9457,7.4826,0.0],[-80.9407,7.4788,1.5346],[-80.9435,7.476,1.5007],[-80.9412,7.471,0.0],[-80.9379,7.4701,0.0],[-80.9285,7.461,1.5492],[-80.921,7.4507,2.841],[-80.9171,7.4399,0.0],[-80.916,7.4418,0.0],[-80.9154,7.4379,7.1311],[-80.9171,7.4346,14.0707],[-80.9229,7.4357,0.0],[-80.9224,7.4324,0.0],[-80.9265,7.4304,11.3942],[-80.926,7.4268,20.4879],[-80.9282,7.424,4.5773],[-80.9324,7.4232,0.0],[-80.9315,7.4193,9.4687],[-80.9335,7.4149,3.6594],[-80.931,7.4135,0.0],[-80.9296,7.4082,1.0731],[-80.9265,7.4085,14.2359],[-80.9254,7.4101,2.7535],[-80.9265,7.4121,1.0983],[-80.924,7.4124,1.0397],[-80.924,7.4099,2.7535],[-80.9276,7.4068,43.1543],[-80.9301,7.4001,0.0],[-80.9271,7.4001,4.271],[-80.9174,7.3915,7.3958],[-80.9043,7.3715,0.6263],[-80.901,7.3724,4.1382],[-80.9004,7.3643,0.0],[-80.894,7.3496,0.5],[-80.8949,7.3454,0.0],[-80.8932,7.3337,0.0],[-80.8913,7.3351,3.7263],[-80.891,7.3326,1.7308],[-80.8921,7.329,3.3477],[-80.8987,7.3296,4.8604],[-80.9024,7.3282,0.0],[-80.9093,7.3188,14.1288],[-80.9132,7.319,0.0],[-80.9165,7.3221,0.0],[-80.9204,7.321,0.0],[-80.9187,7.3201,29.6284],[-80.9193,7.3176,17.2546],[-80.9179,7.3157,0.0],[-80.9215,7.3138,0.0],[-80.9204,7.3079,0.0],[-80.9235,7.3068,2.3468],[-80.9276,7.2968,26.4319],[-80.9276,7.2935,0.0],[-80.9251,7.2924,38.0733],[-80.924,7.2882,0.0],[-80.9207,7.2888,6.7231],[-80.9232,7.2871,0.8451],[-80.9232,7.2843,8.7545],[-80.926,7.281,0.0],[-80.9215,7.2782,1.2295],[-80.9221,7.2746,0.0],[-80.9235,7.2712,10.314],[-80.9318,7.2715,14.3215],[-80.9335,7.2657,22.8469],[-80.9357,7.2651,33.3487],[-80.9399,7.2599,4.9396],[-80.9401,7.2563,3.9402],[-80.9343,7.2546,0.0],[-80.9351,7.2493,4.4792],[-80.9318,7.2499,5.2578],[-80.9232,7.2457,10.1701],[-80.9182,7.2471,3.4131],[-80.9163,7.2493,7.443],[-80.9143,7.2485,0.0],[-80.9151,7.2471,0.0],[-80.9082,7.2438,10.2643],[-80.9088,7.2413,0.0],[-80.9071,7.2399,0.0],[-80.899,7.2393,22.086],[-80.8979,7.2332,1.2718],[-80.8946,7.2293,5.1661],[-80.8954,7.2271,0.0],[-80.8938,7.2251,0.0],[-80.8885,7.2237,0.0],[-80.8871,7.2213,0.0],[-80.8918,7.214,0.0],[-80.8913,7.2104,0.0],[-80.8887,7.2088,33.1218],[-80.8896,7.2057,0.0],[-80.8882,7.2043,0.0],[-80.8804,7.2076,39.9932],[-80.8782,7.204,2.6753999999999998],[-80.8721,7.2049,32.5893],[-80.8701,7.2038,6.4079],[-80.8682,7.2049,0.0],[-80.8665,7.2121,12.3726],[-80.864,7.2071,26.1343],[-80.8587,7.2068,0.0],[-80.8551,7.2099,0.0],[-80.8557,7.214,1.3294],[-80.8501,7.2157,5.7755],[-80.8476,7.209,20.9364],[-80.8371,7.2074,0.0],[-80.8354,7.2118,10.3611],[-80.8321,7.2113,4.3784],[-80.8299,7.2146,3.4185],[-80.8271,7.2143,12.5164],[-80.8193,7.211,0.0],[-80.8118,7.2099,4.1673],[-80.806,7.2063,0.0],[-80.8021,7.2082,20.3751],[-80.8012,7.2038,7.5461],[-80.799,7.2024,2.9315],[-80.7982,7.2057,25.778199999999998],[-80.7957,7.2071,3.9929],[-80.7926,7.2076,3.4839],[-80.7915,7.206,0.0],[-80.7868,7.2082,0.0],[-80.7854,7.2132,0.0],[-80.7815,7.214,12.7505],[-80.7785,7.2168,13.0848],[-80.7751,7.2154,0.0],[-80.774,7.2168,0.0],[-80.7724,7.2157,0.0],[-80.7696,7.2165,10.3193],[-80.7624,7.2137,0.0],[-80.7538,7.2132,1.2673],[-80.7524,7.2099,0.0],[-80.7485,7.2149,0.0],[-80.7365,7.2107,0.0],[-80.7346,7.2118,0.0],[-80.7332,7.2096,0.0],[-80.7307,7.2113,0.0],[-80.7304,7.2088,7.4792],[-80.7243,7.2115,0.0],[-80.7171,7.209,14.2816],[-80.7154,7.2063,0.0],[-80.706,7.211,14.9717],[-80.7021,7.2096,10.7598],[-80.701,7.2132,1.3893],[-80.6979,7.2124,4.0103],[-80.696,7.2149,12.4171],[-80.694,7.2146,3.0512],[-80.694,7.2129,0.0],[-80.6871,7.2135,28.5073],[-80.6868,7.211,0.7476],[-80.6846,7.211,0.0],[-80.6782,7.2165,0.0],[-80.6732,7.2168,0.0],[-80.6668,7.2229,34.3288],[-80.6574,7.2229,0.0],[-80.6551,7.226,3.9249],[-80.6496,7.2257,6.8164],[-80.6365,7.2313,0.0],[-80.6243,7.2315,0.0],[-80.6237,7.2329,22.1608],[-80.6212,7.2329,4.2842],[-80.6147,7.2301,0.0],[-80.6158,7.2718,97.6525],[-80.6189,7.2816,278.9106],[-80.623,7.2845,424.4092],[-80.6343,7.2863,795.3787],[-80.6492,7.2929,664.5126],[-80.6617,7.305,690.5865],[-80.672,7.3197,1257.1327],[-80.6712,7.334,1084.3572],[-80.6739,7.345,1208.7375],[-80.6714,7.3548,1361.3669],[-80.6735,7.3598,1303.3882],[-80.6861,7.3758,629.7599],[-80.7026,7.3826,378.8167],[-80.7176,7.3916,363.8619],[-80.7145,7.4006,640.244],[-80.7084,7.4099,848.9796],[-80.7084,7.4128,856.2882],[-80.7195,7.4327,370.0031],[-80.7325,7.4429,291.4618],[-80.735,7.4473,218.1669],[-80.7343,7.453,319.326],[-80.7245,7.4667,743.4656],[-80.7235,7.4707,812.3446],[-80.735,7.4886,514.5442],[-80.7382,7.4969,476.3464],[-80.7348,7.511,902.5409],[-80.7481,7.5201,637.0875],[-80.7562,7.5343,450.4529],[-80.7652,7.5412,477.7045],[-80.7707,7.5427,254.4516],[-80.7815,7.5422,561.5132],[-80.8086,7.5487,318.6183],[-80.8227,7.5575,330.9416],[-80.8995,7.6866,333.5586],[-80.9074,7.7311,203.6838],[-80.9006,7.7351,266.3656],[-80.9005,7.744,319.4689],[-80.9258,7.7608,246.693],[-80.9587,7.7607,85.9713],[-80.9602,7.7595,95.0526],[-80.9633,7.765,81.0759],[-80.9606,7.7714,85.1982],[-80.9524,7.772,90.3105],[-80.949,7.7785,165.247],[-80.9481,7.7993,151.8006],[-80.9373,7.8203,347.5767],[-80.9389,7.8297,395.7805],[-80.9322,7.8537,394.2226],[-80.9304,7.8736,141.2704],[-80.9257,7.8839,109.3089],[-80.9229,7.8862,83.6067],[-80.9206,7.9018,106.5743],[-80.9143,7.9089,101.5965],[-80.9155,7.9114,91.7715],[-80.919,7.9124,93.463],[-80.9226,7.916,99.9794],[-80.9282,7.9174,121.7052],[-80.93,7.9198,136.0711],[-80.9299,7.9232,128.6244],[-80.9235,7.923,170.7984],[-80.9195,7.9202,221.0334],[-80.9157,7.923,234.1256],[-80.912,7.9229,220.8939],[-80.9027,7.9268,204.6996],[-80.8918,7.9213,188.3687],[-80.8797,7.9247,179.3855],[-80.8706,7.9232,175.5373],[-80.8704,7.9287,174.9463],[-80.8687,7.9353,176.9461],[-80.8665,7.9374,187.4551],[-80.8663,7.9422,180.3199],[-80.8555,7.9571,165.7493],[-80.8548,7.9602,161.7543],[-80.8428,7.9634,153.4725],[-80.8398,7.9789,146.5909],[-80.8386,7.9803,132.7668],[-80.8344,7.9797,131.2384],[-80.8315,7.9913,75.0538],[-80.8285,7.9965,85.4228],[-80.815,7.9991,90.0166],[-80.8186,8.0047,86.3893],[-80.8213,8.017,69.9508],[-80.8256,8.0209,62.9413],[-80.8287,8.0273,55.4161],[-80.8358,8.0296,71.7868],[-80.8342,8.0381,53.038],[-80.8366,8.0401,49.5872],[-80.8369,8.0453,46.6668],[-80.8426,8.0573,43.9459],[-80.8383,8.0606,36.5092],[-80.8365,8.0659,34.8499],[-80.8286,8.0646,41.6974],[-80.8228,8.0671,32.7827],[-80.8192,8.0648,34.305],[-80.8163,8.0676,37.7216],[-80.8111,8.0687,39.2453],[-80.8047,8.0627,45.1805],[-80.7979,8.0636,66.4917],[-80.7941,8.0623,69.1648],[-80.7689,8.0734,45.0129],[-80.7554,8.0736,68.4631],[-80.7456,8.0863,50.7927],[-80.7355,8.089,47.1312],[-80.7322,8.0914,47.3356],[-80.7258,8.1122,35.3772],[-80.7177,8.1228,26.653],[-80.7081,8.1263,20.9552],[-80.7037,8.1262,18.693],[-80.6812,8.1169,21.116],[-80.6744,8.1175,15.5977],[-80.6703,8.1206,7.7673],[-80.6712,8.1263,11.9023],[-80.6768,8.1354,11.0241],[-80.6872,8.1412,15.6405],[-80.6945,8.153,14.2929],[-80.7095,8.1661,14.9223],[-80.6958,8.1991,53.0237],[-80.687,8.2258,56.2664],[-80.6843,8.24,42.5947],[-80.6891,8.2574,102.2644],[-80.6696,8.2897,77.7813],[-80.6612,8.3196,119.8643],[-80.6966,8.3327,123.6278],[-80.7075,8.342,106.9858],[-80.7115,8.3533,146.4957],[-80.7104,8.3757,181.0436],[-80.7129,8.3876,149.8187],[-80.7359,8.4126,193.2811],[-80.7448,8.4507,325.1846],[-80.7596,8.4649,441.0833],[-80.7744,8.4752,430.9919],[-80.7753,8.4964,407.765],[-80.7876,8.5159,606.6243],[-80.803,8.5318,639.9194],[-80.8229,8.5468,945.4868],[-80.8214,8.5618,1467.0879],[-80.8137,8.5653,1655.3693],[-80.8057,8.5659,1350.1628],[-80.79,8.5518,1332.9382],[-80.7819,8.5497,1522.2678],[-80.7704,8.5583,1424.0166],[-80.7608,8.5723,965.6687],[-80.7556,8.5912,1252.8568],[-80.7455,8.6076,1515.4272],[-80.7433,8.6397,1262.6602],[-80.739,8.6452,1063.6862],[-80.7273,8.6543,774.8229],[-80.7239,8.6626,659.7484],[-80.7283,8.6835,436.1897],[-80.735,8.6919,596.2296],[-80.7462,8.6992,703.6029],[-80.7525,8.7141,337.6224],[-80.7548,8.7271,356.576],[-80.7512,8.7352,547.8597],[-80.7433,8.7412,317.4814],[-80.7273,8.7473,114.352],[-80.7252,8.7503,176.5019],[-80.7253,8.7551,124.7353],[-80.7351,8.7726,92.8343],[-80.7467,8.7847,124.1778],[-80.7535,8.7957,92.767],[-80.7592,8.8011,93.1306],[-80.7624,8.8089,57.6614],[-80.7671,8.8127,146.6296],[-80.7728,8.8143,40.7169],[-80.7821,8.8136,55.768],[-80.7944,8.8089,64.0526],[-80.7993,8.8088,81.2822],[-80.8222,8.8166,18.2104],[-80.8287,8.8225,77.817],[-80.8408,8.8246,51.6436],[-80.861,8.8355,30.2482],[-80.864,8.8391,17.7609],[-80.8658,8.846,2.2483],[-80.874,8.8534,0.9829],[-80.8738,8.8757,0.0],[-80.8766,8.8815,11.7243],[-80.8715,8.8851,0.0],[-80.8724,8.8871,0.0],[-80.8885,8.8882,3.0047],[-80.8949,8.8854,4.7236],[-80.9018,8.8801,0.0],[-80.9029,8.8738,0.8674],[-80.9071,8.8704,2.1269],[-80.9129,8.8618,1.1306],[-80.914,8.8626,1.6487],[-80.9104,8.8662,1.7279],[-80.911,8.8679,0.7074],[-80.9429,8.8662,1.2791],[-80.9449,8.8632,0.0],[-80.9515,8.8612,1.4734],[-80.9538,8.8554,11.366],[-80.9685,8.849,4.3055],[-80.9682,8.8474,8.6679],[-80.9735,8.8407,4.9966],[-80.9732,8.836,3.3148],[-80.9746,8.8371,4.804],[-80.9737,8.8446,0.0],[-80.9751,8.8432,5.4732],[-80.9846,8.8443,0.0],[-80.9887,8.8429,8.4306],[-80.9935,8.8351,6.5532],[-80.9962,8.8357,0.0],[-81.0038,8.8332,7.5553],[-81.026,8.8332,1.8823],[-81.0296,8.8276,5.3354],[-81.0376,8.8279,0.0],[-81.0421,8.8196,4.7356],[-81.0432,8.8229,3.7484],[-81.0563,8.8238,0.0],[-81.0574,8.8218,33.6367],[-81.0615,8.8204,5.4724],[-81.0685,8.8115,2.7957],[-81.0835,8.8088,1.2348],[-81.081,8.806,0.0],[-81.0771,8.8068,0.2158],[-81.0754,8.8035,2.4811],[-81.0774,8.806,0.2158],[-81.0813,8.8046,5.0332],[-81.0857,8.8101,0.0],[-81.0918,8.8115,0.0],[-81.0935,8.8113,0.0],[-81.0937,8.8085,5.6519],[-81.096,8.8079,18.3112],[-81.099,8.809,0.0],[-81.1085,8.8074,17.1011],[-81.114,8.809,0.0],[-81.1157,8.8071,0.0],[-81.1218,8.8062,0.0],[-81.1232,8.8043,0.7541],[-81.126,8.8049,15.1146],[-81.1282,8.8029,5.979],[-81.131,8.8035,18.9842],[-81.1421,8.8001,12.9584],[-81.1476,8.796,2.3597],[-81.1585,8.7971,0.0],[-81.1615,8.7954,36.9899],[-81.169,8.7949,8.8615],[-81.1771,8.7968,3.3408],[-81.1782,8.7954,24.7727],[-81.1871,8.794,0.0],[-81.1904,8.791,8.9767],[-81.1957,8.791,0.0],[-81.1985,8.7876,13.4324],[-81.2021,8.7865,9.6543],[-81.2107,8.7888,0.0],[-81.2131,8.7856,6.7224],[-81.2227,8.7818,18.1258],[-81.2238,8.7773,6.1188],[-81.2212,8.764,55.0041],[-81.2277,8.7542,13.768],[-81.2258,8.7445,83.2909],[-81.2199,8.7438,16.668],[-81.2251,8.7313,61.5385],[-81.2227,8.7204,62.6834],[-81.2283,8.7113,93.0556],[-81.2257,8.707,70.5956],[-81.2166,8.7041,34.5685],[-81.2157,8.7004,80.922],[-81.2209,8.6947,91.0916],[-81.2214,8.6882,69.8944],[-81.2288,8.6842,130.244],[-81.231,8.6775,77.1778],[-81.229,8.6708,82.0243],[-81.2311,8.6643,165.054],[-81.2272,8.6595,195.9751],[-81.2347,8.6508,176.6489],[-81.2354,8.6258,261.5116],[-81.2314,8.6176,296.5724],[-81.2351,8.5981,304.258],[-81.2324,8.5882,437.96],[-81.2285,8.5813,440.5497],[-81.2106,8.5564,434.1472],[-81.2018,8.5315,577.6934],[-81.2005,8.5307,645.4683],[-81.1836,8.534,457.7394],[-81.1776,8.5317,586.5483],[-81.1716,8.5245,692.7314],[-81.1708,8.5209,686.9533],[-81.1775,8.5132,876.9505],[-81.1743,8.5111,1020.8887],[-81.1709,8.4844,738.2662],[-81.1645,8.4759,789.3549],[-81.1509,8.4636,606.5835],[-81.1381,8.4555,587.4918],[-81.1327,8.4361,444.6423],[-81.1487,8.4519,442.9057],[-81.1631,8.4565,647.4772],[-81.1669,8.4679,700.938],[-81.1721,8.4722,770.9523],[-81.194,8.4552,401.2289],[-81.2116,8.4551,504.0519],[-81.2227,8.4581,463.6616],[-81.2328,8.4578,436.0884],[-81.2473,8.4825,676.5117],[-81.2541,8.5061,1341.6238],[-81.2582,8.5105,1428.7272],[-81.2666,8.5135,1499.2274],[-81.269,8.5168,1600.8867],[-81.277,8.5164,1707.7542],[-81.2745,8.5098,1627.1665],[-81.2757,8.5038,1505.6759],[-81.264,8.4871,972.422],[-81.259,8.4721,715.0047],[-81.2596,8.4704,713.1145],[-81.2636,8.4673,738.2782],[-81.2773,8.4748,872.4866],[-81.2816,8.4756,825.678],[-81.2929,8.4697,693.6116],[-81.2976,8.47,555.6147],[-81.3019,8.4763,635.8296],[-81.3001,8.4874,808.337],[-81.2977,8.4923,852.0198],[-81.2954,8.4934,933.4189],[-81.2857,8.4911,1035.9684],[-81.2829,8.4968,1078.2999],[-81.2849,8.5067,1471.1758],[-81.2918,8.5206,1300.4308],[-81.3047,8.5328,1283.3545],[-81.3085,8.5331,1216.6067],[-81.3141,8.5275,1067.7526],[-81.3173,8.5128,1264.4872],[-81.3244,8.5016,1153.6301],[-81.3272,8.4998,1061.334],[-81.3313,8.4995,1043.1243],[-81.3327,8.5007,1056.5417],[-81.3397,8.4964,721.2894],[-81.3301,8.5076,1009.8495],[-81.3269,8.5209,878.243],[-81.3364,8.5366,1052.7703],[-81.34,8.5396,895.0824],[-81.3429,8.5381,864.0133],[-81.3451,8.5298,893.0526],[-81.3495,8.522,763.6965],[-81.358,8.5152,726.9353],[-81.3626,8.5094,717.11],[-81.3626,8.4974,470.5176],[-81.3599,8.4942,428.7355],[-81.355,8.4929,536.2156],[-81.3411,8.4955,721.2894],[-81.3315,8.4864,721.4116],[-81.3165,8.4806,703.2361],[-81.314,8.4759,578.1471],[-81.3151,8.474,594.4263],[-81.3188,8.4734,580.1012],[-81.33,8.4797,676.105],[-81.3367,8.4786,683.2657],[-81.3495,8.4801,492.3659],[-81.3561,8.4782,470.2849],[-81.3575,8.4757,454.2257],[-81.3564,8.4689,367.7672],[-81.3504,8.4672,442.4572],[-81.3467,8.4636,465.8256],[-81.3451,8.4475,340.4861],[-81.3467,8.4431,280.7456],[-81.3507,8.4412,260.2309],[-81.3638,8.4509,306.9041],[-81.3633,8.4587,425.8163],[-81.3661,8.4615,409.0781],[-81.3701,8.475,493.4688],[-81.3837,8.4954,697.2383],[-81.3875,8.4982,792.4033],[-81.3939,8.4991,708.6075],[-81.3993,8.4949,511.9705],[-81.4085,8.4703,759.7962],[-81.4181,8.4656,539.6006],[-81.4201,8.463,542.8105],[-81.4197,8.4589,468.6048],[-81.413,8.4452,453.7082],[-81.4125,8.4383,452.0156],[-81.4154,8.4364,425.6778],[-81.425,8.4365,355.0819],[-81.4237,8.4319,386.3922],[-81.4249,8.4242,404.2685],[-81.4299,8.4183,302.4228],[-81.4358,8.4288,340.9218],[-81.4426,8.4313,368.641],[-81.4476,8.436,452.1404],[-81.4516,8.4309,543.9546],[-81.4611,8.4302,450.5968],[-81.4612,8.4262,446.6055],[-81.4591,8.4229,467.6662],[-81.4506,8.4211,556.1777],[-81.4487,8.4171,501.2895],[-81.4492,8.4147,458.0418],[-81.4554,8.4109,430.0857],[-81.4579,8.4071,356.5566],[-81.4573,8.3978,316.3249],[-81.4664,8.4002,357.1805],[-81.4736,8.4099,345.6035],[-81.4755,8.4081,312.5088],[-81.4836,8.411,346.6246],[-81.4993,8.4082,400.515],[-81.5224,8.4166,331.2543],[-81.5286,8.4108,337.898],[-81.5354,8.4078,465.3746],[-81.5345,8.4026,431.7513],[-81.5272,8.3921,281.5914],[-81.5325,8.3904,279.6823],[-81.5324,8.3858,272.1959],[-81.5363,8.3856,335.5722],[-81.5367,8.383,330.1815],[-81.532,8.3813,291.6793],[-81.5139,8.3565,318.0793],[-81.5121,8.3396,222.558],[-81.5076,8.33,289.5863],[-81.5097,8.3167,239.9665],[-81.5081,8.3087,238.8386],[-81.5089,8.3052,253.1714],[-81.5121,8.3041,196.9831],[-81.5166,8.305,217.2756],[-81.5241,8.3091,292.116],[-81.5285,8.3138,293.416],[-81.5213,8.3044,301.109],[-81.5154,8.3,208.9196],[-81.5096,8.2762,209.6354],[-81.5117,8.2787,252.1987],[-81.5275,8.2722,265.2156],[-81.5301,8.2613,137.3101],[-81.5356,8.2558,253.0752],[-81.5386,8.2449,243.6214],[-81.5468,8.2473,277.9901],[-81.5573,8.2335,206.6323],[-81.5564,8.2267,113.7138],[-81.5586,8.2171,78.9016],[-81.5551,8.2105,139.7552],[-81.5549,8.2063,101.0646],[-81.567,8.1988,172.5517],[-81.5684,8.1963,80.0812],[-81.5583,8.1859,119.1463],[-81.5406,8.1896,162.3895],[-81.535,8.1805,283.6254],[-81.5253,8.1877,315.3803],[-81.5236,8.1975,313.0309],[-81.5153,8.1963,333.0985],[-81.5051,8.1885,338.7679],[-81.4961,8.1768,305.9904],[-81.4958,8.1628,210.5052],[-81.4987,8.1591,173.0665],[-81.5079,8.1551,174.3241],[-81.5179,8.1482,284.5602],[-81.5283,8.1459,224.4239],[-81.5297,8.1523,210.5077],[-81.537,8.1564,214.3533],[-81.5506,8.1549,320.6843],[-81.5672,8.155,540.2006],[-81.5708,8.1563,545.9926],[-81.5733,8.1606,400.2485],[-81.5729,8.1666,315.2415],[-81.5784,8.1702,218.0482],[-81.5791,8.1833,50.4879],[-81.5805,8.1864,131.316],[-81.5963,8.1788,267.1273],[-81.5983,8.1759,285.5881],[-81.5983,8.1688,61.8322],[-81.6008,8.1662,82.0193],[-81.6079,8.1644,164.427],[-81.6118,8.1586,170.5046],[-81.6115,8.142,131.4316],[-81.6197,8.1341,30.7985],[-81.6166,8.1282,191.7359],[-81.6187,8.1133,107.689],[-81.6136,8.1065,58.548],[-81.6163,8.1006,132.4003],[-81.623,8.0983,59.0668],[-81.6255,8.0954,167.2715],[-81.6285,8.0794,150.8985],[-81.627,8.072,94.1543],[-81.6282,8.0649,74.5857],[-81.6329,8.0571,89.97],[-81.6401,8.0576,8.5302],[-81.6435,8.0548,6.0659],[-81.6418,8.0497,7.285],[-81.6321,8.0401,6.3814],[-81.6319,8.0347,9.6528],[-81.637,8.0318,2.4947],[-81.6437,8.0308,3.2463],[-81.6385,8.0246,10.1305],[-81.6379,8.0215,0.8402],[-81.6435,8.0158,5.4676],[-81.6535,7.9987,29.4129],[-81.6735,8.0071,0.8795],[-81.654,7.9849,2.0895],[-81.6399,7.949,3.718],[-81.6318,7.9401,0.5627],[-81.6271,7.9421,0.845],[-81.6271,7.9454,0.0],[-81.6246,7.9499,0.0],[-81.6318,7.9624,9.9641],[-81.6321,7.9679,25.6996],[-81.6293,7.9776,0.0],[-81.6301,7.9801,12.282],[-81.6346,7.9796,9.919],[-81.6387,7.9815,21.7198],[-81.6413,7.9876,6.6976],[-81.6385,7.9921,27.0013],[-81.631,7.9943,8.1814],[-81.6257,7.9999,0.0],[-81.6265,7.9962,13.1959],[-81.629,7.9954,28.6684],[-81.6304,7.9926,0.0],[-81.6371,7.9901,21.7638],[-81.6385,7.9871,0.0],[-81.6354,7.9843,9.8142],[-81.6301,7.9846,4.0806],[-81.6249,7.9812,1.6884],[-81.6221,7.9815,0.0],[-81.6162,7.9846,0.0],[-81.6049,7.9946,5.665],[-81.6065,7.991,11.0088],[-81.6126,7.9857,0.0],[-81.6243,7.979,0.0],[-81.6263,7.9674,4.9415],[-81.6229,7.964,5.709],[-81.6185,7.9726,3.4847],[-81.6124,7.9749,3.7759],[-81.6115,7.9768,9.6376],[-81.6121,7.974,3.7759],[-81.6182,7.9721,3.4847],[-81.6201,7.9679,11.5317],[-81.6193,7.9629,1.7577],[-81.6174,7.9635,1.7577],[-81.6165,7.966,12.7921],[-81.6118,7.9521,0.0],[-81.6129,7.944,0.0],[-81.6038,7.9349,0.0],[-81.5985,7.936,0.0],[-81.5979,7.9382,4.2444],[-81.5999,7.9421,27.0815],[-81.5963,7.936,2.569],[-81.5907,7.9365,0.0],[-81.5885,7.9354,12.3277],[-81.5837,7.9279,20.4571],[-81.5865,7.9296,19.8075],[-81.5901,7.9357,11.0244],[-81.6038,7.9326,7.8825],[-81.6113,7.9385,5.2679],[-81.6204,7.9415,1.1808],[-81.6235,7.9387,0.0],[-81.6251,7.9315,7.18],[-81.6235,7.9307,7.18],[-81.6235,7.9212,0.0],[-81.6188,7.9174,4.0304],[-81.6193,7.9137,0.0],[-81.6176,7.9132,0.0],[-81.6168,7.9101,4.9907],[-81.6179,7.9074,5.758],[-81.6215,7.9074,0.0],[-81.6265,7.9049,4.354],[-81.6246,7.9043,0.0],[-81.6232,7.9007,0.0],[-81.6204,7.9026,0.0],[-81.6179,7.9024,14.9688],[-81.6157,7.8968,0.0],[-81.6118,7.8954,0.0],[-81.6074,7.8999,0.0],[-81.606,7.8979,0.0],[-81.6035,7.8993,6.1637],[-81.6024,7.8974,6.0568],[-81.601,7.8979,6.0568],[-81.5935,7.8938,13.8932],[-81.5932,7.8901,20.1674],[-81.596,7.8882,0.0],[-81.596,7.8846,0.0],[-81.5971,7.8835,20.3714],[-81.5993,7.8843,0.0],[-81.6046,7.8804,5.8091],[-81.5993,7.8732,2.1185],[-81.6038,7.8721,11.0106],[-81.6085,7.8749,7.441],[-81.609,7.8771,0.0],[-81.6104,7.8768,13.8865],[-81.6118,7.871,0.0],[-81.6113,7.8635,0.0],[-81.6057,7.8679,9.1236],[-81.6015,7.864,17.9987],[-81.5965,7.8662,0.0],[-81.5949,7.8693,54.5457],[-81.5862,7.8721,43.7896],[-81.5854,7.8701,0.0],[-81.5796,7.871,13.3188],[-81.5782,7.8682,0.0],[-81.579,7.8657,0.0],[-81.5771,7.8637,0.0],[-81.5738,7.8635,9.9253],[-81.5729,7.861,0.0],[-81.564,7.8615,0.0],[-81.571,7.8518,6.1753],[-81.5749,7.8521,0.0],[-81.5774,7.8549,24.4939],[-81.579,7.8549,0.0],[-81.5807,7.8515,21.1376],[-81.5857,7.8518,11.1575],[-81.5837,7.8479,0.0],[-81.5815,7.8476,14.9419],[-81.5799,7.8426,20.7988],[-81.5821,7.8404,0.0],[-81.5788,7.839,0.0],[-81.5771,7.8399,4.8951],[-81.5765,7.8354,0.0],[-81.5785,7.8324,0.0],[-81.5815,7.8312,5.2153],[-81.5893,7.8326,0.0],[-81.5885,7.8268,0.0],[-81.586,7.8257,82.707],[-81.5879,7.8249,0.0],[-81.5846,7.8215,19.9633],[-81.5884,7.8176,8.6047],[-81.5879,7.8121,0.0],[-81.5921,7.811,15.6769],[-81.591,7.8087,12.1278],[-81.5929,7.8049,24.7875],[-81.5926,7.8015,61.9225],[-81.5912,7.8013,61.9225],[-81.5896,7.7963,0.0],[-81.5851,7.7974,42.1195],[-81.5837,7.7946,0.0],[-81.5785,7.7951,0.0],[-81.5776,7.7893,0.0],[-81.5788,7.7871,0.0],[-81.5829,7.786,0.0],[-81.5826,7.7824,0.0],[-81.5768,7.7849,0.0],[-81.5754,7.7879,10.4389],[-81.5713,7.7857,20.9466],[-81.5718,7.7826,12.1317],[-81.574,7.7821,0.0],[-81.5746,7.7799,0.0],[-81.5715,7.7774,25.7695],[-81.5715,7.7729,20.9314],[-81.5751,7.7713,20.0724],[-81.584,7.7707,0.0],[-81.5843,7.7679,16.751],[-81.581,7.7668,0.0],[-81.5818,7.764,0.0],[-81.5782,7.7635,0.0],[-81.5735,7.7657,7.5869],[-81.5732,7.7626,5.0017],[-81.566,7.7599,0.0],[-81.5676,7.7585,45.0331],[-81.5671,7.756,19.843],[-81.5626,7.7515,0.0],[-81.5607,7.7521,13.7455],[-81.5596,7.7501,0.0],[-81.5599,7.7524,13.7455],[-81.5565,7.7538,22.4097],[-81.5554,7.7515,0.0],[-81.5507,7.7504,40.4923],[-81.5537,7.7465,0.0],[-81.5507,7.7468,16.8057],[-81.5485,7.7415,0.0],[-81.5432,7.739,9.2901],[-81.5404,7.7407,0.0],[-81.5404,7.7421,0.0],[-81.544,7.744,5.25],[-81.5432,7.749,11.5616],[-81.5415,7.7499,11.5616],[-81.544,7.7515,0.0],[-81.5482,7.7515,7.5934],[-81.5501,7.7546,0.0],[-81.5499,7.7565,3.8569],[-81.5468,7.7568,0.0],[-81.5454,7.7604,13.1143],[-81.549,7.7615,2.1718],[-81.5496,7.764,3.1396],[-81.5457,7.764,16.1712],[-81.5435,7.7671,60.5432],[-81.5338,7.764,20.9021],[-81.5312,7.7663,9.8822],[-81.5287,7.766,20.8524],[-81.5265,7.7618,0.0],[-81.519,7.7607,15.2474],[-81.5179,7.7624,5.8911],[-81.5188,7.7665,4.5865],[-81.5149,7.7637,0.0],[-81.5132,7.7663,2.1531],[-81.5104,7.7657,3.0366],[-81.5082,7.7676,4.103],[-81.5082,7.7657,1.1235],[-81.5037,7.764,3.2301],[-81.5018,7.7582,0.0],[-81.4954,7.7587,0.0],[-81.4943,7.7604,0.0],[-81.4912,7.7587,0.0],[-81.4921,7.7543,5.2668],[-81.4932,7.7554,5.2668],[-81.4954,7.7538,0.0],[-81.4968,7.7493,12.0492],[-81.5007,7.7499,0.0],[-81.499,7.7476,0.0],[-81.5035,7.7457,0.0],[-81.5004,7.744,4.1647],[-81.5004,7.7424,0.0],[-81.4965,7.7412,6.3371],[-81.4965,7.7354,7.6681],[-81.5015,7.7329,3.3775],[-81.5093,7.7346,0.0],[-81.5185,7.7332,13.5656],[-81.5193,7.7318,22.6254],[-81.526,7.7304,0.0],[-81.5268,7.7274,0.0],[-81.5304,7.729,0.0],[-81.5307,7.7257,12.9228],[-81.5346,7.7246,4.7122],[-81.5354,7.721,0.0],[-81.539,7.7199,0.6523],[-81.5385,7.7185,0.0],[-81.534,7.7179,0.0],[-81.5329,7.7157,54.2812],[-81.5263,7.7126,0.0],[-81.5188,7.7126,24.0633],[-81.5151,7.7076,0.0],[-81.5132,7.7096,0.0],[-81.5071,7.7099,0.0],[-81.5062,7.7087,0.0],[-81.5079,7.7049,0.0],[-81.5021,7.7043,7.2484],[-81.4974,7.7079,20.8281],[-81.4965,7.7049,0.0],[-81.4935,7.7057,0.0],[-81.4915,7.7087,0.0],[-81.4918,7.7118,24.6355],[-81.4887,7.709,0.0],[-81.4843,7.7099,0.0],[-81.4837,7.7082,0.0],[-81.4868,7.7063,9.1516],[-81.4874,7.7038,14.4054],[-81.4812,7.7043,8.9293],[-81.4824,7.7018,0.0],[-81.4801,7.7007,0.0],[-81.479,7.701,0.0],[-81.4793,7.7076,1.7497],[-81.4746,7.7054,0.0],[-81.4693,7.706,20.4545],[-81.4707,7.7035,8.0136],[-81.4674,7.7024,12.0017],[-81.4674,7.7054,21.466],[-81.4635,7.7043,10.0075],[-81.4651,7.706,29.6441],[-81.4646,7.7087,0.0],[-81.4554,7.7046,0.0],[-81.4546,7.7085,0.0],[-81.4512,7.7082,1.6212],[-81.449,7.7049,0.0],[-81.4499,7.7029,8.3052],[-81.4471,7.6996,0.0],[-81.4412,7.7029,0.0],[-81.4404,7.6979,0.0],[-81.4343,7.6963,1.9445],[-81.4332,7.6932,0.0],[-81.4335,7.6896,22.8673],[-81.4379,7.6896,3.6988],[-81.4362,7.6879,53.3825],[-81.4379,7.6863,0.0],[-81.4374,7.684,0.0],[-81.4421,7.6793,0.0],[-81.4415,7.6782,0.0],[-81.4396,7.6796,2.8254],[-81.4282,7.6799,0.0],[-81.4285,7.6787,0.0],[-81.4243,7.6782,0.0],[-81.421,7.679,10.3071],[-81.4168,7.6832,0.0],[-81.4149,7.6818,17.9069],[-81.4154,7.6768,0.0],[-81.4099,7.6785,0.0],[-81.4085,7.6746,0.0],[-81.4021,7.6726,14.0088],[-81.3962,7.6762,0.0],[-81.3979,7.6774,5.9584],[-81.3974,7.6807,0.0],[-81.399,7.6804,21.826],[-81.3985,7.6829,1.8262],[-81.3949,7.6832,7.2072],[-81.3935,7.6815,0.0],[-81.3901,7.6824,13.7309],[-81.3901,7.6793,8.6951],[-81.3863,7.6757,22.2953],[-81.3771,7.671,0.0],[-81.3768,7.6668,0.0],[-81.3737,7.6704,0.0],[-81.3704,7.6688,6.5125],[-81.3671,7.6701,0.0],[-81.3649,7.6671,9.5958],[-81.3599,7.669,40.4779],[-81.3565,7.6651,0.0],[-81.3496,7.6643,20.1606],[-81.3374,7.6576,0.0],[-81.334,7.6601,0.0],[-81.3304,7.6579,2.8264],[-81.3199,7.6562,13.1028],[-81.319,7.6537,0.0],[-81.3135,7.6499,0.0],[-81.311,7.6499,0.0],[-81.309,7.6518,6.4885],[-81.3129,7.6543,47.65],[-81.3129,7.656,17.7596],[-81.3107,7.6588,13.1724],[-81.3087,7.6588,9.7992],[-81.3099,7.6618,1.5703],[-81.3079,7.666,2.2935],[-81.3063,7.6643,2.2147],[-81.3065,7.6621,2.1926],[-81.2976,7.6599,2.2139],[-81.2943,7.6574,14.0408],[-81.2937,7.6551,19.0944],[-81.296,7.6543,7.4016],[-81.2951,7.6524,3.8974],[-81.2924,7.6535,0.0],[-81.289,7.6521,7.7918],[-81.2899,7.6479,0.0],[-81.2862,7.6437,0.0],[-81.284,7.644,8.8805],[-81.281,7.6413,3.6048],[-81.2804,7.6396,4.0422],[-81.2832,7.6374,8.4925],[-81.2782,7.6326,0.0],[-81.2718,7.6318,0.0],[-81.2615,7.6346,6.0642],[-81.2571,7.6274,9.6052],[-81.2535,7.6274,12.871],[-81.2501,7.6251,0.0],[-81.2462,7.6282,5.5197],[-81.2387,7.6215,0.0],[-81.2376,7.6179,6.2961],[-81.239,7.6157,0.0],[-81.229,7.6076,1.5139],[-81.2213,7.6113,0.0],[-81.2182,7.6154,12.8632],[-81.2162,7.6157,1.8259],[-81.2162,7.619,11.7046],[-81.2085,7.6229,6.3249],[-81.2085,7.6249,15.5979],[-81.2032,7.631,0.0],[-81.2032,7.6385,1.6513],[-81.1974,7.6524,0.0],[-81.2007,7.6537,12.938],[-81.2032,7.6632,0.0],[-81.206,7.6643,4.6388],[-81.2093,7.669,7.3734],[-81.194,7.6977,2.4847],[-81.1946,7.711,0.0],[-81.199,7.7149,0.0],[-81.2038,7.7149,0.0],[-81.2099,7.7096,0.0],[-81.2154,7.7093,0.0],[-81.2171,7.7065,13.3452],[-81.2157,7.7107,0.0],[-81.2199,7.7124,0.0],[-81.2254,7.7087,3.7624],[-81.2235,7.7057,6.1763],[-81.226,7.7046,4.0127],[-81.2279,7.6988,0.6463],[-81.2296,7.7015,0.0],[-81.2268,7.7057,0.0],[-81.231,7.7032,0.9233],[-81.231,7.6996,3.5329],[-81.2332,7.7015,0.0],[-81.2343,7.6993,0.6725],[-81.2343,7.704,0.0],[-81.2396,7.7076,2.417],[-81.2407,7.7149,0.0],[-81.2468,7.7165,10.7455],[-81.2507,7.7215,0.0],[-81.2485,7.7215,3.2877],[-81.2457,7.7174,4.9959],[-81.239,7.7171,14.732],[-81.2365,7.7104,0.0],[-81.2332,7.7082,0.0],[-81.2165,7.7163,0.0],[-81.2157,7.7207,0.0],[-81.2224,7.7246,1.4386],[-81.2257,7.7307,0.0],[-81.2288,7.7312,0.7444],[-81.226,7.7321,0.0],[-81.2265,7.749,10.0312],[-81.2321,7.7499,4.8227],[-81.2401,7.7485,6.3421],[-81.2438,7.7496,6.025],[-81.241,7.7501,0.0],[-81.2418,7.7515,0.0],[-81.2499,7.7524,2.4814],[-81.239,7.7532,0.0],[-81.2399,7.7549,0.0],[-81.2421,7.7549,0.0],[-81.2451,7.7532,3.3742],[-81.2438,7.756,0.8533],[-81.2457,7.7607,3.9571],[-81.2423,7.7562,0.7836],[-81.2371,7.7535,0.0],[-81.2312,7.7535,0.0],[-81.2349,7.7565,0.955],[-81.2376,7.7565,4.2208],[-81.2374,7.7585,2.0039],[-81.2351,7.7587,0.0],[-81.2354,7.7607,3.1186],[-81.2326,7.7574,0.7219],[-81.2301,7.7582,0.0],[-81.2307,7.7601,2.271],[-81.229,7.7579,0.0],[-81.2268,7.759,1.7971],[-81.2243,7.756,0.8136],[-81.2213,7.7576,3.4956],[-81.2179,7.7451,3.846],[-81.2224,7.744,0.0],[-81.2207,7.7471,0.751],[-81.2232,7.7488,0.0],[-81.2235,7.7304,0.0],[-81.219,7.7257,8.8848],[-81.2151,7.7312,0.0],[-81.2087,7.7335,0.6395],[-81.209,7.7396,1.8724],[-81.2057,7.7468,0.0],[-81.194,7.7562,7.5848],[-81.1943,7.7587,7.092],[-81.1985,7.7593,3.4594],[-81.2057,7.7637,4.2215],[-81.2112,7.7632,17.5756],[-81.2101,7.7643,5.37],[-81.206,7.7651,0.0],[-81.1957,7.7607,0.0],[-81.1915,7.7618,0.0],[-81.1929,7.761,0.0],[-81.1918,7.7587,0.5369],[-81.1937,7.7546,0.0],[-81.2054,7.7435,10.7369],[-81.2065,7.7382,0.0],[-81.1957,7.7399,0.0],[-81.1937,7.7435,4.3452],[-81.1854,7.7482,0.5935],[-81.1851,7.7499,0.0],[-81.1801,7.7507,5.5224],[-81.1765,7.7493,0.0],[-81.1782,7.7554,0.0],[-81.1718,7.7643,0.0],[-81.1682,7.7776,0.0],[-81.1718,7.7801,4.3542],[-81.1732,7.7838,5.6217],[-81.1701,7.7954,0.0],[-81.1718,7.7979,0.0],[-81.1701,7.8001,0.0],[-81.1696,7.8096,0.0],[-81.1779,7.8148,3.9618],[-81.1835,7.8235,7.9969],[-81.1818,7.8371,0.0],[-81.1768,7.8432,0.0],[-81.1771,7.8485,6.4948],[-81.1824,7.8493,0.0],[-81.1799,7.8537,0.0]],
[[-81.5376,8.2335,121.1125],[-81.538,8.2384,109.1572],[-81.5358,8.2393,175.4621],[-81.5256,8.2334,231.4563],[-81.5221,8.2339,339.1815],[-81.5197,8.2364,358.0098],[-81.5191,8.2448,218.9392],[-81.5132,8.2485,200.7818],[-81.5194,8.2536,165.1424],[-81.5199,8.2582,125.2677],[-81.518,8.2613,136.6483],[-81.514,8.2593,214.8525],[-81.5134,8.2556,238.1442],[-81.5078,8.2525,310.7072],[-81.5059,8.2491,352.9583],[-81.508,8.2464,308.4009],[-81.5086,8.2374,420.1797],[-81.5116,8.2323,428.0616],[-81.5267,8.2237,167.6462],[-81.5296,8.2212,204.4244],[-81.5288,8.2174,192.4217],[-81.5321,8.2161,226.4197],[-81.534,8.2194,234.0132],[-81.5323,8.2294,132.1187],[-81.5376,8.2335,121.1125]],
[[-81.45,8.2584,160.0802],[-81.4552,8.2563,149.203],[-81.456,8.2476,162.5269],[-81.4614,8.2424,211.4713],[-81.4727,8.2476,197.3925],[-81.4761,8.2566,249.711],[-81.4893,8.2437,218.6239],[-81.4979,8.2611,324.9982],[-81.5021,8.2639,282.7325],[-81.5069,8.2715,186.2659],[-81.5024,8.2741,243.1667],[-81.4924,8.2752,230.848],[-81.4895,8.2872,203.5387],[-81.4718,8.3204,279.323],[-81.4582,8.3049,330.2003],[-81.4582,8.2903,220.0067],[-81.4371,8.2797,257.4366],[-81.4374,8.2734,197.4865],[-81.448,8.2579,141.2825],[-81.45,8.2584,160.0802]],
[[-81.3857,8.3356,323.7514],[-81.3884,8.3362,324.9905],[-81.3923,8.3405,268.726],[-81.3962,8.339,221.3904],[-81.4163,8.3506,333.9148],[-81.4207,8.3495,273.7936],[-81.4283,8.3555,195.9887],[-81.4315,8.3517,171.3809],[-81.4346,8.3598,214.1933],[-81.4376,8.3632,211.8357],[-81.4372,8.3676,200.1053],[-81.4337,8.3709,191.1687],[-81.4307,8.371,179.6064],[-81.4158,8.3577,336.0379],[-81.4125,8.3582,338.0065],[-81.4065,8.3634,319.8793],[-81.4006,8.3638,227.4986],[-81.3994,8.3653,227.4986],[-81.3977,8.3822,248.5359],[-81.3917,8.389,275.2776],[-81.3904,8.3963,407.9865],[-81.3837,8.3993,414.779],[-81.3804,8.3967,348.7203],[-81.3794,8.3873,379.4366],[-81.3764,8.3838,394.1845],[-81.3683,8.3867,373.7935],[-81.3536,8.3876,446.3735],[-81.3474,8.3778,422.1593],[-81.3421,8.3749,440.0233],[-81.3384,8.3752,359.8729],[-81.3175,8.3872,248.1002],[-81.3196,8.3654,203.4367],[-81.326,8.359,307.0314],[-81.3347,8.3575,289.0004],[-81.3371,8.3556,314.4482],[-81.3476,8.3337,288.2802],[-81.3516,8.3373,261.8102],[-81.3586,8.3322,256.2122],[-81.3739,8.3493,306.7269],[-81.3736,8.3285,278.4156],[-81.3797,8.3285,275.8],[-81.3857,8.3356,323.7514]]]]}
,"properties": {"GID_1": "PAN.13_1","GID_0": "PAN","country": "Panama","province": "Veraguas","VARNAME_1": "NA","NL_NAME_1": "NA","TYPE_1": "Provincia","ENGTYPE_1": "Province","CC_1": "NA","HASC_1": "PA.VR","ISO_1": "PA-9","name": "Veraguas.province","area_km2": 10954.415,"hist_schema_id": "Elevation0-9000","hist_area_km2": {"0": 509.165,"25": 1159.921,"50": 1060.003,"75": 985.608,"100": 908.064,"125": 718.929,"150": 599.375,"175": 505.247,"200": 430.709,"225": 368.547,"250": 319.773,"275": 280.754,"300": 247.791,"325": 232.487,"350": 211.554,"375": 192.007,"400": 177.49,"425": 157.041,"450": 141.568,"475": 128.089,"500": 108.884,"525": 100.617,"550": 91.508,"575": 90.98,"600": 80.908,"625": 75.561,"650": 74.406,"675": 67.336,"700": 60.54,"725": 57.789,"750": 54.076,"775": 51.873,"800": 49.164,"825": 45.014,"850": 44.929,"875": 42.58,"900": 39.938,"925": 40.275,"950": 37.673,"975": 35.47,"1000": 32.092,"1025": 29.827,"1050": 28.212,"1075": 25.841,"1100": 23.743,"1125": 23.303,"1150": 22.169,"1175": 21.37,"1200": 19.399,"1225": 16.902,"1250": 15.77,"1275": 14.344,"1300": 13.966,"1325": 12.645,"1350": 11.093,"1375": 10.821,"1400": 8.158,"1425": 6.857,"1450": 6.018,"1475": 5.137,"1500": 4.005,"1525": 3.774,"1550": 2.663,"1575": 2.893,"1600": 2.285,"1625": 2.013,"1650": 1.992,"1675": 1.237,"1700": 0.902,"1725": 0.461,"1750": 0.21,"1775": 0.314,"1800": 0.105,"1825": 0.168}}}