{"type": "Feature","bbox": [-81.4379,8.3279,-81.3175,8.3993],"geometry": {"type": "MultiPolygon","coordinates": [[[[-81.3175,8.3872,248.1002],[-81.3384,8.3752,359.8729],[-81.3421,8.3749,440.0233],[-81.3474,8.3778,422.1593],[-81.3536,8.3876,446.3735],[-81.3683,8.3867,373.7935],[-81.3764,8.3838,394.1845],[-81.3794,8.3873,379.4366],[-81.3804,8.3967,348.7203],[-81.3837,8.3993,414.779],[-81.3904,8.3963,407.9865],[-81.3917,8.389,275.2776],[-81.3977,8.3822,248.5359],[-81.3994,8.3653,227.4986],[-81.4006,8.3638,227.4986],[-81.4065,8.3634,319.8793],[-81.4125,8.3582,338.0065],[-81.4158,8.3577,336.0379],[-81.43,8.3707,179.8609],[-81.4323,8.3712,191.1687],[-81.4367,8.3684,200.1053],[-81.4379,8.3641,205.2186],[-81.4315,8.3517,171.3809],[-81.4283,8.3555,195.9887],[-81.4207,8.3495,273.7936],[-81.4163,8.3506,333.9148],[-81.3962,8.339,221.3904],[-81.3923,8.3405,268.726],[-81.3884,8.3362,324.9905],[-81.3845,8.3348,353.1822],[-81.3797,8.3285,275.8],[-81.3746,8.3279,276.4653],[-81.3729,8.3318,331.1017],[-81.3739,8.3493,306.7269],[-81.3586,8.3322,256.2122],[-81.3516,8.3373,261.8102],[-81.3476,8.3337,288.2802],[-81.3371,8.3556,314.4482],[-81.3347,8.3575,289.0004],[-81.326,8.359,307.0314],[-81.3196,8.3654,203.4367],[-81.3175,8.3872,248.1002]]]]}
,"properties": {"GID_3": "PAN.10.7.5_1","GID_0": "PAN","country": "Panama","GID_1": "PAN.10_1","province": "NgöbeBuglé","NL_NAME_1": "NA","GID_2": "PAN.10.7_1","county": "Ñürüm","NL_NAME_2": "NA","city": "ElBale","VARNAME_3": "NA","NL_NAME_3": "NA","TYPE_3": "Corregimiento","ENGTYPE_3": "Municipality","CC_3": "NA","HASC_3": "NA","name": "El_Bale.city","area_km2": 48.14176,"hist_schema_id": "Elevation0-9000","hist_area_km2": {"150": 0.10488,"175": 1.15371,"200": 2.70603,"225": 3.20944,"250": 5.16028,"275": 5.55891,"300": 8.70547,"325": 8.30688,"350": 6.33498,"375": 3.48208,"400": 1.69905,"425": 0.67123,"450": 0.79708,"475": 0.20976,"500": 0.04195}}}