{"type":"Feature","properties":{"GID_3":"PAN.10.5.2_1","GID_0":"PAN","country":"Panama","GID_1":"PAN.10_1","province":"NgöbeBuglé","NL_NAME_1":"NA","GID_2":"PAN.10.5_1","county":"Müna","NL_NAME_2":"NA","city":"Bakama","VARNAME_3":"NA","NL_NAME_3":"NA","TYPE_3":"Corregimiento","ENGTYPE_3":"Municipality","CC_3":"NA","HASC_3":"NA","name":"Bakama.city"},
"geometry":{"type": "MultiPolygon","coordinates": [[[[-81.5913,8.2585,382.665],[-81.5996,8.2569,494.7208],[-81.6013,8.2552,478.5853],[-81.5986,8.2408,180.255],[-81.5938,8.2382,281.0453],[-81.5789,8.2363,358.6915],[-81.5761,8.2307,297.9343],[-81.5664,8.2338,210.8378],[-81.563,8.2424,197.7621],[-81.5663,8.2518,384.7543],[-81.5704,8.2497,384.1147],[-81.5718,8.245,393.799],[-81.5779,8.2435,305.2249],[-81.5956,8.2463,270.275],[-81.5981,8.2503,348.0092],[-81.5892,8.2543,431.391],[-81.5799,8.2535,410.7255],[-81.5761,8.2561,399.863],[-81.5656,8.258,399.8293],[-81.5624,8.2559,398.5877],[-81.5677,8.2634,343.7557],[-81.5709,8.2631,412.3466],[-81.5723,8.2607,398.0294],[-81.58,8.2608,417.7436],[-81.5857,8.2574,435.5424],[-81.5913,8.2585,382.665]]],
[[[-81.6052,8.259,652.411],[-81.6071,8.2558,488.8861],[-81.6035,8.2464,225.842],[-81.6029,8.2509,299.6024],[-81.6057,8.2541,386.8309],[-81.6028,8.2556,537.3806],[-81.6007,8.2621,551.2225],[-81.5969,8.2641,504.0768],[-81.5995,8.2679,462.7125],[-81.5949,8.2681,397.1111],[-81.593,8.2702,268.8368],[-81.592,8.2763,233.2174],[-81.597,8.2752,258.7228],[-81.6052,8.259,652.411]]],
[[[-81.5934,8.2976,221.4737],[-81.5943,8.2993,205.8486],[-81.597,8.2993,181.1938],[-81.6031,8.2959,196.4375],[-81.6046,8.2946,162.7488],[-81.6001,8.2913,143.031],[-81.6011,8.2875,177.6919],[-81.6057,8.2846,126.7316],[-81.6089,8.2847,127.9895],[-81.6091,8.2815,153.3036],[-81.6117,8.28,167.7665],[-81.6219,8.2779,181.493],[-81.6238,8.2758,167.7126],[-81.614,8.2687,226.0716],[-81.6091,8.2753,309.0634],[-81.6023,8.2753,306.2192],[-81.5995,8.2788,159.0967],[-81.5939,8.2812,238.0326],[-81.5974,8.2885,131.8218],[-81.5934,8.2976,221.4737]]]]}}