{"type": "Feature","bbox": [-81.0949,8.5322,-81.0259,8.6198],"geometry": {"type": "MultiPolygon","coordinates": [[[[-81.0611,8.6198,1098.7373],[-81.0938,8.6059,1456.1537],[-81.0949,8.5896,1324.6718],[-81.094,8.5634,831.5482],[-81.085,8.5479,559.511],[-81.0871,8.5385,415.7206],[-81.0832,8.5362,415.5354],[-81.0629,8.5322,333.1147],[-81.0553,8.5414,476.3343],[-81.037,8.5564,703.4863],[-81.0269,8.5845,756.1794],[-81.0259,8.5933,578.5674],[-81.0274,8.5993,737.9978],[-81.0313,8.6039,708.4758],[-81.0482,8.6098,651.3884],[-81.0611,8.6198,1098.7373]]]]}
,"properties": {"GID_3": "PAN.13.9.4_1","GID_0": "PAN","country": "Panama","GID_1": "PAN.13_1","province": "Veraguas","NL_NAME_1": "NA","GID_2": "PAN.13.9_1","county": "SantaFe","NL_NAME_2": "NA","city": "ElPantano","VARNAME_3": "NA","NL_NAME_3": "NA","TYPE_3": "Corregimiento","ENGTYPE_3": "Municipality","CC_3": "NA","HASC_3": "NA","name": "El_Pantano.city","area_km2": 53.02062,"hist_schema_id": "Elevation0-9000","hist_area_km2": {"300": 0.02097,"325": 0.27257,"350": 0.54514,"375": 0.85964,"400": 0.92254,"425": 1.25799,"450": 1.00639,"475": 1.19508,"500": 1.82402,"525": 1.92884,"550": 2.15942,"575": 2.30617,"600": 1.90781,"625": 2.07556,"650": 1.65624,"675": 2.11748,"700": 1.94976,"725": 1.97072,"750": 2.15938,"775": 2.07553,"800": 1.84489,"825": 2.36902,"850": 2.18034,"875": 1.57234,"900": 1.5933,"925": 1.78198,"950": 1.53041,"975": 1.46752,"1000": 1.36269,"1025": 1.06918,"1050": 0.8805,"1075": 0.79666,"1100": 0.50314,"1125": 0.54507,"1150": 0.44026,"1175": 0.5241,"1200": 0.31446,"1225": 0.20964,"1250": 0.16771,"1275": 0.2306,"1300": 0.33542,"1325": 0.31446,"1350": 0.2306,"1375": 0.2306,"1400": 0.08386,"1425": 0.06289,"1450": 0.08385,"1475": 0.02096,"1500": 0.06289}}}