{"type": "Feature","bbox": [-82.5693,8.4623,-82.3584,8.77],"geometry": {"type": "MultiPolygon","coordinates": [[[[-82.3936,8.4924,135.4972],[-82.3902,8.4978,177.6267],[-82.3862,8.4925,157.408],[-82.3806,8.495,142.0842],[-82.3773,8.4934,140.7555],[-82.3716,8.4835,101.5137],[-82.3644,8.4854,103.7135],[-82.3609,8.4839,96.8503],[-82.3584,8.4882,97.3546],[-82.3621,8.4948,111.3118],[-82.3595,8.5056,127.3655],[-82.3617,8.5124,136.6149],[-82.3611,8.5235,144.912],[-82.3752,8.5407,176.7426],[-82.3847,8.5565,200.4421],[-82.3902,8.5589,211.4473],[-82.3935,8.5636,218.0351],[-82.3985,8.5654,225.0741],[-82.4,8.5675,234.5052],[-82.401,8.5748,244.8307],[-82.4046,8.5815,265.6283],[-82.4061,8.592,289.6129],[-82.414,8.6084,350.7032],[-82.4163,8.608,354.597],[-82.4223,8.6151,391.295],[-82.4288,8.6182,404.2194],[-82.4382,8.633,484.3633],[-82.4403,8.6399,520.7691],[-82.447,8.6487,514.1454],[-82.4588,8.6815,700.8405],[-82.4545,8.6912,753.9108],[-82.4672,8.7139,859.35],[-82.4714,8.7268,920.1375],[-82.4828,8.7324,1030.2891],[-82.4907,8.7432,1305.3416],[-82.5008,8.7468,1414.7263],[-82.5037,8.7592,1671.4398],[-82.5106,8.7682,2038.5557],[-82.5137,8.77,2135.8494],[-82.5261,8.7654,2186.2964],[-82.5466,8.7664,1862.545],[-82.569,8.7601,1908.0284],[-82.5693,8.7585,1831.0105],[-82.5629,8.7566,1834.9778],[-82.5449,8.7463,1366.9397],[-82.5438,8.7444,1343.8977],[-82.5426,8.7406,1448.313],[-82.5438,8.7257,1312.3267],[-82.5413,8.7202,1260.5721],[-82.5439,8.7089,1182.5846],[-82.5401,8.6956,1077.1119],[-82.5433,8.6889,1039.1493],[-82.5423,8.6856,1023.5556],[-82.5352,8.6782,955.5593],[-82.5286,8.6582,814.5041],[-82.5309,8.6508,787.7834],[-82.5302,8.6457,773.1838],[-82.5187,8.6274,663.6039],[-82.511,8.6025,535.5099],[-82.5063,8.5928,485.9344],[-82.501,8.5869,447.6662],[-82.4987,8.5791,418.4314],[-82.4941,8.5716,379.241],[-82.4841,8.5616,330.3853],[-82.48,8.5544,305.4807],[-82.4621,8.5387,237.9356],[-82.4488,8.5205,188.6685],[-82.4481,8.5168,157.5825],[-82.451,8.5101,150.9068],[-82.4492,8.4991,144.4274],[-82.44,8.4967,111.8039],[-82.4385,8.4912,129.1632],[-82.4336,8.4862,103.7065],[-82.4326,8.4798,157.2921],[-82.4256,8.4774,100.3444],[-82.4211,8.4721,83.1202],[-82.4118,8.4719,107.1218],[-82.4,8.4623,86.3089],[-82.3964,8.4708,97.3812],[-82.4004,8.4796,107.4171],[-82.3996,8.4889,95.506],[-82.3978,8.4885,93.6466],[-82.3978,8.4909,98.0597],[-82.3936,8.4924,135.4972]]]]}
,"properties": {"GID_2": "PAN.2.7_1","GID_0": "PAN","country": "Panama","GID_1": "PAN.2_1","province": "Chiriquí","NL_NAME_1": "NA","county": "Dolega","VARNAME_2": "NA","NL_NAME_2": "NA","TYPE_2": "Distrito","ENGTYPE_2": "District","CC_2": "NA","HASC_2": "PA.CH.DL","name": "Dolega.county","area_km2": 286.4797,"hist_schema_id": "Elevation0-9000","hist_area_km2": {"50": 0.1468,"75": 2.9988,"100": 7.1717,"125": 13.4412,"150": 16.9006,"175": 13.1468,"200": 12.4965,"225": 10.2528,"250": 8.5961,"275": 8.8265,"300": 8.3232,"325": 7.5893,"350": 7.1908,"375": 6.6457,"400": 6.0796,"425": 6.1005,"450": 5.2409,"475": 5.5133,"500": 5.0311,"525": 5.2826,"550": 5.2616,"575": 4.6536,"600": 4.968,"625": 4.1714,"650": 4.5486,"675": 4.5276,"700": 4.3389,"725": 4.5065,"750": 4.4855,"775": 4.6322,"800": 4.4645,"825": 3.9614,"850": 3.6469,"875": 3.584,"900": 3.4163,"925": 3.563,"950": 3.5839,"975": 3.2067,"1000": 3.039,"1025": 3.2485,"1050": 3.2275,"1075": 2.8712,"1100": 2.7664,"1125": 2.3472,"1150": 2.8712,"1175": 1.8233,"1200": 1.6556,"1225": 1.7604,"1250": 1.6975,"1275": 1.4879,"1300": 1.5298,"1325": 1.3203,"1350": 1.4879,"1375": 1.3622,"1400": 1.1526,"1425": 1.1526,"1450": 0.943,"1475": 1.0268,"1500": 0.8382,"1525": 0.8173,"1550": 0.7335,"1575": 0.9011,"1600": 0.5868,"1625": 0.6915,"1650": 0.7544,"1675": 0.6915,"1700": 0.6287,"1725": 0.3981,"1750": 0.5239,"1775": 0.5867,"1800": 0.461,"1825": 0.5658,"1850": 0.482,"1875": 0.7125,"1900": 0.461,"1925": 0.6706,"1950": 0.5448,"1975": 0.5658,"2000": 0.482,"2025": 0.2724,"2050": 0.5029,"2075": 0.2724,"2100": 0.1886,"2125": 0.2095,"2150": 0.2305,"2175": 0.2515,"2200": 0.1048,"2225": 0.0838}}}