{"type": "Feature","bbox": [-79.8996,8.7235,-79.7727,8.8019],"geometry": {"type": "MultiPolygon","coordinates": [[[[-79.8661,8.7296,209.5971],[-79.8681,8.7356,169.7235],[-79.8668,8.7385,150.5171],[-79.8588,8.7411,201.7066],[-79.8533,8.7465,177.7446],[-79.8417,8.7477,205.0681],[-79.8256,8.7442,204.9533],[-79.8117,8.763,104.8525],[-79.8013,8.7656,15.5553],[-79.7909,8.7726,11.3136],[-79.7727,8.7777,4.9075],[-79.7856,8.7837,49.2282],[-79.7922,8.8018,17.7214],[-79.7962,8.8019,7.8458],[-79.8014,8.7982,81.1623],[-79.8036,8.7998,69.5419],[-79.8082,8.8,12.1361],[-79.8168,8.798,35.3902],[-79.8255,8.7896,67.5502],[-79.8269,8.782,106.114],[-79.8299,8.7786,175.6337],[-79.8372,8.7787,226.0123],[-79.8522,8.7756,102.7985],[-79.8694,8.7675,101.1514],[-79.8746,8.7684,103.1289],[-79.8768,8.7727,103.7794],[-79.8793,8.773,102.30029999999999],[-79.8893,8.761,113.1608],[-79.8916,8.7468,171.7747],[-79.8996,8.7269,233.1263],[-79.8854,8.7235,136.3271],[-79.8736,8.7258,281.8257],[-79.8661,8.7296,209.5971]]]]}
,"properties": {"GID_3": "PAN.11.2.3_1","GID_0": "PAN","country": "Panama","GID_1": "PAN.11_1","province": "PanamáOeste","NL_NAME_1": "NA","GID_2": "PAN.11.2_1","county": "Capira","NL_NAME_2": "NA","city": "Capira","VARNAME_3": "NA","NL_NAME_3": "NA","TYPE_3": "Corregimiento","ENGTYPE_3": "Municipality","CC_3": "NA","HASC_3": "NA","name": "Capira.city","area_km2": 46.98044,"hist_schema_id": "Elevation0-9000","hist_area_km2": {"0": 3.96024,"25": 3.58304,"50": 2.28393,"75": 3.14306,"100": 6.16062,"125": 9.01075,"150": 4.90357,"175": 3.31095,"200": 2.70324,"225": 2.59846,"250": 2.07456,"275": 1.48783,"300": 0.67056,"325": 0.50291,"350": 0.20955,"375": 0.18859,"400": 0.18859}}}