{"type": "Feature","bbox": [-80.3918,8.2899,-80.0527,8.6375],"geometry": {"type": "MultiPolygon","coordinates": [[[[-80.1169,8.5595,538.8838],[-80.1221,8.5666,575.7341],[-80.1135,8.5665,572.1406],[-80.1038,8.5632,587.2928],[-80.1038,8.5736,598.8211],[-80.1002,8.5878,793.9468],[-80.1057,8.6109,675.7585],[-80.1107,8.6115,670.2891],[-80.112799999999993,8.614,653.3525],[-80.1115,8.627,828.5816],[-80.117,8.6375,838.1429],[-80.1285,8.6287,974.5591],[-80.1394,8.6255,715.4259],[-80.1495,8.6076,701.4639],[-80.1518,8.5988,677.2626],[-80.1644,8.5979,684.8107],[-80.1764,8.5991,539.7861],[-80.1831,8.5748,401.157],[-80.1879,8.57,421.3127],[-80.1957,8.567,370.2245],[-80.2012,8.5667,332.7047],[-80.2181,8.5583,283.8309],[-80.227,8.5565,241.0243],[-80.2343,8.5461,228.9528],[-80.2436,8.5415,187.1464],[-80.2429,8.5394,189.8568],[-80.2443,8.5379,198.0259],[-80.2472,8.5388,197.4814],[-80.2544,8.535,173.9707],[-80.2635,8.5389,163.6153],[-80.271,8.5395,140.5042],[-80.2747,8.5382,130.6603],[-80.2765,8.5325,124.6427],[-80.2765,8.5238,146.9368],[-80.2827,8.5197,176.6886],[-80.2848,8.5155,158.9026],[-80.2969,8.5058,80.0416],[-80.3009,8.4869,51.6731],[-80.2984,8.4756,73.6105],[-80.3104,8.4523,41.1428],[-80.3072,8.4445,41.0267],[-80.307,8.4303,30.9869],[-80.3106,8.4234,30.8024],[-80.3147,8.4056,25.6527],[-80.3138,8.3932,17.1826],[-80.3209,8.3838,15.2768],[-80.3184,8.373,10.2762],[-80.318,8.3462,6.1999],[-80.3193,8.3386,7.1895],[-80.3437,8.3319,2.4763],[-80.3486,8.3253,2.7854],[-80.3452,8.316,5.2656],[-80.3513,8.3055,25.1785],[-80.3601,8.305,27.1439],[-80.3696,8.3094,25.0128],[-80.3762,8.3072,7.873],[-80.3918,8.3074,15.8729],[-80.3885,8.3029,2.196],[-80.3812,8.3032,6.6873],[-80.3868,8.3015,0.0],[-80.3835,8.2946,3.0401],[-80.3838,8.2899,0.7047],[-80.3771,8.2899,0.0],[-80.3712,8.2949,3.9394],[-80.3582,8.301,14.6224],[-80.3535,8.2999,0.0],[-80.3482,8.3021,22.0439],[-80.3368,8.3013,5.204],[-80.341,8.299,5.0248],[-80.3457,8.2993,0.0],[-80.3499,8.296,0.6023],[-80.3565,8.2974,0.0],[-80.3582,8.296,2.6707],[-80.3554,8.294,1.6146],[-80.3496,8.2946,0.0],[-80.319,8.304,18.523],[-80.3068,8.3051,0.0],[-80.3063,8.3071,4.8466],[-80.3037,8.3054,0.0],[-80.2946,8.3049,1.9407],[-80.2885,8.3021,11.4045],[-80.2885,8.2996,9.1559],[-80.2907,8.2982,0.5474],[-80.3015,8.3001,3.3567],[-80.3043,8.2971,3.3571],[-80.3063,8.2982,3.0765],[-80.3057,8.2968,1.5879],[-80.3015,8.2957,1.5225],[-80.2763,8.2993,0.0],[-80.2724,8.3015,0.0],[-80.2671,8.3007,3.2992],[-80.2635,8.3018,4.872],[-80.2574,8.2999,0.0],[-80.2474,8.3021,9.9602],[-80.2499,8.2996,0.0],[-80.2679,8.2987,3.8047],[-80.2651,8.2968,0.0],[-80.259,8.2971,3.608],[-80.2321,8.3043,0.0],[-80.1868,8.3246,0.0],[-80.1687,8.3376,5.2302],[-80.1626,8.339,2.0731],[-80.1571,8.3424,5.6007999999999996],[-80.1474,8.3507,8.3981],[-80.1432,8.3504,0.0],[-80.1415,8.3538,4.7807],[-80.1382,8.3543,5.7162],[-80.1265,8.3638,12.5384],[-80.1212,8.366,14.4383],[-80.119,8.3649,0.0],[-80.1065,8.3743,7.9644],[-80.0535,8.4045,32.6815],[-80.0527,8.4074,38.3486],[-80.0565,8.4108,44.5664],[-80.058,8.415,35.0338],[-80.0642,8.4157,50.2421],[-80.0688,8.4257,68.9445],[-80.0721,8.4283,67.7332],[-80.0738,8.4404,87.7291],[-80.0781,8.4473,99.7221],[-80.0816,8.4497,104.2636],[-80.0848,8.4554,107.6202],[-80.0907,8.4592,125.0353],[-80.0931,8.4671,153.2937],[-80.0981,8.4709,132.6598],[-80.0998,8.4851,191.819],[-80.0922,8.5152,279.4836],[-80.0963,8.5195,282.2485],[-80.1016,8.5311,384.817],[-80.1073,8.535,397.9113],[-80.111,8.5417,427.2533],[-80.1095,8.5474,465.3539],[-80.1117,8.5546,509.1388],[-80.1169,8.5595,538.8838]]],
[[[-80.1099,8.3543,0.0],[-80.1113,8.3549,0.0],[-80.1115,8.3518,0.0],[-80.1104,8.3521,0.0],[-80.1099,8.3543,0.0]]]]}
,"properties": {"GID_2": "PAN.3.2_1","GID_0": "PAN","country": "Panama","GID_1": "PAN.3_1","province": "Coclé","NL_NAME_1": "NA","county": "Antón","VARNAME_2": "NA","NL_NAME_2": "NA","TYPE_2": "Distrito","ENGTYPE_2": "District","CC_2": "NA","HASC_2": "PA.CC.AN","name": "Antón.county","area_km2": 673.1328,"hist_schema_id": "Elevation0-9000","hist_area_km2": {"0": 92.7448,"25": 156.1246,"50": 99.4559,"75": 55.9113,"100": 41.3968,"125": 29.3374,"150": 24.0312,"175": 20.1094,"200": 15.8315,"225": 13.4409,"250": 12.4971,"275": 10.8404,"300": 10.0226,"325": 8.5966,"350": 7.8627,"375": 6.4998,"400": 5.5352,"425": 4.6965,"450": 4.5077,"475": 4.7803,"500": 3.9206,"525": 3.1239,"550": 3.8576,"575": 6.1636,"600": 8.7839,"625": 4.9056,"650": 3.8365,"675": 2.6625,"700": 2.6415,"725": 2.0755,"750": 1.8868,"775": 0.9643,"800": 0.4402,"825": 0.3773,"850": 0.8385,"875": 0.4402,"900": 0.3354,"925": 0.2935,"950": 0.3354,"975": 0.2515,"1000": 0.3564,"1025": 0.1677,"1050": 0.0838,"1075": 0.021,"1100": 0.0629,"1125": 0.0419,"1150": 0.0419}}}