{"type":"Feature","properties":{"GID_3":"PAN.9.4.1_1","GID_0":"PAN","country":"Panama","GID_1":"PAN.9_1","province":"LosSantos","NL_NAME_1":"NA","GID_2":"PAN.9.4_1","county":"Macaracas","NL_NAME_2":"NA","city":"BahíaHonda","VARNAME_3":"NA","NL_NAME_3":"NA","TYPE_3":"Corregimiento","ENGTYPE_3":"Municipality","CC_3":"NA","HASC_3":"NA","name":"Bahía_Honda.city"},
"geometry":{"type": "MultiPolygon","coordinates": [[[[-80.4134,7.707,216.4563],[-80.4173,7.7113,174.9141],[-80.4169,7.7156,157.3075],[-80.4256,7.7212,197.9655],[-80.4292,7.7309,207.3963],[-80.4366,7.7331,148.7594],[-80.4511,7.73,190.3193],[-80.4557,7.7192,234.0516],[-80.4657,7.7109,248.8777],[-80.4676,7.7055,291.2467],[-80.4748,7.7051,164.3989],[-80.4827,7.7018,174.4795],[-80.4903,7.7018,231.5587],[-80.4851,7.6944,370.4869],[-80.4738,7.6896,369.0406],[-80.4684,7.684,324.3517],[-80.4623,7.6806,261.3459],[-80.4566,7.6729,308.6188],[-80.4511,7.672,356.0923],[-80.4445,7.6735,312.2691],[-80.4406,7.672,348.7037],[-80.4376,7.6743,324.6507],[-80.4357,7.68,335.0214],[-80.427,7.6923,223.4421],[-80.426,7.696,216.2669],[-80.4134,7.707,216.4563]]]]}}