{"type":"Feature","properties":{"GID_3":"PAN.11.6.2_1","GID_0":"PAN","country":"Panama","GID_1":"PAN.11_1","province":"PanamáOeste","NL_NAME_1":"NA","GID_2":"PAN.11.6_1","county":"SanCarlos","NL_NAME_2":"NA","city":"ElHigo","VARNAME_3":"NA","NL_NAME_3":"NA","TYPE_3":"Corregimiento","ENGTYPE_3":"Municipality","CC_3":"NA","HASC_3":"NA","name":"El_Higo.city"},
"geometry":{"type": "MultiPolygon","coordinates": [[[[-80.0621,8.5185,255.2176],[-80.0659,8.5197,291.1298],[-80.0687,8.5187,277.0944],[-80.0783,8.5043,235.0596],[-80.0669,8.4809,156.6891],[-80.0672,8.4735,130.4892],[-80.0556,8.4563,96.0863],[-80.0593,8.4436,77.3821],[-80.055,8.427,58.0191],[-80.0486,8.4198,45.4525],[-80.0443,8.4105,22.5094],[-80.021,8.4213,10.5821],[-80.006,8.4315,0.0],[-80.0078,8.4381,27.1085],[-80.007,8.4425,31.4589],[-80.0087,8.4519,38.0752],[-80.0487,8.4945,159.5205],[-80.0609,8.5136,209.4794],[-80.0621,8.5185,255.2176]]]]}}