{"type":"Feature","properties":{"GID_3":"PAN.13.5.9_1","GID_0":"PAN","country":"Panama","GID_1":"PAN.13_1","province":"Veraguas","NL_NAME_1":"NA","GID_2":"PAN.13.5_1","county":"LasPalmas","NL_NAME_2":"NA","city":"PuertoVidal","VARNAME_3":"NA","NL_NAME_3":"NA","TYPE_3":"Corregimiento","ENGTYPE_3":"Municipality","CC_3":"NA","HASC_3":"NA","name":"Puerto_Vidal.city"},
"geometry":{"type": "MultiPolygon","coordinates": [[[[-81.6735,8.0071,0.8795],[-81.654,7.9849,2.0895],[-81.639,7.9474,1.0918],[-81.6332,7.941,3.0417],[-81.6296,7.9401,0.0],[-81.6271,7.9421,0.845],[-81.6271,7.9454,0.0],[-81.6246,7.9499,0.0],[-81.6318,7.9624,9.9641],[-81.6321,7.9679,25.6996],[-81.6293,7.9776,0.0],[-81.6301,7.9801,12.282],[-81.6346,7.9796,9.919],[-81.6399,7.9829,5.3228],[-81.6413,7.9876,6.6976],[-81.639,7.9915,16.1149],[-81.631,7.9943,8.1814],[-81.6257,7.9999,0.0],[-81.6265,7.9962,13.1959],[-81.629,7.9954,28.6684],[-81.6304,7.9926,0.0],[-81.6371,7.9901,21.7638],[-81.6385,7.9871,0.0],[-81.6354,7.9843,9.8142],[-81.629,7.9843,4.8533],[-81.6237,7.9812,1.6884],[-81.6174,7.9837,0.0],[-81.6085,7.991,4.5648],[-81.6026,7.9994,12.311],[-81.592,8.0075,3.9709],[-81.5843,8.0075,67.0573],[-81.5718,8.0011,11.3474],[-81.5535,8.0003,6.3108],[-81.5429,8.0036,10.6033],[-81.5335,8.0089,25.551],[-81.5297,8.0127,112.4812],[-81.5184,8.0429,567.058],[-81.5216,8.0691,198.8616],[-81.5296,8.0805,336.9243],[-81.5495,8.0806,106.6133],[-81.5539,8.0779,174.4076],[-81.5566,8.0792,148.4456],[-81.5582,8.0844,93.9275],[-81.5543,8.0913,156.4923],[-81.5556,8.0947,281.8605],[-81.565,8.0945,235.8442],[-81.5677,8.0931,246.2155],[-81.5698,8.0876,245.8611],[-81.5712,8.089,196.7695],[-81.5761,8.0889,184.1871],[-81.578,8.0874,248.2454],[-81.584,8.0885,275.3353],[-81.59,8.094,427.9476],[-81.5952,8.0952,363.3452],[-81.5993,8.0943,361.9695],[-81.6077,8.0844,278.5406],[-81.6285,8.0796,150.8985],[-81.6271,8.0708,94.1543],[-81.6312,8.0589,138.5701],[-81.6337,8.0568,43.9763],[-81.641,8.0574,8.5302],[-81.6435,8.0548,6.0659],[-81.6418,8.0497,7.285],[-81.6321,8.0401,6.3814],[-81.6315,8.0357,22.4918],[-81.636,8.0321,3.0048],[-81.6437,8.0308,3.2463],[-81.6385,8.0246,10.1305],[-81.6379,8.0215,0.8402],[-81.6435,8.0158,5.4676],[-81.6528,7.9996,23.885],[-81.6557,7.9987,32.9758],[-81.6735,8.0071,0.8795]]]]}}