{"type": "Feature","bbox": [-81.1329,7.8579,-81.0571,8.0411],"geometry": {"type": "MultiPolygon","coordinates": [[[[-81.1165,7.8726,0.0],[-81.1165,7.8728,0.0],[-81.1167,7.8726,0.0],[-81.1165,7.8726,0.0]]],
[[[-81.1164,7.8729,0.0],[-81.116,7.8729,0.0],[-81.116,7.8733,0.0],[-81.1164,7.8729,0.0]]],
[[[-81.1157,7.8732,0.0],[-81.1157,7.8735,0.0],[-81.116,7.8733,0.0],[-81.1157,7.8732,0.0]]],
[[[-81.1151,7.9149,0.7982],[-81.1174,7.9149,0.0],[-81.116,7.9101,0.0],[-81.1143,7.9118,1.2531],[-81.1151,7.9149,0.7982]]],
[[[-81.1154,7.8735,0.0],[-81.1154,7.8738,5.8425],[-81.1157,7.8735,0.0],[-81.1154,7.8735,0.0]]],
[[[-81.0601,7.9007,2.4966],[-81.0612,7.9018,2.4966],[-81.0649,7.8976,0.0],[-81.0629,7.8976,1.2666],[-81.0601,7.9007,2.4966]]],
[[[-81.1087,7.9151,0.0],[-81.109,7.9171,0.0],[-81.1115,7.9163,0.5247],[-81.1115,7.9129,0.0],[-81.1101,7.9157,1.1336],[-81.1087,7.9151,0.0]]],
[[[-81.0914,7.9948,32.1864],[-81.0958,8.0221,25.8953],[-81.1059,8.0288,44.1418],[-81.1124,8.0411,63.29],[-81.1263,8.0279,124.3255],[-81.1286,8.0238,113.0182],[-81.1249,8.0156,40.5999],[-81.1237,8.0045,96.5671],[-81.1277,7.9916,61.0928],[-81.1277,7.986,80.2769],[-81.1259,7.983,61.2043],[-81.1135,7.9814,80.9929],[-81.1117,7.9776,93.4904],[-81.1133,7.9719,56.0952],[-81.1216,7.9606,68.2383],[-81.1237,7.9447,107.9116],[-81.1329,7.9143,15.3862],[-81.1229,7.9148,2.1517],[-81.1229,7.9179,2.2972],[-81.1176,7.9193,3.1103],[-81.1154,7.9182,0.0],[-81.1162,7.9165,0.0],[-81.1132,7.9151,0.7982],[-81.1093,7.9196,1.7232],[-81.106,7.9193,1.4468],[-81.106,7.914,0.0],[-81.114,7.9085,0.0],[-81.1143,7.9049,0.0],[-81.1074,7.9021,3.2574],[-81.101,7.9043,1.5471],[-81.1026,7.9004,1.5632],[-81.1001,7.8976,0.4286],[-81.096,7.9018,0.5155],[-81.0979,7.8915,0.0],[-81.0954,7.8926,0.7473],[-81.0946,7.8899,0.0],[-81.0901,7.8907,5.7655],[-81.0918,7.8879,0.0],[-81.0901,7.8888,3.864],[-81.0901,7.8865,2.7186],[-81.0937,7.8879,0.0],[-81.0926,7.884,0.6807],[-81.0954,7.8851,0.0],[-81.0935,7.881,1.6687],[-81.089,7.8801,0.0],[-81.0885,7.8788,0.0],[-81.0918,7.8796,0.0],[-81.0932,7.8785,4.8237],[-81.0963,7.8835,0.5404],[-81.0971,7.8815,0.0],[-81.0943,7.8768,7.307],[-81.0949,7.8757,0.0],[-81.0982,7.8763,0.0],[-81.0982,7.8874,0.0],[-81.0996,7.8863,0.0],[-81.0987,7.8835,0.0],[-81.1004,7.8826,0.6618],[-81.1004,7.889,0.0],[-81.1032,7.8907,0.0],[-81.109,7.8896,9.6148],[-81.1115,7.8876,0.0],[-81.1113,7.8701,0.0],[-81.109,7.8657,22.5198],[-81.106,7.8635,0.0],[-81.0885,7.8579,0.0],[-81.084,7.8654,0.0],[-81.0765,7.8735,13.9811],[-81.0765,7.8829,14.1615],[-81.0687,7.8996,3.7697],[-81.0579,7.9057,4.1222],[-81.0571,7.9149,0.0],[-81.061,7.9193,3.3646],[-81.0651,7.9199,7.8419],[-81.0676,7.9226,1.5],[-81.0776,7.9187,16.302],[-81.0801,7.9199,6.8638],[-81.0738,7.9207,7.6412],[-81.0685,7.9237,6.7565],[-81.0617,7.9207,9.5385],[-81.0583,7.9341,12.4756],[-81.0628,7.9393,45.9358],[-81.0715,7.9451,16.5763],[-81.079,7.9601,44.4459],[-81.0871,7.9678,29.6853],[-81.0914,7.9948,32.1864]]]]}
,"properties": {"GID_3": "PAN.13.7.1_1","GID_0": "PAN","country": "Panama","GID_1": "PAN.13_1","province": "Veraguas","NL_NAME_1": "NA","GID_2": "PAN.13.7_1","county": "RíodeJesús","NL_NAME_2": "NA","city": "CatorcedeNoviembre","VARNAME_3": "NA","NL_NAME_3": "NA","TYPE_3": "Corregimiento","ENGTYPE_3": "Municipality","CC_3": "NA","HASC_3": "NA","name": "Catorcede_Noviembre.city","area_km2": 82.92406,"hist_schema_id": "Elevation0-9000","hist_area_km2": {"0": 25.09563,"25": 32.86357,"50": 14.08879,"75": 6.3199,"100": 3.3384,"125": 1.17578,"150": 0.04199}}}