{"type": "Feature","bbox": [-77.7012,8.0632,-77.6034,8.1459],"geometry": {"type": "MultiPolygon","coordinates": [[[[-77.6711,8.0632,100.1103],[-77.6589,8.0785,76.7668],[-77.6539,8.0906,93.7637],[-77.6367,8.0973,46.7909],[-77.6306,8.1109,17.3991],[-77.6247,8.1137,27.8668],[-77.6097,8.1165,26.5571],[-77.6034,8.1286,26.9306],[-77.6079,8.1283,25.2442],[-77.6133,8.1372,18.0084],[-77.6196,8.1371,18.0476],[-77.6296,8.1436,32.0557],[-77.6333,8.1433,35.5704],[-77.6393,8.1394,37.6542],[-77.6516,8.1405,40.7803],[-77.6592,8.1348,25.4015],[-77.6625,8.1343,29.5728],[-77.6713,8.1379,79.7992],[-77.6818,8.1459,29.8992],[-77.6897,8.1446,52.8969],[-77.7012,8.1325,15.833],[-77.7011,8.1245,10.0352],[-77.6992,8.1217,19.364],[-77.683,8.1149,15.1559],[-77.6775,8.1105,19.5066],[-77.6768,8.107,27.9179],[-77.6787,8.098,52.7263],[-77.6711,8.0632,100.1103]]]]}
,"properties": {"GID_3": "PAN.5.2.6_1","GID_0": "PAN","country": "Panama","GID_1": "PAN.5_1","province": "Darién","NL_NAME_1": "NA","GID_2": "PAN.5.2_1","county": "Pinogana","NL_NAME_2": "NA","city": "Pinogana","VARNAME_3": "NA","NL_NAME_3": "NA","TYPE_3": "Corregimiento","ENGTYPE_3": "Municipality","CC_3": "NA","HASC_3": "NA","name": "Pinogana.city","area_km2": 44.12062,"hist_schema_id": "Elevation0-9000","hist_area_km2": {"0": 4.44978,"25": 23.76012,"50": 9.27774,"75": 4.95379,"100": 1.21744,"125": 0.31484,"150": 0.14692}}}