{"type": "Feature","bbox": [-79.6543,9.0821,-79.2511,9.5233],"geometry": {"type": "MultiPolygon","coordinates": [[[[-79.5768,9.204,95.5117],[-79.576,9.2021,83.6888],[-79.5729,9.2021,78.7965],[-79.5732,9.2063,76.5664],[-79.576,9.2065,79.7742],[-79.5768,9.204,95.5117]]],
[[[-79.5799,9.2143,72.5],[-79.5807,9.2151,72.5],[-79.5815,9.2115,74.4406],[-79.5788,9.2096,72.5],[-79.5799,9.2071,74.2691],[-79.5785,9.2065,72.5],[-79.5776,9.2082,72.5],[-79.5799,9.2143,72.5]]],
[[[-79.5776,9.2601,72.5],[-79.5765,9.2596,72.5],[-79.5751,9.2599,72.5],[-79.5768,9.2618,74.0891],[-79.5776,9.2601,72.5]]],
[[[-79.5663,9.2104,72.5],[-79.566,9.2113,74.669],[-79.5687,9.2107,72.5],[-79.5679,9.2099,72.5],[-79.5663,9.2104,72.5]]],
[[[-79.5576,9.3593,72.5],[-79.5551,9.3549,74.4399],[-79.549,9.3557,97.6925],[-79.5535,9.3374,80.3967],[-79.5576,9.3388,72.5],[-79.561,9.3349,74.172],[-79.561,9.3318,85.6725],[-79.5685,9.3254,72.5],[-79.5682,9.3226,72.5],[-79.5721,9.3196,72.5],[-79.5721,9.3157,72.5],[-79.5779,9.3096,106.864],[-79.581,9.3085,72.5],[-79.5796,9.3035,109.8143],[-79.5832,9.3018,79.2677],[-79.5788,9.2985,72.5],[-79.5751,9.3007,86.0838],[-79.5762,9.2965,86.2445],[-79.5813,9.2951,74.784],[-79.5796,9.2918,83.2269],[-79.5824,9.291,72.5],[-79.581,9.2896,75.4421],[-79.5815,9.2865,75.5611],[-79.5785,9.2849,72.5],[-79.5788,9.2832,72.5],[-79.5757,9.2799,85.709],[-79.5754,9.2771,76.0082],[-79.5782,9.2746,72.5],[-79.5793,9.271,72.5],[-79.5762,9.2693,76.8625],[-79.5757,9.271,86.0273],[-79.5696,9.2729,82.8611],[-79.571,9.2696,75.9907],[-79.5735,9.269,75.0777],[-79.5726,9.2674,74.7514],[-79.5749,9.2679,72.5],[-79.5768,9.2662,75.3536],[-79.5729,9.2643,81.6677],[-79.5751,9.2632,79.4667],[-79.5746,9.2607,81.7752],[-79.5693,9.2563,75.3039],[-79.571,9.2549,72.5],[-79.5699,9.2524,72.5],[-79.5713,9.251,76.3772],[-79.5682,9.2526,77.0837],[-79.5685,9.2504,72.5],[-79.5663,9.2496,78.5164],[-79.5687,9.2474,72.5],[-79.566,9.2471,76.9556],[-79.5646,9.249,77.2827],[-79.5646,9.2451,73.5542],[-79.5621,9.2454,72.5],[-79.5638,9.2429,72.5],[-79.5612,9.2412,77.1531],[-79.5585,9.2432,72.5],[-79.5582,9.2482,74.5018],[-79.5565,9.2482,84.0352],[-79.5568,9.2457,79.3211],[-79.554,9.2476,86.468],[-79.5549,9.2446,78.4665],[-79.551,9.2468,86.8329],[-79.5493,9.2432,86.3386],[-79.5565,9.2435,78.6643],[-79.5574,9.2379,74.6015],[-79.5568,9.2368,72.5],[-79.5551,9.2376,78.5897],[-79.5557,9.2357,72.5],[-79.5535,9.2332,72.5],[-79.5499,9.2335,72.5],[-79.5482,9.2304,72.5],[-79.5451,9.2324,83.2704],[-79.5451,9.2304,86.1439],[-79.5468,9.2296,75.3423],[-79.5443,9.2276,77.7093],[-79.5437,9.2243,72.5],[-79.5413,9.224,79.5524],[-79.539,9.2263,79.2471],[-79.539,9.229,99.7646],[-79.5338,9.2321,126.7597],[-79.5304,9.229,108.8344],[-79.5332,9.2313,79.8899],[-79.5379,9.2296,79.5788],[-79.5382,9.226,74.4593],[-79.5354,9.2251,72.5],[-79.5349,9.2224,72.5],[-79.5382,9.2226,73.1993],[-79.5407,9.2204,99.364],[-79.5443,9.2207,77.9891],[-79.5476,9.224,76.1746],[-79.5482,9.2268,77.0653],[-79.5501,9.2257,76.877],[-79.549,9.2282,72.5],[-79.5554,9.2276,74.3351],[-79.5568,9.2246,85.8977],[-79.5612,9.2246,75.8354],[-79.564,9.2268,74.5884],[-79.5649,9.2254,75.9284],[-79.5635,9.2243,80.2304],[-79.5649,9.224,75.9284],[-79.5657,9.2204,85.1788],[-79.5676,9.2226,72.5],[-79.5707,9.2226,72.5],[-79.5713,9.219,76.3268],[-79.5693,9.2182,72.5],[-79.5676,9.2196,80.3543],[-79.5668,9.2154,72.5],[-79.5621,9.2187,78.1205],[-79.5601,9.2176,72.8986],[-79.5663,9.2082,72.5],[-79.5657,9.2049,72.5],[-79.564,9.2049,72.5],[-79.5654,9.1962,86.1729],[-79.569,9.1968,90.5588],[-79.5699,9.1999,73.1207],[-79.5765,9.199,76.1616],[-79.5779,9.2007,72.5],[-79.579,9.1993,72.5],[-79.5762,9.1974,78.262],[-79.5788,9.1968,72.5],[-79.5788,9.1938,72.8051],[-79.5818,9.1901,89.3147],[-79.5809,9.1843,85.1436],[-79.5832,9.1812,97.5565],[-79.593,9.1814,66.8086],[-79.605,9.1865,61.4558],[-79.6116,9.1861,54.8902],[-79.6214,9.1987,62.544],[-79.6209,9.2029,64.6334],[-79.6413,9.2065,29.1593],[-79.6451,9.206,26.0],[-79.644,9.2001,27.794],[-79.6474,9.2001,26.0],[-79.6482,9.1962,26.0],[-79.6521,9.1935,30.885],[-79.6527,9.1897,26.8471],[-79.6507,9.1875,30.2986],[-79.6543,9.1837,30.1885],[-79.6516,9.1772,34.5764],[-79.6511,9.166,48.452],[-79.6449,9.16,107.8367],[-79.6396,9.1576,64.6967],[-79.6346,9.1505,47.3017],[-79.6274,9.1442,47.3454],[-79.6221,9.1327,58.2858],[-79.6119,9.1173,129.3324],[-79.5925,9.0965,164.5824],[-79.5751,9.0821,213.2266],[-79.5759,9.0903,177.5085],[-79.5734,9.104,123.078],[-79.5838,9.1143,109.5043],[-79.5865,9.1208,103.7807],[-79.5857,9.1239,109.7592],[-79.5734,9.1252,116.5316],[-79.5672,9.1353,154.3783],[-79.5615,9.1375,147.9544],[-79.5499,9.1374,122.362],[-79.5415,9.13,146.677],[-79.5348,9.1265,172.3478],[-79.5324,9.1294,148.7771],[-79.5301,9.1391,136.0076],[-79.5234,9.1386,126.8535],[-79.5169,9.1419,138.7352],[-79.509,9.1547,225.6143],[-79.5044,9.1589,224.2502],[-79.4933,9.163,267.6265],[-79.4852,9.158,261.4557],[-79.4792,9.1575,331.3533],[-79.472,9.1692,346.8607],[-79.4727,9.1753,360.9367],[-79.4626,9.1845,518.0195],[-79.4609,9.1894,460.6151],[-79.4656,9.1959,380.2074],[-79.4672,9.2071,279.4898],[-79.4634,9.2071,245.2789],[-79.4574,9.1985,291.6444],[-79.4507,9.2005,397.9969],[-79.4412,9.1976,378.1709],[-79.427,9.1993,538.7347],[-79.4196,9.2063,716.499],[-79.411,9.2073,808.0122],[-79.4034,9.221,768.9702],[-79.4077,9.2331,881.6563],[-79.4029,9.2451,842.3024],[-79.389,9.2492,802.8481],[-79.3744,9.2348,738.2347],[-79.3709,9.2349,711.301],[-79.3674,9.2393,562.1421],[-79.3614,9.2427,710.7895],[-79.3576,9.2523,721.2597],[-79.3526,9.2566,755.8569],[-79.353,9.268,605.3759],[-79.3494,9.274,583.0798],[-79.3456,9.2758,621.2242],[-79.3358,9.2764,779.24],[-79.3139,9.2876,511.0115],[-79.3055,9.2903,576.6809],[-79.2943,9.3028,737.5875],[-79.2969,9.3107,631.2133],[-79.296,9.3132,705.8632],[-79.2907,9.3168,816.1455],[-79.2828,9.3175,799.0682],[-79.2814,9.3229,869.5341],[-79.2775,9.3275,818.3044],[-79.2722,9.3292,838.9773],[-79.2705,9.335,829.3729],[-79.2537,9.3407,654.8481],[-79.2511,9.3447,643.0848],[-79.2594,9.3513,644.2726],[-79.2651,9.361,513.3405],[-79.2577,9.3754,521.9051],[-79.2536,9.3965,449.2772],[-79.2553,9.3986,404.4169],[-79.2586,9.3986,440.706],[-79.2756,9.3918,549.3967],[-79.2763,9.3934,533.0423],[-79.2711,9.4096,456.0892],[-79.2615,9.4245,643.058],[-79.2636,9.4326,436.4412],[-79.2685,9.4361,407.4147],[-79.2704,9.4403,344.1578],[-79.2724,9.4377,396.4734],[-79.2794,9.4367,368.9288],[-79.2815,9.4347,283.1515],[-79.2849,9.4351,380.2389],[-79.2982,9.4497,257.95],[-79.3059,9.4541,499.4273],[-79.3096,9.4545,389.812],[-79.3164,9.4526,409.1338],[-79.3203,9.4486,460.2856],[-79.3268,9.4469,439.8297],[-79.3295,9.4411,613.9231],[-79.3361,9.434,535.6339],[-79.3447,9.4302,275.8085],[-79.3492,9.4299,269.7012],[-79.3519,9.4314,234.1936],[-79.3544,9.4339,283.0375],[-79.3549,9.4403,169.2655],[-79.3621,9.444,144.6672],[-79.3733,9.4385,132.2363],[-79.3793,9.4295,270.8068],[-79.4055,9.4219,515.7794],[-79.4058,9.4201,508.3386],[-79.4132,9.4214,406.5417],[-79.4135,9.4244,358.7672],[-79.4109,9.4286,375.2559],[-79.4042,9.4281,444.6986],[-79.4003,9.4318,381.539],[-79.3911,9.4327,387.8729],[-79.3838,9.4397,221.0152],[-79.3797,9.441,196.2645],[-79.3809,9.444,238.2364],[-79.3803,9.4616,281.8334],[-79.3774,9.4726,111.1278],[-79.3828,9.4803,191.2285],[-79.3941,9.4865,347.0168],[-79.3954,9.4891,374.5911],[-79.3867,9.501,190.5215],[-79.3757,9.5072,140.4398],[-79.3873,9.5084,138.1158],[-79.3937,9.5135,122.7434],[-79.4048,9.5187,201.9868],[-79.4084,9.5158,214.1012],[-79.418,9.5146,180.5342],[-79.4186,9.5064,248.313],[-79.4199,9.5041,426.1522],[-79.4228,9.5035,424.6428],[-79.4374,9.5086,237.9456],[-79.4527,9.5233,85.0166],[-79.4662,9.5094,83.9546],[-79.4741,9.4949,155.5947],[-79.4827,9.4887,180.9433],[-79.4876,9.4882,201.2947],[-79.4909,9.4911,174.4851],[-79.5067,9.4908,341.7767],[-79.5111,9.4855,250.0122],[-79.5164,9.4862,251.8427],[-79.5222,9.4824,251.1754],[-79.5303,9.4816,289.7939],[-79.5333,9.4799,218.5102],[-79.5344,9.4753,220.861],[-79.5327,9.4716,307.5019],[-79.5358,9.4658,194.8115],[-79.5361,9.4496,181.1832],[-79.5434,9.4368,178.6876],[-79.5423,9.4226,173.3202],[-79.5534,9.4122,177.6344],[-79.5536,9.4068,140.6281],[-79.5552,9.4048,193.1458],[-79.5529,9.401,200.9968],[-79.5571,9.3976,148.7648],[-79.5595,9.3918,187.7932],[-79.5595,9.387,151.3332],[-79.5669,9.3769,117.9131],[-79.5668,9.37,95.7385],[-79.5585,9.3613,75.8773],[-79.5563,9.3612,82.4033],[-79.5576,9.3593,72.5]]]]}
,"properties": {"GID_3": "PAN.12.6.4_1","GID_0": "PAN","country": "Panama","GID_1": "PAN.12_1","province": "Panamá","NL_NAME_1": "NA","GID_2": "PAN.12.6_1","county": "Panamá","NL_NAME_2": "NA","city": "Chilibre","VARNAME_3": "NA","NL_NAME_3": "NA","TYPE_3": "Corregimiento","ENGTYPE_3": "Municipality","CC_3": "NA","HASC_3": "NA","name": "Chilibre.city","area_km2": 989.4207,"hist_schema_id": "Elevation0-9000","hist_area_km2": {"25": 4.7093,"50": 14.6099,"75": 21.0962,"100": 42.1696,"125": 52.2359,"150": 42.8968,"175": 44.7736,"200": 46.0253,"225": 48.8905,"250": 50.6892,"275": 51.4632,"300": 49.727,"325": 50.6272,"350": 50.3969,"375": 49.4557,"400": 46.7784,"425": 41.297,"450": 43.5358,"475": 41.2556,"500": 37.1345,"525": 31.9251,"550": 27.2392,"575": 23.2016,"600": 18.8921,"625": 14.8754,"650": 10.7538,"675": 7.0088,"700": 5.3562,"725": 4.896,"750": 4.4148,"775": 3.9546,"800": 2.6993,"825": 2.4273,"850": 1.1091,"875": 0.5859,"900": 0.2093,"925": 0.1046}}}