{"type": "Feature","bbox": [-81.1775,8.4151,-80.9803,8.6059],"geometry": {"type": "MultiPolygon","coordinates": [[[[-81.1775,8.5132,876.9505],[-81.16,8.5066,1199.9442],[-81.1117,8.4974,1130.8867],[-81.104,8.4931,919.2093],[-81.0811,8.4751,548.0566],[-81.0556,8.4715,471.2563],[-81.0449,8.4603,789.5602],[-81.0436,8.4507,481.029],[-81.0244,8.4392,563.8939],[-81.0253,8.4361,492.1397],[-81.0359,8.4312,433.4353],[-81.0371,8.4286,332.7949],[-81.0366,8.4228,236.915],[-81.0028,8.4151,401.4458],[-80.9844,8.4151,591.4591],[-80.9803,8.4358,526.6967],[-80.9841,8.445,546.3075],[-80.9865,8.4608,820.1946],[-80.9925,8.4699,1117.3538],[-81.0017,8.4802,992.2449],[-81.0164,8.4873,791.6985],[-81.0262,8.4962,440.8665],[-81.0317,8.4977,348.8954],[-81.0483,8.4979,421.5302],[-81.0596,8.5075,382.3028],[-81.059,8.5205,392.8636],[-81.0629,8.5322,333.1147],[-81.0832,8.5362,415.5354],[-81.0871,8.5385,415.7206],[-81.085,8.5479,559.511],[-81.0932,8.5609,778.1605],[-81.0944,8.5661,825.0004],[-81.0938,8.6059,1456.1537],[-81.1097,8.6007,1372.6151],[-81.1247,8.5901,1167.7732],[-81.1374,8.5853,851.3748],[-81.1479,8.5749,929.0584],[-81.1642,8.57,819.2603],[-81.1678,8.5634,746.1537],[-81.1684,8.5544,596.8631],[-81.1621,8.5429,667.3089],[-81.1615,8.5388,675.8864],[-81.1639,8.5341,733.5066],[-81.1724,8.5256,681.41],[-81.1708,8.5209,686.9533],[-81.1775,8.5132,876.9505]]]]}
,"properties": {"GID_3": "PAN.13.9.7_1","GID_0": "PAN","country": "Panama","GID_1": "PAN.13_1","province": "Veraguas","NL_NAME_1": "NA","GID_2": "PAN.13.9_1","county": "SantaFe","NL_NAME_2": "NA","city": "SantaFe","VARNAME_3": "NA","NL_NAME_3": "NA","TYPE_3": "Corregimiento","ENGTYPE_3": "Municipality","CC_3": "NA","HASC_3": "NA","name": "Santa_Fe.city","area_km2": 156.9935,"hist_schema_id": "Elevation0-9000","hist_area_km2": {"225": 0.0419,"250": 0.713,"275": 3.1245,"300": 4.152,"325": 5.1166,"350": 5.7037,"375": 5.3473,"400": 5.0537,"425": 4.7391,"450": 3.7326,"475": 3.5229,"500": 3.5229,"525": 3.7745,"550": 3.9422,"575": 4.4874,"600": 4.6551,"625": 4.3825,"650": 5.0535,"675": 6.06,"700": 5.3889,"725": 6.689,"750": 7.297,"775": 7.0454,"800": 6.8986,"825": 5.5777,"850": 4.9905,"875": 4.2776,"900": 3.6695,"925": 3.5228,"950": 2.8727,"975": 2.2646,"1000": 2.5792,"1025": 1.5936,"1050": 1.8661,"1075": 1.3839,"1100": 1.3839,"1125": 1.258,"1150": 1.4887,"1175": 1.0903,"1200": 0.9854,"1225": 0.8806,"1250": 0.8386,"1275": 0.6919,"1300": 0.8806,"1325": 0.587,"1350": 0.629,"1375": 0.608,"1400": 0.3354,"1425": 0.1677,"1450": 0.0419,"1475": 0.0629,"1500": 0.021}}}