{"type": "Feature","bbox": [-79.8279,9.2557,-79.7825,9.3246],"geometry": {"type": "MultiPolygon","coordinates": [[[[-79.8221,9.2588,25.0],[-79.8221,9.2593,25.0],[-79.8223,9.2593,25.0],[-79.8223,9.259,25.0],[-79.8221,9.2588,25.0]]],
[[[-79.7914,9.3083,152.9935],[-79.7825,9.2998,105.9932],[-79.7886,9.3246,86.2355],[-79.8031,9.3133,58.7257],[-79.8208,9.313,30.8221],[-79.8221,9.311,25.0],[-79.8187,9.3124,39.0508],[-79.8199,9.3096,29.0401],[-79.8235,9.3093,25.0],[-79.8187,9.3076,31.1554],[-79.8174,9.3049,39.8072],[-79.8201,9.3065,28.4445],[-79.8207,9.3035,39.2804],[-79.8218,9.3035,25.0],[-79.8213,9.3063,25.0],[-79.8235,9.3063,25.0],[-79.8232,9.3035,26.5338],[-79.8251,9.3046,25.0],[-79.8274,9.2996,25.0],[-79.8279,9.289,27.708],[-79.8254,9.2907,31.4189],[-79.8254,9.2874,25.0],[-79.8204,9.2885,35.7365],[-79.8224,9.2871,25.0],[-79.821,9.2865,25.0],[-79.8213,9.2846,27.7255],[-79.8238,9.2868,30.4481],[-79.8257,9.2865,25.0],[-79.8257,9.2849,25.0],[-79.8213,9.2824,27.981],[-79.8213,9.2768,25.0],[-79.819,9.2776,30.0578],[-79.816,9.2763,25.0],[-79.8196,9.2732,27.7993],[-79.8157,9.2735,25.0],[-79.8126,9.2704,43.6692],[-79.8135,9.2687,28.4399],[-79.816,9.271,25.6323],[-79.8157,9.2682,32.4016],[-79.8179,9.2699,30.828],[-79.819,9.2665,29.454],[-79.8201,9.2679,25.0],[-79.8224,9.2671,27.9853],[-79.8224,9.2618,30.4769],[-79.8165,9.259,26.5922],[-79.8165,9.2579,31.0554],[-79.8199,9.2588,25.0],[-79.8171,9.2557,25.0],[-79.805,9.2692,46.1361],[-79.8021,9.2818,83.9791],[-79.7942,9.2987,100.867],[-79.7955,9.3045,128.2663],[-79.7914,9.3083,152.9935]]]]}
,"properties": {"GID_3": "PAN.4.2.9_1","GID_0": "PAN","country": "Panama","GID_1": "PAN.4_1","province": "Colón","NL_NAME_1": "NA","GID_2": "PAN.4.2_1","county": "Colón","NL_NAME_2": "NA","city": "NuevaProvidencia","VARNAME_3": "NA","NL_NAME_3": "NA","TYPE_3": "Corregimiento","ENGTYPE_3": "Municipality","CC_3": "NA","HASC_3": "NA","name": "Nueva_Providencia.city","area_km2": 16.40432,"hist_schema_id": "Elevation0-9000","hist_area_km2": {"25": 2.59464,"50": 6.25636,"75": 3.99639,"100": 1.7994,"125": 1.12984,"150": 0.62768}}}