{"type":"Feature","properties":{"GID_3":"PAN.9.3.4_1","GID_0":"PAN","country":"Panama","GID_1":"PAN.9_1","province":"LosSantos","NL_NAME_1":"NA","GID_2":"PAN.9.3_1","county":"LosSantos","NL_NAME_2":"NA","city":"LaEspigadilla","VARNAME_3":"NA","NL_NAME_3":"NA","TYPE_3":"Corregimiento","ENGTYPE_3":"Municipality","CC_3":"NA","HASC_3":"NA","name":"La_Espigadilla.city"},
"geometry":{"type": "MultiPolygon","coordinates": [[[[-80.4245,7.8536,175.3262],[-80.4124,7.8527,75.9124],[-80.3958,7.865,97.5748],[-80.3817,7.8475,48.2188],[-80.3656,7.8565,41.791],[-80.359,7.8608,52.314],[-80.3652,7.8748,31.744],[-80.3615,7.8915,24.2401],[-80.3593,7.8948,19.9023],[-80.3485,7.902,11.9303],[-80.3555,7.9019,13.8901],[-80.3624,7.8989,18.8986],[-80.372,7.899,24.2059],[-80.381,7.9052,29.6857],[-80.3957,7.9088,74.5059],[-80.4035,7.9026,81.2622],[-80.4059,7.8962,76.3887],[-80.4138,7.8872,84.784],[-80.4204,7.8837,103.7021],[-80.4252,7.8778,129.7815],[-80.4275,7.8679,155.2776],[-80.4263,7.8551,149.744],[-80.4245,7.8536,175.3262]]]]}}