{"type":"Feature","properties":{"GID_3":"PAN.9.6.2_1","GID_0":"PAN","country":"Panama","GID_1":"PAN.9_1","province":"LosSantos","NL_NAME_1":"NA","GID_2":"PAN.9.6_1","county":"Pocrí","NL_NAME_2":"NA","city":"Lajamina","VARNAME_3":"NA","NL_NAME_3":"NA","TYPE_3":"Corregimiento","ENGTYPE_3":"Municipality","CC_3":"NA","HASC_3":"NA","name":"Lajamina.city"},
"geometry":{"type": "MultiPolygon","coordinates": [[[[-80.1221,7.577,44.6279],[-80.1142,7.587,43.6693],[-80.0907,7.5946,18.9768],[-80.0905,7.6031,21.8881],[-80.0863,7.6174,28.8079],[-80.0954,7.6127,19.5918],[-80.1014,7.6129,13.411],[-80.1149,7.6083,22.0701],[-80.1249,7.6111,23.8838],[-80.1294,7.6145,27.4319],[-80.1433,7.614,45.416],[-80.1535,7.6109,70.2655],[-80.1574,7.6073,44.1757],[-80.1654,7.6048,72.6163],[-80.1726,7.5988,79.6104],[-80.1744,7.5944,102.8692],[-80.1733,7.5883,94.9738],[-80.1682,7.584,100.295],[-80.1665,7.5805,103.7127],[-80.1697,7.5717,177.3046],[-80.1636,7.5587,159.509],[-80.1637,7.5469,204.4589],[-80.157,7.5436,171.0958],[-80.1458,7.528,123.3774],[-80.1352,7.5311,111.1764],[-80.1312,7.5436,98.4763],[-80.1231,7.5483,94.3256],[-80.1164,7.5591,74.8021],[-80.1162,7.5629,88.7985],[-80.1221,7.577,44.6279]]]]}}