{"type": "Feature","bbox": [-81.2918,7.9386,-81.1754,8.1439],"geometry": {"type": "MultiPolygon","coordinates": [[[[-81.2499,8.1439,71.4428],[-81.2462,8.1219,74.2589],[-81.2397,8.1013,82.2485],[-81.2462,8.0941,30.6782],[-81.2628,8.0601,23.2785],[-81.2732,8.0452,52.5483],[-81.28,8.0394,10.8264],[-81.2918,8.0342,16.659],[-81.2876,8.0222,19.2497],[-81.2772,8.0146,78.5917],[-81.2711,7.9943,71.1625],[-81.263,7.977,88.767],[-81.2624,7.9672,88.9349],[-81.2461,7.9559,76.0652],[-81.2456,7.9423,2.2234],[-81.2426,7.9386,6.0664],[-81.2357,7.9428,3.3414],[-81.2178,7.9611,72.265],[-81.2182,7.9841,77.8196],[-81.226,7.9968,125.614],[-81.2246,8.0065,126.2054],[-81.2204,8.01,130.8963],[-81.2064,8.0107,87.7176],[-81.1923,8.0179,67.8269],[-81.1906,8.0227,49.2136],[-81.1951,8.0334,76.073],[-81.1946,8.039,83.3859],[-81.187,8.0537,60.1426],[-81.1754,8.0638,60.0033],[-81.1767,8.0683,66.2269],[-81.1819,8.0752,61.7761],[-81.2499,8.1439,71.4428]]]]}
,"properties": {"GID_3": "PAN.13.11.4_1","GID_0": "PAN","country": "Panama","GID_1": "PAN.13_1","province": "Veraguas","NL_NAME_1": "NA","GID_2": "PAN.13.11_1","county": "Soná","NL_NAME_2": "NA","city": "ElMarañón","VARNAME_3": "NA","NL_NAME_3": "NA","TYPE_3": "Corregimiento","ENGTYPE_3": "Municipality","CC_3": "NA","HASC_3": "NA","name": "El_Marañón.city","area_km2": 126.48838,"hist_schema_id": "Elevation0-9000","hist_area_km2": {"0": 1.76385,"25": 9.23758,"50": 20.46902,"75": 27.7327,"100": 26.72511,"125": 18.64246,"150": 9.67802,"175": 6.02526,"200": 3.08612,"225": 1.34365,"250": 0.65085,"275": 0.50389,"300": 0.39892,"325": 0.14697,"350": 0.08398}}}