{"type": "Feature","bbox": [-81.5069,8.2424,-81.4371,8.3204],"geometry": {"type": "MultiPolygon","coordinates": [[[[-81.4371,8.2797,257.4366],[-81.4582,8.2903,220.0067],[-81.4582,8.3049,330.2003],[-81.4718,8.3204,279.323],[-81.4895,8.2872,203.5387],[-81.4924,8.2752,230.848],[-81.5024,8.2741,243.1667],[-81.5069,8.2715,186.2659],[-81.5021,8.2639,282.7325],[-81.4979,8.2611,324.9982],[-81.4893,8.2437,218.6239],[-81.4761,8.2566,249.711],[-81.4727,8.2476,197.3925],[-81.4614,8.2424,211.4713],[-81.456,8.2476,162.5269],[-81.4552,8.2563,149.203],[-81.448,8.2579,141.2825],[-81.4374,8.2734,197.4865],[-81.4371,8.2797,257.4366]]]]}
,"properties": {"GID_3": "PAN.10.7.2_1","GID_0": "PAN","country": "Panama","GID_1": "PAN.10_1","province": "NgöbeBuglé","NL_NAME_1": "NA","GID_2": "PAN.10.7_1","county": "Ñürüm","NL_NAME_2": "NA","city": "AltodeJesús","VARNAME_3": "NA","NL_NAME_3": "NA","TYPE_3": "Corregimiento","ENGTYPE_3": "Municipality","CC_3": "NA","HASC_3": "NA","name": "Altode_Jesús.city","area_km2": 32.60514,"hist_schema_id": "Elevation0-9000","hist_area_km2": {"150": 2.39196,"175": 5.45519,"200": 6.92382,"225": 4.13329,"250": 4.69977,"275": 3.79761,"300": 2.09816,"325": 2.47589,"350": 0.60848,"375": 0.02098}}}