{"type": "Feature","bbox": [-80.9128,8.3906,-80.7757,8.5486],"geometry": {"type": "MultiPolygon","coordinates": [[[[-80.8229,8.5468,945.4868],[-80.8328,8.5486,1327.1792],[-80.8461,8.5465,1259.5371],[-80.84,8.5323,1227.2939],[-80.8356,8.517,1433.821],[-80.8356,8.5083,1218.1599],[-80.8381,8.5026,1100.7585],[-80.8467,8.4967,1065.12],[-80.8531,8.49,1012.5518],[-80.863,8.4701,668.2664],[-80.868,8.4662,610.2649],[-80.8793,8.4617,428.2412],[-80.8857,8.4564,429.0629],[-80.8999,8.4652,493.0106],[-80.9066,8.4565,489.0521],[-80.9072,8.4524,477.3078],[-80.9009,8.4462,361.6551],[-80.8998,8.4427,478.6838],[-80.9029,8.4376,314.6251],[-80.9124,8.4347,315.7524],[-80.9128,8.4136,433.9765],[-80.9096,8.3948,532.3177],[-80.9026,8.4024,557.7878],[-80.8963,8.4038,574.0646],[-80.8808,8.3912,646.8556],[-80.8754,8.3962,561.4739],[-80.8716,8.3964,524.4165],[-80.8667,8.404,467.4326],[-80.864,8.405,327.9964],[-80.8523,8.3918,340.1271],[-80.8487,8.3906,233.7804],[-80.8407,8.415,584.0693],[-80.8332,8.422,738.7036],[-80.8191,8.4299,920.1542],[-80.8126,8.4421,1039.7145],[-80.8106,8.4493,1029.5026],[-80.8097,8.4684,938.7749],[-80.8031,8.4942,835.7302],[-80.8001,8.4967,758.4176],[-80.7945,8.4981,715.0658],[-80.7757,8.4969,400.8999],[-80.7855,8.5131,666.6365],[-80.7931,8.5222,691.9437],[-80.803,8.5318,639.9194],[-80.8229,8.5468,945.4868]]]]}
,"properties": {"GID_3": "PAN.13.2.9_1","GID_0": "PAN","country": "Panama","GID_1": "PAN.13_1","province": "Veraguas","NL_NAME_1": "NA","GID_2": "PAN.13.2_1","county": "Calobre","NL_NAME_2": "NA","city": "LaYeguada","VARNAME_3": "NA","NL_NAME_3": "NA","TYPE_3": "Corregimiento","ENGTYPE_3": "Municipality","CC_3": "NA","HASC_3": "NA","name": "La_Yeguada.city","area_km2": 114.16839,"hist_schema_id": "Elevation0-9000","hist_area_km2": {"225": 0.02098,"250": 0.1678,"275": 0.73407,"300": 0.65018,"325": 1.2584,"350": 2.22317,"375": 2.34891,"400": 2.32795,"425": 3.06201,"450": 2.78934,"475": 3.27163,"500": 3.22978,"525": 4.08967,"550": 5.11731,"575": 7.29854,"600": 5.13818,"625": 5.09617,"650": 6.58516,"675": 5.18012,"700": 3.87973,"725": 2.3487,"750": 1.76147,"775": 2.57936,"800": 2.78907,"825": 1.6986,"850": 2.24381,"875": 2.6003,"900": 3.18747,"925": 2.91486,"950": 3.25036,"975": 3.66979,"1000": 2.9568,"1025": 2.85191,"1050": 1.84538,"1075": 2.097,"1100": 1.71957,"1125": 1.3421,"1150": 1.59372,"1175": 1.50987,"1200": 1.40506,"1225": 1.13243,"1250": 0.73393,"1275": 0.50327,"1300": 0.20968,"1325": 0.31451,"1350": 0.29354,"1375": 0.1258,"1400": 0.02097}}}