{"type":"Feature","properties":{"GID_3":"PAN.2.11.4_1","GID_0":"PAN","country":"Panama","GID_1":"PAN.2_1","province":"Chiriquí","NL_NAME_1":"NA","GID_2":"PAN.2.11_1","county":"SanFélix","NL_NAME_2":"NA","city":"SanFélix","VARNAME_3":"NA","NL_NAME_3":"NA","TYPE_3":"Corregimiento","ENGTYPE_3":"Municipality","CC_3":"NA","HASC_3":"NA","name":"San_Félix.city"},
"geometry":{"type": "MultiPolygon","coordinates": [[[[-81.8391,8.3033,158.4044],[-81.8365,8.3053,170.5184],[-81.8314,8.3057,227.2004],[-81.8276,8.3196,268.8714],[-81.8233,8.3257,138.9374],[-81.8279,8.3308,134.968],[-81.8482,8.3315,127.4287],[-81.8615,8.3283,80.4189],[-81.8726,8.3324,232.933],[-81.8782,8.3284,189.1925],[-81.8801,8.3229,98.4024],[-81.8859,8.319,52.2135],[-81.8915,8.3218,66.7034],[-81.8903,8.3263,66.5996],[-81.8922,8.331,94.5852],[-81.9115,8.3351,112.2547],[-81.9153,8.3276,54.982],[-81.9257,8.33,70.0515],[-81.9265,8.3235,52.336],[-81.9246,8.3198,63.0952],[-81.9319,8.3096,38.071],[-81.9333,8.2979,18.8103],[-81.9307,8.2945,5.8931],[-81.9239,8.2977,41.2268],[-81.9183,8.2971,5.2505],[-81.9151,8.2959,3.9086],[-81.911,8.2894,13.4006],[-81.9076,8.2874,14.4575],[-81.8868,8.2848,71.8596],[-81.8811,8.281,81.3135],[-81.8768,8.2758,83.2666],[-81.8526,8.2709,60.6706],[-81.849,8.2755,79.9149],[-81.8496,8.2972,116.3271],[-81.848,8.3061,95.3096],[-81.8453,8.3085,112.9918],[-81.8385,8.3101,218.1857],[-81.8391,8.3033,158.4044]]]]}}