{"type": "Feature","bbox": [-79.945,8.8745,-79.8256,8.9407],"geometry": {"type": "MultiPolygon","coordinates": [[[[-79.9448,8.9187,155.5435],[-79.945,8.9077,123.8054],[-79.9301,8.9061,143.5038],[-79.9209,8.8961,110.3577],[-79.906,8.8963,154.9775],[-79.8948,8.888,110.9261],[-79.8615,8.8752,146.2554],[-79.8508,8.8745,100.2887],[-79.8471,8.8785,83.4259],[-79.8479,8.8844,94.9124],[-79.8455,8.8888,87.3026],[-79.8394,8.8936,75.7363],[-79.8323,8.8952,76.1925],[-79.8256,8.8991,61.5998],[-79.8366,8.9064,55.8113],[-79.8596,8.9135,138.9745],[-79.8684,8.9218,137.754],[-79.8964,8.9407,156.0757],[-79.9223,8.9281,191.6177],[-79.9339,8.9321,187.9126],[-79.9359,8.9229,204.7376],[-79.9398,8.923,196.7497],[-79.9448,8.9187,155.5435]]]]}
,"properties": {"GID_3": "PAN.11.4.10_1","GID_0": "PAN","country": "Panama","GID_1": "PAN.11_1","province": "PanamáOeste","NL_NAME_1": "NA","GID_2": "PAN.11.4_1","county": "LaChorrera","NL_NAME_2": "NA","city": "Hurtado","VARNAME_3": "NA","NL_NAME_3": "NA","TYPE_3": "Corregimiento","ENGTYPE_3": "Municipality","CC_3": "NA","HASC_3": "NA","name": "Hurtado.city","area_km2": 47.65331,"hist_schema_id": "Elevation0-9000","hist_area_km2": {"50": 0.71219,"75": 4.90173,"100": 6.57749,"125": 11.1436,"150": 17.17584,"175": 6.05329,"200": 1.06823,"225": 0.02095}}}