{"type": "Feature","bbox": [-80.6004,7.7331,-79.9999,8.004],"geometry": {"type": "MultiPolygon","coordinates": [[[[-80.4139,7.7856,57.619],[-80.4066,7.7919,50.1569],[-80.3871,7.7952,49.0768],[-80.3781,7.799,27.6718],[-80.3764,7.7957,27.4582],[-80.3723,7.7925,30.7334],[-80.3653,7.7948,24.5668],[-80.3623,7.7969,21.9841],[-80.3638,7.8017,24.4175],[-80.3598,7.8113,56.6012],[-80.3477,7.8155,73.2661],[-80.3396,7.8318,42.1973],[-80.3255,7.8369,20.312],[-80.3212,7.8446,13.0355],[-80.3219,7.8514,25.015],[-80.3257,7.8585,34.9381],[-80.3217,7.869,23.0054],[-80.321,7.8767,18.5621],[-80.3154,7.8843,11.1377],[-80.3165,7.901,1.1867],[-80.3193,7.9032,0.0],[-80.3224,7.9026,1.8241],[-80.3254,7.9079,11.2433],[-80.3235,7.9099,2.7395],[-80.3238,7.9079,0.0],[-80.3204,7.9068,1.5113],[-80.3179,7.9099,0.4819],[-80.321,7.9174,1.6891],[-80.324,7.9332,3.4919],[-80.3329,7.9535,0.6001],[-80.339,7.9626,0.0],[-80.3376,7.9663,2.0371],[-80.3454,7.9746,1.1303],[-80.3482,7.9799,1.226],[-80.3499,7.9799,5.9264],[-80.3576,7.9949,0.0],[-80.3662,8.004,0.0],[-80.3701,8.0032,13.9013],[-80.3723,7.9998,21.393],[-80.3858,7.9945,8.8973],[-80.3938,7.9876,7.1191],[-80.3924,7.9802,4.7986],[-80.3848,7.9764,2.9547],[-80.3838,7.9718,5.5838],[-80.3972,7.9584,7.7471],[-80.3974,7.953,6.7952],[-80.4104,7.9475,6.5],[-80.4158,7.9388,14.0823],[-80.4201,7.9408,9.1926],[-80.4314,7.9344,15.1053],[-80.438,7.9345,19.2541],[-80.4398,7.9314,60.0268],[-80.4436,7.9298,49.6651],[-80.4549,7.9359,52.1118],[-80.4553,7.9226,17.7353],[-80.4624,7.9349,14.7165],[-80.4699,7.938,19.7958],[-80.4757,7.937,26.6995],[-80.488,7.9243,25.517],[-80.4993,7.9183,30.959],[-80.5019,7.9148,32.8619],[-80.5027,7.9092,38.8152],[-80.5227,7.8946,22.4106],[-80.5243,7.8892,31.5029],[-80.522,7.8823,46.3456],[-80.5236,7.8805,46.0629],[-80.5288,7.8798,32.5734],[-80.5307,7.877,30.5725],[-80.5338,7.8584,47.337],[-80.538,7.8526,35.6111],[-80.5376,7.8465,38.907],[-80.541,7.8397,54.1156],[-80.5372,7.8315,53.6733],[-80.5506,7.8295,53.7246],[-80.5549,7.8335,61.1846],[-80.5587,7.8345,64.2016],[-80.562,7.8265,59.8228],[-80.5654,7.8242,59.5169],[-80.5721,7.8238,58.9518],[-80.5738,7.8177,73.4096],[-80.583,7.8196,58.7917],[-80.5872,7.8179,60.2169],[-80.5902,7.8143,58.1199],[-80.592,7.8083,65.1721],[-80.6004,7.8015,78.6654],[-80.5976,7.7983,79.4975],[-80.5964,7.7937,129.1591],[-80.5877,7.7967,60.946],[-80.5866,7.7922,61.0636],[-80.5838,7.789,83.3017],[-80.5686,7.7937,82.7424],[-80.5482,7.7764,82.6099],[-80.4978,7.7695,134.4699],[-80.485,7.761,173.4896],[-80.4424,7.7381,152.2132],[-80.4366,7.7331,148.7594],[-80.4352,7.746,178.7401],[-80.4323,7.751,113.5694],[-80.4334,7.7559,80.4699],[-80.4269,7.7649,93.9823],[-80.4254,7.7707,68.5873],[-80.426,7.7762,60.8699],[-80.424,7.7782,61.6874],[-80.4174,7.7786,84.3319],[-80.4139,7.7856,57.619]]],
[[[-79.9999,7.9999,0.0],[-79.9999,8.0001,0.0],[-80.0001,8.0001,0.0],[-80.0001,7.9999,0.0],[-79.9999,7.9999,0.0]]]]}
,"properties": {"GID_2": "PAN.9.3_1","GID_0": "PAN","country": "Panama","GID_1": "PAN.9_1","province": "LosSantos","NL_NAME_1": "NA","county": "LosSantos","VARNAME_2": "NA","NL_NAME_2": "NA","TYPE_2": "Distrito","ENGTYPE_2": "District","CC_2": "NA","HASC_2": "PA.LS.LS","name": "Los_Santos.county","area_km2": 454.8833,"hist_schema_id": "Elevation0-9000","hist_area_km2": {"0": 49.4938,"25": 92.8247,"50": 104.7438,"75": 91.6211,"100": 51.2091,"125": 30.7305,"150": 20.2075,"175": 10.6919,"200": 3.1088,"225": 0.2521}}}