{"type": "Feature","bbox": [-82.8389,8.6792,-82.6954,8.8176],"geometry": {"type": "MultiPolygon","coordinates": [[[[-82.74,8.8098,1028.4224],[-82.7424,8.8032,1014.7861],[-82.7579,8.7903,968.0758],[-82.7707,8.7845,930.3065],[-82.7864,8.7824,878.5291],[-82.7954,8.7735,872.2959],[-82.8039,8.7692,809.5499],[-82.8175,8.7677,807.5834],[-82.8313,8.7618,731.5616],[-82.8318,8.757,772.4708],[-82.8382,8.7472,654.6663],[-82.8389,8.7387,662.4853],[-82.8333,8.73,618.2324],[-82.8296,8.7172,548.1223],[-82.8308,8.7047,538.8129],[-82.8291,8.6982,542.3894],[-82.8249,8.6883,484.3666],[-82.8182,8.6792,542.5338],[-82.8133,8.688,522.8938],[-82.8077,8.6912,568.5926],[-82.8077,8.6949,513.8333],[-82.8048,8.6958,545.6488],[-82.7986,8.7091,707.3588],[-82.7903,8.7148,684.3217],[-82.7877,8.7242,711.6217],[-82.7768,8.7331,714.2681],[-82.7696,8.7348,778.3123],[-82.7638,8.7386,725.4385],[-82.7614,8.7415,771.3267],[-82.762,8.7444,735.324],[-82.7424,8.75,825.0988],[-82.7304,8.7623,906.2436],[-82.7239,8.7609,947.3726],[-82.7181,8.7566,1008.9357],[-82.7024,8.7621,1117.8987],[-82.6954,8.7662,1344.7825],[-82.6998,8.7747,1166.5463],[-82.7129,8.7884,1290.3162],[-82.7166,8.81,1232.3689],[-82.7286,8.8176,1097.9645],[-82.7322,8.8159,1086.6445],[-82.7356,8.8107,995.9822],[-82.74,8.8098,1028.4224]]]]}
,"properties": {"GID_3": "PAN.2.10.4_1","GID_0": "PAN","country": "Panama","GID_1": "PAN.2_1","province": "Chiriquí","NL_NAME_1": "NA","GID_2": "PAN.2.10_1","county": "Renacimiento","NL_NAME_2": "NA","city": "PlazaCaisán","VARNAME_3": "NA","NL_NAME_3": "NA","TYPE_3": "Corregimiento","ENGTYPE_3": "Municipality","CC_3": "NA","HASC_3": "NA","name": "Plaza_Caisán.city","area_km2": 90.48439,"hist_schema_id": "Elevation0-9000","hist_area_km2": {"425": 0.04192,"450": 0.33534,"475": 0.7126,"500": 0.92218,"525": 0.92217,"550": 1.34132,"575": 1.57184,"600": 1.27842,"625": 1.4251,"650": 1.467,"675": 2.07475,"700": 1.8442,"725": 2.5148,"750": 3.87694,"775": 4.73608,"800": 7.29266,"825": 6.93626,"850": 4.73588,"875": 4.69393,"900": 3.81377,"925": 4.19091,"950": 4.56807,"975": 3.68792,"1000": 2.97546,"1025": 2.72399,"1050": 2.07442,"1075": 2.24203,"1100": 2.36773,"1125": 2.3468,"1150": 2.70298,"1175": 2.36769,"1200": 2.22103,"1225": 1.341,"1250": 0.98479,"1275": 0.69146,"1300": 0.33525,"1325": 0.12572}}}