{"type":"Feature","properties":{"GID_3":"PAN.7.7.3_1","GID_0":"PAN","country":"Panama","GID_1":"PAN.7_1","province":"Herrera","NL_NAME_1":"NA","GID_2":"PAN.7.7_1","county":"SantaMaría","NL_NAME_2":"NA","city":"ElRincón","VARNAME_3":"NA","NL_NAME_3":"NA","TYPE_3":"Corregimiento","ENGTYPE_3":"Municipality","CC_3":"NA","HASC_3":"NA","name":"El_Rincón.city"},
"geometry":{"type": "MultiPolygon","coordinates": [[[[-80.6232,8.1184,10.2131],[-80.6227,8.1159,9.9555],[-80.633,8.1073,11.6971],[-80.6308,8.0955,8.3292],[-80.6256,8.0947,7.48],[-80.6197,8.0912,9.5609],[-80.6123,8.0822,11.608],[-80.6106,8.0761,14.8267],[-80.6056,8.0745,8.4289],[-80.6011,8.0765,14.9587],[-80.5972,8.0747,29.3127],[-80.5911,8.0765,6.7574],[-80.5838,8.0732,10.8869],[-80.5782,8.078,4.2387],[-80.5713,8.0764,9.5921],[-80.5669,8.0773,7.5569],[-80.5556,8.0847,3.8458],[-80.5598,8.0933,8.116],[-80.5549,8.1074,5.839],[-80.5625,8.1151,3.0525],[-80.5634,8.1198,2.9279],[-80.5678,8.1188,3.0837],[-80.5723,8.125,3.0968],[-80.5785,8.116,2.7912],[-80.589,8.1192,6.7045],[-80.588,8.1239,6.0319],[-80.5833,8.1241,4.2299],[-80.5803,8.1278,4.2435],[-80.5809,8.1315,6.232],[-80.5855,8.1313,6.2911],[-80.5906,8.126,6.1007],[-80.6147,8.1245,4.7579],[-80.6232,8.1184,10.2131]]]]}}