{"type": "Feature","bbox": [-77.7128,8.1549,-77.2982,8.5094],"geometry": {"type": "MultiPolygon","coordinates": [[[[-77.4417,8.4874,758.0751],[-77.4599,8.4977,778.0657],[-77.4713,8.4985,704.7068],[-77.4774,8.5024,582.2094],[-77.4882,8.5055,547.5943],[-77.5137,8.5094,468.2011],[-77.5232,8.5079,524.7653],[-77.5286,8.5041,530.0343],[-77.5429,8.4991,426.8409],[-77.550299999999993,8.4932,334.3355],[-77.5652,8.4915,163.9036],[-77.5661,8.4885,125.0109],[-77.5628,8.4557,609.8752],[-77.5636,8.4492,537.4287],[-77.7128,8.2503,22.2646],[-77.6941,8.2416,48.1252],[-77.6604,8.2293,22.1049],[-77.6237,8.2009,47.1656],[-77.6164,8.1858,19.5691],[-77.6094,8.157,60.231],[-77.6066,8.1569,49.0189],[-77.606,8.1549,41.7655],[-77.5553,8.2265,69.9523],[-77.5494,8.2345,36.3837],[-77.546,8.2366,44.2729],[-77.5424,8.2362,60.0317],[-77.5362,8.2313,61.6926],[-77.531,8.2306,85.2789],[-77.52,8.2333,94.6718],[-77.5097,8.2411,104.4337],[-77.5045,8.2415,132.4055],[-77.4937,8.2365,182.7196],[-77.4813,8.2232,273.4511],[-77.4662,8.2135,390.5441],[-77.4581,8.2042,250.1271],[-77.4505,8.2042,322.7385],[-77.4458,8.2112,568.1946],[-77.4426,8.2125,597.0984],[-77.4348,8.2102,679.0811],[-77.4282,8.2044,592.0436],[-77.4217,8.2058,615.2037],[-77.4121,8.2039,484.5585],[-77.3917,8.2069,520.1158],[-77.3879,8.2115,444.2216],[-77.3835,8.2128,466.662],[-77.3788,8.2169,541.7737],[-77.3703,8.2193,823.6174],[-77.3521,8.2155,752.2524],[-77.3452,8.2213,912.215],[-77.3376,8.2247,1000.4562],[-77.3284,8.2327,945.5951],[-77.3185,8.2337,1224.4612],[-77.3094,8.2441,1081.5483],[-77.3049,8.2455,1046.3419],[-77.2982,8.2448,1035.2089],[-77.300299999999993,8.2519,1016.8743],[-77.3072,8.2615,1092.8608],[-77.3208,8.2732,1385.6785],[-77.3227,8.2967,774.0582],[-77.3342,8.3126,906.4138],[-77.334,8.3399,629.2379],[-77.3383,8.3539,818.9597],[-77.333,8.3669,471.8129],[-77.3355,8.3739,580.8551],[-77.3432,8.3833,821.0448],[-77.3426,8.4027,580.8685],[-77.3473,8.4116,359.8636],[-77.3699,8.4396,564.9187],[-77.3872,8.4677,773.1855],[-77.3927,8.4736,773.8618],[-77.4029,8.4782,769.1298],[-77.4294,8.4799,728.8417],[-77.436,8.4782,833.952],[-77.4422,8.4849,929.9684],[-77.4417,8.4874,758.0751]]]]}
,"properties": {"GID_3": "PAN.6.1.3_1","GID_0": "PAN","country": "Panama","GID_1": "PAN.6_1","province": "Emberá","NL_NAME_1": "NA","GID_2": "PAN.6.1_1","county": "Cémaco","NL_NAME_2": "NA","city": "ManuelOrtega","VARNAME_3": "NA","NL_NAME_3": "NA","TYPE_3": "Corregimiento","ENGTYPE_3": "Municipality","CC_3": "NA","HASC_3": "NA","name": "Manuel_Ortega.city","area_km2": 995.568,"hist_schema_id": "Elevation0-9000","hist_area_km2": {"0": 0.063,"25": 38.1052,"50": 118.6921,"75": 96.0059,"100": 48.127,"125": 27.9225,"150": 19.1321,"175": 15.3769,"200": 12.9224,"225": 15.0618,"250": 15.4389,"275": 17.138,"300": 17.1587,"325": 18.522,"350": 18.9415,"375": 18.4592,"400": 18.8156,"425": 17.9981,"450": 17.8303,"475": 16.6556,"500": 18.3758,"525": 18.2919,"550": 17.9142,"575": 17.6415,"600": 18.5856,"625": 17.1381,"650": 18.7743,"675": 18.6065,"700": 17.4737,"725": 17.096,"750": 16.4877,"775": 16.0052,"800": 14.8306,"825": 14.8097,"850": 14.5787,"875": 14.3063,"900": 13.2155,"925": 12.3765,"950": 11.1597,"975": 10.9292,"1000": 10.0482,"1025": 9.6706,"1050": 10.2999,"1075": 9.0414,"1100": 7.7196,"1125": 7.6776,"1150": 7.0065,"1175": 5.7059,"1200": 5.0347,"1225": 4.1326,"1250": 3.3146,"1275": 3.2517,"1300": 2.8322,"1325": 2.6434,"1350": 2.3078,"1375": 2.3917,"1400": 1.8882,"1425": 2.0981,"1450": 1.7834,"1475": 1.5736,"1500": 1.5736,"1525": 1.4477,"1550": 1.4897,"1575": 1.133,"1600": 1.1959,"1625": 0.5875,"1650": 0.6504,"1675": 0.1049}}}