{"type": "Feature","bbox": [-80.7934,7.5101,-80.5635,7.8249],"geometry": {"type": "MultiPolygon","coordinates": [[[[-80.7931,7.5521,650.9232],[-80.7934,7.5458,479.9786],[-80.7815,7.5422,561.5132],[-80.7707,7.5427,254.4516],[-80.7652,7.5412,477.7045],[-80.7562,7.5343,450.4529],[-80.7499,7.5223,595.1847],[-80.746,7.5183,638.3966],[-80.7361,7.5126,873.9518],[-80.7346,7.5101,816.6859],[-80.7294,7.5109,1048.8081],[-80.6742,7.5772,241.2085],[-80.6399,7.6339,231.1667],[-80.6391,7.6429,217.7324],[-80.6336,7.6454,190.4732],[-80.6285,7.6513,191.8551],[-80.6216,7.6522,174.0727],[-80.615,7.6551,163.8321],[-80.6079,7.6513,150.4939],[-80.6026,7.6517,135.148],[-80.6003,7.6604,147.6469],[-80.5967,7.663,145.1998],[-80.5858,7.6612,120.5952],[-80.5784,7.6763,115.3434],[-80.5763,7.6863,114.9746],[-80.5687,7.6893,147.6137],[-80.5635,7.7114,91.1857],[-80.5667,7.7203,192.3043],[-80.5729,7.7279,156.094],[-80.5733,7.7365,130.696],[-80.569,7.74,154.9613],[-80.5686,7.7421,137.3575],[-80.5732,7.7438,114.8413],[-80.5745,7.74,112.1097],[-80.5776,7.7397,129.9911],[-80.5765,7.7489,137.3296],[-80.5798,7.7533,132.2102],[-80.5859,7.7534,126.4024],[-80.5919,7.7655,87.8338],[-80.5918,7.768,79.5124],[-80.5892,7.7708,70.1217],[-80.5925,7.7739,71.8462],[-80.5928,7.7802,147.391],[-80.5836,7.7876,80.9252],[-80.5968,7.7858,146.0123],[-80.6122,7.7936,120.2538],[-80.6181,7.8001,142.9515],[-80.627,7.8012,156.4988],[-80.6443,7.8069,193.2068],[-80.6608,7.8249,144.2076],[-80.6624,7.8196,173.5477],[-80.6715,7.8174,181.726],[-80.674,7.8144,253.8629],[-80.6801,7.8145,216.5866],[-80.7004,7.8052,209.3673],[-80.6993,7.8005,216.0397],[-80.7003,7.7945,365.3884],[-80.6965,7.7903,302.3439],[-80.6966,7.7837,266.2021],[-80.6987,7.7747,306.4558],[-80.7033,7.7709,350.9912],[-80.7006,7.7658,272.0862],[-80.7041,7.7375,336.8078],[-80.72,7.6819,444.3209],[-80.736,7.6376,578.3203],[-80.7423,7.6361,571.3438],[-80.7452,7.6329,634.1509],[-80.7577,7.6267,708.8406],[-80.7666,7.6317,709.8239],[-80.7784,7.6309,804.5022],[-80.7836,7.6323,812.5088],[-80.7922,7.6222,824.4874],[-80.7923,7.6143,827.9843],[-80.7886,7.6079,835.0362],[-80.7902,7.5989,807.4236],[-80.7859,7.596,792.1702],[-80.7931,7.5521,650.9232]]]]}
,"properties": {"GID_2": "PAN.7.3_1","GID_0": "PAN","country": "Panama","GID_1": "PAN.7_1","province": "Herrera","NL_NAME_1": "NA","county": "LosPozos","VARNAME_2": "NA","NL_NAME_2": "NA","TYPE_2": "Distrito","ENGTYPE_2": "District","CC_2": "NA","HASC_2": "PA.HE.LZ","name": "Los_Pozos.county","area_km2": 411.8443,"hist_schema_id": "Elevation0-9000","hist_area_km2": {"50": 0.084,"75": 0.9454,"100": 8.425,"125": 15.9258,"150": 19.4767,"175": 21.5772,"200": 26.1146,"225": 27.4591,"250": 28.1945,"275": 30.1494,"300": 30.1082,"325": 21.915,"350": 18.3017,"375": 13.4907,"400": 10.7385,"425": 10.0241,"450": 10.1084,"475": 9.4781,"500": 9.9405,"525": 9.7095,"550": 10.8865,"575": 10.4662,"600": 9.1212,"625": 9.4995,"650": 7.7972,"675": 7.1456,"700": 6.8934,"725": 6.305,"750": 5.7796,"775": 4.3084,"800": 3.825,"825": 2.3329,"850": 1.4292,"875": 0.7987,"900": 0.7356,"925": 0.6516,"950": 0.4204,"975": 0.4834,"1000": 0.4414,"1025": 0.2733,"1050": 0.0841}}}