{"type":"Feature","properties":{"GID_3":"PAN.13.8.4_1","GID_0":"PAN","country":"Panama","GID_1":"PAN.13_1","province":"Veraguas","NL_NAME_1":"NA","GID_2":"PAN.13.8_1","county":"SanFrancisco","NL_NAME_2":"NA","city":"SanFrancisco","VARNAME_3":"NA","NL_NAME_3":"NA","TYPE_3":"Corregimiento","ENGTYPE_3":"Municipality","CC_3":"NA","HASC_3":"NA","name":"San_Francisco.city"},
"geometry":{"type": "MultiPolygon","coordinates": [[[[-80.8993,8.2563,84.2326],[-80.8964,8.2825,139.5663],[-80.9017,8.2916,163.8097],[-80.9086,8.2981,130.9635],[-80.9204,8.3015,230.0791],[-80.9337,8.2958,257.5487],[-80.9407,8.2951,275.9216],[-80.9575,8.299,217.1303],[-80.9588,8.2887,191.1687],[-80.9608,8.285,180.0017],[-80.9652,8.2813,167.9263],[-80.9726,8.2797,140.2816],[-80.9744,8.2779,138.3206],[-80.9743,8.2759,146.2586],[-80.9687,8.2714,160.0254],[-80.9684,8.2679,125.9333],[-80.9722,8.2683,150.0836],[-80.9919,8.2478,114.6615],[-81.0082,8.2446,62.8127],[-81.0205,8.2398,127.0238],[-80.9701,8.2174,61.7237],[-80.9597,8.2286,85.7106],[-80.9501,8.229,76.8066],[-80.9357,8.2248,55.8722],[-80.9221,8.2187,53.6995],[-80.917,8.2122,46.4988],[-80.9141,8.2118,43.4391],[-80.9042,8.2153,59.659],[-80.9055,8.247,59.2241],[-80.904,8.2515,60.3405],[-80.8993,8.2563,84.2326]]]]}}