{"type":"Feature","properties":{"GID_2":"PAN.6.2_1","GID_0":"PAN","country":"Panama","GID_1":"PAN.6_1","province":"Emberá","NL_NAME_1":"NA","county":"Sambú","VARNAME_2":"NA","NL_NAME_2":"NA","TYPE_2":"Distrito","ENGTYPE_2":"District","CC_2":"NA","HASC_2":"PA.EM.SB","name":"Sambú.county"},
"geometry":{"type": "MultiPolygon","coordinates": [[[[-77.9497,7.6188,934.8578],[-77.9448,7.6233,1088.7734],[-77.9461,7.6621,951.6414],[-77.9438,7.6762,801.4819],[-77.9497,7.6894,855.8569],[-77.9477,7.7072,671.3497],[-77.9512,7.7251,689.9109],[-77.9568,7.7354,709.9017],[-77.9559,7.7392,582.9673],[-77.9486,7.7455,658.6611],[-77.9479,7.7604,675.33],[-77.9546,7.776,661.0837],[-77.9557,7.7871,654.5334],[-77.9578,7.792,505.5157],[-77.9617,7.7944,514.1353],[-77.9764,7.7951,432.3035],[-77.9801,7.7982,545.0306],[-77.9801,7.8145,500.368],[-77.9843,7.8335,572.9943],[-77.9926,7.8438,526.295],[-77.9985,7.8724,469.8938],[-78.0051,7.8864,317.4305],[-78.0063,7.9035,160.5499],[-78.0171,7.9252,209.5985],[-78.022,7.9446,250.1093],[-78.0259,7.9495,234.403],[-78.0333,7.9518,215.3884],[-78.0772,7.9179,320.7072],[-78.0815,7.9171,219.6421],[-78.0844,7.919,131.2048],[-78.0859,7.9271,145.9891],[-78.0822,7.9439,319.8951],[-78.0866,7.9655,254.2934],[-78.0931,7.9735,162.5439],[-78.1036,7.9755,229.1732],[-78.1075,7.9779,285.3751],[-78.1146,7.9933,265.8431],[-78.1157,8.0069,286.4303],[-78.1199,8.0203,286.1689],[-78.1233,8.0249,273.6789],[-78.1263,8.025,303.9696],[-78.1288,8.0274,304.1376],[-78.1291,8.0308,253.263],[-78.1319,8.031,315.3593],[-78.1345,8.0335,345.0693],[-78.1347,8.0397,280.8953],[-78.1397,8.041,347.638],[-78.1559,8.0566,337.5612],[-78.1582,8.0706,312.165],[-78.162,8.0782,303.1572],[-78.1729,8.0863,291.5682],[-78.1796,8.096,114.4996],[-78.1834,8.097,46.6157],[-78.1873,8.0955,94.2763],[-78.1973,8.0817,37.7195],[-78.2065,8.0808,12.6838],[-78.2137,8.078,12.7572],[-78.2337,8.0657,22.8528],[-78.2332,8.0593,13.1402],[-78.2354,8.0554,20.1507],[-78.2346,8.0532,20.682],[-78.2202,8.0487,5.0418],[-78.2092,8.0396,11.2238],[-78.2116,8.0191,4.6863],[-78.2016,8.0032,14.1363],[-78.2109,7.9852,12.151],[-78.2178,7.9828,11.7004],[-78.2282,7.9835,36.3741],[-78.2398,7.9866,13.545],[-78.2574,7.9961,21.668],[-78.2645,7.9896,22.0702],[-78.2791,7.9845,36.6702],[-78.2838,7.9781,42.9477],[-78.2912,7.973,94.4997],[-78.2968,7.9653,212.2342],[-78.3241,7.9647,219.795],[-78.3293,7.9598,338.9435],[-78.3374,7.9432,418.0186],[-78.3357,7.9396,470.7607],[-78.3272,7.9343,395.9872],[-78.3253,7.9307,363.8475],[-78.3356,7.9139,325.8582],[-78.3362,7.9052,191.0452],[-78.3178,7.8603,364.0096],[-78.313,7.8574,371.5499],[-78.3011,7.8602,706.3718],[-78.2961,7.8584,925.3699],[-78.2949,7.8396,661.343],[-78.2821,7.8212,979.0628],[-78.2759,7.8062,948.6989],[-78.2752,7.7902,743.845],[-78.2703,7.7808,800.533],[-78.2685,7.7696,648.6549],[-78.2586,7.7571,889.6814],[-78.2453,7.7318,694.6346],[-78.2396,7.7255,765.0334],[-78.2335,7.7151,572.9742],[-78.2149,7.6974,1127.8718],[-78.2057,7.6841,704.2689],[-78.1877,7.673,815.7953],[-78.1817,7.6646,747.6776],[-78.1459,7.6793,1336.0745],[-78.1253,7.6736,1335.3799],[-78.1089,7.6578,882.864],[-78.1032,7.6554,1029.1395],[-78.0944,7.6482,607.4049],[-78.0904,7.6486,524.7314],[-78.0854,7.6531,404.5077],[-78.0824,7.6526,473.999],[-78.0774,7.6208,294.2016],[-78.069,7.6007,203.0806],[-78.0638,7.5815,67.9356],[-78.057,7.5822,151.8281],[-78.0493,7.5895,347.1046],[-78.0433,7.5923,316.0888],[-78.0417,7.5966,527.524],[-78.0412,7.6098,392.3374],[-78.0372,7.6139,434.7972],[-78.0254,7.6173,615.6299],[-78.0083,7.6195,1027.5333],[-78.0016,7.5969,815.8525],[-77.9963,7.5916,915.7914],[-77.9909,7.5903,875.3799],[-77.9778,7.5952,1165.5134],[-77.9692,7.6015,1296.022],[-77.9628,7.6113,1251.6758],[-77.9497,7.6188,934.8578]]]]}}