{"type":"Feature","properties":{"GID_3":"PAN.12.2.7_1","GID_0":"PAN","country":"Panama","GID_1":"PAN.12_1","province":"Panamá","NL_NAME_1":"NA","GID_2":"PAN.12.2_1","county":"Chepo","NL_NAME_2":"NA","city":"SantaCruzdeChinina","VARNAME_3":"NA","NL_NAME_3":"NA","TYPE_3":"Corregimiento","ENGTYPE_3":"Municipality","CC_3":"NA","HASC_3":"NA","name":"Santa_Cruzde_Chinina.city"},
"geometry":{"type": "MultiPolygon","coordinates": [[[[-79.099,8.9788,0.0],[-79.0996,8.9776,0.0],[-79.0976,8.9743,0.0],[-79.0976,8.9768,0.0],[-79.099,8.9788,0.0]]],
[[[-79.0999,8.9785,0.0],[-79.0999,8.9813,0.0],[-79.101,8.9818,0.0],[-79.1004,8.9813,0.0],[-79.0999,8.9785,0.0]]],
[[[-79.1391,9.0943,17.0183],[-79.1474,9.0946,18.0597],[-79.1435,9.081,17.8765],[-79.139,9.0729,12.1795],[-79.1365,9.06,26.3266],[-79.129,9.0545,28.9935],[-79.1283,9.0518,30.6032],[-79.136,9.0452,29.1237],[-79.1367,9.0401,32.9775],[-79.1338,9.0346,30.7621],[-79.1405,9.0279,24.6619],[-79.1432,9.029,23.6109],[-79.1441,9.0325,23.7388],[-79.1394,9.0353,27.8804],[-79.1396,9.0393,31.5504],[-79.1536,9.0421,28.4665],[-79.1533,9.0293,29.7007],[-79.1583,9.0203,26.8327],[-79.1673,9.0206,26.6756],[-79.1645,9.0147,11.4483],[-79.1349,9.0065,0.0],[-79.1246,8.9996,0.0],[-79.1193,8.9999,0.0],[-79.1057,8.9963,2.0569],[-79.1004,8.9879,2.6069],[-79.0876,8.9915,4.7544],[-79.0754,8.9901,2.6838],[-79.0529,8.9779,0.0],[-79.044,8.9757,12.4322],[-79.0396,8.9818,0.5],[-79.0468,8.9871,21.0615],[-79.0443,8.9868,6.4295],[-79.0385,8.9829,14.6085],[-79.0368,8.979,0.0],[-79.0312,8.9776,1.9392],[-79.0271,8.9701,0.0],[-79.0235,8.9707,4.3835],[-79.0176,8.9676,2.849],[-79.0171,8.9654,0.0],[-79.0126,8.966,3.9957],[-79.0096,8.9632,0.0],[-79.0001,8.961,2.5503],[-78.9785,8.9482,8.9255],[-78.9765,8.9446,1.8791],[-78.9704,8.9465,2.2724],[-78.9638,8.9401,0.0],[-78.9596,8.9415,2.1188],[-78.9579,8.9377,0.0],[-78.9526,8.9388,5.6501],[-78.9512,8.9363,0.9661],[-78.9421,8.9335,1.0828],[-78.9421,8.9324,1.0828],[-78.9329,8.9365,1.024],[-78.9329,8.9307,0.0],[-78.9287,8.926,0.0],[-78.9262,8.9285,0.7916],[-78.9154,8.9279,8.8398],[-78.9168,8.9249,1.0985],[-78.9143,8.9237,0.0],[-78.9135,8.9251,3.8577],[-78.9107,8.9251,12.0599],[-78.9074,8.9196,0.0],[-78.9079,8.9171,6.8995],[-78.9107,8.916,5.8033],[-78.9107,8.9135,7.0058],[-78.9088,8.912,5.1137],[-78.9006,8.9143,8.5966],[-78.9002,8.9201,7.6682],[-78.8976,8.9269,11.6264],[-78.8859,8.9407,61.3812],[-78.8677,8.9417,164.2532],[-78.8365,8.9476,113.3367],[-78.8288,8.9517,222.213],[-78.8194,8.9604,155.7179],[-78.8116,8.9637,154.6384],[-78.8007,8.9759,206.515],[-78.7936,8.9777,252.0542],[-78.7924,8.9802,228.2691],[-78.7919,8.9832,216.8024],[-78.7945,8.9851,282.9233],[-78.8106,8.9867,385.1251],[-78.8153,8.9983,219.4934],[-78.8201,9.0029,379.3556],[-78.8273,9.005,214.9857],[-78.8662,9.0101,143.6834],[-78.8969,9.0231,239.7577],[-78.9075,9.0342,319.6814],[-78.9218,9.0371,241.0693],[-78.935,9.0428,307.3831],[-78.9548,9.0378,139.4402],[-78.9669,9.038,348.7282],[-78.9727,9.04,296.4146],[-78.994,9.0527,136.8366],[-79.0112,9.0657,63.247],[-79.0201,9.0662,58.2166],[-79.0307,9.0618,49.1356],[-79.0342,9.0621,52.2109],[-79.0396,9.0691,27.1551],[-79.0516,9.0759,44.5317],[-79.0608,9.0872,7.8538],[-79.0791,9.0947,3.0654],[-79.0936,9.0934,0.5],[-79.1208,9.0977,23.0487],[-79.1311,9.0942,25.1224],[-79.1391,9.0943,17.0183]]]]}}