{"type":"Feature","properties":{"GID_3":"PAN.2.5.4_1","GID_0":"PAN","country":"Panama","GID_1":"PAN.2_1","province":"Chiriquí","NL_NAME_1":"NA","GID_2":"PAN.2.5_1","county":"Bugaba","NL_NAME_2":"NA","city":"ElBongo","VARNAME_3":"NA","NL_NAME_3":"NA","TYPE_3":"Corregimiento","ENGTYPE_3":"Municipality","CC_3":"NA","HASC_3":"NA","name":"El_Bongo.city"},
"geometry":{"type": "MultiPolygon","coordinates": [[[[-82.6019,8.5846,425.3525],[-82.6027,8.6035,538.4481],[-82.6016,8.6136,592.8795],[-82.5983,8.6158,610.4459],[-82.5979,8.6201,586.1246],[-82.5998,8.62,625.2643],[-82.6073,8.6543,818.6133],[-82.6107,8.662,865.5029],[-82.6153,8.6668,915.6407],[-82.6293,8.6653,944.0276],[-82.6312,8.6626,942.5701],[-82.6291,8.6553,856.5729],[-82.6315,8.6238,679.2265],[-82.6299,8.6109,598.5545],[-82.6366,8.5987,528.1342],[-82.6389,8.5861,455.7329],[-82.6312,8.5722,426.7627],[-82.6303,8.5646,386.886],[-82.6226,8.5433,306.9046],[-82.6182,8.5396,286.3313],[-82.6156,8.5402,292.9937],[-82.6155,8.5514,330.3152],[-82.609,8.5643,357.8911],[-82.6067,8.576,407.7773],[-82.6019,8.5846,425.3525]]]]}}