{"type": "Feature","bbox": [-77.7431,7.5083,-77.4593,8.0989],"geometry": {"type": "MultiPolygon","coordinates": [[[[-77.5247,7.5509,1211.3934],[-77.5496,7.5583,600.3004],[-77.5612,7.5661,537.7853],[-77.5686,7.569,618.1757],[-77.583,7.5647,375.9546],[-77.5881,7.5652,565.4729],[-77.5909,7.5672,655.3506],[-77.5905,7.5722,660.594],[-77.5837,7.5849,545.0999],[-77.5833,7.593,455.0683],[-77.5888,7.6152,262.649],[-77.5953,7.6223,353.3609],[-77.596,7.6272,303.6609],[-77.5913,7.6473,329.9665],[-77.5883,7.6512,310.6551],[-77.5809,7.6534,388.2081],[-77.5782,7.6564,404.3406],[-77.5759,7.6685,357.6983],[-77.6008,7.7187,1024.8094],[-77.5971,7.7634,900.3409],[-77.6018,7.7734,856.3868],[-77.6132,7.8121,743.6371],[-77.6097,7.8247,642.5645],[-77.6099,7.8512,617.6353],[-77.6088,7.8559,536.0036],[-77.6057,7.86,381.7092],[-77.5986,7.8615,329.375],[-77.5566,7.8609,195.8848],[-77.5401,7.8709,130.5753],[-77.5134,7.8686,113.8926],[-77.5075,7.8695,99.2983],[-77.5048,7.8717,103.0954],[-77.5079,7.8823,142.9585],[-77.5033,7.8888,115.2739],[-77.5136,7.8945,105.5084],[-77.5142,7.9013,98.6016],[-77.5121,7.9112,92.406],[-77.5141,7.919,71.5013],[-77.5071,7.9265,65.1799],[-77.5011,7.9293,122.7951],[-77.4997,7.9328,134.7233],[-77.5,7.9388,102.9202],[-77.5022,7.9413,118.1894],[-77.5148,7.9453,114.3562],[-77.523,7.9509,74.7582],[-77.5238,7.9554,103.2253],[-77.5188,7.9616,127.5387],[-77.5183,7.9651,113.3736],[-77.5208,7.9697,197.8937],[-77.5273,7.9756,135.7014],[-77.5382,7.9798,116.1063],[-77.5696,7.9811,85.3934],[-77.5713,7.9832,79.0947],[-77.5721,7.9918,86.3461],[-77.567,8.0117,61.6004],[-77.5566,8.0281,92.5903],[-77.5433,8.0365,102.1591],[-77.5351,8.0363,158.8917],[-77.5301,8.041,95.07],[-77.5209,8.0418,77.3603],[-77.5095,8.0563,94.0058],[-77.5052,8.059,78.4857],[-77.4641,8.069,211.8759],[-77.4593,8.0869,317.3399],[-77.4695,8.095,153.2823],[-77.4768,8.097,97.8887],[-77.4849,8.0963,118.8041],[-77.4884,8.0903,96.0703],[-77.4915,8.0897,89.9468],[-77.4938,8.091,93.3023],[-77.4955,8.0966,99.9395],[-77.4983,8.0989,99.183],[-77.5092,8.0942,103.7092],[-77.5135,8.0907,80.8102],[-77.5214,8.0933,86.9942],[-77.5254,8.0856,97.9051],[-77.5365,8.0816,59.7822],[-77.5415,8.0774,96.3234],[-77.5543,8.0776,46.8],[-77.5647,8.0727,40.8857],[-77.5677,8.0625,45.5093],[-77.5856,8.0422,18.7492],[-77.6294,7.9992,97.7391],[-77.6494,7.977,144.0385],[-77.6644,7.9636,305.6182],[-77.6701,7.9616,385.8501],[-77.6691,7.9421,411.2559],[-77.666,7.9356,351.0262],[-77.6643,7.9241,329.0294],[-77.6668,7.9101,650.4391],[-77.675,7.898,749.5146],[-77.6798,7.8873,800.2024],[-77.6892,7.8772,1131.9314],[-77.6899,7.8652,784.8421],[-77.7046,7.8415,1242.4927],[-77.7132,7.8146,1248.9731],[-77.7269,7.798,1418.7195],[-77.7268,7.7853,1572.0398],[-77.7379,7.7674,1612.0522],[-77.7431,7.7542,1217.2416],[-77.7383,7.7445,1251.8876],[-77.7299,7.7385,1097.4735],[-77.7273,7.7301,1011.652],[-77.7178,7.7274,973.6328],[-77.714,7.7239,1001.9733],[-77.7006,7.7206,801.3316],[-77.696,7.7131,867.3304],[-77.6857,7.7043,979.502],[-77.6844,7.6944,967.9294],[-77.6766,7.6912,1037.467],[-77.672,7.6863,1077.3228],[-77.66,7.68,812.1597],[-77.6548,7.6744,899.8558],[-77.6523,7.6692,990.5543],[-77.6473,7.6432,1478.5679],[-77.6411,7.624,1389.3547],[-77.6407,7.6098,1001.1743],[-77.6329,7.5884,893.5134],[-77.6226,7.5717,845.7474],[-77.6225,7.5597,702.8469],[-77.6187,7.5476,563.7164],[-77.6131,7.5454,650.7488],[-77.6045,7.5385,540.5342],[-77.5967,7.5232,403.3154],[-77.5853,7.5187,593.615],[-77.5823,7.5131,756.3077],[-77.5792,7.5114,785.3391],[-77.5717,7.5116,837.8572],[-77.561,7.5083,946.061],[-77.5456,7.5207,966.6036],[-77.5384,7.5331,921.9638],[-77.5285,7.5428,1142.4612],[-77.5247,7.5509,1211.3934]]]]}
,"properties": {"GID_3": "PAN.5.2.1_1","GID_0": "PAN","country": "Panama","GID_1": "PAN.5_1","province": "Darién","NL_NAME_1": "NA","GID_2": "PAN.5.2_1","county": "Pinogana","NL_NAME_2": "NA","city": "BocadeCupé","VARNAME_3": "NA","NL_NAME_3": "NA","TYPE_3": "Corregimiento","ENGTYPE_3": "Municipality","CC_3": "NA","HASC_3": "NA","name": "Bocade_Cupé.city","area_km2": 683.2422,"hist_schema_id": "Elevation0-9000","hist_area_km2": {"0": 0.021,"25": 14.9268,"50": 29.6871,"75": 51.3991,"100": 62.1117,"125": 35.2778,"150": 22.2379,"175": 17.6816,"200": 16.0651,"225": 10.4161,"250": 7.9592,"275": 6.1117,"300": 6.49,"325": 8.6118,"350": 8.4232,"375": 8.1302,"400": 8.341,"425": 8.95,"450": 9.3706,"475": 22.4804,"500": 36.9342,"525": 19.3285,"550": 16.2818,"575": 14.6853,"600": 14.4541,"625": 13.7188,"650": 12.1013,"675": 12.3532,"700": 12.732,"725": 12.3955,"750": 11.4924,"775": 11.0091,"800": 9.8957,"825": 9.8957,"850": 9.8327,"875": 9.0552,"900": 8.7192,"925": 9.6857,"950": 8.9926,"975": 7.5008,"1000": 7.8999,"1025": 6.6182,"1050": 6.6392,"1075": 5.2525,"1100": 4.3282,"1125": 3.3407,"1150": 2.8995,"1175": 3.5931,"1200": 2.7105,"1225": 2.9416,"1250": 2.9206,"1275": 2.3743,"1300": 2.5634,"1325": 1.912,"1350": 2.1221,"1375": 1.5968,"1400": 1.5127,"1425": 0.9034,"1450": 1.1555,"1475": 0.8404,"1500": 0.8824,"1525": 0.9244,"1550": 0.7983,"1575": 0.4201,"1600": 0.2941,"1625": 0.042}}}