{"type": "Feature","bbox": [-81.8653,8.3367,-81.7906,8.4262],"geometry": {"type": "MultiPolygon","coordinates": [[[[-81.839,8.4175,701.8788],[-81.8549,8.4102,802.6907],[-81.8643,8.3995,593.3801],[-81.8653,8.3838,611.2665],[-81.8642,8.3748,507.4116],[-81.8629,8.3728,573.1675],[-81.8541,8.3681,494.7098],[-81.8427,8.37,260.3413],[-81.8392,8.3691,331.5872],[-81.8337,8.3541,128.4675],[-81.8261,8.3433,209.8375],[-81.8243,8.3367,171.3181],[-81.8093,8.342,307.8105],[-81.8075,8.3494,255.8649],[-81.8009,8.3555,451.1942],[-81.7958,8.3659,602.6414],[-81.7906,8.3721,615.0416],[-81.7953,8.383,458.5083],[-81.7963,8.3893,378.3893],[-81.7929,8.4111,486.7884],[-81.7943,8.4262,392.8969],[-81.8008,8.4234,315.9333],[-81.8121,8.4227,355.6761],[-81.8238,8.4197,721.9631],[-81.8366,8.4208,839.7351],[-81.839,8.4175,701.8788]]]]}
,"properties": {"GID_3": "PAN.10.4.6_1","GID_0": "PAN","country": "Panama","GID_1": "PAN.10_1","province": "NgöbeBuglé","NL_NAME_1": "NA","GID_2": "PAN.10.4_1","county": "Mironó","NL_NAME_2": "NA","city": "HatoPilón","VARNAME_3": "NA","NL_NAME_3": "NA","TYPE_3": "Corregimiento","ENGTYPE_3": "Municipality","CC_3": "NA","HASC_3": "NA","name": "Hato_Pilón.city","area_km2": 52.4807,"hist_schema_id": "Elevation0-9000","hist_area_km2": {"100": 0.04195,"125": 1.13277,"150": 1.15373,"175": 1.76207,"200": 1.99278,"225": 2.16051,"250": 2.74784,"275": 2.74786,"300": 2.64295,"325": 3.06244,"350": 3.20925,"375": 2.89462,"400": 2.78973,"425": 2.55899,"450": 2.26534,"475": 2.26533,"500": 1.97168,"525": 2.03459,"550": 1.84581,"575": 1.57312,"600": 1.44727,"625": 1.23751,"650": 1.2375,"675": 1.19556,"700": 0.92288,"725": 0.83898,"750": 0.69215,"775": 0.6502,"800": 0.69215,"825": 0.31461,"850": 0.27266,"875": 0.02097,"900": 0.02097,"925": 0.06292,"950": 0.02097}}}