{"type": "Feature","bbox": [-81.3566,7.8395,-81.1833,7.9672],"geometry": {"type": "MultiPolygon","coordinates": [[[[-81.2038,7.9237,16.4189],[-81.2148,7.9337,15.914],[-81.2182,7.96,91.9689],[-81.2381,7.9407,7.01],[-81.2426,7.9386,6.0664],[-81.2456,7.9423,2.2234],[-81.2456,7.9539,46.0255],[-81.2472,7.9576,79.0551],[-81.2624,7.9672,88.9349],[-81.2754,7.9671,64.7657],[-81.2931,7.9615,9.2187],[-81.3042,7.952,65.6235],[-81.308,7.9419,115.1204],[-81.3103,7.9278,137.8434],[-81.3184,7.9209,218.3785],[-81.3271,7.9234,200.4743],[-81.3309,7.9224,206.598],[-81.3342,7.9202,159.2957],[-81.3371,7.9154,90.7719],[-81.3407,7.9008,103.4071],[-81.3361,7.8892,78.3643],[-81.3359,7.8852,149.1485],[-81.3516,7.8679,378.0758],[-81.3566,7.8558,359.7139],[-81.3558,7.8491,400.7569],[-81.3515,7.8395,470.2468],[-81.3334,7.8486,406.1688],[-81.3147,7.8463,212.5173],[-81.3044,7.8488,146.1913],[-81.2988,7.8517,184.5141],[-81.2887,7.864,61.6297],[-81.2832,7.8796,44.0037],[-81.2791,7.8834,45.1772],[-81.2726,7.885,14.1219],[-81.2635,7.884,18.5858],[-81.2456,7.885,4.3638],[-81.2334,7.8826,21.1975],[-81.2218,7.8892,15.675],[-81.2074,7.9005,0.0],[-81.1835,7.9031,35.5754],[-81.1833,7.9133,134.1214],[-81.1879,7.9187,7.2788],[-81.2038,7.9237,16.4189]]]]}
,"properties": {"GID_3": "PAN.13.11.6_1","GID_0": "PAN","country": "Panama","GID_1": "PAN.13_1","province": "Veraguas","NL_NAME_1": "NA","GID_2": "PAN.13.11_1","county": "Soná","NL_NAME_2": "NA","city": "LaSoledad","VARNAME_3": "NA","NL_NAME_3": "NA","TYPE_3": "Corregimiento","ENGTYPE_3": "Municipality","CC_3": "NA","HASC_3": "NA","name": "La_Soledad.city","area_km2": 133.2069,"hist_schema_id": "Elevation0-9000","hist_area_km2": {"0": 31.0167,"25": 41.0971,"50": 13.2095,"75": 11.3615,"100": 7.2243,"125": 5.3763,"150": 3.9482,"175": 3.3182,"200": 2.8562,"225": 2.2052,"250": 1.8062,"275": 1.4912,"300": 1.8693,"325": 1.4702,"350": 1.5122,"375": 1.2812,"400": 1.3022,"425": 0.6931,"450": 0.147,"475": 0.021}}}