{"type": "Feature","bbox": [-82.5935,8.2707,-82.4543,8.3909],"geometry": {"type": "MultiPolygon","coordinates": [[[[-82.5903,8.3909,34.485],[-82.5828,8.3759,23.911],[-82.5831,8.3679,22.4755],[-82.5809,8.354,14.9735],[-82.5854,8.3373,8.9581],[-82.5914,8.3248,6.6065],[-82.5909,8.3153,4.0173],[-82.5935,8.3079,3.8242],[-82.5257,8.2874,5.2036],[-82.4921,8.2718,0.0],[-82.4837,8.2707,2.5993],[-82.4821,8.271,3.0162],[-82.4832,8.2737,4.3043],[-82.4804,8.276,5.0808],[-82.4807,8.2774,0.0],[-82.4849,8.2788,0.0],[-82.4899,8.2782,6.7657],[-82.5004,8.2832,5.9725],[-82.4871,8.2799,1.8226],[-82.4785,8.2796,2.159],[-82.474,8.2813,0.0],[-82.4729,8.2837,0.0],[-82.4696,8.2843,0.0],[-82.4649,8.289,6.4099],[-82.4543,8.2929,0.0],[-82.4546,8.2957,0.0],[-82.4638,8.2971,0.0],[-82.4904,8.294,6.7024],[-82.5004,8.2976,0.0],[-82.5054,8.2943,10.2534],[-82.509,8.2943,5.5936],[-82.5238,8.3015,9.5835],[-82.5265,8.3071,4.6389],[-82.5374,8.306,3.5414],[-82.5362,8.3076,11.7473],[-82.5263,8.3082,4.6389],[-82.5201,8.3032,0.0],[-82.5168,8.3026,8.9872],[-82.5151,8.2993,0.0],[-82.5085,8.2971,11.555],[-82.5068,8.3004,6.4631],[-82.5032,8.3012,0.9117],[-82.5044,8.3042,14.8227],[-82.5088,8.3061,11.1164],[-82.5089,8.3103,26.6142],[-82.5028,8.3122,11.0023],[-82.5021,8.3142,7.6268],[-82.5157,8.3176,11.5807],[-82.5164,8.3198,3.5504],[-82.5141,8.3261,23.4978],[-82.5216,8.3296,4.8386],[-82.5186,8.3358,6.6095],[-82.5207,8.3393,8.219],[-82.5228,8.3506,9.5087],[-82.5394,8.3631,17.1295],[-82.5403,8.3667,15.8926],[-82.5432,8.367,16.7948],[-82.5461,8.3714,18.4051],[-82.5594,8.3808,20.8909],[-82.5629,8.3867,23.2126],[-82.566,8.3867,25.5083],[-82.575,8.3801,25.0849],[-82.5903,8.3909,34.485]]]]}
,"properties": {"GID_3": "PAN.2.1.4_1","GID_0": "PAN","country": "Panama","GID_1": "PAN.2_1","province": "Chiriquí","NL_NAME_1": "NA","GID_2": "PAN.2.1_1","county": "Alanje","NL_NAME_2": "NA","city": "Guarumal","VARNAME_3": "NA","NL_NAME_3": "NA","TYPE_3": "Corregimiento","ENGTYPE_3": "Municipality","CC_3": "NA","HASC_3": "NA","name": "Guarumal.city","area_km2": 77.03402,"hist_schema_id": "Elevation0-9000","hist_area_km2": {"0": 47.45472,"25": 29.51637,"50": 0.06293}}}