{"type":"Feature","properties":{"GID_3":"PAN.3.2.9_1","GID_0":"PAN","country":"Panama","GID_1":"PAN.3_1","province":"Coclé","NL_NAME_1":"NA","GID_2":"PAN.3.2_1","county":"Antón","NL_NAME_2":"NA","city":"SanJuandeDios","VARNAME_3":"NA","NL_NAME_3":"NA","TYPE_3":"Corregimiento","ENGTYPE_3":"Municipality","CC_3":"NA","HASC_3":"NA","name":"San_Juande_Dios.city"},
"geometry":{"type": "MultiPolygon","coordinates": [[[[-80.2375,8.5038,138.4691],[-80.2371,8.5057,150.7028],[-80.2282,8.5105,163.4328],[-80.2199,8.5179,189.4084],[-80.2144,8.5284,229.7249],[-80.2052,8.5371,268.5796],[-80.1987,8.5541,333.3026],[-80.1889,8.5558,349.829],[-80.1796,8.5617,418.8169],[-80.172,8.574,514.0733],[-80.1664,8.5774,558.4843],[-80.1626,8.5819,594.2413],[-80.1612,8.5883,607.0068],[-80.153,8.5939,708.5716],[-80.1518,8.5988,677.2626],[-80.1644,8.5979,684.8107],[-80.1757,8.5995,539.7861],[-80.1783,8.5958,560.2705],[-80.1831,8.5748,401.157],[-80.1858,8.5714,412.0775],[-80.1957,8.567,370.2245],[-80.2021,8.5664,354.0916],[-80.2181,8.5583,283.8309],[-80.227,8.5565,241.0243],[-80.2343,8.5461,228.9528],[-80.2436,8.5415,187.1464],[-80.2429,8.5394,189.8568],[-80.2443,8.5379,198.0259],[-80.2472,8.5388,197.4814],[-80.2544,8.535,173.9707],[-80.2635,8.5389,163.6153],[-80.271,8.5395,140.5042],[-80.2747,8.5382,130.6603],[-80.2765,8.5325,124.6427],[-80.2765,8.5238,146.9368],[-80.2827,8.5197,176.6886],[-80.2848,8.5155,158.9026],[-80.2969,8.5058,80.0416],[-80.2878,8.4954,91.1435],[-80.2617,8.4883,97.5273],[-80.2535,8.4907,107.8945],[-80.25,8.4938,106.3405],[-80.2495,8.4967,110.2817],[-80.2451,8.4975,118.0463],[-80.2375,8.5038,138.4691]]]]}}