{"type": "Feature","bbox": [-81.277,8.3799,-81.1327,8.5174],"geometry": {"type": "MultiPolygon","coordinates": [[[[-81.259,8.4721,715.0047],[-81.2527,8.4674,610.5845],[-81.2525,8.4604,527.7088],[-81.2573,8.4477,567.2],[-81.2536,8.4318,583.1688],[-81.2499,8.4273,594.0958],[-81.2352,8.4182,447.5311],[-81.2258,8.3936,388.3708],[-81.2117,8.3822,474.037],[-81.1959,8.3799,309.3791],[-81.1788,8.3953,468.891],[-81.175299999999993,8.3966,496.9666],[-81.1631,8.391,610.5325],[-81.1587,8.3915,588.9845],[-81.1581,8.4024,325.2299],[-81.1565,8.4037,325.2299],[-81.1489,8.4039,320.8189],[-81.1466,8.4059,369.417],[-81.1327,8.4361,444.6423],[-81.1487,8.4519,442.9057],[-81.1631,8.4565,647.4772],[-81.1669,8.4679,700.938],[-81.1721,8.4722,770.9523],[-81.194,8.4552,401.2289],[-81.2116,8.4551,504.0519],[-81.2227,8.4581,463.6616],[-81.2328,8.4578,436.0884],[-81.2473,8.4825,676.5117],[-81.2529,8.5034,1285.1991],[-81.2558,8.5086,1375.3694],[-81.2666,8.5135,1499.2274],[-81.2684,8.5167,1600.8867],[-81.2761,8.5174,1691.4661],[-81.277,8.5161,1707.7542],[-81.2745,8.5098,1627.1665],[-81.2752,8.5025,1468.4636],[-81.264,8.4871,972.422],[-81.259,8.4721,715.0047]]]]}
,"properties": {"GID_3": "PAN.13.3.4_1","GID_0": "PAN","country": "Panama","GID_1": "PAN.13_1","province": "Veraguas","NL_NAME_1": "NA","GID_2": "PAN.13.3_1","county": "Cañazas","NL_NAME_2": "NA","city": "LosValles","VARNAME_3": "NA","NL_NAME_3": "NA","TYPE_3": "Corregimiento","ENGTYPE_3": "Municipality","CC_3": "NA","HASC_3": "NA","name": "Los_Valles.city","area_km2": 96.74793,"hist_schema_id": "Elevation0-9000","hist_area_km2": {"275": 0.02098,"300": 0.29365,"325": 1.74089,"350": 4.29972,"375": 8.74609,"400": 12.1645,"425": 13.61147,"450": 11.57701,"475": 8.97645,"500": 5.89346,"525": 4.67699,"550": 3.85907,"575": 3.90102,"600": 3.29281,"625": 2.09731,"650": 1.44708,"675": 1.21636,"700": 0.67108,"725": 0.75494,"750": 0.44038,"775": 0.2097,"800": 0.2097,"825": 0.25164,"850": 0.14679,"875": 0.18873,"900": 0.2097,"925": 0.27261,"950": 0.06291,"975": 0.10485,"1000": 0.14679,"1025": 0.08388,"1050": 0.10485,"1075": 0.14679,"1100": 0.14679,"1125": 0.08388,"1150": 0.10485,"1175": 0.10485,"1200": 0.12582,"1225": 0.20969,"1250": 0.18873,"1275": 0.23066,"1300": 0.25163,"1325": 0.14678,"1350": 0.39841,"1375": 0.31454,"1400": 0.46132,"1425": 0.25163,"1450": 0.2726,"1475": 0.25163,"1500": 0.23066,"1525": 0.2726,"1550": 0.18872,"1575": 0.20969,"1600": 0.10484,"1625": 0.14678,"1650": 0.06291,"1675": 0.02097,"1700": 0.08387,"1725": 0.06291}}}