{"type":"Feature","properties":{"GID_3":"PAN.11.3.9_1","GID_0":"PAN","country":"Panama","GID_1":"PAN.11_1","province":"PanamáOeste","NL_NAME_1":"NA","GID_2":"PAN.11.3_1","county":"Chame","NL_NAME_2":"NA","city":"PuntaChame","VARNAME_3":"NA","NL_NAME_3":"NA","TYPE_3":"Corregimiento","ENGTYPE_3":"Municipality","CC_3":"NA","HASC_3":"NA","name":"Punta_Chame.city"},
"geometry":{"type": "MultiPolygon","coordinates": [[[[-79.8117,8.5679,1.5174],[-79.784,8.5765,0.0],[-79.7596,8.5935,0.0],[-79.6985,8.6479,0.0],[-79.6985,8.6565,2.0662],[-79.7018,8.656,0.0],[-79.7051,8.651,1.3115],[-79.7151,8.6421,0.0],[-79.7265,8.6374,0.0],[-79.7332,8.6279,2.1789],[-79.7457,8.6232,0.0],[-79.7474,8.6193,0.0],[-79.7449,8.6193,1.8912],[-79.7451,8.6151,0.3928],[-79.749,8.6104,4.1947],[-79.7562,8.6099,1.8141],[-79.7554,8.6118,6.784],[-79.7521,8.6132,0.35],[-79.7543,8.6153,9.7722],[-79.7574,8.6128,13.3051],[-79.7614,8.6129,10.8002],[-79.7656,8.6054,14.1594],[-79.77,8.6044,8.8595],[-79.77,8.6011,10.0852],[-79.7812,8.5986,23.5315],[-79.7922,8.6003,6.8299],[-79.7973,8.5986,43.0189],[-79.8084,8.585,13.7319],[-79.8117,8.5679,1.5174]]]]}}