{"type":"Feature","properties":{"GID_3":"PAN.10.5.8_1","GID_0":"PAN","country":"Panama","GID_1":"PAN.10_1","province":"NgöbeBuglé","NL_NAME_1":"NA","GID_2":"PAN.10.5_1","county":"Müna","NL_NAME_2":"NA","city":"Nibra","VARNAME_3":"NA","NL_NAME_3":"NA","TYPE_3":"Corregimiento","ENGTYPE_3":"Municipality","CC_3":"NA","HASC_3":"NA","name":"Nibra.city"},
"geometry":{"type": "MultiPolygon","coordinates": [[[[-81.5295,8.2638,175.0286],[-81.5275,8.2722,265.2156],[-81.5117,8.2787,252.1987],[-81.5096,8.2762,209.6354],[-81.5154,8.3,208.9196],[-81.5213,8.3044,301.109],[-81.5343,8.3211,265.3226],[-81.5401,8.3245,327.6506],[-81.5404,8.3304,365.8629],[-81.5347,8.3366,346.8383],[-81.5351,8.3403,359.7045],[-81.5457,8.346,361.8528],[-81.5543,8.358,285.67],[-81.5567,8.3561,303.6413],[-81.5593,8.3477,460.0325],[-81.5627,8.3457,448.0284],[-81.5652,8.3461,408.7012],[-81.5709,8.3525,381.8038],[-81.5697,8.3611,330.1632],[-81.5709,8.3652,320.6951],[-81.5748,8.3607,268.4236],[-81.5772,8.3521,233.6011],[-81.5822,8.3427,326.2343],[-81.5762,8.3316,271.2693],[-81.5741,8.3199,335.1413],[-81.5862,8.3153,336.5243],[-81.5946,8.3276,262.5192],[-81.6094,8.3305,318.8503],[-81.6111,8.3292,303.6902],[-81.6109,8.3268,291.3895],[-81.5998,8.3137,249.2182],[-81.5971,8.3074,239.8761],[-81.5989,8.3015,142.4804],[-81.597,8.2993,181.1938],[-81.575,8.315,374.6341],[-81.5758,8.3118,379.0766],[-81.5837,8.3081,420.9976],[-81.5852,8.3052,357.6968],[-81.5823,8.2971,363.854],[-81.5788,8.2939,369.0645],[-81.5745,8.2929,351.9749],[-81.5667,8.2977,353.2183],[-81.567,8.301,439.6746],[-81.5715,8.3,414.1735],[-81.5752,8.3035,471.0486],[-81.5713,8.312,450.194],[-81.5704,8.3175,407.7323],[-81.5715,8.321,366.1061],[-81.565,8.3292,455.5966],[-81.5535,8.3318,513.2556],[-81.5486,8.3272,376.3965],[-81.5424,8.3122,228.7393],[-81.5534,8.2996,343.8753],[-81.5535,8.2945,316.0271],[-81.5583,8.2878,359.9387],[-81.5578,8.2816,262.7663],[-81.5545,8.2777,233.3934],[-81.5497,8.2781,255.2707],[-81.548,8.2726,199.6087],[-81.5434,8.2721,259.0863],[-81.5363,8.2742,307.7562],[-81.5295,8.2638,175.0286]]]]}}