{"type":"Feature","properties":{"GID_3":"PAN.1.1.5_1","GID_0":"PAN","country":"Panama","GID_1":"PAN.1_1","province":"BocasdelToro","NL_NAME_1":"NA","GID_2":"PAN.1.1_1","county":"BocasdelToro","NL_NAME_2":"NA","city":"TierraOscura","VARNAME_3":"NA","NL_NAME_3":"NA","TYPE_3":"Corregimiento","ENGTYPE_3":"Municipality","CC_3":"NA","HASC_3":"NA","name":"Tierra_Oscura.city"},
"geometry":{"type": "MultiPolygon","coordinates": [[[[-82.1879,9.1474,0.0],[-82.1879,9.1493,0.1603],[-82.1904,9.1485,0.1045],[-82.189,9.1474,0.0],[-82.1879,9.1474,0.0]]],
[[[-82.2043,9.1576,0.2524],[-82.2049,9.1587,0.2524],[-82.2057,9.1587,0.2524],[-82.2051,9.1563,0.0],[-82.2043,9.1576,0.2524]]],
[[[-82.1732,9.1829,0.0],[-82.1718,9.1826,0.0],[-82.1721,9.1846,0.0],[-82.1746,9.184,0.0],[-82.1732,9.1829,0.0]]],
[[[-82.1685,9.1851,0.0],[-82.1701,9.1862,0.0],[-82.1715,9.184,0.0],[-82.1699,9.1832,0.0],[-82.1685,9.1851,0.0]]],
[[[-82.2054,9.164,0.0],[-82.2074,9.1654,0.1172],[-82.209,9.1624,0.6478],[-82.2121,9.1621,0.0],[-82.2135,9.1585,0.0],[-82.2074,9.161,2.5522],[-82.2065,9.1585,0.0],[-82.204,9.1646,0.0],[-82.2054,9.164,0.0]]],
[[[-82.206,9.2226,0.5467],[-82.2085,9.2235,0.4424],[-82.2074,9.2215,0.0],[-82.2051,9.2218,0.0],[-82.206,9.2226,0.5467]]],
[[[-82.2251,9.2285,0.0],[-82.2246,9.2293,0.2412],[-82.2246,9.231,0.0],[-82.226,9.229,0.2412],[-82.2251,9.2285,0.0]]],
[[[-82.2199,9.2321,0.0],[-82.2207,9.2335,0.2959],[-82.2224,9.2327,0.0],[-82.2207,9.2285,0.0],[-82.219,9.2293,0.3351],[-82.2199,9.2321,0.0]]],
[[[-82.1682,9.1899,0.0],[-82.1685,9.1912,0.0],[-82.171,9.1912,0.0],[-82.1732,9.1868,0.0],[-82.169,9.1882,0.111],[-82.1668,9.1835,0.0],[-82.1637,9.1837,0.0],[-82.1632,9.1857,0.1289],[-82.1654,9.1857,0.252],[-82.1682,9.1899,0.0]]],
[[[-82.1685,9.2204,0.0],[-82.1704,9.2218,0.6139],[-82.174,9.2162,0.0],[-82.1701,9.2154,0.0],[-82.1685,9.2204,0.0]]],
[[[-82.1757,9.221,0.0],[-82.1776,9.2218,0.0],[-82.1765,9.2201,0.2345],[-82.1793,9.2188,0.0],[-82.1765,9.2179,0.0],[-82.1749,9.219,0.0],[-82.1757,9.221,0.0]]],
[[[-82.1826,9.2226,0.4884],[-82.1837,9.224,0.0],[-82.1913,9.2232,0.2555],[-82.1937,9.2201,0.0],[-82.1907,9.2221,0.2555],[-82.1907,9.2207,0.065],[-82.1862,9.2188,0.0708],[-82.1865,9.2224,1.0652],[-82.1835,9.2207,0.0],[-82.1826,9.2226,0.4884]]],
[[[-82.1801,9.2224,0.0],[-82.1799,9.2235,0.0],[-82.1813,9.2232,0.4884],[-82.1815,9.2193,0.0],[-82.1793,9.2199,0.0],[-82.1801,9.2224,0.0]]],
[[[-82.2603,9.1715,62.3081],[-82.258,9.1654,10.8756],[-82.256,9.169,7.773],[-82.2454,9.1696,1.481],[-82.244,9.1715,1.7309],[-82.241,9.1701,0.0],[-82.2382,9.1735,0.0],[-82.2351,9.1724,-0.0926],[-82.2346,9.174,8.782],[-82.2304,9.1724,6.316],[-82.2296,9.1701,0.0],[-82.2262,9.1701,18.2288],[-82.224,9.1674,21.6801],[-82.2199,9.1662,1.022],[-82.2121,9.1674,1.1559],[-82.2118,9.1704,0.0],[-82.2099,9.1707,0.2928],[-82.2085,9.1676,0.0],[-82.2043,9.1701,0.3241],[-82.2065,9.1668,0.0],[-82.2024,9.1668,0.0],[-82.2035,9.1626,1.2682],[-82.2018,9.1585,0.0],[-82.2004,9.1582,0.0],[-82.2004,9.1604,0.3848],[-82.1985,9.1615,0.0],[-82.1968,9.1601,0.0],[-82.1954,9.1615,1.5696],[-82.1954,9.159,0.3703],[-82.1926,9.1582,0.4586],[-82.1912,9.1526,1.9468],[-82.1876,9.151,0.331],[-82.1879,9.1496,0.1603],[-82.1854,9.1507,3.2128],[-82.1854,9.1485,0.0],[-82.1832,9.149,1.6628],[-82.1849,9.1474,0.0],[-82.1837,9.1463,0.1112],[-82.1821,9.1493,4.1333],[-82.1757,9.1488,6.2523],[-82.1749,9.1518,0.0],[-82.1707,9.1551,0.0],[-82.1749,9.1626,2.1883],[-82.1729,9.1643,0.2891],[-82.1735,9.1663,0.2523],[-82.171,9.1679,0.0999],[-82.1746,9.1676,0.0],[-82.1751,9.1654,4.3123],[-82.1776,9.166,1.4522],[-82.1793,9.1676,5.761],[-82.1776,9.169,0.1159],[-82.181,9.1724,0.0],[-82.1804,9.1765,0.0],[-82.1832,9.1754,23.3223],[-82.1835,9.1776,0.5568],[-82.1851,9.1768,2.2892],[-82.1815,9.1832,9.118],[-82.1807,9.1899,0.0866],[-82.1762,9.189,0.4278],[-82.1743,9.1951,0.2177],[-82.1723,9.194,0.0],[-82.1715,9.1951,0.0],[-82.1743,9.1974,0.0],[-82.1743,9.196,0.0],[-82.1835,9.1951,0.0],[-82.1851,9.1915,0.3959],[-82.184,9.1893,0.0],[-82.1871,9.1879,0.1752],[-82.186,9.1901,0.2415],[-82.1888,9.1896,0.5664],[-82.189,9.1932,0.0],[-82.1871,9.1949,0.0],[-82.1885,9.1968,0.0],[-82.1918,9.196,2.9991],[-82.1943,9.2057,0.0],[-82.199,9.2074,0.0],[-82.2043,9.206,1.7578],[-82.1985,9.2126,0.0],[-82.1982,9.2185,0.402],[-82.2035,9.2176,6.6224],[-82.204,9.2207,0.0],[-82.2063,9.2204,0.8741],[-82.2068,9.2165,0.9317],[-82.204,9.2149,0.1219],[-82.204,9.2126,0.0],[-82.2054,9.2124,0.0],[-82.2082,9.2154,0.0],[-82.2096,9.2129,0.1005],[-82.2076,9.211,8.5948],[-82.2096,9.2107,0.0],[-82.2096,9.209,1.7651],[-82.2107,9.2137,1.7393],[-82.2138,9.2129,1.4873],[-82.214,9.2162,-0.215],[-82.2099,9.2157,-0.0489],[-82.209,9.2188,0.0],[-82.2101,9.219,0.5606],[-82.2093,9.2229,0.4424],[-82.2104,9.2243,0.0],[-82.2124,9.2224,0.0],[-82.2112,9.2207,0.2299],[-82.2138,9.2207,0.0],[-82.2149,9.2179,0.3961],[-82.2171,9.2201,5.6955],[-82.2121,9.2257,0.4395],[-82.2118,9.2285,0.0],[-82.2143,9.2307,0.0],[-82.2171,9.2274,0.0],[-82.2149,9.2279,0.6442],[-82.2143,9.2251,0.3923],[-82.2193,9.2246,0.5887],[-82.226,9.2176,5.1213],[-82.229,9.2165,0.0],[-82.2288,9.2115,0.0],[-82.2301,9.2093,1.0232],[-82.2268,9.2062,0.0],[-82.2237,9.206,17.2278],[-82.2268,9.2026,0.0],[-82.2237,9.2021,6.4134],[-82.2207,9.1982,2.3786],[-82.2229,9.1951,20.7888],[-82.2265,9.1957,0.0],[-82.2301,9.1899,4.5002],[-82.2387,9.1899,4.4859],[-82.2399,9.1912,5.3254],[-82.2421,9.196,0.0],[-82.2457,9.199,3.987],[-82.2449,9.2004,0.0],[-82.244,9.199,0.0],[-82.2421,9.1996,0.0],[-82.2421,9.2018,0.0],[-82.2468,9.206,0.1111],[-82.2454,9.2087,0.6039],[-82.2474,9.2107,0.7494],[-82.2446,9.214,0.0],[-82.2518,9.2179,0.2792],[-82.2515,9.2157,0.0],[-82.2543,9.2124,0.0],[-82.2485,9.2101,0.3875],[-82.2518,9.2071,0.0],[-82.2496,9.2038,0.2786],[-82.2479,9.2038,0.6459],[-82.2485,9.2001,10.6809],[-82.2524,9.2026,0.2365],[-82.2532,9.2054,0.2603],[-82.2554,9.2046,0.0],[-82.2532,9.2038,0.2603],[-82.254,9.2015,0.0],[-82.2521,9.1999,0.0],[-82.2524,9.1982,1.0218],[-82.2543,9.1979,0.0],[-82.2515,9.1946,0.0],[-82.2479,9.1938,7.6379],[-82.2487,9.1876,8.8844],[-82.2554,9.1843,0.0],[-82.2568,9.1807,1.6435],[-82.2621,9.1801,10.6549],[-82.2626,9.1829,0.3274],[-82.266,9.1832,4.2729],[-82.2679,9.1862,0.379],[-82.2735,9.184,0.0],[-82.2793,9.1871,6.6352],[-82.281,9.194,2.6763],[-82.279,9.1946,1.4689],[-82.2774,9.1918,0.0],[-82.2763,9.1924,0.086],[-82.2771,9.1938,0.3763],[-82.2732,9.1935,0.0],[-82.2751,9.1993,0.078],[-82.2732,9.2026,0.0],[-82.2754,9.2021,0.0],[-82.2749,9.2043,0.0],[-82.2763,9.2057,0.0],[-82.2785,9.2051,11.7531],[-82.2774,9.2071,0.0],[-82.2787,9.211,0.0],[-82.2824,9.211,1.2323],[-82.2826,9.2121,1.5145],[-82.2804,9.2118,0.0],[-82.2821,9.2129,1.5145],[-82.2818,9.2149,0.0],[-82.2865,9.2165,17.0448],[-82.2887,9.226,0.6815],[-82.2918,9.2263,0.3928],[-82.2907,9.2237,0.4992],[-82.2937,9.2199,1.1895],[-82.2918,9.2154,0.5014],[-82.2929,9.2135,0.0],[-82.2899,9.2087,0.0],[-82.2815,9.2015,3.0171],[-82.2824,9.199,0.0],[-82.2849,9.201,0.0],[-82.2865,9.2004,0.0],[-82.2857,9.199,3.0842],[-82.2874,9.1976,2.8253],[-82.286,9.1974,10.4848],[-82.2943,9.1913,73.8183],[-82.292,9.1873,135.4205],[-82.2917,9.1808,246.2619],[-82.2857,9.1814,176.3981],[-82.2796,9.1779,173.097],[-82.2603,9.1715,62.3081]]],
[[[-82.2718,9.1918,0.1869],[-82.271,9.1929,0.1735],[-82.2726,9.1932,0.0],[-82.274,9.1912,0.0],[-82.2729,9.191,0.1869],[-82.2718,9.1918,0.1869]]],
[[[-82.2715,9.1988,0.0],[-82.2724,9.2001,0.3452],[-82.2746,9.1999,0.078],[-82.2735,9.1985,0.0],[-82.2715,9.1988,0.0]]],
[[[-82.2546,9.2063,0.0],[-82.2543,9.2071,0.0],[-82.2571,9.2068,0.0],[-82.2557,9.2054,0.0],[-82.2546,9.2063,0.0]]],
[[[-82.2254,9.2338,0.0],[-82.2257,9.2357,0.0],[-82.2276,9.2354,0.0],[-82.2262,9.2332,0.0],[-82.2254,9.2338,0.0]]],
[[[-82.2221,9.2424,0.0],[-82.2224,9.2437,0.2247],[-82.2251,9.2437,0.3496],[-82.2251,9.2379,0.3848],[-82.2218,9.2349,0.0],[-82.219,9.2365,0.1693],[-82.2182,9.2349,0.0],[-82.2179,9.2374,0.1748],[-82.221,9.239,0.2916],[-82.2201,9.2407,0.0],[-82.2232,9.2404,0.625],[-82.2221,9.2424,0.0]]],
[[[-82.2265,9.2421,0.0],[-82.2299,9.2418,0.3379],[-82.2304,9.239,0.7187],[-82.2288,9.2371,0.153],[-82.2265,9.2382,0.6341],[-82.2265,9.2421,0.0]]],
[[[-82.2301,9.2488,0.0],[-82.2326,9.2496,0.1025],[-82.2343,9.2468,0.1371],[-82.2326,9.2474,0.5041],[-82.2324,9.2451,0.0],[-82.2279,9.2463,0.2639],[-82.2301,9.2488,0.0]]],
[[[-82.2218,9.2496,0.0],[-82.2235,9.2501,0.6706],[-82.2254,9.2482,0.0],[-82.2221,9.2488,0.0],[-82.2218,9.2496,0.0]]],
[[[-82.2543,9.2096,0.0],[-82.2535,9.2104,0.0],[-82.2554,9.2115,0.0],[-82.2554,9.2093,0.0],[-82.2543,9.2096,0.0]]],
[[[-82.2412,9.2151,0.167],[-82.2412,9.2168,0.4536],[-82.2435,9.2168,0.0],[-82.2435,9.2146,0.0],[-82.2412,9.2151,0.167]]],
[[[-82.2335,9.251,0.0],[-82.2332,9.2524,0.0],[-82.236,9.2529,0.2984],[-82.2368,9.2501,0.3746],[-82.2393,9.251,0.3785],[-82.239,9.2465,0.0],[-82.2363,9.2429,0.215],[-82.2387,9.2407,0.0],[-82.2351,9.2399,0.0],[-82.2376,9.2388,0.0],[-82.2374,9.2365,0.0],[-82.2312,9.239,0.3501],[-82.2315,9.2424,0.0],[-82.2349,9.2424,0.215],[-82.2346,9.2446,0.0],[-82.2363,9.2463,0.2518],[-82.2335,9.251,0.0]]],
[[[-82.289,9.2971,0.7092],[-82.2913,9.2979,0.7041],[-82.2929,9.2962,0.2278],[-82.2924,9.291,1.5361],[-82.2946,9.2874,3.7556],[-82.2935,9.2849,2.699],[-82.2965,9.2826,0.0],[-82.2943,9.2779,1.7416],[-82.2962,9.2707,4.1062],[-82.2926,9.2707,4.413],[-82.2918,9.269,9.5758],[-82.2957,9.2676,0.0],[-82.2965,9.2618,0.0],[-82.2993,9.2582,0.0],[-82.2951,9.256,5.7769],[-82.2968,9.2538,0.0],[-82.294,9.2485,0.0],[-82.2868,9.2476,1.1896],[-82.2857,9.246,1.3037],[-82.2826,9.2471,4.0017],[-82.2812,9.2454,3.3814],[-82.286,9.2429,0.6725],[-82.2896,9.2457,0.0],[-82.2935,9.2454,0.5512],[-82.2954,9.2382,0.954],[-82.2904,9.2343,0.2905],[-82.2857,9.236,2.5405],[-82.2887,9.2321,0.0],[-82.281,9.2271,1.4538],[-82.2846,9.2246,0.0],[-82.2804,9.2193,0.0],[-82.2774,9.2196,1.45],[-82.2674,9.2124,0.6326],[-82.2601,9.2151,0.0],[-82.2554,9.2137,0.0],[-82.2526,9.2168,0.0],[-82.2526,9.2213,0.0],[-82.2551,9.2226,0.0],[-82.2557,9.2251,2.9758],[-82.2596,9.2257,0.14],[-82.2596,9.2324,0.0],[-82.2629,9.231,0.2044],[-82.2651,9.2338,0.5586],[-82.2688,9.2338,0.3182],[-82.2679,9.2351,0.3182],[-82.261,9.2346,0.0],[-82.2574,9.2415,2.9591],[-82.2546,9.244,4.5268],[-82.2529,9.2424,0.1517],[-82.2521,9.2451,0.9843],[-82.2487,9.2412,0.0],[-82.2446,9.2457,0.5424],[-82.2426,9.2443,0.2962],[-82.2446,9.2437,0.0],[-82.2435,9.2407,0.0],[-82.2426,9.2421,0.1239],[-82.2407,9.2415,0.0],[-82.2418,9.2437,0.1239],[-82.2387,9.2424,0.0],[-82.2404,9.2451,0.1599],[-82.2404,9.251,0.3785],[-82.2371,9.2532,0.5166],[-82.2399,9.2543,0.5429],[-82.236,9.2554,0.3886],[-82.2387,9.256,0.2607],[-82.2399,9.2585,0.1464],[-82.2426,9.2565,1.19],[-82.2412,9.2624,0.0],[-82.2446,9.2671,0.0],[-82.2435,9.2696,0.0],[-82.2449,9.2699,0.0],[-82.2457,9.2679,0.0],[-82.244,9.2649,0.0],[-82.2438,9.2626,0.9516],[-82.2449,9.2626,0.9516],[-82.2471,9.2657,3.7164],[-82.2471,9.2688,0.527],[-82.2493,9.2693,1.8415],[-82.2485,9.2735,0.0],[-82.2513,9.2771,0.7003],[-82.256,9.2785,2.3568],[-82.2562,9.2807,0.0],[-82.2588,9.2826,0.0],[-82.2579,9.2882,0.0],[-82.2621,9.2951,0.3828],[-82.2696,9.2946,0.0],[-82.2715,9.2901,0.0],[-82.2693,9.2863,31.9563],[-82.2743,9.2857,1.1193],[-82.276,9.2893,0.0],[-82.2812,9.2896,0.6267],[-82.2821,9.2857,0.4514],[-82.2849,9.2871,0.0],[-82.284,9.2824,5.4159],[-82.2862,9.281,5.8481],[-82.2868,9.2851,0.67],[-82.2901,9.2843,0.1505],[-82.2887,9.2868,0.491],[-82.2896,9.2893,0.9695],[-82.2874,9.2887,0.0],[-82.2851,9.2904,0.0],[-82.2862,9.2949,3.7953],[-82.289,9.2971,0.7092]]],
[[[-82.2487,9.279,0.0],[-82.2499,9.279,0.0],[-82.249,9.276,0.0],[-82.2468,9.276,0.0],[-82.2465,9.2779,0.0],[-82.2487,9.279,0.0]]]]}}