{"type":"Feature","properties":{"GID_3":"PAN.3.4.5_1","GID_0":"PAN","country":"Panama","GID_1":"PAN.3_1","province":"Coclé","NL_NAME_1":"NA","GID_2":"PAN.3.4_1","county":"Natá","NL_NAME_2":"NA","city":"Natá","VARNAME_3":"NA","NL_NAME_3":"NA","TYPE_3":"Corregimiento","ENGTYPE_3":"Municipality","CC_3":"NA","HASC_3":"NA","name":"Natá.city"},
"geometry":{"type": "MultiPolygon","coordinates": [[[[-80.4691,8.2233,0.0],[-80.4688,8.2232,0.0],[-80.4688,8.2235,0.0],[-80.4691,8.2233,0.0]]],
[[[-80.4914,8.2434,4.9032],[-80.4921,8.2403,4.8444],[-80.4903,8.2388,1.8026],[-80.4792,8.2399,6.6291],[-80.4733,8.2378,9.7686],[-80.4706,8.2345,6.1778],[-80.4686,8.2235,0.0],[-80.4626,8.2243,11.1599],[-80.4604,8.2285,14.9197],[-80.454,8.229,9.6677],[-80.4507,8.2365,10.9765],[-80.4451,8.2407,0.0],[-80.4471,8.2487,14.4398],[-80.4437,8.2521,15.6083],[-80.439,8.2524,10.1855],[-80.434,8.256,0.0],[-80.4276,8.2721,7.6066],[-80.4207,8.2754,0.0],[-80.4132,8.2838,3.28],[-80.4101,8.2896,18.6194],[-80.4074,8.291,13.5893],[-80.3938,8.2907,11.4631],[-80.3926,8.2987,0.0],[-80.3962,8.3107,2.816],[-80.3954,8.3174,20.2656],[-80.3932,8.321,21.3458],[-80.3876,8.3237,3.4621],[-80.3874,8.3296,13.7346],[-80.3865,8.3293,8.7381],[-80.3857,8.3276,0.0],[-80.3857,8.3249,0.0],[-80.3879,8.3225,3.4621],[-80.3859,8.3225,6.433],[-80.381,8.3255,16.8231],[-80.3791,8.3305,25.9763],[-80.3894,8.3323,4.5484],[-80.3878,8.3303,13.7346],[-80.3909,8.3252,25.4298],[-80.3931,8.3237,21.2765],[-80.3961,8.3243,4.3294],[-80.3936,8.33,12.5332],[-80.4011,8.3329,22.7885],[-80.4012,8.3347,5.134],[-80.3965,8.3435,9.9982],[-80.3973,8.3496,10.6008],[-80.4072,8.3478,1.7612],[-80.4116,8.3447,1.9405],[-80.4177,8.3449,4.4103],[-80.4242,8.3365,3.0211],[-80.432,8.3411,6.1238],[-80.4423,8.3378,4.4579],[-80.4559,8.3399,59.4225],[-80.4653,8.3339,12.3601],[-80.4567,8.3289,17.1739],[-80.4615,8.3264,6.9686],[-80.4679,8.3262,8.1758],[-80.4714,8.3298,12.9972],[-80.4808,8.3332,10.5895],[-80.4854,8.3398,7.1119],[-80.4869,8.3536,7.6246],[-80.4849,8.3622,10.0411],[-80.4916,8.37,8.8742],[-80.4904,8.3797,9.712],[-80.4952,8.3887,10.4336],[-80.5,8.3889,10.5369],[-80.5023,8.385,11.394],[-80.5084,8.3864,12.5976],[-80.5116,8.3893,11.7719],[-80.5164,8.3855,14.2273],[-80.5219,8.3845,13.5249],[-80.5312,8.3905,21.0335],[-80.5406,8.3922,19.0215],[-80.5494,8.3964,24.4279],[-80.5507,8.3599,146.4913],[-80.5567,8.3321,25.7625],[-80.5436,8.3239,16.3234],[-80.5334,8.3222,12.4257],[-80.5282,8.3174,10.8523],[-80.5205,8.3229,9.7931],[-80.5179,8.315,10.3348],[-80.5145,8.3178,8.9709],[-80.5077,8.3181,8.3404],[-80.5028,8.3216,8.4221],[-80.5023,8.3171,7.9165],[-80.5086,8.2973,4.6166],[-80.5012,8.2844,6.6139],[-80.4894,8.2774,7.0187],[-80.4876,8.2747,7.3125],[-80.4913,8.2674,5.3018],[-80.4853,8.2561,3.822],[-80.4906,8.251,6.5171],[-80.4914,8.2434,4.9032]]]]}}