{"type": "Feature","bbox": [-80.0688,8.8273,-79.9687,8.9764],"geometry": {"type": "MultiPolygon","coordinates": [[[[-80.055,8.9753,47.9173],[-80.0615,8.9628,156.0552],[-80.0674,8.9569,120.9549],[-80.0688,8.9472,179.9671],[-80.0678,8.9371,121.7748],[-80.0598,8.92,161.7185],[-80.0606,8.905,220.538],[-80.0572,8.8932,124.521],[-80.0567,8.8809,131.0089],[-80.0541,8.8785,127.8596],[-80.0421,8.8751,217.7482],[-80.0143,8.8594,227.8934],[-80.0019,8.8433,124.5441],[-80.0027,8.8395,174.8546],[-80.0073,8.8364,131.6801],[-80.0086,8.8334,133.5107],[-80.0033,8.8273,213.7988],[-79.9796,8.8343,199.4168],[-79.9687,8.8397,252.7001],[-79.9772,8.8604,270.3685],[-79.9768,8.8688,261.0051],[-79.98,8.8828,279.5505],[-79.9802,8.8898,236.4447],[-79.9756,8.9064,191.0464],[-79.9846,8.9231,237.4537],[-79.9833,8.9256,223.9091],[-79.9759,8.9272,193.1938],[-79.9714,8.93,142.524],[-79.9859,8.9658,94.936],[-79.9905,8.9724,81.3756],[-79.9937,8.9709,80.3197],[-80.0513,8.9764,27.5598],[-80.055,8.9753,47.9173]]]]}
,"properties": {"GID_3": "PAN.11.2.8_1","GID_0": "PAN","country": "Panama","GID_1": "PAN.11_1","province": "PanamáOeste","NL_NAME_1": "NA","GID_2": "PAN.11.2_1","county": "Capira","NL_NAME_2": "NA","city": "LaTrinidad","VARNAME_3": "NA","NL_NAME_3": "NA","TYPE_3": "Corregimiento","ENGTYPE_3": "Municipality","CC_3": "NA","HASC_3": "NA","name": "La_Trinidad.city","area_km2": 119.79137,"hist_schema_id": "Elevation0-9000","hist_area_km2": {"25": 1.23563,"50": 1.92676,"75": 4.18877,"100": 11.22677,"125": 24.06691,"150": 18.83027,"175": 16.65208,"200": 14.01337,"225": 12.31694,"250": 8.50476,"275": 4.29443,"300": 1.44544,"325": 0.67031,"350": 0.3142,"375": 0.08378,"400": 0.02095}}}