{"type": "Feature","bbox": [-80.9327,8.1612,-80.6612,8.6006],"geometry": {"type": "MultiPolygon","coordinates": [[[[-80.7112,8.3807,160.6777],[-80.7129,8.3876,149.8187],[-80.7359,8.4126,193.2811],[-80.7448,8.4507,325.1846],[-80.7596,8.4649,441.0833],[-80.7744,8.4752,430.9919],[-80.7753,8.4964,407.765],[-80.7876,8.5159,606.6243],[-80.803,8.5318,639.9194],[-80.8229,8.5468,945.4868],[-80.8328,8.5486,1327.1792],[-80.8461,8.5465,1259.5371],[-80.8588,8.5576,1362.9713],[-80.8625,8.5652,1341.7617],[-80.8602,8.5766,1183.333],[-80.8629,8.588,1229.147],[-80.8676,8.5946,1232.7749],[-80.8792,8.6006,1592.1589],[-80.9099,8.5657,827.3438],[-80.9218,8.5543,710.326],[-80.9319,8.5403,832.91],[-80.9327,8.5362,761.4292],[-80.9295,8.5258,819.5704],[-80.9076,8.5002,617.0331],[-80.9003,8.4686,573.4622],[-80.8999,8.4652,493.0106],[-80.9046,8.4599,501.8701],[-80.9075,8.4536,453.6371],[-80.9058,8.4501,365.4618],[-80.9009,8.4462,361.6551],[-80.8998,8.4427,478.6838],[-80.9029,8.4376,314.6251],[-80.9124,8.4347,315.7524],[-80.9128,8.4136,433.9765],[-80.9096,8.3948,532.3177],[-80.9091,8.3501,241.1099],[-80.9075,8.3337,159.2938],[-80.9043,8.3296,144.5051],[-80.8871,8.3223,136.4597],[-80.8815,8.3143,104.5922],[-80.8828,8.2996,157.9001],[-80.8957,8.2651,123.1176],[-80.8949,8.2596,81.7513],[-80.8993,8.2563,84.2326],[-80.8922,8.2384,69.1522],[-80.8878,8.2168,54.7874],[-80.8829,8.2131,62.0437],[-80.8778,8.2118,59.3394],[-80.8598,8.2122,38.1502],[-80.8512,8.2071,46.5112],[-80.8445,8.2008,38.2429],[-80.8272,8.1991,36.952],[-80.8233,8.1938,17.2733],[-80.815,8.1894,18.2384],[-80.803,8.1868,20.2396],[-80.7896,8.1806,23.2968],[-80.7864,8.1702,36.8829],[-80.7719,8.1618,41.2878],[-80.7547,8.1612,29.3717],[-80.7424,8.1643,28.4372],[-80.7308,8.1614,29.0188],[-80.7178,8.1631,15.9717],[-80.7095,8.1661,14.9223],[-80.6958,8.1991,53.0237],[-80.687,8.2258,56.2664],[-80.6843,8.24,42.5947],[-80.6891,8.2574,102.2644],[-80.6696,8.2897,77.7813],[-80.6612,8.3196,119.8643],[-80.6966,8.3327,123.6278],[-80.7075,8.342,106.9858],[-80.7115,8.3533,146.4957],[-80.7112,8.3807,160.6777]]]]}
,"properties": {"GID_2": "PAN.13.2_1","GID_0": "PAN","country": "Panama","GID_1": "PAN.13_1","province": "Veraguas","NL_NAME_1": "NA","county": "Calobre","VARNAME_2": "NA","NL_NAME_2": "NA","TYPE_2": "Distrito","ENGTYPE_2": "District","CC_2": "NA","HASC_2": "PA.VR.CB","name": "Calobre.county","area_km2": 831.9518,"hist_schema_id": "Elevation0-9000","hist_area_km2": {"0": 1.2172,"25": 60.8371,"50": 89.7902,"75": 66.6813,"100": 83.6059,"125": 81.7768,"150": 39.272,"175": 34.5495,"200": 28.2552,"225": 17.8715,"250": 14.683,"275": 9.9423,"300": 9.5855,"325": 10.7388,"350": 10.0046,"375": 8.8088,"400": 7.6973,"425": 8.0747,"450": 7.3615,"475": 7.4872,"500": 8.2632,"525": 9.3327,"550": 10.591,"575": 13.3803,"600": 10.9263,"625": 10.5277,"650": 13.1072,"675": 10.0244,"700": 8.3254,"725": 6.0184,"750": 5.5151,"775": 6.3329,"800": 6.6265,"825": 6.186,"850": 7.5072,"875": 7.4232,"900": 6.941,"925": 6.207,"950": 6.4586,"975": 6.1231,"1000": 5.2843,"1025": 4.5503,"1050": 3.8583,"1075": 3.8583,"1100": 3.2502,"1125": 3.1872,"1150": 2.9985,"1175": 2.9986,"1200": 3.2501,"1225": 2.8936,"1250": 2.6838,"1275": 2.0967,"1300": 1.9709,"1325": 2.0128,"1350": 2.1386,"1375": 2.495,"1400": 1.8451,"1425": 1.866,"1450": 2.0338,"1475": 1.887,"1500": 1.3209,"1525": 1.7192,"1550": 1.216,"1575": 1.2999,"1600": 1.0483,"1625": 1.0064,"1650": 1.0902,"1675": 0.8806,"1700": 0.4822,"1725": 0.3145,"1750": 0.0419,"1775": 0.1468,"1800": 0.0629,"1825": 0.0629,"1875": 0.0419}}}