{"type":"Feature","properties":{"GID_2":"PAN.1.1_1","GID_0":"PAN","country":"Panama","GID_1":"PAN.1_1","province":"BocasdelToro","NL_NAME_1":"NA","county":"BocasdelToro","VARNAME_2":"NA","NL_NAME_2":"NA","TYPE_2":"Distrito","ENGTYPE_2":"District","CC_2":"NA","HASC_2":"PA.BC.BT","name":"Bocasdel_Toro.county"},
"geometry":{"type": "MultiPolygon","coordinates": [[[[-82.2574,9.1643,10.8756],[-82.256,9.169,7.773],[-82.2454,9.1696,1.481],[-82.244,9.1715,1.7309],[-82.241,9.1701,0.0],[-82.2382,9.1735,0.0],[-82.2351,9.1724,-0.0926],[-82.2346,9.174,8.782],[-82.2304,9.1724,6.316],[-82.2296,9.1701,0.0],[-82.2262,9.1701,18.2288],[-82.224,9.1674,21.6801],[-82.2199,9.1662,1.022],[-82.2121,9.1674,1.1559],[-82.2118,9.1704,0.0],[-82.2099,9.1707,0.2928],[-82.2085,9.1676,0.0],[-82.2043,9.1701,0.3241],[-82.2065,9.1668,0.0],[-82.2024,9.1668,0.0],[-82.2035,9.1626,1.2682],[-82.2015,9.1582,0.0],[-82.1996,9.159,0.0],[-82.2001,9.1607,1.8247],[-82.1974,9.1615,0.1178],[-82.1968,9.1601,0.0],[-82.1954,9.1615,1.5696],[-82.1954,9.159,0.3703],[-82.1926,9.1582,0.4586],[-82.1912,9.1526,1.9468],[-82.1876,9.151,0.331],[-82.1879,9.1496,0.1603],[-82.1854,9.1507,3.2128],[-82.1854,9.1485,0.0],[-82.1832,9.149,1.6628],[-82.1849,9.1463,0.1112],[-82.1826,9.1471,0.1769],[-82.1821,9.1493,4.1333],[-82.1757,9.1488,6.2523],[-82.1749,9.1518,0.0],[-82.1707,9.1551,0.0],[-82.1749,9.1626,2.1883],[-82.1729,9.1643,0.2891],[-82.1735,9.1663,0.2523],[-82.171,9.1679,0.0999],[-82.1746,9.1676,0.0],[-82.1751,9.1654,4.3123],[-82.1776,9.166,1.4522],[-82.1793,9.1676,5.761],[-82.1776,9.169,0.1159],[-82.181,9.1724,0.0],[-82.1804,9.1765,0.0],[-82.1832,9.1754,23.3223],[-82.1835,9.1776,0.5568],[-82.1851,9.1774,0.5568],[-82.1815,9.1832,9.118],[-82.1807,9.1899,0.0866],[-82.1762,9.189,0.4278],[-82.1743,9.1951,0.2177],[-82.1723,9.194,0.0],[-82.1718,9.196,0.0],[-82.1743,9.1974,0.0],[-82.1743,9.196,0.0],[-82.184,9.1949,0.0],[-82.1851,9.1904,0.0],[-82.184,9.1893,0.0],[-82.1871,9.1879,0.1752],[-82.186,9.1901,0.2415],[-82.1888,9.1896,0.5664],[-82.189,9.1932,0.0],[-82.1871,9.1949,0.0],[-82.1885,9.1968,0.0],[-82.1918,9.196,2.9991],[-82.1943,9.2057,0.0],[-82.199,9.2074,0.0],[-82.2043,9.206,1.7578],[-82.1985,9.2126,0.0],[-82.1982,9.2185,0.402],[-82.2035,9.2176,6.6224],[-82.204,9.2207,0.0],[-82.2063,9.2204,0.8741],[-82.2068,9.2165,0.9317],[-82.204,9.2149,0.1219],[-82.204,9.2126,0.0],[-82.2054,9.2124,0.0],[-82.2082,9.2154,0.0],[-82.2096,9.2129,0.1005],[-82.2076,9.211,8.5948],[-82.2096,9.2107,0.0],[-82.2096,9.209,1.7651],[-82.2107,9.2137,1.7393],[-82.2138,9.2129,1.4873],[-82.214,9.2162,-0.215],[-82.2099,9.2157,-0.0489],[-82.209,9.2188,0.0],[-82.2101,9.219,0.5606],[-82.2093,9.2229,0.4424],[-82.2104,9.2243,0.0],[-82.2124,9.2224,0.0],[-82.2112,9.2207,0.2299],[-82.2138,9.2207,0.0],[-82.2149,9.2179,0.3961],[-82.2171,9.2201,5.6955],[-82.2121,9.2257,0.4395],[-82.2118,9.2285,0.0],[-82.2143,9.2307,0.0],[-82.2171,9.2274,0.0],[-82.2149,9.2279,0.6442],[-82.2143,9.2251,0.3923],[-82.2193,9.2246,0.5887],[-82.226,9.2176,5.1213],[-82.229,9.2165,0.0],[-82.2288,9.2115,0.0],[-82.2301,9.2093,1.0232],[-82.2268,9.2062,0.0],[-82.2237,9.206,17.2278],[-82.2268,9.2026,0.0],[-82.2237,9.2021,6.4134],[-82.2207,9.1982,2.3786],[-82.2229,9.1951,20.7888],[-82.2265,9.1957,0.0],[-82.2301,9.1899,4.5002],[-82.2387,9.1899,4.4859],[-82.2399,9.1912,5.3254],[-82.2421,9.196,0.0],[-82.2457,9.199,3.987],[-82.2449,9.2004,0.0],[-82.244,9.199,0.0],[-82.2421,9.1996,0.0],[-82.2421,9.2018,0.0],[-82.2468,9.206,0.1111],[-82.2454,9.2087,0.6039],[-82.2474,9.2107,0.7494],[-82.2446,9.214,0.0],[-82.2518,9.2179,0.2792],[-82.2515,9.2157,0.0],[-82.2543,9.2124,0.0],[-82.2485,9.2101,0.3875],[-82.2518,9.2071,0.0],[-82.2496,9.2038,0.2786],[-82.2479,9.2038,0.6459],[-82.2485,9.2001,10.6809],[-82.2524,9.2026,0.2365],[-82.2532,9.2054,0.2603],[-82.2554,9.2046,0.0],[-82.2532,9.2038,0.2603],[-82.254,9.2015,0.0],[-82.2521,9.1999,0.0],[-82.2524,9.1982,1.0218],[-82.2543,9.1979,0.0],[-82.2515,9.1946,0.0],[-82.2479,9.1938,7.6379],[-82.2487,9.1876,8.8844],[-82.2554,9.1843,0.0],[-82.2565,9.181,1.6435],[-82.2588,9.1799,17.6911],[-82.2621,9.1801,10.6549],[-82.2626,9.1829,0.3274],[-82.266,9.1832,4.2729],[-82.2679,9.1862,0.379],[-82.2735,9.184,0.0],[-82.2793,9.1871,6.6352],[-82.281,9.194,2.6763],[-82.279,9.1946,1.4689],[-82.2774,9.1918,0.0],[-82.2763,9.1924,0.086],[-82.2771,9.1938,0.3763],[-82.2732,9.1935,0.0],[-82.2751,9.1993,0.078],[-82.2732,9.2026,0.0],[-82.2754,9.2021,0.0],[-82.2749,9.2043,0.0],[-82.2763,9.2057,0.0],[-82.2785,9.2051,11.7531],[-82.2774,9.2071,0.0],[-82.2787,9.211,0.0],[-82.2824,9.211,1.2323],[-82.2826,9.2121,1.5145],[-82.2804,9.2118,0.0],[-82.2821,9.2129,1.5145],[-82.2818,9.2149,0.0],[-82.2865,9.2165,17.0448],[-82.289,9.2263,0.6815],[-82.2921,9.226,0.3928],[-82.2907,9.2237,0.4992],[-82.2937,9.2199,1.1895],[-82.2918,9.2154,0.5014],[-82.2929,9.2135,0.0],[-82.2815,9.2004,5.4919],[-82.2832,9.199,0.0],[-82.2849,9.201,0.0],[-82.2865,9.2004,0.0],[-82.2857,9.199,3.0842],[-82.2874,9.1976,2.8253],[-82.286,9.1974,10.4848],[-82.2943,9.1913,73.8183],[-82.292,9.1873,135.4205],[-82.2917,9.1808,246.2619],[-82.3036,9.1772,157.7454],[-82.3074,9.1745,222.9435],[-82.3134,9.1749,209.4441],[-82.321,9.1721,315.2088],[-82.3307,9.1747,369.5948],[-82.3337,9.1715,339.4201],[-82.3363,9.1645,398.7418],[-82.3382,9.1635,408.3646],[-82.3424,9.1675,431.1646],[-82.3474,9.1669,435.8401],[-82.3555,9.1708,342.6161],[-82.3604,9.1829,225.213],[-82.3731,9.1973,185.5377],[-82.3787,9.176,181.1749],[-82.3911,9.185,158.9255],[-82.4013,9.1832,226.4237],[-82.4039,9.178,280.556],[-82.4014,9.1624,303.8679],[-82.4057,9.1618,295.7992],[-82.414,9.1561,324.5558],[-82.422,9.1112,361.2644],[-82.4217,9.1099,375.3055],[-82.4151,9.1114,319.1396],[-82.4052,9.1036,269.8521],[-82.4032,9.0989,346.6617],[-82.4046,9.0889,354.2806],[-82.3997,9.0843,398.3195],[-82.3996,9.0774,313.2336],[-82.4029,9.0728,418.9987],[-82.3983,9.0671,404.7306],[-82.3981,9.0608,527.5856],[-82.4009,9.0568,547.7665],[-82.4064,9.0258,453.5291],[-82.3837,9.026,437.9503],[-82.3792,9.0293,391.3396],[-82.3795,9.0321,429.6029],[-82.3847,9.0386,468.145],[-82.3768,9.0396,405.8649],[-82.3727,9.0419,371.1804],[-82.3708,9.0473,286.6739],[-82.3652,9.0509,216.0085],[-82.365,9.0541,230.209],[-82.3569,9.065,133.105],[-82.3561,9.0705,112.9827],[-82.3485,9.0732,170.4348],[-82.3496,9.0767,137.0806],[-82.3584,9.0837,110.9939],[-82.3454,9.0924,190.7062],[-82.3437,9.1018,104.1387],[-82.3407,9.1057,131.711],[-82.342,9.1095,140.9375],[-82.341,9.1149,171.3104],[-82.3361,9.1196,315.0033],[-82.3294,9.1209,365.4571],[-82.3234,9.1241,202.3086],[-82.3179,9.1355,215.1855],[-82.3138,9.1254,121.4428],[-82.3105,9.142,48.5568],[-82.304,9.138,9.4908],[-82.3007,9.1311,4.2495],[-82.3012,9.1263,47.4049],[-82.2986,9.1232,59.743],[-82.2942,9.1223,5.7745],[-82.2887,9.1116,74.8805],[-82.2858,9.1109,18.8249],[-82.2724,9.1151,0.0],[-82.2671,9.1129,5.2078],[-82.264,9.1096,0.0],[-82.259,9.109,0.0],[-82.2562,9.1107,6.422],[-82.2535,9.1096,0.9763],[-82.2546,9.1126,3.7269],[-82.2588,9.1129,5.758],[-82.2696,9.1196,11.5815],[-82.2696,9.1224,5.6395],[-82.2671,9.1257,0.0],[-82.2674,9.1318,0.0],[-82.2629,9.1351,0.0],[-82.2665,9.1376,0.0],[-82.2688,9.1351,6.7452],[-82.2707,9.1365,6.0855],[-82.2721,9.1413,5.7138],[-82.2701,9.1507,29.0279],[-82.2618,9.1543,31.0626],[-82.2582,9.1529,0.0],[-82.2543,9.1543,12.6964],[-82.254,9.1621,2.712],[-82.2574,9.1643,10.8756]]],
[[[-82.2471,9.1621,3.7416],[-82.2462,9.1635,0.0],[-82.2524,9.1612,0.0],[-82.2493,9.1607,11.4948],[-82.2471,9.1621,3.7416]]],
[[[-82.2718,9.1918,0.1869],[-82.271,9.1929,0.1735],[-82.2726,9.1932,0.0],[-82.274,9.1912,0.0],[-82.2729,9.191,0.1869],[-82.2718,9.1918,0.1869]]],
[[[-82.189,9.1474,0.0],[-82.1879,9.1474,0.0],[-82.1879,9.1493,0.1603],[-82.1904,9.1485,0.1045],[-82.189,9.1474,0.0]]],
[[[-82.204,9.1576,0.2524],[-82.2049,9.1587,0.2524],[-82.2057,9.1587,0.2524],[-82.2051,9.1563,0.0],[-82.204,9.1576,0.2524]]],
[[[-82.2051,9.164,0.0],[-82.2074,9.1654,0.1172],[-82.209,9.1624,0.6478],[-82.2121,9.1621,0.0],[-82.2135,9.1585,0.0],[-82.2074,9.161,2.5522],[-82.2065,9.1585,0.0],[-82.204,9.1646,0.0],[-82.2051,9.164,0.0]]],
[[[-82.1829,9.2226,0.4884],[-82.1837,9.224,0.0],[-82.1913,9.2232,0.2555],[-82.1937,9.2201,0.0],[-82.1907,9.2221,0.2555],[-82.1907,9.2207,0.065],[-82.1862,9.2188,0.0708],[-82.1865,9.2224,1.0652],[-82.1835,9.2207,0.0],[-82.1829,9.2226,0.4884]]],
[[[-82.2715,9.1988,0.0],[-82.2724,9.2001,0.3452],[-82.2746,9.1999,0.078],[-82.2735,9.1985,0.0],[-82.2715,9.1988,0.0]]],
[[[-82.2546,9.2063,0.0],[-82.2543,9.2071,0.0],[-82.2571,9.2068,0.0],[-82.2557,9.2054,0.0],[-82.2546,9.2063,0.0]]],
[[[-82.2543,9.2096,0.0],[-82.2535,9.2104,0.0],[-82.2554,9.2115,0.0],[-82.2554,9.2093,0.0],[-82.2543,9.2096,0.0]]],
[[[-82.2412,9.2151,0.167],[-82.2412,9.2168,0.4536],[-82.2435,9.2168,0.0],[-82.2435,9.2146,0.0],[-82.2412,9.2151,0.167]]],
[[[-82.2054,9.2226,0.0],[-82.2074,9.2235,0.5467],[-82.2085,9.2235,0.4424],[-82.2074,9.2215,0.0],[-82.2054,9.2226,0.0]]],
[[[-82.2254,9.2285,0.0],[-82.2246,9.2293,0.2412],[-82.2246,9.231,0.0],[-82.2254,9.231,0.0],[-82.2254,9.2285,0.0]]],
[[[-82.2196,9.2321,0.0],[-82.2207,9.2335,0.2959],[-82.2224,9.2327,0.0],[-82.2207,9.2285,0.0],[-82.219,9.2293,0.3351],[-82.2196,9.2321,0.0]]],
[[[-82.2221,9.2424,0.0],[-82.2224,9.2437,0.2247],[-82.2251,9.2437,0.3496],[-82.2251,9.2379,0.3848],[-82.2218,9.2349,0.0],[-82.219,9.2365,0.1693],[-82.2182,9.2349,0.0],[-82.2179,9.2374,0.1748],[-82.221,9.239,0.2916],[-82.2201,9.2407,0.0],[-82.2232,9.2404,0.625],[-82.2221,9.2424,0.0]]],
[[[-82.1679,9.2612,0.2567],[-82.1682,9.2626,0.0],[-82.1704,9.2615,0.5339],[-82.1699,9.2604,0.0],[-82.1679,9.2612,0.2567]]],
[[[-82.1749,9.2654,0.0],[-82.1749,9.2671,0.0],[-82.1774,9.2662,0.0977],[-82.1768,9.2638,0.8583],[-82.1801,9.2621,0.4925],[-82.1771,9.2621,0.9214],[-82.1762,9.2651,0.8583],[-82.1749,9.2654,0.0]]],
[[[-82.1787,9.2676,0.0],[-82.1776,9.2679,0.0],[-82.1799,9.2679,0.0798],[-82.1801,9.266,0.1346],[-82.1799,9.2654,0.0],[-82.1787,9.2657,0.0977],[-82.1799,9.2671,0.0798],[-82.1787,9.2676,0.0]]],
[[[-82.1704,9.2749,0.0],[-82.1699,9.2774,0.0],[-82.1732,9.2757,0.0],[-82.1721,9.274,0.0],[-82.1704,9.2749,0.0]]],
[[[-82.1726,9.2796,0.0],[-82.1718,9.2782,0.0],[-82.1718,9.2815,0.0],[-82.1726,9.2815,0.0],[-82.1726,9.2796,0.0]]],
[[[-82.1804,9.2882,0.0],[-82.1824,9.2879,0.0],[-82.1799,9.2862,0.0],[-82.1804,9.2871,0.0],[-82.1801,9.2882,0.0],[-82.1804,9.2882,0.0]]],
[[[-82.1762,9.2987,0.0],[-82.1796,9.3007,0.0],[-82.1787,9.2993,0.0644],[-82.1815,9.299,0.0],[-82.1829,9.2962,0.0],[-82.1774,9.2951,0.0],[-82.1765,9.2976,0.0],[-82.1743,9.2954,0.0],[-82.1762,9.2987,0.0]]],
[[[-82.1804,9.3006,0.0],[-82.1821,9.3029,0.1708],[-82.184,9.3029,0.0557],[-82.1824,9.2996,0.0],[-82.1804,9.3006,0.0]]],
[[[-82.1918,9.2887,0.0],[-82.1937,9.291,0.276],[-82.1935,9.2885,0.3308],[-82.1954,9.2882,0.3308],[-82.1937,9.2868,0.0],[-82.1926,9.2882,0.0],[-82.191,9.2876,0.0],[-82.1918,9.2887,0.0]]],
[[[-82.1996,9.2965,0.1191],[-82.2012,9.2979,0.0],[-82.2015,9.2943,0.1923],[-82.1946,9.291,0.276],[-82.196,9.2929,0.1041],[-82.1943,9.2943,0.3194],[-82.1979,9.2937,0.3527],[-82.1976,9.2954,0.095],[-82.1996,9.2965,0.1191]]],
[[[-82.1946,9.2987,0.3074],[-82.1963,9.3007,0.0],[-82.196,9.2976,0.2435],[-82.1912,9.2937,0.0],[-82.1918,9.2968,0.2212],[-82.1946,9.2987,0.3074]]],
[[[-82.1871,9.3007,0.1555],[-82.1879,9.3018,0.0],[-82.189,9.3018,0.0],[-82.1862,9.2987,0.0],[-82.1871,9.3007,0.1555]]],
[[[-82.2254,9.2338,0.0],[-82.2257,9.2357,0.0],[-82.2276,9.2354,0.0],[-82.2262,9.2332,0.0],[-82.2254,9.2338,0.0]]],
[[[-82.2265,9.2421,0.0],[-82.2299,9.2418,0.3379],[-82.2304,9.239,0.7187],[-82.2288,9.2371,0.153],[-82.2265,9.2382,0.6341],[-82.2265,9.2421,0.0]]],
[[[-82.2335,9.251,0.0],[-82.2332,9.2524,0.0],[-82.236,9.2529,0.2984],[-82.2368,9.2501,0.3746],[-82.2393,9.251,0.3785],[-82.239,9.2465,0.0],[-82.2363,9.2429,0.215],[-82.2387,9.2407,0.0],[-82.2351,9.2399,0.0],[-82.2376,9.2388,0.0],[-82.2374,9.2365,0.0],[-82.2312,9.239,0.3501],[-82.2315,9.2424,0.0],[-82.2349,9.2424,0.215],[-82.2346,9.2446,0.0],[-82.2363,9.2463,0.2518],[-82.2335,9.251,0.0]]],
[[[-82.2301,9.2488,0.0],[-82.2326,9.2496,0.1025],[-82.2343,9.2468,0.1371],[-82.2326,9.2474,0.5041],[-82.2324,9.2451,0.0],[-82.2279,9.2463,0.2639],[-82.2301,9.2488,0.0]]],
[[[-82.2221,9.2488,0.0],[-82.2235,9.2501,0.6706],[-82.2254,9.2482,0.0],[-82.2249,9.2479,0.0],[-82.2221,9.2488,0.0]]],
[[[-82.1857,9.2607,0.9833],[-82.1868,9.2618,0.9833],[-82.1846,9.2565,0.0],[-82.1826,9.2557,0.7158],[-82.184,9.259,1.4517],[-82.181,9.2588,0.0],[-82.1832,9.2612,0.2918],[-82.1857,9.2607,0.9833]]],
[[[-82.191,9.259,0.2193],[-82.1907,9.2615,0.0],[-82.1913,9.2621,0.0],[-82.1929,9.2593,0.279],[-82.191,9.259,0.2193]]],
[[[-82.1899,9.2632,0.0],[-82.191,9.2654,0.0],[-82.1921,9.2649,0.0],[-82.1915,9.2632,0.0],[-82.1899,9.2632,0.0]]],
[[[-82.289,9.2968,5.8161],[-82.2913,9.2979,0.7041],[-82.2929,9.2962,0.2278],[-82.2924,9.291,1.5361],[-82.2946,9.2874,3.7556],[-82.2935,9.2849,2.699],[-82.2965,9.2826,0.0],[-82.2943,9.2779,1.7416],[-82.2962,9.2707,4.1062],[-82.2926,9.2707,4.413],[-82.2918,9.269,9.5758],[-82.2957,9.2676,0.0],[-82.2965,9.2618,0.0],[-82.2993,9.2582,0.0],[-82.2951,9.256,5.7769],[-82.2968,9.2538,0.0],[-82.294,9.2485,0.0],[-82.2868,9.2476,1.1896],[-82.2857,9.246,1.3037],[-82.2826,9.2471,4.0017],[-82.2812,9.2454,3.3814],[-82.286,9.2429,0.6725],[-82.2896,9.2457,0.0],[-82.2935,9.2454,0.5512],[-82.2954,9.2382,0.954],[-82.2904,9.2343,0.2905],[-82.2857,9.236,2.5405],[-82.2887,9.2321,0.0],[-82.281,9.2271,1.4538],[-82.2846,9.2246,0.0],[-82.2804,9.2193,0.0],[-82.2774,9.2196,1.45],[-82.2674,9.2124,0.6326],[-82.2601,9.2151,0.0],[-82.2554,9.2137,0.0],[-82.2526,9.2168,0.0],[-82.2526,9.2213,0.0],[-82.2551,9.2226,0.0],[-82.2557,9.2251,2.9758],[-82.2596,9.2257,0.14],[-82.2596,9.2324,0.0],[-82.2629,9.231,0.2044],[-82.2651,9.2338,0.5586],[-82.2688,9.2338,0.3182],[-82.2679,9.2351,0.3182],[-82.261,9.2346,0.0],[-82.2574,9.2415,2.9591],[-82.2546,9.244,4.5268],[-82.2529,9.2424,0.1517],[-82.2521,9.2451,0.9843],[-82.2487,9.2412,0.0],[-82.2446,9.2457,0.5424],[-82.2426,9.2443,0.2962],[-82.2446,9.2437,0.0],[-82.2435,9.2407,0.0],[-82.2426,9.2421,0.1239],[-82.2407,9.2415,0.0],[-82.2418,9.2437,0.1239],[-82.2387,9.2424,0.0],[-82.2404,9.2451,0.1599],[-82.2404,9.251,0.3785],[-82.2371,9.2532,0.5166],[-82.2399,9.2543,0.5429],[-82.236,9.2554,0.3886],[-82.2387,9.256,0.2607],[-82.2399,9.2585,0.1464],[-82.2426,9.2565,1.19],[-82.2412,9.2624,0.0],[-82.2446,9.2671,0.0],[-82.2435,9.2696,0.0],[-82.2449,9.2699,0.0],[-82.2457,9.2679,0.0],[-82.244,9.2649,0.0],[-82.2438,9.2626,0.9516],[-82.2449,9.2626,0.9516],[-82.2471,9.2657,3.7164],[-82.2471,9.2688,0.527],[-82.2493,9.2693,1.8415],[-82.2485,9.2735,0.0],[-82.2513,9.2771,0.7003],[-82.256,9.2785,2.3568],[-82.2562,9.2807,0.0],[-82.2588,9.2826,0.0],[-82.2579,9.2882,0.0],[-82.2621,9.2951,0.3828],[-82.2696,9.2946,0.0],[-82.2715,9.2901,0.0],[-82.2693,9.2863,31.9563],[-82.2743,9.2857,1.1193],[-82.276,9.2893,0.0],[-82.2812,9.2896,0.6267],[-82.2821,9.2857,0.4514],[-82.2849,9.2871,0.0],[-82.284,9.2824,5.4159],[-82.2862,9.281,5.8481],[-82.2868,9.2851,0.67],[-82.2901,9.2843,0.1505],[-82.2887,9.2868,0.491],[-82.2896,9.2893,0.9695],[-82.2874,9.2887,0.0],[-82.2851,9.2904,0.0],[-82.2862,9.2949,3.7953],[-82.289,9.2968,5.8161]]],
[[[-82.2471,9.2782,0.0],[-82.2499,9.279,0.0],[-82.2487,9.2757,0.0],[-82.2468,9.276,0.0],[-82.2471,9.2782,0.0]]],
[[[-82.2268,9.3554,4.2807],[-82.2282,9.3571,0.0],[-82.2276,9.3551,4.2807],[-82.231,9.3532,2.7004],[-82.2357,9.3407,0.0],[-82.2379,9.3399,0.0],[-82.2371,9.3382,0.0],[-82.231,9.3401,0.0],[-82.2282,9.351,6.13],[-82.2249,9.3529,0.0],[-82.2268,9.3554,4.2807]]],
[[[-82.2735,9.4404,0.0],[-82.2757,9.4415,0.0],[-82.2763,9.4385,19.9612],[-82.2793,9.4382,16.032],[-82.2835,9.441,0.0],[-82.2871,9.441,0.0],[-82.2896,9.4382,16.2099],[-82.2943,9.4371,0.0],[-82.2965,9.434,0.0],[-82.3049,9.4315,0.0],[-82.3087,9.4282,3.3737],[-82.3238,9.4285,0.0],[-82.3243,9.4268,0.0],[-82.3215,9.4218,8.2486],[-82.3223,9.4185,14.0831],[-82.3251,9.4165,3.2534],[-82.3307,9.416,0.8373],[-82.3321,9.4129,0.0],[-82.3299,9.411,4.4101],[-82.3288,9.4049,3.9853],[-82.3243,9.4051,0.0],[-82.321,9.401,0.417],[-82.3165,9.4029,0.9789],[-82.3154,9.3974,0.0],[-82.314,9.3979,0.0],[-82.314,9.4012,0.8766],[-82.3104,9.3999,1.8041],[-82.3118,9.3968,0.2329],[-82.3099,9.3954,1.9444],[-82.311,9.3929,0.284],[-82.3049,9.3876,0.1895],[-82.3046,9.3851,0.0],[-82.3018,9.3851,1.3061],[-82.3035,9.3815,1.0827],[-82.3015,9.3807,1.6569],[-82.3029,9.3776,0.3171],[-82.2962,9.3799,0.5421],[-82.299,9.3754,0.0],[-82.2968,9.376,1.4604],[-82.2968,9.3737,0.0],[-82.291,9.3729,0.1704],[-82.2865,9.3704,0.0],[-82.2837,9.3635,0.0],[-82.2787,9.3665,0.2633],[-82.2782,9.371,3.3468],[-82.2757,9.3721,5.5876],[-82.276,9.3685,0.0],[-82.2724,9.3676,0.4417],[-82.2721,9.366,0.0],[-82.2757,9.3651,0.0834],[-82.2754,9.3624,0.2425],[-82.2785,9.3615,0.0],[-82.2768,9.3601,0.0],[-82.2718,9.3638,0.2926],[-82.274,9.3596,0.0],[-82.2704,9.3582,0.0],[-82.2624,9.3496,0.2849],[-82.2618,9.3499,0.2849],[-82.2624,9.3521,0.1064],[-82.2635,9.3538,0.4731],[-82.2613,9.3557,1.3859],[-82.2637,9.3585,9.8837],[-82.2596,9.3565,1.3859],[-82.2585,9.354,4.2804],[-82.2601,9.3526,0.4107],[-82.2582,9.3526,4.2504],[-82.2565,9.3501,1.6032],[-82.2582,9.3474,0.1232],[-82.2549,9.3476,2.876],[-82.2518,9.3438,0.0],[-82.2535,9.341,0.7028],[-82.2585,9.3421,0.0],[-82.2585,9.3385,0.3441],[-82.2543,9.3354,0.0],[-82.2518,9.3299,0.0],[-82.2504,9.3329,1.7312],[-82.2462,9.3346,0.0],[-82.2479,9.339,0.929],[-82.2404,9.3349,0.0],[-82.2385,9.3399,0.0],[-82.2415,9.3435,1.1684],[-82.2499,9.344,0.9379],[-82.2543,9.3485,2.876],[-82.2554,9.3526,4.1662],[-82.2538,9.3565,6.8487],[-82.249,9.3579,0.0],[-82.2476,9.3615,1.0872],[-82.241,9.3604,0.0],[-82.2376,9.3638,0.7644],[-82.2376,9.3674,0.0],[-82.2396,9.3685,2.9719],[-82.2396,9.3713,2.2898],[-82.2379,9.3726,0.0],[-82.2393,9.3774,3.7659],[-82.2343,9.3838,0.0],[-82.236,9.3882,6.8081],[-82.2351,9.3904,7.6516],[-82.2385,9.3913,2.211],[-82.244,9.3968,9.3974],[-82.2454,9.4018,2.2788],[-82.2554,9.4149,9.5594],[-82.256,9.4207,0.0],[-82.2582,9.4243,0.0],[-82.2562,9.4274,0.0],[-82.2565,9.431,0.0],[-82.2585,9.4313,0.0],[-82.2593,9.4343,0.0],[-82.2679,9.4371,0.0],[-82.2696,9.439,0.0],[-82.2735,9.4385,7.0401],[-82.2735,9.4404,0.0]]],
[[[-82.0954,9.1524,0.1713],[-82.0949,9.1529,0.1713],[-82.0974,9.1529,0.0],[-82.0968,9.1515,0.0],[-82.0954,9.1524,0.1713]]],
[[[-82.0504,9.181,11.4287],[-82.0515,9.1824,0.0],[-82.0537,9.181,0.0],[-82.0537,9.1685,0.2442],[-82.0568,9.1635,6.64],[-82.0563,9.1587,3.2342],[-82.0601,9.1518,0.0],[-82.0529,9.1468,0.0],[-82.0493,9.1463,11.3238],[-82.0326,9.131,3.3767],[-82.0268,9.1304,0.0],[-82.0218,9.1321,4.0351],[-82.0188,9.134,6.4851],[-82.0143,9.1424,7.1501],[-82.0118,9.1438,11.8313],[-82.0074,9.1432,0.0],[-82.0079,9.1449,3.1048],[-82.0118,9.146,0.0],[-82.0135,9.149,0.0],[-82.0193,9.1471,0.0],[-82.0221,9.1485,4.5957],[-82.0235,9.1499,1.4019],[-82.0224,9.1554,0.0],[-82.0282,9.1565,7.8058],[-82.031,9.1607,3.2388],[-82.0299,9.1688,0.0],[-82.0332,9.169,12.5823],[-82.0338,9.1704,12.5823],[-82.0385,9.1699,10.5333],[-82.046,9.1788,0.0],[-82.0504,9.181,11.4287]]],
[[[-82.0899,9.161,0.0],[-82.0888,9.1632,0.6886],[-82.0904,9.1626,0.6886],[-82.0913,9.1596,0.0],[-82.0885,9.1596,0.0],[-82.0899,9.161,0.0]]],
[[[-82.1232,9.2368,0.0],[-82.1268,9.2376,0.0],[-82.1338,9.2335,6.6706],[-82.1365,9.2354,1.7011],[-82.1387,9.2324,0.0],[-82.1413,9.2329,0.0],[-82.1429,9.2313,0.0],[-82.1415,9.2287,1.188],[-82.1449,9.229,0.0],[-82.144,9.2279,0.2466],[-82.1454,9.2257,0.0425],[-82.1479,9.2257,0.0],[-82.1493,9.2201,0.0],[-82.1465,9.2204,0.0],[-82.1462,9.2218,0.0],[-82.1451,9.2207,0.0],[-82.1443,9.2224,0.0],[-82.1435,9.219,0.1509],[-82.1454,9.219,0.0],[-82.1446,9.2176,0.1653],[-82.1462,9.2174,0.0],[-82.1462,9.2151,0.2245],[-82.1474,9.2176,0.0],[-82.1507,9.2154,0.0],[-82.1487,9.2157,0.0],[-82.1482,9.2121,0.0],[-82.1457,9.2121,0.0],[-82.1446,9.2137,0.0],[-82.1435,9.2113,1.2911],[-82.1449,9.2093,0.2127],[-82.1474,9.2104,0.0],[-82.1499,9.2076,0.0],[-82.1496,9.2051,0.4555],[-82.1557,9.2035,0.3467],[-82.1529,9.2013,0.0],[-82.1474,9.201,1.2332],[-82.1446,9.2024,0.249],[-82.144,9.2065,3.9469],[-82.1438,9.2051,0.0],[-82.1413,9.2054,1.8602],[-82.1432,9.2007,0.0998],[-82.1382,9.2015,0.0951],[-82.1338,9.1996,0.0842],[-82.1415,9.1976,0.0],[-82.1404,9.1951,0.0],[-82.1379,9.1982,0.0457],[-82.1357,9.1979,0.634],[-82.1387,9.1954,0.0],[-82.1396,9.191,2.2544],[-82.1421,9.1912,8.785],[-82.1471,9.1965,1.9223],[-82.151,9.1976,0.0],[-82.1532,9.1965,0.1077],[-82.1532,9.1938,0.0],[-82.1513,9.1951,0.3161],[-82.1515,9.1901,1.4523],[-82.1526,9.1904,0.1616],[-82.154,9.1871,1.1043],[-82.1543,9.1882,1.1043],[-82.1532,9.1918,0.0743],[-82.1557,9.1896,0.3785],[-82.1593,9.191,0.0],[-82.1588,9.1876,0.0],[-82.1568,9.1865,0.0],[-82.1579,9.1835,0.0],[-82.1554,9.1799,1.3574],[-82.1579,9.1785,0.0],[-82.1562,9.1774,0.9595],[-82.1571,9.1751,0.0],[-82.1537,9.1749,3.0545],[-82.1568,9.1726,0.0],[-82.1554,9.1715,0.222],[-82.156,9.1696,0.3507],[-82.154,9.1688,1.9049],[-82.1532,9.1629,0.0],[-82.1573,9.1615,0.4145],[-82.1554,9.1635,0.0],[-82.1571,9.1662,0.1229],[-82.1565,9.1685,0.3079],[-82.1615,9.1693,0.1276],[-82.1618,9.1682,0.1125],[-82.1576,9.1668,0.1229],[-82.1601,9.1646,0.0622],[-82.1607,9.1615,0.0],[-82.1543,9.1549,1.6477],[-82.1535,9.1479,0.0],[-82.1507,9.151,0.4772],[-82.1501,9.1504,0.386],[-82.1513,9.149,0.0761],[-82.1496,9.1485,0.0],[-82.1476,9.1521,1.8408],[-82.1432,9.154,2.4424],[-82.1429,9.1515,0.0],[-82.1379,9.1507,9.0396],[-82.139,9.146,0.0],[-82.136,9.1457,1.2037],[-82.1365,9.1474,3.031],[-82.1351,9.1479,5.5471],[-82.1307,9.1443,1.4978],[-82.1293,9.1404,0.0],[-82.1276,9.141,12.4182],[-82.119,9.1365,0.0],[-82.116,9.1413,3.4949],[-82.1121,9.1413,3.3704],[-82.1107,9.139,14.034],[-82.1137,9.1357,0.0],[-82.0982,9.129,0.0],[-82.1001,9.1332,0.0],[-82.099,9.1351,0.8465],[-82.0954,9.1349,0.9435],[-82.0965,9.1357,1.2792],[-82.0957,9.1388,0.0],[-82.0979,9.141,1.7699],[-82.0963,9.1457,0.0],[-82.0971,9.1471,0.0],[-82.1004,9.1463,0.7701],[-82.0974,9.1496,0.1583],[-82.1007,9.1532,0.0],[-82.099,9.1543,0.177],[-82.0957,9.1535,0.1713],[-82.0949,9.1576,0.2228],[-82.0924,9.1579,0.0],[-82.0921,9.1604,0.0],[-82.0937,9.161,0.0],[-82.0935,9.1596,0.1622],[-82.0974,9.1585,0.0],[-82.0974,9.1549,0.0503],[-82.1001,9.1549,0.177],[-82.1007,9.1574,0.5101],[-82.0982,9.1607,1.4603],[-82.0949,9.1618,1.1614],[-82.0943,9.1643,0.2595],[-82.0921,9.1632,0.0],[-82.0912,9.1663,0.285],[-82.0899,9.1651,0.0],[-82.0899,9.1674,0.0931],[-82.094,9.1674,0.0],[-82.0929,9.1693,0.65],[-82.0907,9.1696,0.0461],[-82.091,9.1726,3.4344],[-82.0885,9.1679,0.0],[-82.0876,9.1704,0.2246],[-82.0835,9.1721,0.898],[-82.0821,9.1746,1.4071],[-82.0718,9.1738,0.0],[-82.0721,9.1774,3.9246],[-82.0874,9.1804,0.3335],[-82.0896,9.1788,0.0],[-82.0974,9.1788,0.0912],[-82.0996,9.1768,3.7001],[-82.0999,9.1782,0.0495],[-82.0957,9.1824,0.0],[-82.0996,9.1838,0.0761],[-82.101,9.1829,0.0559],[-82.1004,9.1804,0.3774],[-82.1032,9.181,1.7384],[-82.1029,9.1826,0.0559],[-82.1085,9.1812,0.3659],[-82.1071,9.1843,0.2654],[-82.1099,9.1865,1.8914],[-82.1124,9.186,9.4444],[-82.1118,9.1871,1.1586],[-82.1101,9.1874,0.1435],[-82.111,9.1887,0.1435],[-82.1076,9.1887,0.0929],[-82.1046,9.1865,0.0],[-82.1024,9.1893,0.0],[-82.1096,9.1899,0.2455],[-82.1115,9.1918,0.0],[-82.1132,9.189,0.0683],[-82.1149,9.1904,0.8638],[-82.1151,9.1951,0.0],[-82.1087,9.1949,2.6173],[-82.1038,9.1912,0.0],[-82.1024,9.1918,0.0],[-82.1029,9.1932,0.1021],[-82.0982,9.1935,0.0],[-82.0979,9.1962,0.4944],[-82.1029,9.2015,0.0],[-82.1035,9.2051,2.9658],[-82.1079,9.2104,1.1207],[-82.106,9.2162,0.84],[-82.1071,9.2218,5.3992],[-82.1104,9.2235,1.4297],[-82.1137,9.229,4.324],[-82.1185,9.2315,1.8489],[-82.1226,9.2276,1.3163],[-82.1274,9.2274,0.0],[-82.1279,9.2293,2.1557],[-82.1221,9.229,5.7301],[-82.1176,9.2329,0.0],[-82.1201,9.2338,0.0],[-82.1224,9.2321,2.955],[-82.1232,9.2368,0.0]]],
[[[-82.091,9.1868,0.4976],[-82.0935,9.1874,0.3721],[-82.0924,9.1849,0.2536],[-82.0901,9.1843,0.2534],[-82.0899,9.1849,0.2534],[-82.091,9.1868,0.4976]]],
[[[-82.0976,9.1876,0.5364],[-82.0963,9.1882,0.0],[-82.0987,9.1885,0.5364],[-82.1004,9.186,0.2564],[-82.099,9.1843,0.0761],[-82.0971,9.186,0.1997],[-82.0976,9.1876,0.5364]]],
[[[-82.0888,9.1868,0.516],[-82.0896,9.1882,0.3594],[-82.091,9.1879,0.0],[-82.0882,9.1851,0.0],[-82.0888,9.1868,0.516]]],
[[[-81.9179,9.2107,0.0],[-81.9157,9.211,0.0],[-81.916,9.2124,0.0],[-81.9201,9.2118,0.0],[-81.9179,9.2107,0.0]]],
[[[-82.1518,9.2199,0.0803],[-82.1543,9.2204,0.2356],[-82.1526,9.2171,0.0786],[-82.1507,9.2165,0.0],[-82.1501,9.2182,0.0],[-82.1518,9.2199,0.0803]]],
[[[-82.1588,9.2293,0.2232],[-82.161,9.2301,0.0],[-82.1604,9.2232,0.0],[-82.1574,9.2243,0.3344],[-82.1588,9.2293,0.2232]]],
[[[-82.1501,9.2429,0.0],[-82.1579,9.2437,0.2247],[-82.1596,9.2401,0.2507],[-82.1535,9.239,1.6026],[-82.151,9.2401,0.4687],[-82.1501,9.2429,0.0]]],
[[[-82.1371,9.2432,0.0],[-82.1368,9.2454,0.0],[-82.1401,9.244,0.0],[-82.1387,9.2426,0.5336],[-82.1371,9.2432,0.0]]],
[[[-81.9238,9.2132,0.0],[-81.9271,9.214,0.0],[-81.926,9.2124,2.2642],[-81.9218,9.2124,0.0],[-81.9238,9.2132,0.0]]],
[[[-82.0368,9.2554,5.5663],[-82.0407,9.2563,1.3496],[-82.0415,9.2549,0.0],[-82.0362,9.2518,0.0],[-82.0329,9.2524,0.0],[-82.0343,9.2543,2.12],[-82.0368,9.2554,5.5663]]],
[[[-82.0551,9.2662,1.8405],[-82.0585,9.2668,4.1531],[-82.0543,9.264,5.1067],[-82.051,9.2638,2.1051],[-82.0512,9.2646,2.1051],[-82.0551,9.2662,1.8405]]],
[[[-82.1318,9.2668,0.0],[-82.1324,9.2685,0.2957],[-82.1346,9.2682,0.1948],[-82.1335,9.2662,0.0],[-82.1318,9.2668,0.0]]],
[[[-82.1632,9.1624,0.0],[-82.164,9.1637,0.0],[-82.1654,9.1626,0.0],[-82.1651,9.1582,0.0],[-82.1632,9.1576,0.3778],[-82.1632,9.1557,0.2981],[-82.1668,9.1526,0.0],[-82.1649,9.1479,18.7032],[-82.169,9.1521,0.0],[-82.1729,9.1515,0.0],[-82.1746,9.1468,2.2313],[-82.1657,9.136,1.8901],[-82.1579,9.1321,4.8345],[-82.159,9.1393,0.0],[-82.1607,9.1401,7.2606],[-82.1596,9.1424,1.6459],[-82.1571,9.1418,0.0],[-82.1529,9.1451,0.6504],[-82.1562,9.1496,0.0],[-82.1546,9.1513,0.3902],[-82.1551,9.1549,0.0871],[-82.1607,9.1587,0.4513],[-82.1632,9.1624,0.0]]],
[[[-82.166,9.1568,0.1173],[-82.1682,9.1582,0.1357],[-82.1676,9.1546,0.0],[-82.1654,9.156,0.1173],[-82.166,9.1568,0.1173]]],
[[[-82.1585,9.1713,0.2385],[-82.1588,9.1729,0.5132],[-82.1607,9.1729,0.0],[-82.1596,9.1699,0.1811],[-82.1585,9.1713,0.2385]]],
[[[-82.1621,9.209,0.0],[-82.1635,9.2113,0.2003],[-82.1635,9.2063,0.0],[-82.1615,9.2062,0.0],[-82.1621,9.209,0.0]]],
[[[-82.1743,9.1832,0.0],[-82.1718,9.1826,0.0],[-82.1718,9.1843,0.0],[-82.174,9.1846,0.0],[-82.1743,9.1832,0.0]]],
[[[-82.1679,9.1849,0.0],[-82.1701,9.1862,0.0],[-82.1715,9.184,0.0],[-82.1699,9.1832,0.0],[-82.1679,9.1849,0.0]]],
[[[-82.1685,9.1896,0.0],[-82.1685,9.1912,0.0],[-82.171,9.1912,0.0],[-82.1732,9.1868,0.0],[-82.169,9.1882,0.111],[-82.1668,9.1835,0.0],[-82.1637,9.1837,0.0],[-82.1632,9.1857,0.1289],[-82.1654,9.1857,0.252],[-82.1685,9.1896,0.0]]],
[[[-82.1693,9.2196,0.7001],[-82.1687,9.2215,0.0],[-82.1704,9.2218,0.6139],[-82.174,9.2162,0.0],[-82.1701,9.2154,0.0],[-82.1682,9.2182,0.0],[-82.1693,9.2196,0.7001]]],
[[[-82.1749,9.219,0.0],[-82.1749,9.221,0.0],[-82.1776,9.2218,0.0],[-82.1765,9.2201,0.2345],[-82.1793,9.2188,0.0],[-82.1771,9.2176,0.1746],[-82.1749,9.219,0.0]]],
[[[-82.1799,9.2207,0.0],[-82.1807,9.2235,0.0],[-82.1818,9.2196,0.0],[-82.1793,9.2199,0.0],[-82.1799,9.2207,0.0]]],
[[[-82.1743,9.2357,0.5589],[-82.1768,9.2371,0.0],[-82.1757,9.2349,0.0],[-82.1771,9.2335,0.0],[-82.1729,9.2349,0.4967],[-82.1743,9.2357,0.5589]]],
[[[-82.1687,9.2399,0.0],[-82.1679,9.2424,0.0],[-82.1729,9.2415,0.0],[-82.1721,9.2399,0.0],[-82.1687,9.2399,0.0]]],
[[[-82.1615,9.2449,0.2758],[-82.1646,9.2463,0.0],[-82.1671,9.2454,0.0],[-82.166,9.2429,0.0],[-82.1612,9.2435,0.0],[-82.1615,9.2449,0.2758]]],
[[[-82.1593,9.2612,0.2756],[-82.1621,9.2626,0.0],[-82.166,9.2621,0.0],[-82.1635,9.2601,0.0],[-82.1593,9.2612,0.2756]]],
[[[-82.1582,9.2643,0.1216],[-82.1582,9.2657,0.0],[-82.1612,9.2649,0.0],[-82.1599,9.264,0.3159],[-82.1582,9.2643,0.1216]]],
[[[-82.1643,9.2701,0.1916],[-82.1665,9.2707,0.0],[-82.1668,9.2696,0.0],[-82.1654,9.2682,0.0],[-82.1621,9.2685,0.0],[-82.1629,9.2701,0.1916],[-82.1643,9.2701,0.1916]]],
[[[-82.1299,9.2707,0.0898],[-82.1321,9.2712,0.0],[-82.1332,9.269,0.2311],[-82.1299,9.269,0.3777],[-82.1299,9.2707,0.0898]]],
[[[-82.1571,9.2732,1.5067],[-82.1601,9.274,0.5239],[-82.1618,9.2729,2.1858],[-82.1604,9.2704,0.0],[-82.1568,9.2699,0.0],[-82.1557,9.2712,0.0],[-82.1571,9.2732,1.5067]]],
[[[-82.159,9.2751,0.5239],[-82.1573,9.2751,0.0],[-82.1573,9.2768,0.1201],[-82.1607,9.2763,0.0],[-82.1607,9.2749,0.0],[-82.159,9.2751,0.5239]]],
[[[-82.1988,9.3601,0.0],[-82.2004,9.3618,4.1867],[-82.2085,9.3568,0.0],[-82.2146,9.3474,0.53],[-82.2085,9.3476,0.8489],[-82.2065,9.3446,0.0],[-82.2087,9.3418,0.0],[-82.2065,9.339,3.5759],[-82.1996,9.3385,3.3258],[-82.1949,9.3351,0.0],[-82.1926,9.3365,0.6018],[-82.1899,9.3351,0.0],[-82.1893,9.3371,3.7211],[-82.1876,9.3371,3.7211],[-82.1865,9.334,0.0],[-82.1885,9.3335,0.0],[-82.1851,9.3301,0.0],[-82.1824,9.3296,0.0],[-82.1854,9.334,0.0],[-82.1826,9.3396,2.8849],[-82.1815,9.3399,2.8849],[-82.1813,9.3379,0.0],[-82.1832,9.3365,0.5665],[-82.1826,9.3346,0.0],[-82.1813,9.3368,0.1767],[-82.1793,9.3351,0.0],[-82.1787,9.3374,1.5445],[-82.1771,9.3374,1.5445],[-82.176,9.3351,0.1561],[-82.1804,9.3332,0.0],[-82.1743,9.3338,5.6213],[-82.1765,9.3304,0.0],[-82.1732,9.3315,0.0],[-82.1735,9.3288,0.0],[-82.1721,9.3279,0.0],[-82.1704,9.3296,13.7901],[-82.1687,9.3257,0.5087],[-82.1729,9.3232,0.0],[-82.1643,9.3237,5.7867],[-82.1632,9.3212,0.0],[-82.1663,9.3221,0.0],[-82.1674,9.3193,0.0],[-82.1635,9.3201,0.1578],[-82.164,9.3176,0.0],[-82.1626,9.3179,0.0],[-82.1624,9.3193,0.0558],[-82.1582,9.3179,2.244],[-82.1607,9.3146,0.1714],[-82.1635,9.3137,0.0],[-82.1618,9.3126,0.0],[-82.1571,9.3157,0.6068],[-82.1573,9.3137,0.0],[-82.151,9.3093,0.8152],[-82.1562,9.3063,1.4202],[-82.1612,9.3068,22.8585],[-82.1704,9.3118,6.6829],[-82.1726,9.3104,8.5379],[-82.1724,9.309,8.5379],[-82.1682,9.3054,2.9885],[-82.1723,9.3068,0.0],[-82.1746,9.3049,0.7254],[-82.1732,9.3074,1.1092],[-82.1754,9.3087,1.0456],[-82.1774,9.3076,0.5733],[-82.1754,9.3115,0.0],[-82.1782,9.3113,2.1806],[-82.1774,9.3143,0.0],[-82.1815,9.3154,25.2061],[-82.184,9.3188,0.0],[-82.1876,9.3182,1.7464],[-82.1871,9.3196,0.0],[-82.1851,9.319,0.0],[-82.1857,9.3204,0.0],[-82.1915,9.3199,27.4723],[-82.1971,9.3218,13.1581],[-82.1974,9.3232,0.0],[-82.2021,9.324,4.1734],[-82.2193,9.3343,0.0],[-82.2207,9.3335,0.0],[-82.2204,9.3285,0.0],[-82.2154,9.3226,0.0],[-82.2132,9.3226,6.943],[-82.2107,9.319,1.3897],[-82.211,9.3165,0.0],[-82.2068,9.3182,1.6143],[-82.2063,9.3154,0.0],[-82.2029,9.316,2.3905],[-82.2032,9.314,0.2233],[-82.2079,9.3151,0.0],[-82.2068,9.3126,0.2812],[-82.2107,9.3118,0.0],[-82.211,9.3104,0.0],[-82.2076,9.3107,1.6719],[-82.2068,9.3085,0.0],[-82.2035,9.3126,0.2873],[-82.2024,9.3099,0.0],[-82.2004,9.3096,0.1325],[-82.2001,9.3065,0.0],[-82.1968,9.3074,0.0],[-82.1976,9.3046,0.0],[-82.1926,9.2982,0.0869],[-82.191,9.299,0.0785],[-82.1882,9.2968,0.0859],[-82.1899,9.3004,0.0785],[-82.194,9.3018,0.0],[-82.1935,9.3043,0.1305],[-82.1904,9.3024,0.0],[-82.1899,9.3029,0.0],[-82.1913,9.3049,0.1158],[-82.1851,9.3029,0.0557],[-82.1837,9.3043,0.0546],[-82.1854,9.3063,1.1137],[-82.184,9.3063,1.1108],[-82.1815,9.3026,0.1708],[-82.1765,9.3013,2.2209],[-82.1751,9.2987,0.0],[-82.1704,9.2982,0.0],[-82.1704,9.3007,1.9196],[-82.169,9.3007,1.9196],[-82.1657,9.2974,0.0657],[-82.1582,9.2979,7.2103],[-82.159,9.2901,0.0],[-82.1573,9.289,3.9708],[-82.1565,9.2832,0.0],[-82.1535,9.284,7.1949],[-82.1546,9.2801,0.0],[-82.1535,9.2818,0.0],[-82.1499,9.2821,4.2777],[-82.1526,9.2771,0.0],[-82.1554,9.2768,0.0],[-82.1546,9.2751,0.0],[-82.1526,9.2751,0.0],[-82.1507,9.2768,0.0],[-82.1499,9.2746,2.3689],[-82.1513,9.2712,2.8759],[-82.1529,9.2715,0.0],[-82.1521,9.2729,0.0],[-82.1537,9.2726,0.0],[-82.1526,9.2704,2.0319],[-82.1543,9.2682,9.4231],[-82.1571,9.2676,0.0],[-82.1554,9.2638,9.9072],[-82.1599,9.2596,0.1815],[-82.1521,9.2543,9.7786],[-82.1479,9.2476,0.373],[-82.1415,9.246,1.2754],[-82.1371,9.2496,0.0],[-82.1368,9.2515,0.0],[-82.1393,9.2543,0.0],[-82.1435,9.254,0.0712],[-82.1429,9.256,0.0],[-82.1457,9.2571,0.0],[-82.1454,9.2626,0.0],[-82.1426,9.2621,0.6839],[-82.1421,9.2638,1.4923],[-82.1379,9.2651,0.0],[-82.1385,9.2685,0.9976],[-82.1415,9.2693,0.9878],[-82.1385,9.2701,0.0],[-82.1363,9.2679,0.0],[-82.1312,9.2729,0.0768],[-82.1296,9.2776,0.0],[-82.1226,9.279,0.2593],[-82.1162,9.2863,0.6347],[-82.1107,9.289,0.6206],[-82.1068,9.2882,0.0],[-82.0996,9.2924,2.7693],[-82.0924,9.2926,10.6323],[-82.0807,9.2904,0.0],[-82.0821,9.2951,0.0],[-82.0857,9.2982,9.4248],[-82.0888,9.304,9.2995],[-82.0893,9.3079,5.0618],[-82.1071,9.3174,4.9381],[-82.1096,9.3201,5.297],[-82.1149,9.3201,9.6972],[-82.1157,9.3182,11.1496],[-82.1204,9.316,8.4568],[-82.1307,9.321,4.9315],[-82.1374,9.3274,0.0],[-82.1385,9.3307,0.0],[-82.141,9.3315,5.94],[-82.1435,9.3357,0.0],[-82.1446,9.3421,0.0],[-82.1499,9.3443,0.0],[-82.1535,9.3432,8.2424],[-82.1562,9.3462,0.0],[-82.1635,9.3482,4.0176],[-82.1637,9.3496,0.0],[-82.1663,9.3465,5.9326],[-82.1723,9.3438,1.4363],[-82.1785,9.344,0.0],[-82.184,9.3468,4.2179],[-82.1857,9.3499,4.0504],[-82.1899,9.3482,12.8131],[-82.1935,9.3487,18.2494],[-82.2001,9.3538,10.8146],[-82.1988,9.3601,0.0]]],
[[[-82.1674,9.3501,1.0302],[-82.1682,9.3512,1.3705],[-82.1696,9.351,0.0],[-82.1663,9.3493,0.0],[-82.1674,9.3501,1.0302]]]]}}