{"type": "Feature","bbox": [-80.5619,8.1517,-80.4683,8.2425],"geometry": {"type": "MultiPolygon","coordinates": [[[[-80.5619,8.1671,2.1258],[-80.5545,8.1676,2.4923],[-80.5505,8.165,1.8117],[-80.5463,8.1657,8.0798],[-80.5414,8.1701,3.3521],[-80.539,8.1703,1.2024],[-80.5345,8.1655,3.3285],[-80.533,8.1602,9.3008],[-80.5337,8.1548,1.5997],[-80.5312,8.1534,0.0],[-80.529,8.156,19.4863],[-80.5277,8.1552,0.0],[-80.5285,8.1522,0.0],[-80.5255,8.1517,0.0],[-80.5246,8.1563,15.1134],[-80.5208,8.1572,10.5717],[-80.5205,8.161,0.0],[-80.5213,8.1631,5.2275],[-80.5232,8.1629,11.7742],[-80.524,8.1606,10.7124],[-80.5274,8.1617,10.9618],[-80.5235,8.1666,3.1066],[-80.5259,8.1704,8.6878],[-80.5249,8.1734,2.2007],[-80.5196,8.1731,0.4576],[-80.5134,8.1763,3.4384],[-80.5075,8.1756,0.0],[-80.5044,8.1788,2.8462],[-80.498,8.1738,6.3608],[-80.4905,8.1731,5.2916],[-80.4865,8.179,0.0],[-80.4876,8.1804,8.9323],[-80.4924,8.1799,8.1244],[-80.4887,8.1821,2.8183],[-80.4818,8.1818,0.0],[-80.4765,8.1915,0.0],[-80.4765,8.1951,0.0],[-80.479,8.1946,1.8378],[-80.4807,8.1985,0.0],[-80.4829,8.199,0.0],[-80.4832,8.2029,1.0566],[-80.4815,8.204,4.8776],[-80.481,8.2107,0.0],[-80.4751,8.2235,0.0],[-80.4724,8.226,11.6458],[-80.4701,8.226,4.5061],[-80.4699,8.2235,0.0],[-80.4683,8.2236,0.0],[-80.4718,8.2363,9.3506],[-80.4786,8.2399,6.6291],[-80.4897,8.2387,1.0999],[-80.4921,8.2403,4.8444],[-80.5024,8.2414,3.5015],[-80.5095,8.2357,6.6588],[-80.5169,8.2425,5.7],[-80.5281,8.2361,12.508],[-80.5407,8.2343,24.6056],[-80.5433,8.2289,30.4359],[-80.5499,8.2248,24.3027],[-80.549,8.2169,24.0829],[-80.5529,8.2066,11.1688],[-80.5539,8.1958,17.4879],[-80.5572,8.1907,8.6981],[-80.5544,8.1873,2.4337],[-80.5543,8.1839,0.5],[-80.5619,8.1671,2.1258]]]]}
,"properties": {"GID_3": "PAN.3.1.2_1","GID_0": "PAN","country": "Panama","GID_1": "PAN.3_1","province": "Coclé","NL_NAME_1": "NA","GID_2": "PAN.3.1_1","county": "Aguadulce","NL_NAME_2": "NA","city": "BarriosUnidos","VARNAME_3": "NA","NL_NAME_3": "NA","TYPE_3": "Corregimiento","ENGTYPE_3": "Municipality","CC_3": "NA","HASC_3": "NA","name": "Barrios_Unidos.city","area_km2": 61.38187,"hist_schema_id": "Elevation0-9000","hist_area_km2": {"0": 51.435,"25": 9.94686}}}