{"type": "Feature","bbox": [-79.8525,8.8268,-79.7777,8.8794],"geometry": {"type": "MultiPolygon","coordinates": [[[[-79.7895,8.8633,77.6177],[-79.8063,8.8635,78.4124],[-79.8195,8.8612,113.9861],[-79.823,8.8639,146.2947],[-79.824,8.8728,80.1009],[-79.8373,8.8794,100.2246],[-79.8473,8.8782,83.4259],[-79.8525,8.8722,93.1703],[-79.852,8.865,99.8489],[-79.8443,8.858,146.0874],[-79.8462,8.8518,103.6469],[-79.8402,8.8412,78.8652],[-79.8276,8.8305,130.3182],[-79.815,8.8268,80.0689],[-79.8067,8.8294,63.6334],[-79.8032,8.8379,68.9685],[-79.798,8.8439,67.9019],[-79.787,8.8476,82.9523],[-79.7817,8.8525,80.1347],[-79.7777,8.8609,79.0512],[-79.7876,8.8609,75.7599],[-79.7895,8.8633,77.6177]]]]}
,"properties": {"GID_3": "PAN.11.4.8_1","GID_0": "PAN","country": "Panama","GID_1": "PAN.11_1","province": "PanamáOeste","NL_NAME_1": "NA","GID_2": "PAN.11.4_1","county": "LaChorrera","NL_NAME_2": "NA","city": "Guadalupe","VARNAME_3": "NA","NL_NAME_3": "NA","TYPE_3": "Corregimiento","ENGTYPE_3": "Municipality","CC_3": "NA","HASC_3": "NA","name": "Guadalupe.city","area_km2": 24.95098,"hist_schema_id": "Elevation0-9000","hist_area_km2": {"50": 0.56565,"75": 10.1816,"100": 6.47337,"125": 4.25274,"150": 2.49299,"175": 0.81704,"200": 0.1676}}}