{"type": "Feature","bbox": [-83.0519,8.2994,-82.769,8.4375],"geometry": {"type": "MultiPolygon","coordinates": [[[[-83.0476,8.342,495.6825],[-83.0468,8.3369,515.8751],[-83.0519,8.3345,499.4122],[-83.0517,8.3314,486.5054],[-83.0446,8.3152,369.6599],[-83.0214,8.3353,377.8361],[-83.0171,8.3356,345.4601],[-83.0051,8.3322,269.6052],[-82.994,8.3362,227.6042],[-82.9888,8.3433,238.562],[-82.9711,8.3466,108.5719],[-82.9632,8.3551,96.5211],[-82.9603,8.3547,178.8085],[-82.9409,8.3413,142.1057],[-82.913,8.3583,50.6178],[-82.9084,8.3595,51.146],[-82.8997,8.3538,41.5923],[-82.8844,8.348,34.9887],[-82.8783,8.3399,31.6749],[-82.8559,8.3343,22.5514],[-82.8448,8.326,15.8907],[-82.8366,8.3269,16.4454],[-82.8324,8.3198,17.7559],[-82.8288,8.3171,17.2353],[-82.8246,8.3165,10.2662],[-82.8243,8.3107,12.9354],[-82.8159,8.3036,8.0009],[-82.8141,8.2994,2.7235],[-82.8032,8.3007,2.9597],[-82.7951,8.3062,1.2646],[-82.7857,8.3099,0.0],[-82.7721,8.3107,4.0505],[-82.769,8.3124,1.6301],[-82.7712,8.3238,4.6937],[-82.7761,8.3312,6.8366],[-82.795,8.3437,8.5777],[-82.8256,8.3768,15.1134],[-82.8297,8.3797,13.7437],[-82.8378,8.3817,15.2176],[-82.8413,8.3902,14.544],[-82.8507,8.4036,16.7838],[-82.8741,8.4311,15.6943],[-82.8776,8.4375,24.7611],[-82.9141,8.4288,28.2308],[-82.9309,8.4352,40.7141],[-82.9357,8.4239,41.8111],[-82.9542,8.4133,47.2875],[-82.955,8.4072,57.5557],[-82.961,8.4033,65.8033],[-82.9618,8.3965,80.5447],[-82.9672,8.3942,99.2875],[-82.9699,8.3863,188.0397],[-82.976,8.3837,314.1689],[-82.9837,8.3729,370.6675],[-82.9897,8.3772,347.3041],[-82.9941,8.369,244.5698],[-83.0008,8.3647,410.4216],[-83.0017,8.3603,598.1462],[-83.0072,8.3556,422.8044],[-83.0104,8.3543,405.2287],[-83.016,8.3553,357.4207],[-83.0189,8.3506,447.3479],[-83.0276,8.3522,480.1946],[-83.0476,8.342,495.6825]]]]}
,"properties": {"GID_3": "PAN.2.2.5_1","GID_0": "PAN","country": "Panama","GID_1": "PAN.2_1","province": "Chiriquí","NL_NAME_1": "NA","GID_2": "PAN.2.2_1","county": "Barú","NL_NAME_2": "NA","city": "RodolfoAguilarDelgado","VARNAME_3": "NA","NL_NAME_3": "NA","TYPE_3": "Corregimiento","ENGTYPE_3": "Municipality","CC_3": "NA","HASC_3": "NA","name": "Rodolfo_Aguilar_Delgado.city","area_km2": 184.8864,"hist_schema_id": "Elevation0-9000","hist_area_km2": {"0": 23.6849,"25": 86.1481,"50": 24.457,"75": 9.2085,"100": 5.8524,"125": 3.7548,"150": 2.8109,"175": 2.8738,"200": 3.0417,"225": 2.727,"250": 2.1397,"275": 2.2236,"300": 2.2656,"325": 2.3495,"350": 2.2236,"375": 1.5733,"400": 1.8251,"425": 1.1118,"450": 1.3426,"475": 1.0069,"500": 1.0489,"525": 0.3566,"550": 0.2517,"575": 0.1468,"600": 0.1678,"625": 0.1678,"650": 0.1259}}}