{"type":"Feature","properties":{"GID_3":"PAN.7.4.4_1","GID_0":"PAN","country":"Panama","GID_1":"PAN.7_1","province":"Herrera","NL_NAME_1":"NA","GID_2":"PAN.7.4_1","county":"Ocú","NL_NAME_2":"NA","city":"LosLlanos","VARNAME_3":"NA","NL_NAME_3":"NA","TYPE_3":"Corregimiento","ENGTYPE_3":"Municipality","CC_3":"NA","HASC_3":"NA","name":"Los_Llanos.city"},
"geometry":{"type": "MultiPolygon","coordinates": [[[[-80.8324,7.908,220.7854],[-80.8297,7.9099,229.3774],[-80.8279,7.9159,152.2879],[-80.8235,7.9192,144.7632],[-80.8188,7.9193,160.7674],[-80.8138,7.9236,168.9376],[-80.8086,7.9249,150.6591],[-80.8063,7.9292,142.6754],[-80.8026,7.9306,137.9254],[-80.801,7.9331,134.4895],[-80.8043,7.9405,126.5336],[-80.7991,7.9505,128.4381],[-80.8055,7.9622,133.8375],[-80.8109,7.9676,152.9135],[-80.8079,7.9748,150.0432],[-80.8108,7.9835,173.5962],[-80.811,7.9925,96.6871],[-80.815,7.9991,90.0166],[-80.8285,7.9965,85.4228],[-80.8315,7.9913,75.0538],[-80.8344,7.9797,131.2384],[-80.8386,7.9803,132.7668],[-80.8398,7.9789,146.5909],[-80.8428,7.9634,153.4725],[-80.8548,7.9602,161.7543],[-80.8555,7.9571,165.7493],[-80.8663,7.9422,180.3199],[-80.8665,7.9374,187.4551],[-80.8687,7.9353,176.9461],[-80.8704,7.9287,174.9463],[-80.8706,7.9232,175.5373],[-80.8797,7.9247,179.3855],[-80.8918,7.9213,188.3687],[-80.9027,7.9268,204.6996],[-80.912,7.9229,220.8939],[-80.9157,7.923,234.1256],[-80.9195,7.9202,221.0334],[-80.9264,7.9237,122.3845],[-80.9302,7.9225,134.0326],[-80.9282,7.9174,121.7052],[-80.9226,7.916,99.9794],[-80.9143,7.9093,101.5965],[-80.9206,7.9018,106.5743],[-80.9229,7.8862,83.6067],[-80.918,7.8878,162.7934],[-80.9098,7.895,154.8088],[-80.9058,7.8959,179.9183],[-80.8961,7.8927,180.8075],[-80.8927,7.8872,143.102],[-80.8766,7.8807,118.4133],[-80.8719,7.8692,280.0803],[-80.8755,7.8607,215.7393],[-80.8722,7.8534,205.9359],[-80.8689,7.8508,225.9278],[-80.8686,7.8451,276.7615],[-80.8548,7.8505,339.2124],[-80.8477,7.8608,329.9558],[-80.8466,7.8685,236.2679],[-80.8491,7.8731,253.3587],[-80.8426,7.8795,184.6588],[-80.844,7.8918,270.5912],[-80.8381,7.9044,208.262],[-80.8324,7.908,220.7854]]]]}}