{"type": "Feature","bbox": [-80.6414,7.6514,-80.5636,7.7194],"geometry": {"type": "MultiPolygon","coordinates": [[[[-80.6301,7.6887,218.2918],[-80.625,7.6844,161.3085],[-80.6197,7.6835,177.6852],[-80.6207,7.6794,134.9598],[-80.6193,7.6757,119.5987],[-80.621,7.6733,166.6312],[-80.6211,7.6673,174.0895],[-80.618,7.6615,177.2936],[-80.6152,7.6617,162.6517],[-80.6107,7.6587,161.3195],[-80.6141,7.6552,163.8321],[-80.6088,7.6516,150.4939],[-80.6034,7.6514,136.2613],[-80.6012,7.6536,128.696],[-80.6003,7.6604,147.6469],[-80.5978,7.6625,145.1998],[-80.5937,7.6634,129.7225],[-80.5858,7.6612,120.5952],[-80.5784,7.6763,115.3434],[-80.5763,7.6863,114.9746],[-80.5687,7.6893,147.6137],[-80.5636,7.7108,91.1857],[-80.5742,7.7116,146.8443],[-80.5809,7.7104,178.0066],[-80.6011,7.7134,233.6519],[-80.6132,7.7133,242.0176],[-80.6172,7.7159,180.64],[-80.6321,7.7194,219.0422],[-80.6351,7.7129,183.5349],[-80.6412,7.7097,206.9406],[-80.6414,7.7073,195.8601],[-80.6368,7.7022,236.0598],[-80.6374,7.698,220.9132],[-80.6346,7.695,214.6198],[-80.6301,7.6965,229.4607],[-80.6288,7.6928,230.4886],[-80.6301,7.6887,218.2918]]]]}
,"properties": {"GID_3": "PAN.7.3.2_1","GID_0": "PAN","country": "Panama","GID_1": "PAN.7_1","province": "Herrera","NL_NAME_1": "NA","GID_2": "PAN.7.3_1","county": "LosPozos","NL_NAME_2": "NA","city": "ElCalabacito","VARNAME_3": "NA","NL_NAME_3": "NA","TYPE_3": "Corregimiento","ENGTYPE_3": "Municipality","CC_3": "NA","HASC_3": "NA","name": "El_Calabacito.city","area_km2": 36.47598,"hist_schema_id": "Elevation0-9000","hist_area_km2": {"75": 0.23112,"100": 4.30741,"125": 8.2997,"150": 9.1191,"175": 5.61003,"200": 4.34926,"225": 2.77344,"250": 0.98751,"275": 0.5883,"300": 0.1891,"325": 0.02101}}}