{"type": "Feature","bbox": [-80.2681,7.7318,-80.2388,7.7569],"geometry": {"type": "MultiPolygon","coordinates": [[[[-80.2652,7.7399,64.0737],[-80.2517,7.7318,54.4385],[-80.2388,7.7341,31.3647],[-80.2462,7.7487,33.5091],[-80.2588,7.7569,58.5104],[-80.2575,7.7502,57.2143],[-80.2586,7.747,55.4711],[-80.2681,7.7482,49.1155],[-80.2652,7.7399,64.0737]]]]}
,"properties": {"GID_3": "PAN.9.2.22_1","GID_0": "PAN","country": "Panama","GID_1": "PAN.9_1","province": "LosSantos","NL_NAME_1": "NA","GID_2": "PAN.9.2_1","county": "LasTablas","NL_NAME_2": "NA","city": "Sesteadero","VARNAME_3": "NA","NL_NAME_3": "NA","TYPE_3": "Corregimiento","ENGTYPE_3": "Municipality","CC_3": "NA","HASC_3": "NA","name": "Sesteadero.city","area_km2": 4.516921,"hist_schema_id": "Elevation0-9000","hist_area_km2": {"25": 0.693297,"50": 3.088312,"75": 0.693294,"100": 0.042018}}}