{"type": "Feature","bbox": [-81.1743,8.4084,-81.0244,8.5111],"geometry": {"type": "MultiPolygon","coordinates": [[[[-81.1327,8.4361,444.6423],[-81.1198,8.4299,274.9766],[-81.1031,8.4084,235.4671],[-81.0907,8.4187,287.0018],[-81.0764,8.4263,538.7764],[-81.0638,8.4261,230.7622],[-81.0455,8.4223,212.9316],[-81.0366,8.4228,236.915],[-81.0371,8.4286,332.7949],[-81.0359,8.4312,433.4353],[-81.0253,8.4361,492.1397],[-81.0244,8.4392,563.8939],[-81.0436,8.4507,481.029],[-81.0449,8.4603,789.5602],[-81.0574,8.4723,447.6321],[-81.0811,8.4751,548.0566],[-81.104,8.4931,919.2093],[-81.1117,8.4974,1130.8867],[-81.16,8.5066,1199.9442],[-81.1743,8.5111,1020.8887],[-81.1709,8.4844,738.2662],[-81.1645,8.4759,789.3549],[-81.1509,8.4636,606.5835],[-81.1381,8.4555,587.4918],[-81.1327,8.4361,444.6423]]]]}
,"properties": {"GID_3": "PAN.13.9.3_1","GID_0": "PAN","country": "Panama","GID_1": "PAN.13_1","province": "Veraguas","NL_NAME_1": "NA","GID_2": "PAN.13.9_1","county": "SantaFe","NL_NAME_2": "NA","city": "ElCuay","VARNAME_3": "NA","NL_NAME_3": "NA","TYPE_3": "Corregimiento","ENGTYPE_3": "Municipality","CC_3": "NA","HASC_3": "NA","name": "El_Cuay.city","area_km2": 88.26906,"hist_schema_id": "Elevation0-9000","hist_area_km2": {"200": 0.77601,"225": 3.94283,"250": 4.1735,"275": 4.78171,"300": 3.98476,"325": 3.25072,"350": 3.796,"375": 3.43946,"400": 4.13154,"425": 3.64914,"450": 3.94274,"475": 4.84453,"500": 5.20106,"525": 4.63479,"550": 2.72632,"575": 2.45367,"600": 1.55186,"625": 1.32117,"650": 1.13242,"675": 1.02756,"700": 1.11144,"725": 1.09047,"750": 1.15337,"775": 1.1324,"800": 0.81784,"825": 0.90172,"850": 0.90172,"875": 1.00656,"900": 1.06947,"925": 1.11141,"950": 0.98559,"975": 1.00655,"1000": 0.77588,"1025": 1.15333,"1050": 0.79685,"1075": 1.06945,"1100": 0.94363,"1125": 0.73394,"1150": 0.85975,"1175": 0.83879,"1200": 0.65006,"1225": 0.65006,"1250": 0.65006,"1275": 0.37745,"1300": 0.35648,"1325": 0.52424,"1350": 0.39842,"1375": 0.33551,"1400": 0.10485}}}