{"type":"Feature","properties":{"GID_3":"PAN.3.6.4_1","GID_0":"PAN","country":"Panama","GID_1":"PAN.3_1","province":"Coclé","NL_NAME_1":"NA","GID_2":"PAN.3.6_1","county":"Penonomé","NL_NAME_2":"NA","city":"ElCoco","VARNAME_3":"NA","NL_NAME_3":"NA","TYPE_3":"Corregimiento","ENGTYPE_3":"Municipality","CC_3":"NA","HASC_3":"NA","name":"El_Coco.city"},
"geometry":{"type": "MultiPolygon","coordinates": [[[[-80.2969,8.5058,80.0416],[-80.3146,8.5288,222.0153],[-80.3173,8.529,161.4561],[-80.3216,8.526,251.3116],[-80.3217,8.5245,227.1961],[-80.3249,8.5235,216.9556],[-80.327,8.515,106.1599],[-80.3341,8.5115,82.4446],[-80.3385,8.5026,77.152],[-80.3378,8.4951,71.3076],[-80.3406,8.4894,64.0369],[-80.3386,8.4782,60.8569],[-80.3355,8.4728,56.5864],[-80.337,8.4663,52.5642],[-80.3421,8.4686,50.7674],[-80.3479,8.4815,59.1627],[-80.3507,8.4718,56.006],[-80.3611,8.45,46.5998],[-80.3752,8.4352,35.7424],[-80.389,8.4149,22.7086],[-80.3988,8.3917,14.7914],[-80.3987,8.3851,12.1223],[-80.394,8.3739,8.5245],[-80.3989,8.3643,4.301],[-80.3992,8.3551,2.8447],[-80.3965,8.3435,9.9982],[-80.4007,8.3374,10.1381],[-80.4011,8.3329,22.7885],[-80.3936,8.33,12.5332],[-80.3962,8.3248,4.3294],[-80.3948,8.3237,21.2765],[-80.3903,8.326,27.1572],[-80.3878,8.3303,13.7346],[-80.3894,8.3323,4.5484],[-80.3789,8.3299,24.1747],[-80.3825,8.3242,4.7825],[-80.3924,8.3199,20.1205],[-80.394,8.3129,0.0],[-80.3918,8.3074,15.8729],[-80.3762,8.3072,7.873],[-80.3696,8.3094,25.0128],[-80.3601,8.305,27.1439],[-80.3513,8.3055,25.1785],[-80.3452,8.316,5.2656],[-80.3486,8.3253,2.7854],[-80.3437,8.3319,2.4763],[-80.3193,8.3386,7.1895],[-80.318,8.3462,6.1999],[-80.3184,8.373,10.2762],[-80.3209,8.3838,15.2768],[-80.3133,8.3951,18.4654],[-80.3147,8.4056,25.6527],[-80.3106,8.4234,30.8024],[-80.307,8.4317,28.9447],[-80.3072,8.4445,41.0267],[-80.3104,8.4523,41.1428],[-80.2984,8.4756,73.6105],[-80.3009,8.4869,51.6731],[-80.2969,8.5058,80.0416]]]]}}