{"type": "Feature","bbox": [-80.6179,7.5404,-80.5126,7.6884],"geometry": {"type": "MultiPolygon","coordinates": [[[[-80.5453,7.5404,222.2825],[-80.5383,7.5506,375.4926],[-80.5314,7.5543,435.626],[-80.5247,7.5541,650.1937],[-80.5167,7.5593,804.7763],[-80.5142,7.5712,506.7631],[-80.5168,7.5754,384.824],[-80.519,7.5902,450.0389],[-80.5126,7.6064,475.3344],[-80.5146,7.6114,491.073],[-80.5159,7.6267,510.7054],[-80.5186,7.6323,369.238],[-80.5225,7.6326,389.8279],[-80.524,7.6343,444.5218],[-80.52,7.6465,267.0444],[-80.5243,7.6482,233.0842],[-80.5319,7.655,219.8088],[-80.5444,7.6869,108.5934],[-80.5466,7.6884,114.3541],[-80.5583,7.6813,123.1282],[-80.5667,7.6817,134.7715],[-80.5886,7.6579,135.1004],[-80.5895,7.6552,125.0318],[-80.586,7.6492,127.1145],[-80.5863,7.6429,152.8314],[-80.5991,7.6227,185.0237],[-80.6021,7.6113,236.3171],[-80.6135,7.5972,306.2802],[-80.6179,7.5877,321.5206],[-80.598,7.579,254.0286],[-80.5781,7.5763,350.2976],[-80.5673,7.5595,344.9383],[-80.5588,7.5568,239.1211],[-80.5527,7.5586,322.1089],[-80.5512,7.5495,356.0685],[-80.5453,7.5404,222.2825]]]]}
,"properties": {"GID_3": "PAN.9.4.9_1","GID_0": "PAN","country": "Panama","GID_1": "PAN.9_1","province": "LosSantos","NL_NAME_1": "NA","GID_2": "PAN.9.4_1","county": "Macaracas","NL_NAME_2": "NA","city": "LlanodePiedra","VARNAME_3": "NA","NL_NAME_3": "NA","TYPE_3": "Corregimiento","ENGTYPE_3": "Municipality","CC_3": "NA","HASC_3": "NA","name": "Llanode_Piedra.city","area_km2": 108.54411,"hist_schema_id": "Elevation0-9000","hist_area_km2": {"100": 0.18911,"125": 8.44712,"150": 10.08645,"175": 6.45138,"200": 5.02255,"225": 5.90533,"250": 7.39748,"275": 7.52363,"300": 6.70402,"325": 6.89325,"350": 6.17875,"375": 5.40115,"400": 5.94757,"425": 5.86349,"450": 5.5903,"475": 4.77066,"500": 3.71985,"525": 2.83717,"550": 1.70229,"575": 0.58845,"600": 0.23119,"625": 0.21017,"650": 0.18916,"675": 0.18916,"700": 0.10509,"725": 0.14713,"750": 0.04204,"775": 0.08407,"800": 0.02102,"825": 0.08407,"850": 0.02102}}}