{"type": "Feature","bbox": [-83.0519,8.0132,-82.7005,8.5787],"geometry": {"type": "MultiPolygon","coordinates": [[[[-82.8804,8.0193,5.0494],[-82.8824,8.019,3.3121],[-82.8715,8.0132,0.1218],[-82.8765,8.0185,8.0513],[-82.8804,8.0193,5.0494]]],
[[[-82.8906,8.0516,154.2032],[-82.8937,8.0498,59.2165],[-82.8919,8.0437,44.328],[-82.8958,8.0376,17.3115],[-82.8915,8.0337,0.0],[-82.8846,8.0346,9.1551],[-82.8785,8.0307,4.9523],[-82.8724,8.0301,0.0],[-82.8688,8.0321,10.2249],[-82.866,8.0371,0.0],[-82.8657,8.0415,0.0],[-82.8682,8.0501,1.0905],[-82.8674,8.0538,7.921],[-82.8576,8.0587,0.0],[-82.8526,8.0685,1.8429],[-82.8524,8.0754,10.2305],[-82.8565,8.0821,36.3004],[-82.8565,8.0913,24.3575],[-82.8604,8.099,7.2147],[-82.8654,8.104,0.0],[-82.8729,8.1188,0.8043],[-82.871,8.1307,1.0845],[-82.874,8.1349,0.0],[-82.8743,8.139,0.0],[-82.8729,8.1402,0.0],[-82.8765,8.1513,0.0],[-82.8746,8.1596,10.1546],[-82.8743,8.1751,0.0],[-82.8763,8.1818,11.4777],[-82.8738,8.1857,0.0],[-82.8754,8.196,18.8626],[-82.8726,8.2032,1.0825],[-82.8765,8.209,1.3812],[-82.8774,8.2204,16.5725],[-82.8743,8.2257,0.0],[-82.8743,8.231,0.0],[-82.8724,8.2312,0.0],[-82.8724,8.2371,0.0],[-82.8743,8.2379,0.0],[-82.8726,8.2487,5.2123],[-82.869,8.2521,6.6766],[-82.8662,8.2587,0.0],[-82.8618,8.2626,0.0],[-82.8565,8.2762,6.0763],[-82.8493,8.2813,3.6095],[-82.8421,8.2904,2.5178],[-82.8296,8.2968,4.2224],[-82.8187,8.299,6.0454],[-82.8107,8.2987,0.0],[-82.8099,8.3001,0.0],[-82.8018,8.3012,0.0],[-82.7951,8.3062,1.2646],[-82.7857,8.3099,0.0],[-82.7721,8.3107,4.0505],[-82.7665,8.3135,1.9721],[-82.751,8.3157,4.1903],[-82.7379,8.3207,3.5901],[-82.7351,8.3237,3.1012],[-82.7285,8.3265,7.4118],[-82.7215,8.3254,2.1862],[-82.7101,8.3262,3.4421],[-82.7063,8.3296,15.4779],[-82.7049,8.3343,1.6197],[-82.7085,8.3376,1.8811],[-82.7128,8.3388,11.8578],[-82.7155,8.345,3.2051],[-82.7214,8.3469,3.2428],[-82.7346,8.3558,7.8546],[-82.7373,8.3609,7.8005],[-82.7469,8.3626,7.1083],[-82.7522,8.3652,6.4799],[-82.7609,8.3732,9.6586],[-82.7726,8.3802,13.0146],[-82.7753,8.3847,9.8645],[-82.7739,8.3894,8.5739],[-82.7801,8.3951,13.2142],[-82.7788,8.3983,12.0125],[-82.7812,8.4015,12.8815],[-82.7804,8.4051,13.724],[-82.7886,8.4116,14.9836],[-82.7887,8.4154,14.7927],[-82.7996,8.4204,20.3063],[-82.8001,8.4258,21.0729],[-82.8089,8.4231,19.9528],[-82.8046,8.4287,22.7573],[-82.8072,8.4306,22.4623],[-82.8191,8.4301,20.319],[-82.8215,8.4368,20.635],[-82.8243,8.4363,21.1447],[-82.8277,8.4382,25.801],[-82.8281,8.4416,28.9918],[-82.8343,8.4454,22.373],[-82.8353,8.4525,26.9089],[-82.8315,8.4673,28.8878],[-82.8315,8.4759,35.2092],[-82.8258,8.4921,51.285],[-82.8291,8.5131,75.7427],[-82.8277,8.5226,84.3847],[-82.831,8.5412,165.1934],[-82.821,8.5493,217.2564],[-82.8086,8.5541,245.5869],[-82.8061,8.5568,238.5155],[-82.8092,8.5649,171.677],[-82.8242,8.5787,290.3418],[-82.8256,8.5786,287.3932],[-82.824,8.5745,275.7786],[-82.8252,8.5713,266.0558],[-82.8223,8.5671,259.444],[-82.8285,8.5571,175.4408],[-82.8351,8.552,132.1474],[-82.839,8.5444,117.4839],[-82.8384,8.5324,126.6119],[-82.8332,8.5241,108.6101],[-82.8337,8.5082,67.831],[-82.8315,8.5055,67.7708],[-82.8325,8.5019,60.6731],[-82.8396,8.4801,41.4964],[-82.8682,8.4396,19.3833],[-82.9141,8.4288,28.2308],[-82.9309,8.4352,40.7141],[-82.9357,8.4239,41.8111],[-82.9542,8.4133,47.2875],[-82.955,8.4072,57.5557],[-82.961,8.4033,65.8033],[-82.9618,8.3965,80.5447],[-82.9672,8.3942,99.2875],[-82.9699,8.3863,188.0397],[-82.976,8.3837,314.1689],[-82.9837,8.3729,370.6675],[-82.9897,8.3772,347.3041],[-82.9941,8.369,244.5698],[-83.0008,8.3647,410.4216],[-83.0017,8.3603,598.1462],[-83.0072,8.3556,422.8044],[-83.0104,8.3543,405.2287],[-83.016,8.3553,357.4207],[-83.0189,8.3506,447.3479],[-83.0276,8.3522,480.1946],[-83.0478,8.3419,495.6825],[-83.0468,8.3369,515.8751],[-83.0519,8.3345,499.4122],[-83.0516,8.3308,486.5054],[-83.0463,8.3216,449.2226],[-83.0455,8.3155,374.7139],[-83.0375,8.3185,442.1262],[-83.0326,8.3133,528.6893],[-83.0272,8.3164,584.8198],[-83.0271,8.3141,587.9625],[-83.0227,8.3116,635.1311],[-83.0254,8.3081,605.5317],[-83.0242,8.3046,652.5013],[-83.014,8.3027,619.694],[-83.003,8.2953,631.3292],[-83.0043,8.2891,617.9932],[-82.9998,8.2888,575.7319],[-82.9907,8.2713,499.0193],[-82.9861,8.2727,504.1408],[-82.9808,8.2859,365.127],[-82.9757,8.2891,463.604],[-82.9681,8.2791,314.009],[-82.963,8.2782,218.0895],[-82.9605,8.2805,266.5878],[-82.9563,8.2799,317.7726],[-82.9523,8.2678,219.2275],[-82.9485,8.2678,247.3682],[-82.9482,8.2698,258.0056],[-82.9423,8.2724,242.7838],[-82.9382,8.2624,192.0327],[-82.9387,8.2516,143.1363],[-82.9301,8.2452,92.6768],[-82.9285,8.2416,82.4483],[-82.9318,8.2361,83.4502],[-82.9315,8.2281,102.722],[-82.9337,8.2254,118.2229],[-82.9329,8.2202,175.3443],[-82.9366,8.2151,132.0717],[-82.9364,8.2104,131.3689],[-82.9352,8.2094,205.8597],[-82.931,8.211,194.2825],[-82.9273,8.2089,190.9199],[-82.925,8.2029,201.9603],[-82.9214,8.2016,185.4579],[-82.9177,8.1939,168.6349],[-82.9152,8.1971,142.623],[-82.9119,8.1975,135.9903],[-82.9108,8.1948,126.7648],[-82.9127,8.1778,102.0035],[-82.903,8.1753,175.5511],[-82.9099,8.1684,85.647],[-82.9078,8.164,169.6086],[-82.9095,8.1626,198.1183],[-82.9101,8.1574,115.5192],[-82.9086,8.1447,152.6929],[-82.9076,8.1418,101.747],[-82.9031,8.1388,230.2953],[-82.9042,8.1364,135.0457],[-82.9012,8.1329,167.3139],[-82.9009,8.129,144.4102],[-82.8931,8.1153,87.74],[-82.8892,8.114,218.8376],[-82.89,8.1109,170.9206],[-82.8883,8.1088,186.3197],[-82.8861,8.1086,183.9245],[-82.8872,8.1051,117.4747],[-82.8927,8.1041,89.4726],[-82.8888,8.0934,72.8969],[-82.8878,8.0789,63.3475],[-82.892,8.0741,61.5953],[-82.8966,8.0602,149.7068],[-82.8944,8.0538,150.9895],[-82.8916,8.0541,163.1534],[-82.8906,8.0516,154.2032]]],
[[[-82.701,8.3286,0.0],[-82.701,8.3282,0.0],[-82.7005,8.3282,0.0],[-82.7005,8.3282,0.0],[-82.701,8.3286,0.0]]],
[[[-82.701,8.3287,0.0],[-82.7011,8.3289,0.0],[-82.7012,8.3291,0.0],[-82.7012,8.3287,0.0],[-82.701,8.3287,0.0]]],
[[[-82.7012,8.3291,0.0],[-82.7015,8.3296,0.0],[-82.7015,8.329,0.0],[-82.7012,8.3291,0.0]]],
[[[-82.7018,8.3296,0.0],[-82.7015,8.3296,0.0],[-82.7018,8.3301,0.0],[-82.7018,8.3296,0.0]]],
[[[-82.7024,8.3313,0.0],[-82.7024,8.331,0.0],[-82.7022,8.331,0.0],[-82.7024,8.3313,0.0]]],
[[[-82.7051,8.3373,10.2522],[-82.7074,8.3378,16.7482],[-82.7035,8.3351,4.7826],[-82.7044,8.3366,3.7592],[-82.7051,8.3373,10.2522]]]]}
,"properties": {"GID_2": "PAN.2.2_1","GID_0": "PAN","country": "Panama","GID_1": "PAN.2_1","province": "Chiriquí","NL_NAME_1": "NA","county": "Barú","VARNAME_2": "NA","NL_NAME_2": "NA","TYPE_2": "Distrito","ENGTYPE_2": "District","CC_2": "NA","HASC_2": "PA.CH.BR","name": "Barú.county","area_km2": 579.0223,"hist_schema_id": "Elevation0-9000","hist_area_km2": {"0": 75.1882,"25": 196.0502,"50": 71.0626,"75": 45.9723,"100": 33.192,"125": 28.1989,"150": 23.2465,"175": 18.106,"200": 13.7204,"225": 11.37,"250": 8.0345,"275": 6.2724,"300": 5.3915,"325": 5.0978,"350": 5.3915,"375": 4.2796,"400": 4.7202,"425": 4.0909,"450": 3.8182,"475": 3.6504,"500": 3.7763,"525": 2.3497,"550": 1.9931,"575": 1.1749,"600": 1.028,"625": 1.1329,"650": 0.5874,"675": 0.1259}}}