{"type":"Feature","properties":{"GID_3":"PAN.10.2.7_1","GID_0":"PAN","country":"Panama","GID_1":"PAN.10_1","province":"NgöbeBuglé","NL_NAME_1":"NA","GID_2":"PAN.10.2_1","county":"Kankintú","NL_NAME_2":"NA","city":"PiedraRoja","VARNAME_3":"NA","NL_NAME_3":"NA","TYPE_3":"Corregimiento","ENGTYPE_3":"Municipality","CC_3":"NA","HASC_3":"NA","name":"Piedra_Roja.city"},
"geometry":{"type": "MultiPolygon","coordinates": [[[[-81.8663,8.6599,1678.7714],[-81.8643,8.6523,1604.156],[-81.8664,8.6412,1922.6429],[-81.8655,8.6299,1490.9355],[-81.8678,8.6189,1720.8506],[-81.8657,8.6138,1557.8372],[-81.8439,8.6033,1967.9288],[-81.832,8.5911,1884.7443],[-81.815,8.5803,2013.3784],[-81.8121,8.5655,1719.5726],[-81.8061,8.5557,1627.2482],[-81.7783,8.5358,1263.3645],[-81.7756,8.532,1161.9419],[-81.7744,8.5226,1301.0564],[-81.7683,8.5121,1551.752],[-81.7483,8.4981,1625.7975],[-81.7432,8.4897,1311.2371],[-81.7382,8.4964,1699.9304],[-81.7377,8.5245,1665.8997],[-81.7366,8.5266,1663.9207],[-81.731,8.5293,1507.887],[-81.7355,8.5412,1232.167],[-81.73,8.5744,1195.6577],[-81.7369,8.5864,883.8656],[-81.7412,8.6065,938.6402],[-81.7353,8.6193,1056.0457],[-81.7379,8.6409,378.3828],[-81.7501,8.6413,384.2498],[-81.8152,8.6585,729.4101],[-81.8558,8.6726,1653.1562],[-81.8663,8.6599,1678.7714]]]]}}