{"type":"Feature","properties":{"GID_3":"PAN.4.6.6_1","GID_0":"PAN","country":"Panama","GID_1":"PAN.4_1","province":"Colón","NL_NAME_1":"NA","GID_2":"PAN.4.6_1","county":"SantaIsabel","NL_NAME_2":"NA","city":"PlayaChiquita","VARNAME_3":"NA","NL_NAME_3":"NA","TYPE_3":"Corregimiento","ENGTYPE_3":"Municipality","CC_3":"NA","HASC_3":"NA","name":"Playa_Chiquita.city"},
"geometry":{"type": "MultiPolygon","coordinates": [[[[-79.3338,9.485,160.265],[-79.3364,9.4784,64.3308],[-79.3448,9.4704,84.6115],[-79.3469,9.4625,139.3328],[-79.3558,9.4578,92.0288],[-79.359,9.4515,185.2678],[-79.3795,9.4424,235.0976],[-79.3798,9.4408,196.2645],[-79.3838,9.4397,221.0152],[-79.3911,9.4327,387.8729],[-79.4003,9.4318,381.539],[-79.4042,9.4281,444.6986],[-79.4109,9.4286,375.2559],[-79.4135,9.4216,419.6562],[-79.4058,9.4201,508.3386],[-79.4055,9.4219,515.7794],[-79.3793,9.4295,270.8068],[-79.3733,9.4385,132.2363],[-79.3621,9.444,144.6672],[-79.3549,9.4403,169.2655],[-79.3544,9.4339,283.0375],[-79.3519,9.4314,234.1936],[-79.3492,9.4299,269.7012],[-79.3447,9.4302,275.8085],[-79.3361,9.434,535.6339],[-79.3295,9.4411,613.9231],[-79.3268,9.4469,439.8297],[-79.3203,9.4486,460.2856],[-79.3164,9.4526,409.1338],[-79.3096,9.4545,389.812],[-79.3059,9.4541,499.4273],[-79.2982,9.4497,257.95],[-79.2849,9.4351,380.2389],[-79.2815,9.4347,283.1515],[-79.2794,9.4367,368.9288],[-79.2724,9.4377,396.4734],[-79.2704,9.4403,344.1578],[-79.2705,9.4536,327.3813],[-79.2689,9.4582,263.3776],[-79.2521,9.4726,218.62],[-79.2414,9.4748,150.5482],[-79.2333,9.4825,140.3552],[-79.23,9.4881,113.5384],[-79.2331,9.4974,79.5581],[-79.2408,9.5069,95.2609],[-79.2577,9.5103,36.4913],[-79.2612,9.5134,46.2488],[-79.2644,9.5514,20.1111],[-79.2631,9.5552,17.3297],[-79.2588,9.5576,0.0],[-79.2593,9.5588,0.0],[-79.2635,9.5593,0.0],[-79.2635,9.5568,6.3281],[-79.2646,9.5568,6.3281],[-79.2688,9.5632,0.0],[-79.2802,9.569,0.0],[-79.2862,9.5662,1.3254],[-79.2932,9.5707,0.0],[-79.2926,9.5665,1.0404],[-79.2962,9.564,1.8654],[-79.3043,9.5665,0.0],[-79.3044,9.5643,12.7829],[-79.3001,9.5595,22.7514],[-79.2957,9.5507,32.6933],[-79.2765,9.5335,54.8241],[-79.2758,9.5277,66.8457],[-79.2788,9.5189,30.0799],[-79.2789,9.513,79.015],[-79.286,9.5116,32.835],[-79.291,9.5033,34.7402],[-79.2962,9.5027,65.8632],[-79.3004,9.4988,57.9915],[-79.3086,9.5001,129.8426],[-79.3177,9.4933,105.5295],[-79.3234,9.4911,134.3568],[-79.3266,9.4876,138.6467],[-79.3338,9.485,160.265]]]]}}