{"type":"Feature","properties":{"GID_3":"PAN.13.7.2_1","GID_0":"PAN","country":"Panama","GID_1":"PAN.13_1","province":"Veraguas","NL_NAME_1":"NA","GID_2":"PAN.13.7_1","county":"RíodeJesús","NL_NAME_2":"NA","city":"LasHuacas","VARNAME_3":"NA","NL_NAME_3":"NA","TYPE_3":"Corregimiento","ENGTYPE_3":"Municipality","CC_3":"NA","HASC_3":"NA","name":"Las_Huacas.city"},
"geometry":{"type": "MultiPolygon","coordinates": [[[[-81.0846,7.8407,0.0],[-81.0915,7.839,0.0],[-81.0982,7.8293,4.7156],[-81.0979,7.8257,1.8662],[-81.0912,7.8187,0.0],[-81.0776,7.8207,10.4005],[-81.074,7.8235,0.0],[-81.0743,7.8302,6.8827],[-81.0779,7.8382,1.17],[-81.0801,7.8401,0.0],[-81.0846,7.8407,0.0]]],
[[[-81.1099,7.899,0.0],[-81.1157,7.8982,0.0],[-81.1179,7.8938,0.0],[-81.116,7.8893,0.8975],[-81.1137,7.8888,3.2409],[-81.1115,7.8929,2.9806],[-81.1043,7.8951,0.4906],[-81.1068,7.8982,0.0],[-81.1099,7.899,0.0]]],
[[[-81.1167,7.8726,0.0],[-81.1146,7.8771,0.0],[-81.114,7.8851,3.4329],[-81.1193,7.8907,0.0],[-81.1232,7.8999,1.5132],[-81.1218,7.9038,1.309],[-81.1226,7.9071,2.8643],[-81.1199,7.911,0.0],[-81.1204,7.9143,0.0],[-81.1329,7.9143,15.3862],[-81.1237,7.9447,107.9116],[-81.1213,7.9598,43.038],[-81.1404,7.9428,79.7769],[-81.1547,7.9339,42.3904],[-81.2038,7.9237,16.4189],[-81.1879,7.9187,7.2788],[-81.1833,7.9133,134.1214],[-81.1835,7.9031,35.5754],[-81.2074,7.9005,0.0],[-81.2093,7.8826,0.0],[-81.1992,7.876,3.1494],[-81.1925,7.8639,29.4993],[-81.183,7.8532,0.0],[-81.1796,7.8543,0.0],[-81.1762,7.8607,3.5862],[-81.171,7.8607,5.3871],[-81.1646,7.8554,0.0],[-81.1576,7.8529,0.0],[-81.1501,7.8526,0.0],[-81.1407,7.8579,7.6023],[-81.1415,7.8563,15.9591],[-81.1471,7.854,2.2272],[-81.1476,7.8504,0.0],[-81.1457,7.8474,16.4848],[-81.1396,7.8446,0.0],[-81.1349,7.8462,6.4813],[-81.1257,7.846,0.0],[-81.1229,7.8482,0.0],[-81.1188,7.8485,3.7854],[-81.1185,7.8504,0.0],[-81.1171,7.849,9.9194],[-81.1188,7.8454,0.0],[-81.1165,7.8437,0.0],[-81.1096,7.8426,0.0],[-81.0926,7.8451,0.0],[-81.0904,7.8479,0.0],[-81.0921,7.8515,0.0],[-81.1096,7.8615,20.1476],[-81.1137,7.8679,11.567],[-81.1185,7.8718,10.4754],[-81.1182,7.8768,0.0],[-81.1167,7.8726,0.0]]]]}}