{"type": "Feature","bbox": [-80.6105,7.9001,-80.546,7.9646],"geometry": {"type": "MultiPolygon","coordinates": [[[[-80.6099,7.9343,47.0715],[-80.6064,7.9268,66.7635],[-80.6105,7.9169,85.431],[-80.6066,7.9089,89.0871],[-80.6094,7.9001,64.4446],[-80.5981,7.9054,61.7164],[-80.5895,7.9124,78.2848],[-80.5744,7.9211,79.7851],[-80.5675,7.9275,69.9853],[-80.5646,7.9279,66.3364],[-80.5579,7.9247,66.6006],[-80.5571,7.9326,59.1395],[-80.5499,7.9375,61.1303],[-80.546,7.946,49.361],[-80.5531,7.9475,44.4204],[-80.5738,7.9624,37.9295],[-80.5799,7.9646,32.4137],[-80.5949,7.9555,34.1103],[-80.5958,7.9501,28.0486],[-80.5996,7.9488,27.0995],[-80.6074,7.9412,54.1382],[-80.602,7.9399,49.2436],[-80.602,7.9379,55.9804],[-80.6099,7.9343,47.0715]]]]}
,"properties": {"GID_3": "PAN.7.6.3_1","GID_0": "PAN","country": "Panama","GID_1": "PAN.7_1","province": "Herrera","NL_NAME_1": "NA","GID_2": "PAN.7.6_1","county": "Pesé","NL_NAME_2": "NA","city": "ElPájaro","VARNAME_3": "NA","NL_NAME_3": "NA","TYPE_3": "Corregimiento","ENGTYPE_3": "Municipality","CC_3": "NA","HASC_3": "NA","name": "El_Pájaro.city","area_km2": 26.10197,"hist_schema_id": "Elevation0-9000","hist_area_km2": {"25": 3.50673,"50": 16.61025,"75": 5.22898,"100": 0.54601,"125": 0.168,"150": 0.042}}}