{"type":"Feature","properties":{"GID_2":"PAN.12.1_1","GID_0":"PAN","country":"Panama","GID_1":"PAN.12_1","province":"Panamá","NL_NAME_1":"NA","county":"Balboa","VARNAME_2":"NA","NL_NAME_2":"NA","TYPE_2":"Distrito","ENGTYPE_2":"District","CC_2":"NA","HASC_2":"PA.PN.BB","name":"Balboa.county"},
"geometry":{"type": "MultiPolygon","coordinates": [[[[-79.0001,8.0001,0.0],[-79.0001,7.9999,0.0],[-78.9999,7.9999,0.0],[-78.9999,8.0001,0.0],[-79.0001,8.0001,0.0]]],
[[[-79.0024,8.3324,0.0],[-79.0021,8.3349,0.0],[-79.0035,8.3349,0.0],[-79.0049,8.3318,0.0],[-79.0024,8.3312,0.0],[-79.0024,8.3324,0.0]]],
[[[-79.0051,8.3346,6.3527],[-79.0043,8.3357,0.0],[-79.0071,8.3357,0.0],[-79.0082,8.3338,0.0],[-79.0074,8.3332,0.0],[-79.0051,8.3346,6.3527]]],
[[[-78.9887,8.3371,4.2882],[-78.9865,8.3371,0.0],[-78.9863,8.3379,0.0],[-78.9887,8.3385,4.2882],[-78.9887,8.3371,4.2882]]],
[[[-78.9554,8.3501,0.0],[-78.9532,8.3429,1.0759],[-78.9501,8.3435,1.6415],[-78.9485,8.3421,1.6415],[-78.9524,8.341,5.7628],[-78.9535,8.339,5.0271],[-78.9571,8.3393,0.0],[-78.9563,8.3265,1.2883],[-78.9526,8.3271,5.4593],[-78.9454,8.3207,4.8472],[-78.9504,8.3218,5.1745],[-78.9529,8.3246,0.0],[-78.9554,8.3226,0.0],[-78.9554,8.3171,0.0],[-78.9599,8.3163,2.3005],[-78.9618,8.3199,1.9854],[-78.9615,8.3274,4.9035],[-78.9599,8.3299,1.6834],[-78.9624,8.3315,2.7506],[-78.9621,8.3282,4.9035],[-78.9657,8.3276,0.0],[-78.964,8.3257,5.1718],[-78.9662,8.3201,1.2275],[-78.9646,8.3126,6.4799],[-78.9718,8.3096,2.8832],[-78.9715,8.3051,0.0],[-78.9682,8.3032,1.7559],[-78.9649,8.2957,0.0],[-78.9657,8.294,0.0],[-78.9618,8.294,8.6956],[-78.9638,8.2932,0.0],[-78.9629,8.2915,0.0],[-78.959,8.2896,0.0],[-78.9521,8.2907,16.1328],[-78.9418,8.2849,9.4487],[-78.9351,8.2768,0.0],[-78.9349,8.2782,0.0],[-78.9351,8.2796,0.0],[-78.9329,8.2804,3.8133],[-78.9326,8.2757,0.0],[-78.9282,8.2737,0.0],[-78.9285,8.2696,1.9877],[-78.9326,8.2693,1.5804],[-78.9315,8.2665,12.6095],[-78.9332,8.2646,1.2223],[-78.9307,8.2629,1.3213],[-78.931,8.2593,0.0],[-78.9279,8.2551,0.0],[-78.9282,8.2526,0.0],[-78.924,8.2504,0.0],[-78.9279,8.2415,0.0],[-78.9229,8.2379,6.6123],[-78.9235,8.2362,9.17],[-78.9287,8.2371,0.0],[-78.9265,8.2337,0.0],[-78.9215,8.2321,25.3718],[-78.9187,8.2279,7.8052],[-78.9146,8.2268,1.8089],[-78.9062,8.219,0.0],[-78.9026,8.2229,3.0061],[-78.8979,8.2215,0.0],[-78.8962,8.2299,0.0],[-78.8999,8.231,0.0],[-78.9018,8.2279,5.2199],[-78.9057,8.2279,14.3029],[-78.9079,8.2296,13.2516],[-78.9107,8.2374,0.0],[-78.9124,8.2374,6.6253],[-78.9124,8.239,4.8967],[-78.9107,8.2385,0.0],[-78.9107,8.2496,0.0],[-78.9124,8.2551,15.2817],[-78.9185,8.2635,0.0],[-78.9224,8.2654,14.0936],[-78.9221,8.2699,10.5529],[-78.919,8.2754,0.0],[-78.9215,8.2838,7.4231],[-78.9179,8.2868,0.0],[-78.9168,8.2915,1.2085],[-78.9196,8.2971,7.9281],[-78.9165,8.2968,0.0],[-78.9135,8.299,4.9875],[-78.9118,8.2935,0.0],[-78.9099,8.2943,1.2024],[-78.9101,8.2979,3.4047],[-78.904,8.3071,21.5421],[-78.9013,8.3085,0.0],[-78.8976,8.3054,0.0],[-78.9004,8.2999,9.5882],[-78.8979,8.296,2.5374],[-78.8938,8.299,8.0632],[-78.8871,8.2993,0.0],[-78.8854,8.3012,11.0889],[-78.8796,8.299,7.3778],[-78.8776,8.3012,4.3959],[-78.8757,8.2987,0.0],[-78.8724,8.3001,0.0],[-78.871,8.2971,2.9549],[-78.8676,8.2951,0.0],[-78.8654,8.2968,0.0],[-78.8562,8.2954,0.0],[-78.854,8.3004,2.4276],[-78.8515,8.3012,0.0],[-78.8543,8.306,3.487],[-78.8518,8.3138,18.8074],[-78.8424,8.3201,0.0],[-78.846,8.3274,32.7045],[-78.8426,8.3371,15.5087],[-78.8388,8.3404,0.0],[-78.8332,8.3401,0.0],[-78.831,8.3432,0.0],[-78.8324,8.3451,39.9362],[-78.8376,8.3443,33.9463],[-78.8385,8.3462,2.7106],[-78.8432,8.3446,15.8784],[-78.841,8.3476,0.0],[-78.8426,8.356,4.779],[-78.8393,8.3571,0.0],[-78.8385,8.3621,0.0],[-78.8404,8.3621,6.9585],[-78.841,8.3657,0.0],[-78.844,8.3671,0.0],[-78.8521,8.3679,11.5064],[-78.8482,8.3732,1.1911],[-78.8532,8.3751,7.7856],[-78.8543,8.3799,0.4765],[-78.8512,8.381,2.5473],[-78.8479,8.3796,5.5983],[-78.8504,8.3824,0.0],[-78.8554,8.3837,3.5867],[-78.8551,8.386,0.3089],[-78.8504,8.3865,2.9953],[-78.8482,8.3832,4.8569],[-78.841,8.3843,0.0],[-78.8388,8.3882,0.0],[-78.836,8.3888,14.919],[-78.8368,8.3946,0.0],[-78.8346,8.3943,0.0],[-78.8335,8.3968,26.5869],[-78.836,8.3971,3.1354],[-78.8365,8.3949,0.0],[-78.8412,8.3968,0.0],[-78.8415,8.3985,21.9629],[-78.8368,8.3999,0.0],[-78.8365,8.4018,0.0],[-78.8385,8.4032,1.8279],[-78.8426,8.4129,2.123],[-78.8449,8.4121,0.0],[-78.8454,8.4062,12.1394],[-78.8479,8.4068,4.5103],[-78.8485,8.4135,0.9448],[-78.8526,8.4129,14.2761],[-78.8535,8.4143,4.7014],[-78.8585,8.4074,0.0],[-78.8607,8.4076,1.2416],[-78.8604,8.4118,30.9916],[-78.856,8.4168,4.4042],[-78.8582,8.4221,0.0],[-78.8601,8.4215,0.0],[-78.8632,8.4129,5.3098],[-78.8654,8.4129,0.0],[-78.8646,8.4199,5.7201],[-78.8596,8.4326,3.6884],[-78.8596,8.4362,4.7405],[-78.8624,8.4415,44.244],[-78.8604,8.4443,8.3056],[-78.8574,8.444,0.0],[-78.8576,8.446,0.0],[-78.8582,8.4474,0.0],[-78.8607,8.446,0.0],[-78.8624,8.4471,49.4714],[-78.8618,8.4504,8.4151],[-78.8665,8.451,14.6441],[-78.8668,8.4554,13.8083],[-78.8704,8.4496,9.3976],[-78.8729,8.4532,1.1071],[-78.8712,8.4574,0.0],[-78.8721,8.4587,0.0],[-78.8765,8.4563,15.2954],[-78.8771,8.4582,24.7095],[-78.8737,8.4596,0.0],[-78.8732,8.4615,0.0],[-78.8774,8.4651,4.6058],[-78.8779,8.4682,8.8084],[-78.8787,8.4632,0.0],[-78.8801,8.4651,0.0],[-78.8832,8.4649,3.3232],[-78.8812,8.4724,0.0],[-78.8849,8.471,8.2719],[-78.8887,8.4754,1.7765],[-78.8926,8.4743,9.8116],[-78.896,8.4657,2.4655],[-78.8938,8.4601,0.0],[-78.8962,8.4557,0.0],[-78.8987,8.4574,1.1855],[-78.9001,8.4554,8.6135],[-78.8993,8.4579,9.3901],[-78.8954,8.4582,1.5271],[-78.8965,8.4607,0.0],[-78.904,8.4601,9.7739],[-78.9046,8.4663,1.5117],[-78.9062,8.4663,3.4165],[-78.9054,8.4693,2.0416],[-78.9115,8.4696,1.6518],[-78.9124,8.471,0.0],[-78.9137,8.4688,0.0],[-78.9168,8.4679,3.7309],[-78.9154,8.4643,8.8326],[-78.9182,8.4621,1.7805],[-78.9207,8.4626,4.5653],[-78.9199,8.4671,0.0],[-78.9251,8.4637,7.0496],[-78.9299,8.4649,0.0],[-78.929,8.4601,0.0],[-78.9251,8.4579,1.5733],[-78.9268,8.4563,5.4168],[-78.9321,8.4565,14.6804],[-78.9321,8.4593,7.2276],[-78.934,8.4601,1.9374],[-78.9351,8.4579,9.2108],[-78.9401,8.4585,10.4263],[-78.9432,8.4538,0.7538],[-78.9485,8.4529,12.5049],[-78.9515,8.4557,2.7302],[-78.9512,8.4587,0.0],[-78.956,8.4582,8.2908],[-78.9563,8.4596,4.2414],[-78.9585,8.4596,6.8988],[-78.9607,8.4571,13.5927],[-78.9649,8.4565,21.5181],[-78.9662,8.4607,0.0],[-78.9726,8.4568,20.3102],[-78.9729,8.4482,14.8094],[-78.9754,8.4451,0.0],[-78.9721,8.441,14.2133],[-78.9737,8.4307,0.0],[-78.9696,8.4324,9.8935],[-78.9665,8.4304,6.7992],[-78.9682,8.4271,2.754],[-78.971,8.4263,8.7437],[-78.9707,8.4229,0.0],[-78.9646,8.4207,2.2122],[-78.9665,8.4204,0.0],[-78.9654,8.4171,0.0],[-78.9665,8.4154,0.0],[-78.9649,8.4135,0.0],[-78.9679,8.4107,3.3955],[-78.9674,8.4079,0.0],[-78.9638,8.404,2.0212],[-78.9596,8.3904,6.7776],[-78.961,8.3871,0.0],[-78.9601,8.3815,15.0025],[-78.9651,8.3751,10.2609],[-78.9693,8.3771,0.0],[-78.9682,8.3726,6.3902],[-78.9732,8.3682,0.0],[-78.9607,8.3571,9.2611],[-78.9554,8.3501,0.0]]],
[[[-78.9624,8.3932,0.0],[-78.9621,8.3951,1.9829],[-78.9643,8.3957,0.0],[-78.9643,8.3938,0.0],[-78.9668,8.3915,2.4285],[-78.9646,8.391,2.7114],[-78.9624,8.3932,0.0]]],
[[[-78.9804,8.4271,0.0],[-78.9824,8.4276,2.2791],[-78.9829,8.4249,2.5346],[-78.9801,8.4251,0.0],[-78.9804,8.4271,0.0]]],
[[[-78.9351,8.4632,0.0],[-78.9371,8.4643,2.836],[-78.9393,8.4629,0.0],[-78.936,8.4612,0.0],[-78.9351,8.4632,0.0]]],
[[[-79.0121,8.3632,3.7858],[-79.0101,8.3649,2.8417],[-79.0154,8.3626,10.1311],[-79.0132,8.3621,8.1108],[-79.0121,8.3632,3.7858]]],
[[[-78.9904,8.4432,6.1867],[-78.9913,8.4443,0.0],[-78.9924,8.4413,0.0],[-78.9907,8.4415,0.0],[-78.9904,8.4432,6.1867]]],
[[[-79.0082,8.4432,0.0],[-79.0057,8.4435,0.0],[-79.006,8.4471,0.0],[-79.011,8.4413,0.0],[-79.0082,8.4432,0.0]]],
[[[-78.9899,8.4538,1.2143],[-78.989,8.4543,2.1814],[-78.9893,8.4554,2.1814],[-78.9913,8.4532,0.0],[-78.9899,8.4538,1.2143]]],
[[[-78.9996,8.489,0.0],[-78.999,8.4932,2.1481],[-79.0018,8.4926,3.5875],[-79.0035,8.4904,16.1989],[-79.0065,8.4912,5.054],[-79.0101,8.4879,7.4806],[-79.0101,8.486,4.3313],[-79.0082,8.4849,6.7046],[-79.0121,8.4849,5.8714],[-79.0126,8.4826,1.7364],[-79.0124,8.481,1.5474],[-79.0096,8.4824,6.8875],[-79.0082,8.479,0.0],[-79.0065,8.479,6.6893],[-79.0035,8.4812,0.0],[-79.0026,8.4843,1.2352],[-79.0001,8.4838,0.0],[-79.0001,8.4771,0.0],[-79.004,8.4751,0.0],[-79.0032,8.4715,11.5648],[-79.0051,8.4699,9.9285],[-79.0085,8.471,0.0],[-79.0093,8.4679,0.0],[-79.0115,8.4732,2.0755],[-79.0168,8.4713,0.0],[-79.0171,8.4696,13.0878],[-79.0201,8.4715,14.9314],[-79.0232,8.466,2.4316],[-79.014,8.4663,16.2698],[-79.0079,8.4607,15.8557],[-79.0082,8.4582,0.0],[-79.0065,8.4582,0.0],[-79.0051,8.4624,8.5278],[-79.0029,8.4626,10.0512],[-78.9893,8.4601,12.5519],[-78.9868,8.4499,1.163],[-78.9829,8.451,10.2824],[-78.9796,8.4499,5.4057],[-78.9824,8.4449,0.0],[-78.9804,8.4413,0.0],[-78.9796,8.444,9.803],[-78.9762,8.4463,0.0],[-78.9774,8.4532,8.6561],[-78.9796,8.4568,2.7464],[-78.9757,8.459,10.1446],[-78.9729,8.4635,0.0],[-78.9854,8.461,0.0],[-78.9865,8.4657,0.0],[-78.989,8.4671,0.0],[-78.9879,8.4696,3.6677],[-78.9938,8.4693,0.9885],[-78.9943,8.4704,0.9885],[-78.9935,8.4729,1.6492],[-78.9896,8.4754,9.8944],[-78.9865,8.4749,0.0],[-78.9849,8.4779,6.0284],[-78.9807,8.4776,0.0],[-78.9788,8.4815,0.0],[-78.9799,8.4838,8.1955],[-78.9743,8.489,3.7838],[-78.9824,8.4887,0.0],[-78.984,8.4826,1.4587],[-78.991,8.4785,7.4043],[-78.9935,8.4796,0.0],[-78.9957,8.4743,18.3768],[-78.9965,8.4776,0.0],[-78.9999,8.4763,3.1869],[-78.9999,8.4851,0.0],[-78.9976,8.4876,0.0],[-78.9996,8.489,0.0]]],
[[[-79.0079,8.4938,0.0],[-79.0096,8.4946,9.2719],[-79.0113,8.4932,2.0166],[-79.0093,8.4926,7.7188],[-79.0079,8.4938,0.0]]],
[[[-79.0185,8.5224,6.7481],[-79.0232,8.5232,3.0314],[-79.026,8.5207,0.0],[-79.0237,8.521,9.7781],[-79.021,8.5179,0.0],[-79.0146,8.5204,0.0],[-79.0151,8.5232,0.0],[-79.0168,8.521,3.8149],[-79.0185,8.5224,6.7481]]],
[[[-79.0054,8.5299,0.0],[-79.0076,8.531,0.0],[-79.0079,8.5282,0.0],[-79.0071,8.5282,0.0],[-79.0054,8.5299,0.0]]],
[[[-78.7735,8.1979,18.8945],[-78.7765,8.1993,0.0],[-78.7779,8.194,1.1873],[-78.7765,8.1926,0.0],[-78.7726,8.1937,0.0],[-78.7715,8.1962,18.8955],[-78.7735,8.1979,18.8945]]],
[[[-78.841,8.281,0.0],[-78.8412,8.2835,0.0],[-78.8432,8.2832,15.8725],[-78.8449,8.2807,18.441],[-78.8476,8.281,15.208],[-78.8515,8.2776,20.9274],[-78.8538,8.2776,0.0],[-78.8529,8.274,0.0],[-78.8512,8.274,7.9674],[-78.8526,8.2724,0.0],[-78.8504,8.2718,1.4961],[-78.851,8.2676,0.0],[-78.8485,8.2676,0.0],[-78.8476,8.2704,0.5518],[-78.844,8.2699,0.0],[-78.8432,8.2682,0.0],[-78.8401,8.2685,0.0],[-78.8401,8.2729,0.0],[-78.8371,8.276,0.0],[-78.8412,8.2771,7.7354],[-78.841,8.281,0.0]]],
[[[-78.8887,8.2924,0.0],[-78.8896,8.2946,0.0],[-78.8907,8.2907,0.0],[-78.8901,8.2907,0.0],[-78.8887,8.2924,0.0]]],
[[[-78.9068,8.2182,0.0],[-78.9079,8.2193,0.0],[-78.9093,8.2193,0.0],[-78.9079,8.2174,0.41],[-78.9068,8.2182,0.0]]],
[[[-78.9335,8.2749,0.0],[-78.9346,8.2762,0.0],[-78.934,8.274,0.8115],[-78.9321,8.2726,0.0],[-78.9324,8.2737,0.0],[-78.9335,8.2749,0.0]]],
[[[-78.8074,8.3701,27.9172],[-78.8099,8.3699,26.9711],[-78.8115,8.3657,13.6213],[-78.811,8.3588,0.0331],[-78.8096,8.361,0.0],[-78.806,8.3604,0.0],[-78.8037,8.3649,0.0],[-78.8051,8.3676,14.1654],[-78.8046,8.3715,6.7643],[-78.8074,8.3701,27.9172]]],
[[[-78.811,8.369,0.0],[-78.8071,8.3754,0.0],[-78.8079,8.3799,0.0],[-78.8176,8.3929,0.0],[-78.8276,8.399,0.0],[-78.8349,8.3882,0.0],[-78.8388,8.376,0.0],[-78.8301,8.3674,0.0],[-78.8151,8.3657,0.0],[-78.811,8.369,0.0]]],
[[[-78.8535,8.4315,18.8783],[-78.8538,8.4332,8.9079],[-78.8551,8.4329,8.9079],[-78.8549,8.4285,0.0],[-78.849,8.4229,0.0],[-78.8504,8.4265,7.0096],[-78.8521,8.4271,6.5548],[-78.8535,8.4315,18.8783]]],
[[[-78.8465,8.441,0.0],[-78.8471,8.4435,0.0],[-78.8487,8.4432,7.2618],[-78.849,8.441,0.0],[-78.8465,8.441,0.0]]],
[[[-78.8526,8.4587,0.0803],[-78.8532,8.4604,3.2893],[-78.8549,8.4601,0.0],[-78.8518,8.4565,0.0],[-78.8526,8.4587,0.0803]]],
[[[-78.9004,8.4729,0.0],[-78.8993,8.4749,0.0],[-78.8993,8.4757,0.0],[-78.9024,8.4724,0.0],[-78.9004,8.4729,0.0]]],
[[[-78.9396,8.464,1.994],[-78.939,8.4654,1.994],[-78.9399,8.4671,1.4374],[-78.9418,8.4621,0.0],[-78.9396,8.464,1.994]]],
[[[-78.906,8.4738,3.537],[-78.9088,8.4746,7.1086],[-78.9071,8.471,9.3452],[-78.9043,8.4701,6.0601],[-78.9043,8.4665,1.5117],[-78.9026,8.466,2.0847],[-78.9015,8.4701,13.4132],[-78.9043,8.471,7.1849],[-78.906,8.4738,3.537]]],
[[[-78.9143,8.4701,0.0],[-78.9126,8.4715,0.0],[-78.9132,8.4726,0.0],[-78.9146,8.4718,1.5435],[-78.9143,8.4701,0.0]]],
[[[-78.9099,8.474,0.0],[-78.9096,8.476,0.0],[-78.9118,8.4754,0.0],[-78.9118,8.4738,0.0],[-78.9099,8.474,0.0]]],
[[[-78.9024,8.4793,6.0615],[-78.904,8.481,0.0],[-78.9051,8.4782,10.4744],[-78.9051,8.476,7.7616],[-78.9026,8.4746,0.0],[-78.9021,8.4746,0.0],[-78.9024,8.4793,6.0615]]],
[[[-79.0963,8.2057,0.0],[-79.0982,8.2071,0.0],[-79.0979,8.2049,0.0],[-79.096,8.2046,0.0],[-79.0963,8.2057,0.0]]],
[[[-79.1065,8.2101,0.0],[-79.1096,8.211,1.2514],[-79.1093,8.2049,0.0],[-79.1062,8.2076,0.0],[-79.1065,8.2101,0.0]]],
[[[-79.1229,8.2096,0.0],[-79.1243,8.2107,0.0],[-79.126,8.2101,0.0],[-79.1249,8.2082,0.0],[-79.1229,8.2096,0.0]]],
[[[-79.0957,8.2104,0.0],[-79.096,8.2126,0.0],[-79.0974,8.2126,0.0],[-79.0979,8.2093,0.0],[-79.0957,8.2104,0.0]]],
[[[-79.1032,8.3154,27.2965],[-79.1032,8.3174,0.0],[-79.1082,8.3171,0.0],[-79.1104,8.3154,57.1032],[-79.1174,8.3163,0.0],[-79.1168,8.3132,19.7455],[-79.1207,8.3107,9.3356],[-79.1229,8.304,0.0],[-79.1265,8.3004,15.1231],[-79.1296,8.2996,0.0],[-79.1274,8.2968,35.5208],[-79.1299,8.2954,0.0],[-79.1285,8.291,13.9234],[-79.1296,8.2854,0.0],[-79.1265,8.2849,0.0],[-79.1293,8.281,27.6776],[-79.1254,8.279,0.0],[-79.1279,8.274,0.0],[-79.1276,8.2701,0.0],[-79.1307,8.2676,0.0],[-79.131,8.2621,0.0],[-79.1285,8.2618,0.0],[-79.1293,8.2604,0.0],[-79.1257,8.2585,3.7965],[-79.1288,8.2574,0.0],[-79.1288,8.256,0.0],[-79.1343,8.2551,7.7974],[-79.1368,8.2596,0.0],[-79.1393,8.2538,26.6677],[-79.1407,8.2535,0.0],[-79.1404,8.2513,0.0],[-79.1429,8.251,0.0],[-79.1426,8.2437,16.9199],[-79.1446,8.2413,0.0],[-79.1446,8.2382,0.0],[-79.1424,8.2376,0.0],[-79.1401,8.2432,20.8327],[-79.1379,8.2424,3.1466],[-79.1374,8.2363,2.4071],[-79.1335,8.2285,0.0],[-79.1349,8.2232,0.4201],[-79.1279,8.2263,0.0],[-79.131,8.2224,0.0],[-79.1299,8.214,0.0],[-79.1288,8.2126,5.2246],[-79.1235,8.2124,12.2848],[-79.1204,8.2082,0.0],[-79.1171,8.2085,0.0],[-79.1132,8.2121,19.3093],[-79.1113,8.2096,0.7846],[-79.109,8.2126,17.1397],[-79.1085,8.2185,0.0],[-79.1104,8.2199,2.6984],[-79.1104,8.226,0.0],[-79.1079,8.2263,0.0],[-79.106,8.2304,0.0],[-79.0996,8.2279,0.0],[-79.0971,8.2299,0.3895],[-79.099,8.2301,0.0],[-79.0987,8.2396,0.0],[-79.1029,8.2407,27.2658],[-79.1015,8.2435,0.0],[-79.1057,8.244,7.1185],[-79.1065,8.246,3.7131],[-79.1062,8.2496,4.7289],[-79.1012,8.2557,3.9477],[-79.0976,8.256,0.0],[-79.0907,8.2604,0.0],[-79.0837,8.2588,34.7992],[-79.0843,8.256,0.0],[-79.0826,8.254,0.0],[-79.0776,8.2551,0.0],[-79.0782,8.2582,24.0869],[-79.0735,8.2568,0.0],[-79.0693,8.2582,0.0],[-79.066,8.2574,6.4525],[-79.066,8.2601,9.6744],[-79.0679,8.2601,40.2374],[-79.0696,8.2643,4.472],[-79.076,8.2629,17.1059],[-79.0757,8.2671,0.0],[-79.0779,8.2674,2.9293],[-79.076,8.2679,2.9293],[-79.0762,8.2693,0.0],[-79.0829,8.2721,0.0],[-79.0846,8.2824,13.5193],[-79.0829,8.2871,0.0],[-79.0871,8.2915,51.1916],[-79.089,8.2985,10.3007],[-79.0912,8.2993,5.9761],[-79.0957,8.3057,0.0],[-79.0985,8.3063,4.7443],[-79.099,8.3104,7.308],[-79.1018,8.3104,13.4329],[-79.1032,8.3154,27.2965]]],
[[[-79.1143,8.4268,12.6076],[-79.1137,8.429,0.0],[-79.116,8.4293,0.0],[-79.1257,8.424,0.0],[-79.1296,8.4168,0.0],[-79.1274,8.4115,52.8306],[-79.1318,8.404,0.0],[-79.1279,8.4001,0.0],[-79.1215,8.4032,6.4188],[-79.1165,8.3974,12.6188],[-79.1168,8.3913,0.0],[-79.114,8.3921,22.811],[-79.114,8.3899,0.0],[-79.1101,8.389,0.0],[-79.1085,8.3904,0.0],[-79.1043,8.3888,15.11],[-79.0996,8.3829,3.9724],[-79.0957,8.3824,2.094],[-79.096,8.3776,2.4448],[-79.0921,8.3793,19.9035],[-79.0904,8.3768,0.0],[-79.086,8.3774,0.0],[-79.084,8.3821,0.0],[-79.0851,8.3863,0.0],[-79.0829,8.3874,5.5355],[-79.0826,8.3929,19.5123],[-79.0804,8.3957,11.6087],[-79.0807,8.3982,8.4383],[-79.0865,8.401,44.7951],[-79.0824,8.414,6.2204],[-79.0871,8.4196,21.7998],[-79.0901,8.419,5.9398],[-79.0915,8.4149,4.3503],[-79.0912,8.4126,3.1994],[-79.089,8.4115,0.0],[-79.0912,8.4085,0.0],[-79.0904,8.4043,0.0],[-79.0943,8.4021,0.0],[-79.0965,8.4099,0.0],[-79.0996,8.4071,0.0],[-79.1021,8.4076,0.0],[-79.1001,8.4126,0.0],[-79.1012,8.4157,0.0],[-79.1043,8.4157,3.0692],[-79.1146,8.4213,3.2948],[-79.1143,8.4268,12.6076]]],
[[[-79.1062,8.4229,0.0],[-79.1068,8.424,3.1838],[-79.1099,8.4238,5.8262],[-79.1085,8.4204,0.0],[-79.1062,8.4229,0.0]]],
[[[-79.1065,8.446,0.0],[-79.1082,8.4474,0.0],[-79.1107,8.4454,34.7792],[-79.1107,8.4415,7.6919],[-79.1087,8.4401,0.0],[-79.1062,8.4421,10.3285],[-79.1065,8.446,0.0]]],
[[[-79.0424,8.4821,0.0],[-79.0432,8.4835,0.0],[-79.0443,8.4807,0.0],[-79.0429,8.4804,0.0],[-79.0424,8.4821,0.0]]],
[[[-79.0496,8.4879,7.573],[-79.0488,8.4899,0.0],[-79.0532,8.4857,3.2413],[-79.0512,8.4812,0.0],[-79.0482,8.4832,0.0],[-79.0496,8.4879,7.573]]],
[[[-79.0479,8.4929,5.8469],[-79.0471,8.4954,0.0],[-79.0499,8.4954,8.5126],[-79.0532,8.491,4.0657],[-79.0507,8.4912,0.0],[-79.0507,8.4935,0.0],[-79.0479,8.4929,5.8469]]],
[[[-79.0276,8.5215,8.8466],[-79.0296,8.5238,0.0],[-79.0335,8.5221,0.0],[-79.039,8.5124,0.0],[-79.0387,8.5096,7.943],[-79.0424,8.5068,4.8063],[-79.0437,8.5026,0.0],[-79.0396,8.4996,0.0],[-79.0362,8.4996,0.4427],[-79.0349,8.5018,18.2453],[-79.0318,8.501,7.0037],[-79.0304,8.4982,16.7424],[-79.0338,8.4946,0.0],[-79.029,8.4954,0.0],[-79.0282,8.4915,0.0],[-79.0246,8.4957,14.3408],[-79.0218,8.4951,0.0],[-79.0249,8.499,18.5151],[-79.024,8.5018,0.0],[-79.029,8.501,3.3224],[-79.0299,8.5032,0.0],[-79.0321,8.5026,0.0],[-79.0307,8.5057,0.0],[-79.0324,8.5065,0.84],[-79.0324,8.5124,0.0],[-79.0285,8.5157,1.2827],[-79.0285,8.5182,0.9817],[-79.0263,8.5201,0.0],[-79.0276,8.5215,8.8466]]],
[[[-79.0249,8.5154,1.0765],[-79.0279,8.516,1.2827],[-79.0263,8.5151,1.0765],[-79.0265,8.5118,0.0],[-79.0215,8.5104,0.0],[-79.0221,8.5135,0.0],[-79.0249,8.5154,1.0765]]],
[[[-79.0418,8.524,1.9784],[-79.0393,8.5243,2.826],[-79.0396,8.5257,0.0],[-79.0507,8.5224,14.3919],[-79.0471,8.5176,13.4239],[-79.0515,8.5115,0.0],[-79.051,8.5099,0.0],[-79.0449,8.5115,0.0],[-79.0413,8.5143,0.0],[-79.0376,8.5218,0.0],[-79.0429,8.521,1.4422],[-79.0432,8.5235,23.9291],[-79.0418,8.524,1.9784]]],
[[[-79.0307,8.5379,0.0],[-79.0307,8.5396,0.0],[-79.0343,8.5399,4.8722],[-79.0371,8.5379,0.0],[-79.0354,8.5365,0.0],[-79.036,8.5335,0.0],[-79.0346,8.5335,0.0],[-79.0307,8.5379,0.0]]],
[[[-79.0332,8.5488,0.83],[-79.0318,8.5518,0.0],[-79.0332,8.5515,0.0],[-79.0362,8.5474,0.0],[-79.0349,8.5468,0.0],[-79.0332,8.5488,0.83]]],
[[[-78.954,8.4985,0.0],[-78.9535,8.4999,0.0],[-78.9554,8.4976,0.0],[-78.9546,8.4976,0.0],[-78.954,8.4985,0.0]]],
[[[-79.0104,8.5301,0.0],[-79.0079,8.5307,0.0],[-79.0082,8.5326,0.0],[-79.0099,8.5324,0.0],[-79.0104,8.5301,0.0]]],
[[[-79.024,8.5771,0.0],[-79.0237,8.579,0.0],[-79.0304,8.5774,1.3839],[-79.0326,8.5735,11.17],[-79.0313,8.5724,11.17],[-79.0279,8.5751,0.0],[-79.0251,8.5738,1.813],[-79.0246,8.5715,0.0],[-79.0282,8.5688,0.0],[-79.0276,8.5643,0.8064],[-79.0224,8.564,0.0],[-79.0176,8.5676,0.0],[-79.0176,8.5696,2.7997],[-79.021,8.5707,7.8343],[-79.0179,8.5724,2.6039],[-79.0171,8.5754,10.8187],[-79.0199,8.5738,6.7714],[-79.024,8.574,5.0234],[-79.0251,8.5749,1.813],[-79.024,8.5771,0.0]]],
[[[-79.0251,8.5957,19.3984],[-79.0249,8.5974,0.0],[-79.0282,8.5965,11.5008],[-79.0304,8.5935,45.2046],[-79.031,8.5951,7.8025],[-79.0329,8.5951,0.0],[-79.0362,8.5932,6.1402],[-79.0338,8.5868,0.0],[-79.0346,8.5838,6.5394],[-79.0312,8.5843,10.2843],[-79.0301,8.5815,0.0],[-79.0299,8.5835,1.7272],[-79.0224,8.584,0.0],[-79.0188,8.5874,20.0112],[-79.0174,8.5907,1.5629],[-79.0246,8.5926,27.729],[-79.0251,8.5957,19.3984]]],
[[[-79.0312,8.6335,0.0],[-79.0332,8.6351,0.0],[-79.0343,8.6326,5.2563],[-79.0365,8.6332,2.3473],[-79.0362,8.6313,9.9572],[-79.0387,8.629,17.6925],[-79.0413,8.6299,2.6272],[-79.0446,8.626,2.8267],[-79.046,8.6187,0.0],[-79.0421,8.619,0.395],[-79.0413,8.6221,23.6679],[-79.0376,8.6243,19.3394],[-79.0329,8.6243,0.0],[-79.031,8.6274,17.6065],[-79.0274,8.6274,10.7886],[-79.0279,8.6293,3.7046],[-79.031,8.629,3.303],[-79.0326,8.6307,0.0],[-79.0312,8.6335,0.0]]],
[[[-79.0346,8.649,0.0],[-79.034,8.651,0.0],[-79.0354,8.6515,0.0],[-79.0376,8.6482,0.0],[-79.0362,8.6482,0.0],[-79.0346,8.649,0.0]]],
[[[-79.0551,8.5038,0.0],[-79.0582,8.5051,14.653],[-79.0596,8.5024,0.0],[-79.0629,8.5013,4.2306],[-79.0646,8.4971,5.5477],[-79.0682,8.4951,0.0],[-79.066,8.4882,5.0373],[-79.0687,8.4818,0.0],[-79.0674,8.4812,0.0],[-79.066,8.4835,9.8943],[-79.0615,8.4846,12.5348],[-79.0587,8.4818,0.0],[-79.056,8.4862,13.2998],[-79.0543,8.4857,4.0736],[-79.0526,8.4876,4.8202],[-79.0551,8.4921,1.4966],[-79.0518,8.4951,6.5296],[-79.0493,8.5007,0.0],[-79.0535,8.4996,0.0],[-79.0557,8.4946,0.8989],[-79.0576,8.4938,4.3949],[-79.0551,8.5038,0.0]]],
[[[-79.0557,8.5079,0.0],[-79.0557,8.5093,3.4134],[-79.0585,8.509,1.6912],[-79.0563,8.5074,0.0],[-79.0557,8.5079,0.0]]],
[[[-79.0607,8.6015,20.5429],[-79.0604,8.6029,11.5782],[-79.0638,8.6024,0.0],[-79.0643,8.5982,0.6923],[-79.061,8.5982,0.0],[-79.0607,8.6015,20.5429]]],
[[[-79.0618,8.6357,3.9358],[-79.0671,8.6357,3.0239],[-79.0682,8.626,0.0],[-79.071,8.626,0.0],[-79.0723,8.624,0.0],[-79.0724,8.6196,0.0],[-79.0674,8.6174,27.9916],[-79.0649,8.6143,8.3329],[-79.064,8.6076,0.7738],[-79.0618,8.6079,13.1456],[-79.0607,8.614,20.1243],[-79.0582,8.6151,0.0],[-79.0515,8.624,22.3516],[-79.0524,8.6254,22.3516],[-79.0549,8.624,5.9797],[-79.0582,8.6254,17.9391],[-79.0599,8.6282,29.5881],[-79.0579,8.6307,4.9307],[-79.0585,8.6346,0.0],[-79.0615,8.6343,3.0219],[-79.0618,8.6357,3.9358]]],
[[[-79.0512,8.6679,0.0],[-79.0512,8.6701,0.0],[-79.0576,8.6701,14.6521],[-79.0593,8.6693,14.6521],[-79.0596,8.6665,0.0],[-79.0568,8.6629,0.0],[-79.0499,8.6618,0.0],[-79.0479,8.664,4.1971],[-79.0512,8.6679,0.0]]],
[[[-79.0612,8.6721,2.2891],[-79.0638,8.6729,0.0],[-79.0651,8.6715,2.5788],[-79.0612,8.6712,3.1811],[-79.0612,8.6721,2.2891]]]]}}