{"type":"Feature","properties":{"GID_1":"PAN.8_1","GID_0":"PAN","country":"Panama","province":"KunaYala","VARNAME_1":"NA","NL_NAME_1":"NA","TYPE_1":"ComarcaIndígena","ENGTYPE_1":"IndigenousTerritory","CC_1":"NA","HASC_1":"PA.SB","ISO_1":"NA","name":"Kuna_Yala.province"},
"geometry":{"type": "MultiPolygon","coordinates": [[[[-77.362,8.6543,9.4317],[-77.361,8.6568,5.3736],[-77.3643,8.6549,8.2613],[-77.3657,8.6593,0.0],[-77.3643,8.6621,8.0794],[-77.3615,8.6607,1.1905],[-77.3596,8.6629,0.0],[-77.359,8.6718,12.1936],[-77.3574,8.6732,0.0],[-77.3582,8.6757,0.0],[-77.3593,8.6746,24.1855],[-77.3629,8.6754,6.7186],[-77.3643,8.6726,13.2618],[-77.3676,8.6746,0.0],[-77.3676,8.6768,0.0],[-77.3712,8.6782,0.0],[-77.3679,8.6687,31.1033],[-77.374,8.6613,17.3216],[-77.3801,8.661,5.2883],[-77.3826,8.6671,0.0],[-77.3849,8.6654,29.3857],[-77.386,8.6704,6.9519],[-77.3918,8.6721,0.0],[-77.3949,8.6768,3.2955],[-77.3979,8.6754,105.4235],[-77.4024,8.6763,9.6702],[-77.4046,8.6737,3.2616],[-77.4043,8.6707,2.9512],[-77.4151,8.674,0.0],[-77.4185,8.6732,1.9577],[-77.4215,8.6671,0.5029],[-77.4207,8.6632,0.9784],[-77.424,8.6613,3.5586],[-77.429,8.6615,32.1749],[-77.4388,8.6665,1.6917],[-77.4443,8.6621,0.0],[-77.4496,8.664,0.0],[-77.4524,8.6626,2.3179],[-77.4529,8.6649,1.3489],[-77.4682,8.6693,2.8806],[-77.4974,8.6824,0.0],[-77.524,8.699,0.0],[-77.5382,8.706,0.6392],[-77.5393,8.7082,0.0],[-77.5446,8.7101,4.0604],[-77.5468,8.7126,0.0],[-77.5457,8.7168,3.8137],[-77.5485,8.7174,0.0],[-77.5496,8.7193,0.8213],[-77.551,8.7282,0.0],[-77.5499,8.7312,2.0526],[-77.5474,8.7312,1.277],[-77.5451,8.7388,3.971],[-77.5421,8.7368,0.0],[-77.5413,8.7393,3.0353],[-77.5393,8.7396,1.0797],[-77.5382,8.751,0.8647],[-77.5354,8.7518,0.0],[-77.5351,8.7557,10.462],[-77.5376,8.7579,26.3614],[-77.5354,8.7612,12.5296],[-77.5365,8.7618,12.5296],[-77.5382,8.7599,19.5306],[-77.5396,8.761,1.609],[-77.541,8.7699,12.0387],[-77.5457,8.7754,51.8812],[-77.5504,8.7779,0.0],[-77.5563,8.7774,0.0],[-77.5557,8.7693,0.0],[-77.5599,8.764,24.8151],[-77.5651,8.7679,0.8928],[-77.5676,8.7668,46.1429],[-77.5679,8.7649,5.4045],[-77.5729,8.7668,14.4126],[-77.5793,8.7754,2.8584],[-77.5793,8.784,10.114],[-77.5732,8.7879,0.0],[-77.5746,8.7924,0.5537],[-77.5774,8.7951,0.0],[-77.5771,8.7979,0.0],[-77.5801,8.7979,18.8758],[-77.586,8.8029,0.0],[-77.5954,8.806,21.6215],[-77.5949,8.8099,5.3106],[-77.6062,8.8196,0.0],[-77.6085,8.8179,4.6302],[-77.6129,8.8193,0.0],[-77.6143,8.8218,9.4577],[-77.6129,8.8274,0.0],[-77.6149,8.8288,0.0],[-77.6174,8.8282,30.016],[-77.6215,8.8374,5.7258],[-77.6318,8.8451,13.9991],[-77.6329,8.8518,4.595],[-77.639,8.8493,18.162],[-77.6368,8.8443,2.6289],[-77.6385,8.844,0.0],[-77.6371,8.8418,6.5548],[-77.6399,8.8396,0.0],[-77.6346,8.8368,3.1592],[-77.6237,8.8188,0.7452],[-77.6226,8.8204,0.0],[-77.6207,8.8199,6.0378],[-77.6193,8.8171,0.0],[-77.6229,8.8143,4.9475],[-77.6249,8.8149,5.9703],[-77.6265,8.8185,0.0],[-77.6288,8.8176,0.5657],[-77.6349,8.826,0.0],[-77.6371,8.8251,22.1287],[-77.6374,8.8207,6.7442],[-77.6387,8.8196,5.1652],[-77.644,8.8193,13.0944],[-77.6465,8.8279,0.0],[-77.649,8.829,0.0],[-77.6501,8.8279,8.4931],[-77.6504,8.8313,2.5325],[-77.6532,8.8315,3.7005],[-77.6521,8.8418,18.837],[-77.6562,8.8449,1.8465],[-77.6593,8.844,2.4171],[-77.6629,8.8465,9.1127],[-77.6637,8.8507,0.0],[-77.6668,8.8507,11.016],[-77.6696,8.8557,0.0],[-77.6743,8.859,0.0],[-77.6793,8.8657,0.0],[-77.6862,8.8662,0.2624],[-77.6888,8.8707,0.0],[-77.6963,8.8713,2.0653],[-77.6982,8.8782,1.1782],[-77.6971,8.8788,0.0],[-77.6979,8.884,4.9375],[-77.696,8.8868,2.9498],[-77.7001,8.8874,0.0],[-77.7004,8.8835,4.8564],[-77.7026,8.8826,5.9391],[-77.7046,8.8851,2.9864],[-77.7063,8.8854,0.2063],[-77.7076,8.8835,2.9283],[-77.7124,8.8879,0.8485],[-77.7179,8.8899,24.7054],[-77.7185,8.8946,1.5903],[-77.7149,8.896,0.0],[-77.7182,8.8999,11.2647],[-77.7235,8.9021,0.0],[-77.7282,8.9076,4.7696],[-77.7265,8.9163,0.9754],[-77.7296,8.9171,0.1983],[-77.7324,8.9235,1.7829],[-77.7382,8.9285,2.8748],[-77.739,8.931,0.9273],[-77.7412,8.9315,1.3739],[-77.7426,8.9368,0.3511],[-77.7446,8.936,0.3511],[-77.7462,8.939,0.4825],[-77.7524,8.9404,3.0612],[-77.7526,8.9426,0.0],[-77.7562,8.9437,1.9636],[-77.7571,8.9474,0.6325],[-77.7624,8.9518,1.9331],[-77.7621,8.9579,3.0561],[-77.7557,8.966,2.3369],[-77.7449,8.961,1.0323],[-77.7424,8.9624,0.0],[-77.7412,8.966,0.0],[-77.744,8.9718,0.0],[-77.746,8.971,1.0254],[-77.749,8.974,0.0],[-77.7499,8.9715,2.9524],[-77.751,8.9738,0.0],[-77.754,8.9732,2.9576],[-77.7532,8.9774,1.7282],[-77.7557,8.9788,0.0],[-77.7621,8.9746,5.0899],[-77.764,8.9749,5.9162],[-77.7624,8.9815,5.7174],[-77.7568,8.9801,0.0],[-77.7554,8.9835,4.3665],[-77.7626,8.9843,2.9153],[-77.7635,8.9871,7.668],[-77.7607,8.9901,0.0],[-77.764,8.9893,2.4599],[-77.7693,8.9924,0.0],[-77.7718,8.9954,5.6603],[-77.7721,8.9987,5.389],[-77.7715,8.9999,3.1357],[-77.7593,8.9999,0.5675],[-77.759,8.9985,0.7931],[-77.7549,8.9979,6.5614],[-77.7535,8.996,0.0],[-77.7476,8.9974,3.8418],[-77.7449,8.9999,2.9448],[-77.7451,9.0076,0.0],[-77.7471,9.0101,0.0],[-77.7499,9.0107,0.0],[-77.7546,9.0149,0.0],[-77.7596,9.0151,0.0],[-77.7649,9.0074,0.2102],[-77.7607,9.0037,19.1469],[-77.7624,9.0021,0.0],[-77.7596,9.0001,0.5675],[-77.7699,9.001,1.2694],[-77.7718,9.0029,0.0],[-77.7774,9.001,0.0],[-77.774,9.0029,0.0],[-77.776,9.0046,0.0],[-77.7799,9.0029,2.751],[-77.7812,9.0051,0.0],[-77.779,9.0068,0.0],[-77.7724,9.0046,0.0],[-77.7735,9.0079,2.7764],[-77.7924,9.0187,5.6225],[-77.7954,9.0226,0.0],[-77.804,9.0251,0.572],[-77.8046,9.0282,0.0],[-77.8085,9.0313,9.9684],[-77.8115,9.0454,1.8338],[-77.8079,9.0501,0.0],[-77.8096,9.0546,0.0],[-77.8288,9.0671,0.0],[-77.8313,9.066,4.0149],[-77.8304,9.0685,0.0],[-77.8321,9.0704,0.0],[-77.836,9.071,5.1664],[-77.8374,9.0735,3.909],[-77.8426,9.0771,0.0],[-77.844,9.0765,6.1362],[-77.8443,9.0793,0.0],[-77.8465,9.081,0.9913],[-77.8449,9.0824,0.0],[-77.8449,9.0876,0.0],[-77.8463,9.0879,0.0],[-77.8482,9.0837,1.0842],[-77.8521,9.0946,0.0],[-77.8538,9.094,1.3622],[-77.8565,9.099,0.0],[-77.8571,9.0974,0.0],[-77.8626,9.0974,2.2476],[-77.8599,9.0996,0.7755],[-77.8615,9.1065,0.0],[-77.8635,9.1087,0.5855],[-77.8665,9.1087,1.2325],[-77.869,9.1129,1.401],[-77.8735,9.1157,0.0],[-77.8779,9.116,0.0],[-77.8787,9.1143,0.0],[-77.8751,9.1079,11.3163],[-77.8776,9.1057,0.0],[-77.8757,9.104,10.3998],[-77.876,9.1018,0.0],[-77.8743,9.1021,2.9947],[-77.871,9.0979,0.0],[-77.8724,9.0957,0.0],[-77.8712,9.091,0.5874],[-77.8743,9.0876,0.0],[-77.874,9.0818,0.8759],[-77.8701,9.0763,0.5154],[-77.8654,9.0751,0.7246],[-77.861,9.0674,0.3626],[-77.861,9.0643,0.0],[-77.8574,9.0613,6.9097],[-77.8613,9.0613,0.2101],[-77.8665,9.064,0.0],[-77.8704,9.0693,0.0],[-77.8782,9.0702,2.3204],[-77.8801,9.0751,0.8446],[-77.8851,9.0754,3.1637],[-77.8865,9.081,0.0],[-77.8887,9.079,0.2799],[-77.8904,9.0796,0.2799],[-77.8854,9.0843,0.7689],[-77.8871,9.0921,0.2097],[-77.886,9.0943,0.0],[-77.8896,9.0932,0.0],[-77.8901,9.0857,0.3056],[-77.8918,9.0879,0.0],[-77.8935,9.0876,0.0],[-77.8929,9.0843,3.0085],[-77.894,9.0849,3.0085],[-77.8946,9.0879,0.0],[-77.8985,9.0868,2.4926],[-77.8954,9.0885,0.2944],[-77.8965,9.0907,0.4709],[-77.8929,9.089,0.0],[-77.8913,9.0899,0.1996],[-77.8954,9.0971,0.457],[-77.8996,9.0982,1.8397],[-77.901,9.1029,0.0],[-77.9026,9.1018,1.5065],[-77.9037,9.104,0.0],[-77.9057,9.1037,4.5367],[-77.9096,9.1093,0.0],[-77.9151,9.1121,0.0],[-77.9168,9.1155,0.0],[-77.9193,9.116,0.0],[-77.9194,9.1191,0.0],[-77.9226,9.1235,0.0],[-77.9274,9.124,0.0],[-77.934,9.1279,2.2164],[-77.9362,9.136,0.0],[-77.9407,9.1399,1.0371],[-77.9421,9.1393,1.0371],[-77.9413,9.1415,0.0],[-77.9443,9.144,1.3011],[-77.9443,9.1457,0.0],[-77.9465,9.1457,4.2369],[-77.9485,9.1485,1.5845],[-77.9546,9.1482,5.6793],[-77.9593,9.1543,1.2784],[-77.9582,9.1585,0.0],[-77.9532,9.1543,0.4183],[-77.9468,9.154,0.8776],[-77.9432,9.1518,0.0],[-77.9415,9.1527,0.0],[-77.941,9.156,0.0],[-77.9421,9.1563,0.0],[-77.9421,9.154,0.4177],[-77.9443,9.1565,0.0],[-77.9468,9.1557,2.5698],[-77.9485,9.1618,2.8121],[-77.9579,9.1707,0.0],[-77.9621,9.1713,1.0553],[-77.9626,9.1741,0.0],[-77.9679,9.1757,0.0],[-77.9674,9.1738,0.6711],[-77.9693,9.1715,3.1985],[-77.9737,9.1724,4.4588],[-77.9804,9.1874,0.0],[-77.9782,9.1907,0.0],[-77.9793,9.1918,0.9094],[-77.9762,9.1929,0.0],[-77.9793,9.1943,0.0],[-77.9837,9.1938,0.0],[-77.9837,9.1893,0.7681],[-77.9876,9.1893,0.5193],[-77.9982,9.1921,0.8691],[-78.0035,9.1954,2.5939],[-78.0049,9.1985,1.7218],[-78.0043,9.204,0.4818],[-78.0088,9.2076,3.5225],[-78.0093,9.2124,0.6553],[-78.0135,9.2124,0.4144],[-78.0149,9.2149,0.5083],[-78.0174,9.2126,1.6062],[-78.0179,9.2174,0.4276],[-78.0207,9.2201,0.1612],[-78.0221,9.2168,0.9103],[-78.0241,9.2174,0.0],[-78.0246,9.2201,1.6988],[-78.0224,9.2218,0.0],[-78.0246,9.2235,0.2234],[-78.0276,9.221,1.4529],[-78.0296,9.2215,3.102],[-78.0324,9.2243,0.0],[-78.031,9.226,0.512],[-78.0321,9.2299,0.0],[-78.0307,9.2307,0.5498],[-78.0335,9.2321,0.0],[-78.0324,9.2371,0.0],[-78.0393,9.2407,0.9203],[-78.0423,9.2443,0.0],[-78.0455,9.2457,0.0],[-78.0474,9.2446,1.8287],[-78.0515,9.2485,2.6401],[-78.0576,9.2479,3.2606],[-78.0671,9.2519,0.8973],[-78.0701,9.2507,2.8098],[-78.0718,9.2526,0.0],[-78.0735,9.2526,0.0],[-78.0757,9.249,2.1404],[-78.0792,9.251,0.0],[-78.0862,9.2504,10.6716],[-78.0865,9.2515,0.9248],[-78.0924,9.2521,0.0],[-78.0963,9.2551,2.267],[-78.099,9.2529,3.4795],[-78.1029,9.2541,0.0],[-78.1054,9.2521,0.0],[-78.1071,9.2554,19.5049],[-78.1099,9.2529,5.6755],[-78.1126,9.2532,3.1712],[-78.1157,9.2574,5.5271],[-78.1162,9.2638,4.6437],[-78.1087,9.2685,0.0],[-78.1123,9.2715,0.6599],[-78.116,9.2721,0.0],[-78.1182,9.2707,0.0],[-78.1174,9.274,0.0],[-78.1237,9.2729,0.0],[-78.1182,9.2671,0.747],[-78.1215,9.2671,2.8481],[-78.1212,9.2685,2.8481],[-78.1268,9.2676,2.2539],[-78.1318,9.2743,1.343],[-78.1351,9.2749,2.3291],[-78.1374,9.2729,1.6302],[-78.1387,9.2765,0.7188],[-78.1429,9.2754,5.4411],[-78.149,9.2774,1.6288],[-78.1593,9.2851,1.4445],[-78.171,9.2865,3.1542],[-78.1726,9.291,0.0],[-78.1762,9.2926,0.0],[-78.1812,9.2893,3.0847],[-78.1929,9.2876,1.5396],[-78.2138,9.2913,3.5191],[-78.2204,9.296,5.921],[-78.2199,9.3007,0.0],[-78.2235,9.2987,4.6001],[-78.2235,9.3035,0.0],[-78.226,9.3029,2.1169],[-78.2268,9.2996,1.9419],[-78.2337,9.3007,0.0],[-78.2351,9.3032,0.0],[-78.2337,9.3091,0.0],[-78.2365,9.3101,0.2407],[-78.2384,9.3079,0.722],[-78.2382,9.311,0.2507],[-78.2399,9.309,0.0774],[-78.2421,9.3101,0.8558],[-78.2393,9.311,0.1344],[-78.2401,9.3126,0.0],[-78.2462,9.3143,0.0],[-78.2557,9.3129,3.1027],[-78.256,9.3185,0.6195],[-78.2582,9.3179,1.7376],[-78.2613,9.321,1.4833],[-78.266,9.3199,4.8665],[-78.2665,9.3215,0.5143],[-78.2715,9.3232,6.7336],[-78.2724,9.3254,8.705],[-78.2749,9.3262,1.5874],[-78.2776,9.326,0.0],[-78.2815,9.3196,4.1461],[-78.2846,9.319,0.8891],[-78.2865,9.3235,1.3127],[-78.2832,9.3257,0.0],[-78.2854,9.3307,0.0],[-78.2896,9.3296,4.0043],[-78.2949,9.3326,0.0],[-78.3079,9.3354,7.8753],[-78.3076,9.3382,5.7698],[-78.3104,9.3415,0.0],[-78.314,9.3438,0.0],[-78.3165,9.3429,0.8665],[-78.3246,9.3476,1.9276],[-78.3315,9.356,2.2655],[-78.341,9.3549,3.3546],[-78.3407,9.3565,0.6074],[-78.3446,9.3585,1.3513],[-78.3551,9.3574,0.4488],[-78.3707,9.3626,2.4327],[-78.3765,9.3663,4.1635],[-78.3782,9.3749,0.9416],[-78.3843,9.3737,45.9933],[-78.3865,9.3768,6.0791],[-78.3901,9.3751,32.805],[-78.394,9.3768,3.3483],[-78.3954,9.374,0.0],[-78.3971,9.374,2.6647],[-78.3993,9.3771,0.0],[-78.4046,9.3796,2.0303],[-78.4037,9.3843,0.6427],[-78.4076,9.3832,4.781],[-78.4099,9.3849,2.4151],[-78.4121,9.3818,5.0672],[-78.4168,9.3818,19.786],[-78.4193,9.3849,0.0],[-78.4235,9.3863,1.3581],[-78.4232,9.3915,0.0],[-78.4262,9.394,3.8428],[-78.4257,9.3993,0.0],[-78.4296,9.3999,1.8381],[-78.4326,9.4049,1.3655],[-78.4518,9.4065,2.3713],[-78.4565,9.4107,0.0],[-78.461,9.4057,0.7602],[-78.4643,9.4076,0.9238],[-78.4676,9.4076,0.0],[-78.4696,9.406,0.9075],[-78.4729,9.4104,0.0],[-78.4704,9.4162,0.0],[-78.4737,9.4171,0.0],[-78.4793,9.4143,1.4892],[-78.4835,9.4193,0.0],[-78.4951,9.4196,3.5632],[-78.4982,9.4168,0.0],[-78.4979,9.4146,5.146],[-78.5035,9.4154,7.696],[-78.5043,9.4174,0.0],[-78.5096,9.416,2.9115],[-78.5107,9.4182,2.4151],[-78.5165,9.4182,5.7132],[-78.5224,9.4226,0.0],[-78.5257,9.4218,2.9035],[-78.5335,9.4246,3.777],[-78.5335,9.4285,2.6169],[-78.5382,9.429,0.0],[-78.5413,9.4324,0.0],[-78.5482,9.4307,0.0],[-78.5504,9.4357,0.0],[-78.5543,9.4363,3.3431],[-78.554,9.4393,0.0],[-78.5568,9.4404,1.2472],[-78.5574,9.439,1.2472],[-78.5618,9.439,5.5863],[-78.5615,9.4429,0.0],[-78.5637,9.4401,10.0931],[-78.5726,9.4432,4.4004],[-78.5762,9.441,7.6542],[-78.5762,9.4438,0.0],[-78.5796,9.4413,4.5826],[-78.5821,9.4421,0.0],[-78.5837,9.4382,5.4704],[-78.5826,9.434,0.5044],[-78.5865,9.431,0.1277],[-78.589,9.4326,0.0],[-78.594,9.4307,0.1952],[-78.5946,9.4287,0.0],[-78.5932,9.4276,1.0193],[-78.5974,9.4246,0.0],[-78.5965,9.4221,7.7816],[-78.5982,9.4199,2.9383],[-78.5998,9.4207,2.0908],[-78.5987,9.4251,0.4532],[-78.6032,9.4224,0.0],[-78.6035,9.4243,0.0],[-78.6057,9.4232,9.413],[-78.6071,9.4254,3.838],[-78.611,9.4268,0.0],[-78.6101,9.4246,3.9379],[-78.6124,9.4243,1.129],[-78.6132,9.4215,4.2841],[-78.6157,9.4213,0.0],[-78.6179,9.4185,6.1464],[-78.621,9.4187,9.2236],[-78.6215,9.4232,3.7948],[-78.6263,9.4249,1.4694],[-78.6288,9.4299,0.0],[-78.6326,9.431,0.0],[-78.636,9.4285,2.8126],[-78.6354,9.4318,0.0],[-78.6487,9.4326,3.7014],[-78.6468,9.4365,0.0],[-78.6521,9.4354,0.1672],[-78.6535,9.4329,0.2653],[-78.6574,9.4349,0.0],[-78.6565,9.4329,0.0],[-78.6582,9.4318,0.0],[-78.6568,9.4265,2.3784],[-78.6643,9.4238,0.0],[-78.6679,9.4268,2.2365],[-78.6718,9.4262,0.5228],[-78.6729,9.4279,0.4972],[-78.6754,9.4279,14.4456],[-78.6801,9.4326,0.0],[-78.6821,9.4321,0.0],[-78.6857,9.4365,6.5333],[-78.6837,9.4429,0.2511],[-78.6874,9.4435,0.0],[-78.6862,9.4401,0.4398],[-78.6885,9.4418,0.2834],[-78.6904,9.439,0.9566],[-78.6929,9.4401,0.0],[-78.6915,9.4374,0.0],[-78.6957,9.4376,0.0],[-78.6943,9.4349,3.6218],[-78.6976,9.4357,1.601],[-78.6988,9.4385,0.0],[-78.7015,9.4368,11.0415],[-78.7046,9.4379,3.6386],[-78.704,9.4399,1.1239],[-78.7093,9.4399,9.0805],[-78.7112,9.4421,0.0],[-78.7157,9.4426,0.0],[-78.7187,9.446,8.1432],[-78.7157,9.451,0.0],[-78.7176,9.4513,1.9093],[-78.719,9.4479,3.1116],[-78.7237,9.4493,1.257],[-78.726,9.4515,0.0],[-78.7249,9.4551,0.0],[-78.7271,9.4582,1.5648],[-78.7379,9.4529,2.4155],[-78.7485,9.451,0.7678],[-78.749,9.4485,2.7912],[-78.7529,9.451,0.0],[-78.754,9.4499,0.0],[-78.7515,9.4487,0.6195],[-78.7521,9.4468,6.5769],[-78.7601,9.4465,0.5957],[-78.7637,9.4446,1.7581],[-78.7663,9.4468,0.4126],[-78.7693,9.446,0.6166],[-78.7765,9.4474,0.3129],[-78.7749,9.4521,0.0],[-78.779,9.4499,2.2051],[-78.7796,9.4521,0.0],[-78.784,9.4504,4.2153],[-78.7882,9.4529,0.0],[-78.7899,9.4482,3.9436],[-78.7926,9.4468,0.4147],[-78.7951,9.4482,0.1778],[-78.7949,9.446,0.0],[-78.7968,9.4457,0.0],[-78.7976,9.4432,0.0],[-78.7971,9.4396,0.0],[-78.7954,9.4401,0.0],[-78.796,9.4424,0.0],[-78.7943,9.4424,0.0],[-78.7943,9.444,0.3089],[-78.7929,9.4432,0.2981],[-78.7918,9.439,1.0539],[-78.7929,9.4368,2.2515],[-78.7957,9.4354,4.1845],[-78.7993,9.4365,0.5962],[-78.8015,9.4337,2.4212],[-78.8071,9.4354,5.6136],[-78.8087,9.4376,0.269],[-78.8099,9.4357,0.5133],[-78.816,9.4365,0.3489],[-78.8229,9.4296,1.7578],[-78.8274,9.4304,6.8663],[-78.8318,9.4357,5.8925],[-78.8337,9.4393,3.9628],[-78.8324,9.4418,0.2273],[-78.8346,9.4407,0.0],[-78.8401,9.4429,0.0],[-78.8412,9.4396,3.682],[-78.8449,9.4388,0.0],[-78.8468,9.4401,0.351],[-78.8485,9.436,0.494],[-78.8468,9.4324,4.5887],[-78.849,9.4315,1.2444],[-78.8493,9.4296,9.2345],[-78.8532,9.4301,0.2581],[-78.8521,9.4271,0.1585],[-78.854,9.4282,0.0],[-78.8543,9.4268,0.0],[-78.8524,9.4207,0.0],[-78.8538,9.4204,4.2766],[-78.8557,9.4229,0.0],[-78.859,9.4229,0.0],[-78.8679,9.421,0.6006],[-78.871,9.4187,9.4475],[-78.8712,9.4213,0.8242],[-78.8743,9.4221,0.0],[-78.8735,9.4249,0.0],[-78.8749,9.4276,0.0],[-78.8793,9.4274,0.9224],[-78.8785,9.4301,0.7572],[-78.8799,9.4299,0.7572],[-78.8807,9.426,2.968],[-78.8832,9.4257,1.1162],[-78.8863,9.4279,0.0],[-78.8962,9.4262,0.0],[-78.8993,9.424,0.0],[-78.8974,9.4229,0.0],[-78.8985,9.4215,9.0751],[-78.9029,9.4224,0.4023],[-78.9035,9.4249,1.8045],[-78.9051,9.4249,1.8045],[-78.9049,9.4268,0.0],[-78.9129,9.4268,6.6619],[-78.9196,9.4337,7.5165],[-78.921,9.4413,0.276],[-78.9235,9.444,0.6343],[-78.9221,9.4446,0.6343],[-78.9149,9.439,0.1938],[-78.9146,9.4418,0.1104],[-78.9115,9.4449,0.7161],[-78.9179,9.444,0.0],[-78.9243,9.4468,1.2841],[-78.9201,9.4521,0.0],[-78.9226,9.4518,0.4295],[-78.9285,9.4465,3.109],[-78.936,9.4468,3.4705],[-78.9449,9.4507,0.0],[-78.9476,9.4546,0.5294],[-78.9529,9.4554,5.6233],[-78.9563,9.4585,0.6497],[-78.9604,9.4593,0.0],[-78.9701,9.4546,2.8664],[-78.9754,9.4543,2.0279],[-78.9821,9.459,0.0],[-78.9849,9.456,2.1048],[-78.9904,9.456,0.0],[-78.9915,9.4549,0.2549],[-78.9904,9.454,0.2549],[-78.991,9.449,0.421],[-78.9951,9.4443,2.3298],[-78.9999,9.4429,2.1462],[-78.9999,9.4549,0.0],[-78.9968,9.4557,0.0],[-78.9987,9.4574,0.0],[-79.001,9.456,0.0],[-79.0001,9.4426,2.1462],[-79.0026,9.4435,0.992],[-79.0049,9.4418,8.0951],[-79.0143,9.4415,4.2334],[-79.0243,9.4465,0.0],[-79.026,9.451,0.7097],[-79.0301,9.4513,0.2299],[-79.0312,9.449,0.387],[-79.0299,9.4482,3.1782],[-79.0376,9.4487,1.1161],[-79.0465,9.4429,0.85],[-79.0485,9.4393,2.8973],[-79.0568,9.439,0.0],[-79.0607,9.4407,4.2597],[-79.0638,9.4476,2.0355],[-79.069,9.4487,5.7934],[-79.0687,9.4526,6.0036],[-79.066,9.4554,1.1196],[-79.0635,9.4546,0.0],[-79.0615,9.4596,0.0],[-79.0624,9.4643,2.0468],[-79.0671,9.4663,1.4154],[-79.0685,9.471,1.6468],[-79.0729,9.4749,3.4345],[-79.0746,9.4801,2.0479],[-79.0726,9.4851,2.4198],[-79.0676,9.4885,0.0],[-79.0665,9.4913,0.0],[-79.0687,9.4971,0.0],[-79.0754,9.5015,0.0],[-79.0723,9.5087,3.1508],[-79.0749,9.5129,1.3454],[-79.0718,9.514,1.9857],[-79.0674,9.5129,0.0],[-79.0682,9.5171,13.2102],[-79.0632,9.5207,0.2685],[-79.0599,9.5288,14.7069],[-79.0521,9.5349,3.4476],[-79.0379,9.5357,0.1576],[-79.0404,9.5424,0.8544],[-79.0351,9.5365,0.0],[-79.0279,9.5362,0.4494],[-79.0249,9.5379,0.6402],[-79.0246,9.536,0.0],[-79.0201,9.536,2.0596],[-79.0063,9.5401,0.0],[-78.9985,9.5374,3.4691],[-78.9929,9.5404,0.0],[-78.9901,9.5451,0.6575],[-78.9901,9.5476,0.3993],[-78.9962,9.5501,15.8186],[-78.9968,9.5518,0.7928],[-78.9921,9.5499,0.0],[-78.9846,9.5499,0.7625],[-78.9826,9.549,2.38],[-78.9829,9.5474,0.9631],[-78.979,9.5465,0.0],[-78.9699,9.5557,0.0],[-78.9699,9.5582,0.0],[-78.9654,9.5604,0.0],[-78.9685,9.5632,0.8292],[-78.9676,9.5651,0.0],[-78.9715,9.5671,0.0],[-78.9762,9.5643,1.0477],[-78.9788,9.5657,0.0],[-78.986,9.5615,3.9718],[-78.9857,9.5638,0.0],[-78.9929,9.5671,1.1047],[-78.9912,9.5685,0.0],[-78.9918,9.5704,1.3283],[-78.9996,9.5662,0.0],[-78.9993,9.5621,0.0],[-78.9957,9.5654,1.9333],[-78.996,9.5621,0.0],[-78.9987,9.561,0.3498],[-79.001,9.561,0.8248],[-79.0013,9.5638,0.0],[-79.0043,9.5638,1.4645],[-79.0046,9.5671,0.0],[-79.0137,9.5651,3.8321],[-79.0174,9.5662,0.0],[-79.0193,9.5646,1.3171],[-79.0207,9.5671,0.0],[-79.0243,9.5638,1.5494],[-79.0263,9.5651,2.9849],[-79.0301,9.5646,0.9932],[-79.0315,9.5662,0.0],[-79.0535,9.5646,0.0],[-79.0607,9.5615,5.3514],[-79.0651,9.5632,2.4779],[-79.0715,9.561,10.2949],[-79.0751,9.5615,2.3601],[-79.0782,9.5579,2.5826],[-79.0803,9.5582,3.1033],[-79.0894,9.4804,12.2149],[-79.0921,9.4785,11.4062],[-79.0959,9.4794,10.3554],[-79.0989,9.4868,10.2285],[-79.1014,9.4869,11.9775],[-79.114,9.4809,21.4022],[-79.1252,9.4703,24.2541],[-79.1312,9.4686,19.2355],[-79.1348,9.4658,25.9391],[-79.1498,9.4454,23.3361],[-79.1545,9.4341,30.9185],[-79.1547,9.4278,26.714],[-79.1713,9.393,193.3119],[-79.1855,9.3858,167.0776],[-79.1979,9.3875,189.6804],[-79.2111,9.3799,286.7843],[-79.224,9.3696,377.4756],[-79.2337,9.3591,452.2211],[-79.245,9.3539,543.7974],[-79.2529,9.3412,643.0612],[-79.27,9.3354,829.3729],[-79.2722,9.3292,838.9773],[-79.2775,9.3275,818.3044],[-79.2823,9.3216,862.7358],[-79.2824,9.3169,770.3039],[-79.2723,9.311,725.9141],[-79.2465,9.311,590.6763],[-79.2393,9.3077,567.2812],[-79.2308,9.3135,653.515],[-79.2151,9.3201,544.3445],[-79.2021,9.3305,418.3478],[-79.193,9.3314,353.8795],[-79.1765,9.3386,316.4423],[-79.173,9.3386,292.4222],[-79.1555,9.3318,332.9321],[-79.144,9.3334,221.4386],[-79.1301,9.3394,169.2973],[-79.1195,9.3396,216.6229],[-79.1059,9.3347,465.3174],[-79.0917,9.3203,334.0284],[-79.0907,9.3152,412.6301],[-79.1014,9.3105,263.5349],[-79.102,9.3081,343.8937],[-79.1004,9.3063,408.9601],[-79.0727,9.2988,487.8494],[-79.0505,9.2997,462.4782],[-79.0231,9.2951,412.1892],[-79.0089,9.2998,466.7136],[-78.9891,9.3022,428.529],[-78.9623,9.314,341.2154],[-78.9561,9.3131,348.2859],[-78.9418,9.307,433.1606],[-78.9337,9.3066,373.3232],[-78.9244,9.3102,411.7645],[-78.9078,9.3255,331.0129],[-78.9059,9.3302,334.8138],[-78.9101,9.3389,292.0783],[-78.9102,9.3435,343.12],[-78.9007,9.3532,346.4938],[-78.8968,9.3621,398.6985],[-78.891,9.3678,449.9055],[-78.887,9.3693,511.5541],[-78.8816,9.3684,471.1157],[-78.8703,9.3555,439.5662],[-78.863,9.3543,449.6432],[-78.8531,9.361,377.9872],[-78.8365,9.3684,446.443],[-78.8212,9.3813,467.9481],[-78.8162,9.3836,630.9725],[-78.7741,9.3717,411.4142],[-78.7633,9.3663,425.874],[-78.7511,9.365,471.6372],[-78.7431,9.3621,566.7502],[-78.7376,9.3631,557.8748],[-78.732,9.367,564.4172],[-78.726,9.3795,379.4003],[-78.7205,9.3847,303.6832],[-78.7149,9.3841,448.5903],[-78.7109,9.3754,228.1026],[-78.7046,9.3724,331.2521],[-78.6918,9.3774,267.6354],[-78.6857,9.3692,270.1809],[-78.674,9.3647,371.6388],[-78.6658,9.3496,437.9168],[-78.6518,9.344,550.9676],[-78.6474,9.3397,531.2377],[-78.6365,9.3359,497.3197],[-78.6306,9.3279,607.6073],[-78.6216,9.3198,559.7048],[-78.612,9.3233,384.7975],[-78.5979,9.3205,326.4154],[-78.5924,9.3259,311.7246],[-78.5893,9.3267,331.1312],[-78.5719,9.323,273.9323],[-78.5586,9.328,340.6153],[-78.5468,9.3271,275.1557],[-78.5337,9.3365,357.339],[-78.5301,9.3435,310.3128],[-78.5229,9.3492,272.3512],[-78.5119,9.3468,322.2369],[-78.5036,9.3475,407.9063],[-78.502,9.3458,382.2137],[-78.5015,9.3388,302.2047],[-78.4961,9.3346,281.173],[-78.5036,9.3279,369.7183],[-78.504,9.3235,339.3451],[-78.5008,9.3127,399.4825],[-78.4962,9.3078,468.3533],[-78.489,9.3034,581.0088],[-78.4767,9.3,573.2913],[-78.4752,9.2911,419.9213],[-78.4659,9.278,301.2597],[-78.463,9.2625,483.4225],[-78.4484,9.2459,373.809],[-78.4459,9.2393,546.4525],[-78.4382,9.2447,528.1563],[-78.4338,9.245,506.248],[-78.4258,9.2375,485.4107],[-78.4159,9.2328,553.1498],[-78.4139,9.2374,549.3593],[-78.4164,9.2527,472.2166],[-78.4146,9.2567,435.5303],[-78.4071,9.2662,369.1022],[-78.3996,9.2717,326.7177],[-78.3883,9.2742,337.8479],[-78.3839,9.2735,320.6381],[-78.3785,9.2683,363.7469],[-78.376,9.2579,371.4695],[-78.372,9.2536,393.4731],[-78.3534,9.2521,343.5177],[-78.3404,9.2449,333.3402],[-78.3382,9.2455,259.6132],[-78.3301,9.2557,385.8467],[-78.3194,9.2563,340.5478],[-78.3099,9.2634,370.8076],[-78.3049,9.2637,461.0052],[-78.3022,9.2617,469.6121],[-78.3014,9.2505,441.2747],[-78.2953,9.2435,349.9256],[-78.2881,9.2252,355.745],[-78.2875,9.2181,438.3112],[-78.2923,9.2137,369.8546],[-78.2922,9.2115,327.1499],[-78.2823,9.2073,378.7559],[-78.273,9.198,394.222],[-78.2504,9.1863,267.6766],[-78.2442,9.1849,329.3372],[-78.233,9.1863,256.648],[-78.2276,9.1936,238.5394],[-78.2228,9.1959,251.1179],[-78.2171,9.1961,293.918],[-78.2012,9.1927,329.6563],[-78.1797,9.1933,266.159],[-78.1678,9.1885,357.6271],[-78.1565,9.1879,476.8645],[-78.149,9.1835,304.2868],[-78.1365,9.1831,436.6889],[-78.1262,9.1799,414.6921],[-78.1214,9.1725,422.698],[-78.1103,9.1689,414.9617],[-78.0981,9.1697,526.5258],[-78.091,9.1643,624.5153],[-78.0831,9.1611,351.7012],[-78.0824,9.1585,374.9163],[-78.0856,9.1507,360.9333],[-78.082,9.1371,517.791],[-78.0787,9.1327,522.8206],[-78.0697,9.1323,570.5142],[-78.0663,9.1273,501.455],[-78.0656,9.1211,288.4794],[-78.0696,9.1019,668.2189],[-78.0683,9.0987,619.0184],[-78.0581,9.0957,618.3864],[-78.05,9.0886,450.1034],[-78.0458,9.0909,432.5067],[-78.0402,9.0899,418.3203],[-78.0289,9.0927,648.2498],[-78.0117,9.0876,603.461],[-78.0051,9.0808,592.5168],[-77.9946,9.0773,540.4189],[-77.9863,9.0723,503.5316],[-77.9741,9.0564,397.5879],[-77.9622,9.0491,342.6774],[-77.9576,9.0409,333.5453],[-77.9436,9.0401,317.6561],[-77.9384,9.0375,240.2868],[-77.9352,9.0254,448.2106],[-77.9182,9.0219,314.1709],[-77.9143,9.0193,386.8683],[-77.9125,9.0138,395.6871],[-77.9155,9.0048,369.5938],[-77.9143,9.0003,471.4916],[-77.9016,8.9988,208.5197],[-77.8932,8.9846,414.6872],[-77.8654,8.9662,370.8877],[-77.8644,8.9625,381.9454],[-77.8685,8.9587,371.5484],[-77.8694,8.9549,398.1396],[-77.8651,8.9474,395.303],[-77.8597,8.9418,380.6918],[-77.8519,8.9252,284.1541],[-77.8462,8.9174,257.3512],[-77.8348,8.9074,308.0519],[-77.8256,8.9085,295.3754],[-77.8175,8.9071,327.4246],[-77.8107,8.9013,377.6802],[-77.8015,8.8892,478.167],[-77.7943,8.8865,576.7278],[-77.7876,8.8814,441.6793],[-77.7715,8.8773,551.5229],[-77.7554,8.8703,546.6155],[-77.7454,8.8635,466.4789],[-77.7388,8.856,142.2366],[-77.7369,8.8392,282.8716],[-77.7348,8.8344,370.4023],[-77.7228,8.8269,233.8719],[-77.711,8.8255,234.023],[-77.699,8.8139,145.79],[-77.6976,8.7942,291.0389],[-77.6916,8.7784,386.4551],[-77.6909,8.7708,621.3221],[-77.6923,8.7681,646.8826],[-77.6947,8.7673,657.9962],[-77.7059,8.7679,539.8223],[-77.703,8.7643,630.7371],[-77.6882,8.7613,608.806],[-77.6811,8.7617,604.6016],[-77.676,8.7518,497.2774],[-77.6727,8.7492,350.7144],[-77.6678,8.7494,323.8799],[-77.6607,8.7542,437.2485],[-77.6433,8.7466,267.7761],[-77.6399,8.7377,262.9024],[-77.6277,8.733,279.8064],[-77.6245,8.7262,297.7004],[-77.625,8.7193,341.2877],[-77.6182,8.7105,380.3969],[-77.6159,8.7017,506.0876],[-77.6115,8.6942,576.6138],[-77.5955,8.6935,417.3071],[-77.5812,8.6833,460.5984],[-77.5735,8.6814,255.914],[-77.5685,8.6671,513.3169],[-77.5782,8.6515,605.3451],[-77.581,8.6401,745.406],[-77.5599,8.6062,471.6754],[-77.5542,8.5999,536.0823],[-77.5428,8.5931,486.7269],[-77.5396,8.5932,527.1891],[-77.5195,8.6014,502.8346],[-77.5079,8.5983,463.1469],[-77.5026,8.5945,492.2281],[-77.4993,8.5888,599.8087],[-77.4946,8.5724,533.6172],[-77.4879,8.5608,393.8753],[-77.4816,8.5425,461.7634],[-77.4728,8.533,627.0654],[-77.4625,8.5254,920.0383],[-77.459,8.5178,923.6931],[-77.4459,8.5012,733.0989],[-77.4432,8.5137,811.9788],[-77.4319,8.5271,426.5083],[-77.4279,8.5371,435.8005],[-77.4259,8.548,291.7188],[-77.4279,8.5588,307.3446],[-77.4067,8.57,217.546],[-77.3944,8.5802,201.1605],[-77.39,8.5866,224.205],[-77.3872,8.5973,161.4008],[-77.3909,8.6071,93.2334],[-77.3968,8.6139,182.4984],[-77.3949,8.6214,165.5021],[-77.3954,8.6374,203.2641],[-77.3914,8.6394,286.7747],[-77.3731,8.6426,233.1027],[-77.362,8.6543,9.4317]]],
[[[-77.5699,8.789,0.0],[-77.5687,8.7885,0.0],[-77.5671,8.7924,0.0],[-77.5693,8.7918,0.0],[-77.5699,8.789,0.0]]],
[[[-77.5987,8.8238,6.3717],[-77.6012,8.824,0.0],[-77.5996,8.8185,0.0],[-77.5985,8.8229,0.0],[-77.5987,8.8238,6.3717]]],
[[[-77.594,8.8279,0.0],[-77.5929,8.8276,0.0],[-77.5929,8.8313,0.0],[-77.5946,8.8293,0.0],[-77.594,8.8279,0.0]]],
[[[-77.6754,8.9032,38.3057],[-77.6807,8.904,0.0],[-77.6824,8.9007,20.3005],[-77.6862,8.9001,0.646],[-77.6865,8.8979,0.2513],[-77.6821,8.8957,0.0],[-77.676,8.8993,7.408],[-77.674,8.9015,0.0],[-77.6754,8.9032,38.3057]]],
[[[-77.6951,8.9032,0.5844],[-77.6976,8.9043,0.0],[-77.6924,8.9007,0.5897],[-77.6901,8.8971,0.4252],[-77.6882,8.8971,0.0],[-77.6885,8.901,0.0],[-77.6951,8.9032,0.5844]]],
[[[-77.6876,8.9015,0.0],[-77.6849,8.9021,0.0],[-77.6849,8.9051,0.0],[-77.6862,8.9049,0.0],[-77.6876,8.9015,0.0]]],
[[[-77.6926,8.9065,0.0],[-77.6929,8.9093,0.0],[-77.6937,8.9096,0.0],[-77.6946,8.9065,0.0],[-77.6926,8.9065,0.0]]],
[[[-77.6904,8.9071,0.0],[-77.6907,8.9099,0.0],[-77.6918,8.9099,0.0],[-77.6924,8.9085,0.0],[-77.6904,8.9071,0.0]]],
[[[-77.6926,8.9151,0.0],[-77.6968,8.916,0.5844],[-77.6971,8.9115,0.0],[-77.696,8.911,0.0],[-77.6949,8.9151,0.0],[-77.6926,8.9151,0.0]]],
[[[-77.7229,8.9207,0.3878],[-77.7243,8.9221,0.0],[-77.7254,8.9218,0.7488],[-77.7243,8.9193,0.197],[-77.7229,8.9207,0.3878]]],
[[[-77.6937,8.9271,0.0],[-77.6915,8.9276,24.1198],[-77.6901,8.9321,0.0],[-77.6932,8.9304,0.0],[-77.6937,8.9271,0.0]]],
[[[-77.7321,8.9476,0.0],[-77.7351,8.9487,2.1141],[-77.7376,8.9471,0.0],[-77.7346,8.9418,0.0],[-77.7326,8.9421,1.6539],[-77.7293,8.9388,0.7201],[-77.7265,8.9332,0.0],[-77.7226,8.9324,0.8462],[-77.7221,8.929,0.0],[-77.7185,8.9254,0.0],[-77.7151,8.9235,0.0],[-77.7112,8.9237,0.1551],[-77.7087,8.9176,1.2204],[-77.7068,8.9182,3.4533],[-77.706,8.916,1.0408],[-77.6996,8.919,0.8039],[-77.6976,8.9249,2.3329],[-77.7026,8.9251,0.0],[-77.7035,8.9232,2.6935],[-77.7057,8.9229,2.4406],[-77.7079,8.9257,3.0168],[-77.7079,8.9287,1.1319],[-77.716,8.9285,0.6459],[-77.7143,8.9343,0.0],[-77.716,8.934,0.0],[-77.716,8.9357,0.0],[-77.7176,8.9346,0.0],[-77.7199,8.939,0.0],[-77.7246,8.9388,0.2884],[-77.7249,8.9426,0.6349],[-77.7321,8.9476,0.0]]],
[[[-77.7496,8.946,0.3987],[-77.7493,8.9482,0.7358],[-77.7504,8.949,0.0],[-77.7521,8.9443,0.2554],[-77.7496,8.946,0.3987]]],
[[[-77.769,9.0063,0.0],[-77.7718,9.0071,0.0],[-77.7715,9.0057,1.6442],[-77.7676,9.0043,0.0],[-77.769,9.0063,0.0]]],
[[[-77.7657,9.0579,0.0],[-77.7712,9.0582,0.0],[-77.771,9.0551,0.0],[-77.7635,9.0521,0.0],[-77.7632,9.0535,0.0],[-77.7657,9.0579,0.0]]],
[[[-77.8838,9.129,0.0],[-77.8863,9.1296,0.0],[-77.886,9.1243,0.0],[-77.8832,9.1199,0.0],[-77.8815,9.1215,0.6413],[-77.8799,9.1204,0.0],[-77.879,9.1229,0.0],[-77.881,9.1235,1.5564],[-77.8812,9.1268,0.0],[-77.8838,9.129,0.0]]],
[[[-77.8901,9.0946,0.0],[-77.8896,9.096,0.0],[-77.8913,9.0968,0.0],[-77.8913,9.0949,1.3274],[-77.8935,9.0938,0.2555],[-77.8913,9.0926,0.3853],[-77.8901,9.0946,0.0]]],
[[[-77.9346,9.144,0.0],[-77.9351,9.1463,0.0],[-77.9359,9.1451,0.0],[-77.9396,9.1457,0.0],[-77.9401,9.1424,0.4551],[-77.9385,9.1401,0.0],[-77.9368,9.1412,0.2899],[-77.9374,9.1396,0.854],[-77.9349,9.1396,0.0],[-77.9332,9.1362,0.2542],[-77.9304,9.1354,0.0],[-77.9276,9.1279,0.0],[-77.9229,9.1296,0.0],[-77.9229,9.1341,0.0],[-77.9243,9.1371,0.0],[-77.926,9.1374,0.0],[-77.9259,9.1396,0.0],[-77.9279,9.1399,0.0],[-77.9282,9.1374,0.5673],[-77.9326,9.1449,0.0],[-77.9346,9.144,0.0]]],
[[[-77.9393,9.149,0.9139],[-77.9432,9.1501,1.1946],[-77.9437,9.1476,1.2917],[-77.9379,9.1468,0.0],[-77.9393,9.149,0.9139]]],
[[[-77.9668,9.1887,0.0],[-77.9687,9.1899,0.0],[-77.9699,9.1882,0.0],[-77.9662,9.1874,0.0],[-77.9668,9.1887,0.0]]],
[[[-77.9724,9.1904,0.0],[-77.9718,9.1924,0.0],[-77.9735,9.1926,0.0],[-77.9762,9.1885,0.0],[-77.974,9.1879,0.0],[-77.9724,9.1904,0.0]]],
[[[-77.9843,9.1988,0.4939],[-77.9835,9.2007,0.0],[-77.9874,9.2007,0.0],[-77.9893,9.1979,2.0952],[-77.9865,9.1965,0.0],[-77.9843,9.1988,0.4939]]],
[[[-78.0031,9.2157,0.0],[-78.0038,9.2179,0.0],[-78.0051,9.2179,0.2841],[-78.004,9.214,0.0],[-78.0031,9.2157,0.0]]],
[[[-78.0263,9.2279,0.0],[-78.0271,9.2301,0.9114],[-78.0299,9.2299,0.5546],[-78.0287,9.2265,0.0],[-78.0263,9.2279,0.0]]],
[[[-78.0269,9.2421,0.7457],[-78.0262,9.2437,0.0],[-78.0304,9.2429,0.286],[-78.0285,9.2415,0.0],[-78.0269,9.2421,0.7457]]],
[[[-78.0321,9.2482,0.3271],[-78.0348,9.2493,0.0],[-78.0307,9.2429,0.0],[-78.0301,9.2474,0.0],[-78.0321,9.2482,0.3271]]],
[[[-78.124,9.2754,2.4552],[-78.1251,9.2774,0.0],[-78.1268,9.2763,0.0],[-78.1257,9.274,0.0],[-78.1234,9.2738,2.4552],[-78.124,9.2754,2.4552]]],
[[[-78.1265,9.2885,0.0],[-78.1282,9.2893,0.0],[-78.1293,9.2871,2.4773],[-78.1271,9.2865,0.0],[-78.1265,9.2885,0.0]]],
[[[-78.1374,9.2898,0.0],[-78.1371,9.2913,0.0],[-78.1407,9.2904,0.0],[-78.1387,9.2887,0.0],[-78.1374,9.2898,0.0]]],
[[[-78.1476,9.2955,0.0],[-78.1507,9.2949,0.0],[-78.1504,9.2919,0.0],[-78.1479,9.2924,0.0],[-78.1493,9.294,0.0],[-78.1465,9.2937,0.0],[-78.1476,9.2955,0.0]]],
[[[-78.1533,9.2957,0.0],[-78.1574,9.2965,0.0],[-78.1582,9.2954,0.0],[-78.1529,9.2937,0.0],[-78.1533,9.2957,0.0]]],
[[[-78.1702,9.3087,0.0],[-78.174,9.3077,0.573],[-78.1726,9.3035,0.0],[-78.1679,9.3046,0.0],[-78.1679,9.3071,0.0],[-78.1704,9.3063,0.7605],[-78.1702,9.3087,0.0]]],
[[[-78.1782,9.3082,0.0],[-78.179,9.3107,0.0],[-78.1809,9.3104,0.0],[-78.1813,9.3087,0.0],[-78.1787,9.3063,0.0],[-78.1782,9.3082,0.0]]],
[[[-78.2244,9.3218,0.9886],[-78.2276,9.3227,0.0],[-78.2279,9.3204,0.0],[-78.2268,9.3204,0.0],[-78.2268,9.3215,0.0],[-78.2243,9.3204,0.5286],[-78.2244,9.3218,0.9886]]],
[[[-78.231,9.3113,0.6949],[-78.2315,9.3132,0.0],[-78.2337,9.3132,0.5419],[-78.2335,9.3104,0.0],[-78.231,9.3113,0.6949]]],
[[[-78.229,9.3216,0.0],[-78.2282,9.3215,0.0],[-78.229,9.3241,0.0],[-78.2301,9.3237,0.0],[-78.229,9.3216,0.0]]],
[[[-78.2354,9.3232,0.0],[-78.2354,9.3249,0.0],[-78.2368,9.3249,0.0],[-78.2357,9.321,0.7527],[-78.2343,9.3207,0.7506],[-78.2324,9.3212,0.7506],[-78.2318,9.3241,0.0],[-78.2337,9.324,0.0],[-78.2343,9.3224,1.6195],[-78.2354,9.3232,0.0]]],
[[[-78.2558,9.3288,0.3673],[-78.2557,9.3299,0.3673],[-78.2588,9.3293,0.0],[-78.2604,9.3271,1.0143],[-78.2588,9.3265,0.0],[-78.2558,9.3288,0.3673]]],
[[[-78.246,9.3285,1.2936],[-78.2462,9.3305,0.0],[-78.2501,9.3304,0.0],[-78.249,9.3271,0.0],[-78.2451,9.326,0.0],[-78.246,9.3285,1.2936]]],
[[[-78.2509,9.331,0.6241],[-78.2535,9.3318,0.0],[-78.2551,9.3282,0.8413],[-78.251,9.3285,0.0],[-78.2509,9.331,0.6241]]],
[[[-78.2549,9.3315,0.0],[-78.2543,9.3335,1.7463],[-78.2574,9.3321,0.0],[-78.256,9.3307,1.3388],[-78.2549,9.3315,0.0]]],
[[[-78.2574,9.3713,4.0623],[-78.2593,9.3727,0.0],[-78.2615,9.3715,0.0],[-78.2565,9.3668,0.0],[-78.2565,9.371,0.0],[-78.2574,9.3713,4.0623]]],
[[[-78.6618,9.4251,1.4612],[-78.6601,9.4262,0.8093],[-78.6601,9.4276,0.0],[-78.6629,9.4274,0.0],[-78.6618,9.4251,1.4612]]],
[[[-78.6651,9.4271,1.348],[-78.666,9.429,0.0],[-78.6693,9.4285,0.0],[-78.6668,9.4265,2.2365],[-78.6651,9.4271,1.348]]],
[[[-78.6251,9.431,0.0],[-78.626,9.4324,0.0],[-78.6274,9.4321,0.0],[-78.6271,9.4296,0.0],[-78.6251,9.431,0.0]]],
[[[-78.5915,9.4349,0.0],[-78.5926,9.4363,1.0901],[-78.5957,9.4351,0.302],[-78.599,9.4299,0.0],[-78.5985,9.4274,0.3352],[-78.5957,9.4285,0.0],[-78.5915,9.4349,0.0]]],
[[[-78.4804,9.4257,0.0],[-78.481,9.4271,0.0],[-78.4824,9.426,0.0],[-78.4812,9.4212,0.0],[-78.4793,9.4243,0.0],[-78.4804,9.4257,0.0]]],
[[[-78.479,9.4282,0.0],[-78.4799,9.4301,0.0],[-78.4818,9.4296,0.0],[-78.4815,9.4276,0.0],[-78.479,9.4282,0.0]]],
[[[-78.5204,9.4318,0.9814],[-78.5226,9.4329,0.5437],[-78.5224,9.4307,0.9814],[-78.5196,9.4301,0.0],[-78.5204,9.4318,0.9814]]],
[[[-78.5826,9.4449,0.0],[-78.5821,9.4471,0.0],[-78.5837,9.4474,0.0],[-78.5843,9.4454,1.387],[-78.5865,9.4463,0.0],[-78.5865,9.4446,0.5033],[-78.5888,9.4454,0.1581],[-78.5899,9.4438,0.1581],[-78.5849,9.4426,0.3331],[-78.584,9.4451,0.0],[-78.5826,9.4449,0.0]]],
[[[-78.834,9.4507,0.0],[-78.8324,9.4501,0.0],[-78.8321,9.4532,0.2347],[-78.8337,9.4535,0.0],[-78.834,9.4507,0.0]]],
[[[-78.9801,9.4599,0.0],[-78.9793,9.461,0.0],[-78.9837,9.461,0.0],[-78.9835,9.4599,0.0],[-78.9801,9.4599,0.0]]],
[[[-78.9599,9.4704,0.0],[-78.9607,9.4715,0.0],[-78.9626,9.4715,0.3202],[-78.9618,9.4696,0.1279],[-78.9599,9.4704,0.0]]],
[[[-78.8004,9.4385,0.0],[-78.7993,9.4385,0.0],[-78.8001,9.441,0.0],[-78.8029,9.4399,0.0],[-78.8015,9.4379,0.0],[-78.8004,9.4385,0.0]]],
[[[-78.6871,9.476,0.857],[-78.6862,9.4768,0.0],[-78.6888,9.4768,0.857],[-78.6937,9.4732,0.0],[-78.6954,9.4696,0.0],[-78.6943,9.4696,0.0],[-78.6924,9.4726,0.3292],[-78.6871,9.476,0.857]]],
[[[-78.7096,9.4771,0.0],[-78.7101,9.479,0.0],[-78.7138,9.4776,0.59],[-78.7118,9.4757,0.0],[-78.7096,9.4771,0.0]]],
[[[-78.7162,9.4788,0.0],[-78.7182,9.4799,0.0],[-78.7193,9.4793,0.0],[-78.7187,9.4779,0.0],[-78.7162,9.4788,0.0]]],
[[[-78.7385,9.4929,0.0],[-78.7421,9.4949,0.0],[-78.7399,9.4915,0.0],[-78.7326,9.4876,0.7261],[-78.7324,9.4851,0.0],[-78.7296,9.4829,0.0],[-78.7237,9.4812,0.0],[-78.726,9.486,0.0],[-78.7324,9.4882,0.7261],[-78.7321,9.4896,0.0],[-78.734,9.4893,0.0],[-78.7385,9.4929,0.0]]],
[[[-78.754,9.4985,1.1665],[-78.7568,9.4996,0.0],[-78.7576,9.4974,0.0],[-78.7518,9.496,0.0],[-78.754,9.4985,1.1665]]],
[[[-78.7635,9.4985,0.0],[-78.7651,9.4999,0.0],[-78.764,9.4971,0.0],[-78.7624,9.4971,0.5968],[-78.7635,9.4985,0.0]]],
[[[-78.8012,9.5076,1.3029],[-78.7993,9.5085,0.0],[-78.7988,9.5101,1.8734],[-78.804,9.5082,1.5232],[-78.8012,9.5076,1.3029]]],
[[[-78.8415,9.471,0.9046],[-78.841,9.4726,0.0],[-78.8435,9.471,0.0],[-78.8432,9.469,1.1617],[-78.8421,9.4696,1.1617],[-78.8415,9.471,0.9046]]],
[[[-78.816,9.4838,0.0],[-78.8187,9.4849,3.0599],[-78.8207,9.4826,2.8738],[-78.8182,9.4818,0.0],[-78.816,9.4838,0.0]]],
[[[-78.9043,9.5421,0.1021],[-78.9026,9.5421,0.2174],[-78.9029,9.5443,0.0],[-78.9054,9.5435,0.0],[-78.9043,9.5421,0.1021]]],
[[[-78.9001,9.5424,0.0],[-78.8971,9.5426,0.3413],[-78.8971,9.5438,0.0],[-78.8999,9.5443,0.0],[-78.9001,9.5424,0.0]]],
[[[-78.5996,9.4315,0.0],[-78.599,9.4337,0.2899],[-78.6004,9.4335,0.2899],[-78.6004,9.4307,0.0],[-78.5996,9.4315,0.0]]],
[[[-78.6799,9.4363,0.0],[-78.6824,9.4374,0.0],[-78.6829,9.4357,0.8464],[-78.6793,9.4332,0.0],[-78.6785,9.4337,0.0],[-78.6799,9.4363,0.0]]],
[[[-78.5982,9.4349,0.0],[-78.5982,9.4374,0.0],[-78.6018,9.4354,0.0],[-78.5996,9.4343,0.8399],[-78.5982,9.4349,0.0]]],
[[[-78.5893,9.4388,0.0],[-78.591,9.4404,0.0],[-78.5943,9.439,0.2479],[-78.5926,9.4379,0.0],[-78.5915,9.439,0.0],[-78.5924,9.4374,0.85],[-78.591,9.4349,0.0],[-78.5876,9.4365,0.4817],[-78.5893,9.4388,0.0]]],
[[[-78.5726,9.4471,0.0],[-78.579,9.4479,0.0],[-78.5771,9.4451,0.0],[-78.5676,9.4424,0.0],[-78.5671,9.4446,0.0],[-78.5726,9.4471,0.0]]],
[[[-78.5643,9.4457,0.7439],[-78.5649,9.4474,0.0],[-78.5674,9.4465,0.9253],[-78.5654,9.4449,0.0],[-78.5643,9.4457,0.7439]]],
[[[-78.551,9.4526,0.0],[-78.5563,9.4535,0.0],[-78.5546,9.4513,0.0],[-78.551,9.4515,0.0],[-78.551,9.4526,0.0]]],
[[[-78.579,9.471,0.0],[-78.5774,9.4715,0.0],[-78.5779,9.4735,0.0],[-78.5807,9.4735,0.0],[-78.581,9.4718,0.0],[-78.579,9.471,0.0]]],
[[[-78.6096,9.4576,0.0],[-78.6151,9.4587,0.0],[-78.614,9.4562,0.0],[-78.6157,9.456,0.0],[-78.6101,9.4546,0.0],[-78.6096,9.4576,0.0]]],
[[[-78.6193,9.464,0.8519],[-78.6188,9.4651,0.0],[-78.6201,9.4663,0.0],[-78.6204,9.4632,0.0],[-78.6193,9.464,0.8519]]],
[[[-78.6282,9.4785,0.0],[-78.6304,9.4796,0.0],[-78.6287,9.4768,1.6835],[-78.6293,9.4746,1.3744],[-78.6249,9.4718,0.0],[-78.6249,9.4735,0.0],[-78.6282,9.4785,0.0]]],
[[[-78.6526,9.4749,0.0],[-78.6521,9.4774,0.0],[-78.6554,9.476,0.7574],[-78.6535,9.4746,0.0],[-78.6526,9.4749,0.0]]],
[[[-78.5821,9.4721,0.0],[-78.5837,9.474,0.0],[-78.5862,9.4735,4.5081],[-78.5846,9.4704,0.0],[-78.5824,9.4707,1.3087],[-78.5821,9.4721,0.0]]],
[[[-78.514,9.4754,1.7964],[-78.5199,9.476,0.0],[-78.5182,9.474,0.0],[-78.5113,9.4732,0.0],[-78.514,9.4754,1.7964]]],
[[[-78.5649,9.4846,0.0],[-78.5654,9.486,0.0],[-78.5671,9.4851,0.0],[-78.5665,9.4837,0.0],[-78.5649,9.4846,0.0]]],
[[[-78.6174,9.4779,0.0],[-78.6185,9.4804,1.1243],[-78.6215,9.4796,0.0],[-78.621,9.4782,0.0],[-78.6174,9.4779,0.0]]],
[[[-78.634,9.4821,1.2791],[-78.6354,9.484,0.0],[-78.6396,9.4838,0.0],[-78.6365,9.4812,0.0],[-78.634,9.4821,1.2791]]],
[[[-78.6676,9.4821,0.0],[-78.6687,9.484,0.0],[-78.6718,9.484,0.0],[-78.6693,9.4815,0.0],[-78.6676,9.4821,0.0]]],
[[[-78.6729,9.4835,0.0],[-78.6732,9.4849,0.7936],[-78.6765,9.4843,0.0],[-78.6793,9.4812,0.0],[-78.6749,9.4821,3.9584],[-78.6729,9.4835,0.0]]],
[[[-78.6721,9.5774,1.061],[-78.6712,9.5774,1.061],[-78.6712,9.5801,1.2626],[-78.6746,9.5776,2.9164],[-78.6721,9.5774,1.061]]],
[[[-78.6843,9.5826,1.0329],[-78.6854,9.5838,0.0],[-78.6871,9.5829,0.0],[-78.6826,9.5804,0.0],[-78.6843,9.5826,1.0329]]],
[[[-78.6721,9.5871,0.0],[-78.6743,9.5882,0.5903],[-78.6768,9.5851,0.0],[-78.6707,9.5832,0.0],[-78.6721,9.5871,0.0]]],
[[[-78.7937,9.5101,0.0],[-78.7968,9.511,0.0],[-78.7971,9.5076,0.0],[-78.7935,9.5087,0.0],[-78.7937,9.5101,0.0]]],
[[[-78.7185,9.5776,2.73],[-78.7185,9.5793,0.0],[-78.724,9.5785,1.1475],[-78.7232,9.5771,1.1475],[-78.7185,9.5776,2.73]]],
[[[-78.7276,9.5776,0.0],[-78.7257,9.5776,0.0],[-78.7268,9.5801,2.4513],[-78.7304,9.5801,0.0],[-78.7301,9.579,0.0],[-78.7276,9.5776,0.0]]],
[[[-78.7471,9.5846,0.0],[-78.7454,9.5849,0.7063],[-78.7457,9.5868,2.2303],[-78.7493,9.5863,0.0],[-78.749,9.5851,0.0],[-78.7471,9.5846,0.0]]],
[[[-78.8868,9.5454,0.0],[-78.886,9.5482,0.1188],[-78.8904,9.5471,0.0],[-78.8896,9.5446,0.0],[-78.8868,9.5454,0.0]]],
[[[-78.8996,9.5463,0.0],[-78.8982,9.5471,0.0],[-78.899,9.5488,0.0],[-78.901,9.5476,0.0],[-78.901,9.5457,0.0],[-78.8996,9.5463,0.0]]],
[[[-78.969,9.5471,0.1697],[-78.9696,9.5485,0.1697],[-78.9724,9.5479,0.0],[-78.9721,9.5468,0.0],[-78.969,9.5471,0.1697]]],
[[[-78.8882,9.5496,0.0],[-78.8904,9.5515,0.0],[-78.8926,9.5485,0.0],[-78.8904,9.5479,0.0],[-78.8882,9.5496,0.0]]],
[[[-78.954,9.5504,0.0],[-78.954,9.5515,0.0],[-78.9565,9.5515,0.0],[-78.9571,9.5501,0.0],[-78.9551,9.5493,0.0],[-78.954,9.5504,0.0]]],
[[[-78.886,9.5524,0.0],[-78.8876,9.554,0.0],[-78.8893,9.5529,0.0],[-78.889,9.5513,0.0],[-78.886,9.5513,0.0],[-78.886,9.5524,0.0]]],
[[[-78.9465,9.5582,0.0286],[-78.9443,9.5607,0.0],[-78.9501,9.5596,0.0],[-78.9493,9.5574,0.0],[-78.9465,9.5582,0.0286]]],
[[[-78.879,9.559,0.0],[-78.8779,9.559,0.0],[-78.8779,9.5615,0.0],[-78.8801,9.5624,0.0],[-78.8804,9.5599,0.0],[-78.879,9.559,0.0]]],
[[[-78.8604,9.5668,0.0],[-78.8599,9.5679,0.0],[-78.8601,9.5688,0.0],[-78.8615,9.5654,0.0],[-78.8604,9.5668,0.0]]],
[[[-78.819,9.571,0.321],[-78.8218,9.5726,0.0],[-78.8293,9.5688,0.0],[-78.8293,9.5674,0.0],[-78.8235,9.5662,0.1984],[-78.819,9.571,0.321]]],
[[[-78.8768,9.5849,0.7264],[-78.876,9.5865,0.0],[-78.8771,9.5874,0.0],[-78.8818,9.586,1.0335],[-78.8799,9.584,0.776],[-78.8768,9.5849,0.7264]]],
[[[-78.6862,9.5918,1.3685],[-78.6935,9.5915,0.0],[-78.6943,9.5887,0.0],[-78.6913,9.5871,0.0],[-78.6946,9.5882,0.0],[-78.6951,9.5871,0.0],[-78.6896,9.584,1.4645],[-78.6849,9.5868,0.0],[-78.6851,9.589,3.8956],[-78.6796,9.5904,0.0],[-78.6815,9.5913,0.2016],[-78.6854,9.5896,3.8956],[-78.6862,9.5918,1.3685]]],
[[[-78.7129,9.589,0.547],[-78.7126,9.5907,0.0],[-78.7151,9.5899,1.3073],[-78.7179,9.5863,0.0],[-78.714,9.5871,2.4233],[-78.7129,9.589,0.547]]],
[[[-78.6988,9.5932,0.0],[-78.7004,9.5943,0.0],[-78.7046,9.5932,2.7509],[-78.7079,9.5913,0.6213],[-78.7079,9.589,0.0],[-78.701,9.5862,0.0],[-78.6979,9.5868,0.0],[-78.696,9.589,0.7619],[-78.6988,9.5932,0.0]]],
[[[-78.7549,9.5938,0.0],[-78.7582,9.594,0.5497],[-78.7562,9.5918,0.0],[-78.7549,9.5918,0.0],[-78.7549,9.5938,0.0]]],
[[[-78.7454,9.5965,1.9756],[-78.751,9.5965,0.7582],[-78.7535,9.5926,0.0],[-78.7485,9.5918,0.0],[-78.7476,9.5929,0.4883],[-78.7465,9.5899,0.0],[-78.7451,9.5899,0.0],[-78.7432,9.5951,0.0],[-78.7454,9.5965,1.9756]]],
[[[-78.7729,9.5988,0.9531],[-78.7735,9.6004,0.9448],[-78.7749,9.6001,0.9448],[-78.7735,9.5979,0.0],[-78.7746,9.5943,0.0],[-78.769,9.594,0.0],[-78.769,9.596,0.0],[-78.7729,9.5988,0.9531]]],
[[[-78.7754,9.5996,0.9448],[-78.7801,9.6004,0.6135],[-78.7818,9.5985,0.0],[-78.779,9.5971,0.0],[-78.7754,9.5996,0.9448]]]]}}