{"type":"Feature","properties":{"ISO3166-1-Alpha-3":"PAN","country":"Panama","fill":"#F00","id":"1419","name":"Kuna Yala"},
"geometry":{"type": "MultiPolygon","coordinates": [[[[-78.81879,9.57064,0.321],[-78.82104,9.57175,1.4208],[-78.82911,9.56843,0.0],[-78.82879,9.56715,1.6304],[-78.82379,9.56651,0.1984],[-78.81879,9.57064,0.321]]],
[[[-78.95736,9.55403,0.0],[-78.95731,9.56528,0.0],[-78.97058,9.57331,0.0],[-79.0129,9.57023,0.0],[-79.04846,9.56422,2.2864],[-79.07453,9.56204,2.3601],[-79.07455,9.54128,43.1407],[-79.07499,9.45728,16.3168],[-79.07891,9.451,12.2801],[-79.087,9.44875,12.8972],[-79.0955,9.44774,36.004],[-79.10222,9.44588,36.8922],[-79.11263,9.43945,23.2703],[-79.12088,9.43152,41.1237],[-79.13222,9.41524,85.6399],[-79.13558,9.40552,98.5017],[-79.13728,9.38994,124.8449],[-79.13914,9.38351,225.9033],[-79.14206,9.37785,377.8011],[-79.14808,9.37201,283.2697],[-79.15707,9.36659,305.1338],[-79.17625,9.36015,233.1792],[-79.19268,9.35269,302.2699],[-79.22035,9.33555,288.6957],[-79.23932,9.32049,506.3658],[-79.24348,9.32057,532.6065],[-79.24699,9.33075,466.1051],[-79.26611,9.32158,659.4994],[-79.27249,9.31429,750.1652],[-79.27903,9.30336,805.5945],[-79.28105,9.29302,763.2517],[-79.28006,9.28651,617.1665],[-79.27206,9.27954,521.211],[-79.23916,9.28644,276.0343],[-79.17054,9.30778,234.8036],[-79.15671,9.30987,218.0714],[-79.1433,9.3101,193.1003],[-79.12865,9.3091,183.262],[-79.11537,9.30631,210.75],[-79.09364,9.29755,511.7108],[-79.08504,9.28977,338.5132],[-79.07824,9.28225,274.1511],[-79.07181,9.27737,288.8611],[-79.0568,9.27636,309.7238],[-79.01114,9.2776,429.8868],[-79.0022,9.28047,436.8971],[-78.99817,9.28419,419.3753],[-78.99817,9.28837,442.4086],[-79.00065,9.29414,424.5208],[-79.00416,9.29995,447.553],[-79.00564,9.30638,393.7126],[-79.00282,9.31266,346.8184],[-78.99708,9.31716,367.2389],[-78.97275,9.32773,352.7666],[-78.96466,9.32889,341.5054],[-78.95613,9.32804,338.0662],[-78.94567,9.32468,374.66],[-78.93941,9.3278,381.1806],[-78.93766,9.33338,364.3119],[-78.93794,9.34028,278.065],[-78.93717,9.34455,305.9313],[-78.93277,9.34633,190.5049],[-78.92634,9.34524,246.2002],[-78.91536,9.34106,399.3746],[-78.90011,9.34121,322.794],[-78.89079,9.34447,328.6375],[-78.87831,9.35573,464.2972],[-78.87136,9.35938,399.1911],[-78.85704,9.36093,403.3925],[-78.83999,9.36108,347.9538],[-78.80898,9.35674,524.1573],[-78.79591,9.35868,477.4937],[-78.78749,9.36341,410.1361],[-78.78165,9.36821,446.066],[-78.7778,9.37062,412.4492],[-78.77059,9.37147,454.3435],[-78.76542,9.37155,413.3159],[-78.75878,9.3686,472.5427],[-78.74175,9.35077,453.8289],[-78.72819,9.34455,560.0368],[-78.721,9.34703,504.2523],[-78.717,9.3538,326.4648],[-78.71488,9.37124,306.1044],[-78.70971,9.37418,228.1026],[-78.69886,9.37077,317.8067],[-78.67705,9.35705,465.1729],[-78.64178,9.33021,483.3935],[-78.6277,9.32142,569.9308],[-78.61008,9.31778,317.3349],[-78.59453,9.31917,321.7685],[-78.54205,9.33137,295.5055],[-78.53716,9.33501,293.5649],[-78.52835,9.34796,275.3436],[-78.52182,9.35124,272.5406],[-78.51288,9.34969,346.7064],[-78.50019,9.33796,300.5437],[-78.4951,9.32889,284.7097],[-78.49076,9.31165,569.4685],[-78.48642,9.30871,623.7172],[-78.47949,9.31134,542.2347],[-78.472,9.31724,318.3433],[-78.46508,9.32103,277.0187],[-78.45769,9.32041,214.3699],[-78.44895,9.3122,186.6247],[-78.44526,9.30445,118.2404],[-78.44172,9.2984,93.8277],[-78.43774,9.2946,103.2087],[-78.43032,9.29194,146.6306],[-78.42474,9.28744,168.3332],[-78.4197,9.27892,449.1007],[-78.41653,9.26954,392.7889],[-78.41578,9.26192,401.175],[-78.41684,9.25478,469.9118],[-78.4143,9.24789,374.7182],[-78.40875,9.24362,394.0733],[-78.39487,9.2406,375.4212],[-78.36606,9.24176,360.239],[-78.34692,9.23802,393.7059],[-78.33901,9.2375,305.6171],[-78.33121,9.23998,252.7262],[-78.2956,9.25734,348.4932],[-78.28909,9.25571,459.8246],[-78.28485,9.24858,244.337],[-78.28044,9.23158,160.7418],[-78.27077,9.20489,428.2365],[-78.26473,9.19605,326.3967],[-78.257,9.19086,289.3566],[-78.23465,9.19311,277.424],[-78.20912,9.19272,337.1347],[-78.18669,9.18939,271.2253],[-78.1784,9.19009,263.1508],[-78.17403,9.19272,278.9626],[-78.17135,9.19768,365.9303],[-78.16956,9.20226,378.191],[-78.16561,9.20567,296.2908],[-78.15869,9.20303,319.8507],[-78.15083,9.19427,527.1345],[-78.14582,9.17277,401.7721],[-78.15047,9.16122,365.1538],[-78.16081,9.14539,561.9265],[-78.15884,9.13996,448.2267],[-78.15233,9.135,271.8199],[-78.08329,9.11869,634.8225],[-78.07239,9.1128,549.7579],[-78.06505,9.10784,576.5852],[-78.04254,9.07324,238.5774],[-78.01534,9.07324,478.493],[-77.94208,9.02072,441.7065],[-77.91191,8.99697,464.0266],[-77.85666,8.94126,230.292],[-77.84648,8.92426,229.4981],[-77.84036,8.91132,283.5735],[-77.83369,8.90036,286.1419],[-77.82367,8.89339,308.9406],[-77.80672,8.88571,310.9023],[-77.77923,8.86654,405.4531],[-77.76419,8.8591,296.6734],[-77.75204,8.85011,327.17],[-77.71241,8.81386,268.963],[-77.70114,8.80029,247.4501],[-77.69484,8.78608,429.046],[-77.69251,8.77241,525.4885],[-77.69158,8.76686,724.8539],[-77.68613,8.75792,561.8344],[-77.67877,8.74877,613.3677],[-77.6536,8.73053,260.8149],[-77.62616,8.70663,564.002],[-77.60978,8.68422,325.2626],[-77.57916,8.65482,599.6747],[-77.5688,8.63991,364.9501],[-77.55893,8.60648,399.2969],[-77.54627,8.5901,628.2847],[-77.50842,8.57374,511.9935],[-77.49588,8.5701,510.357],[-77.46979,8.53832,550.8104],[-77.46937,8.53781,550.8104],[-77.44113,8.56767,253.7896],[-77.42909,8.59263,81.4237],[-77.43023,8.61046,133.8463],[-77.43504,8.62064,28.4089],[-77.434,8.62826,53.1906],[-77.41767,8.63847,219.9174],[-77.40155,8.64203,225.8566],[-77.38538,8.64363,503.9673],[-77.37494,8.65095,88.1965],[-77.37352,8.66474,0.0],[-77.38003,8.66665,0.0],[-77.38581,8.66958,6.9519],[-77.3907,8.67353,0.0],[-77.3946,8.67841,0.0],[-77.4132,8.66669,109.8154],[-77.4442,8.66437,0.0],[-77.47696,8.66991,14.8459],[-77.50072,8.68183,14.6585],[-77.53214,8.7032,0.0],[-77.54475,8.7146,0.0],[-77.54029,8.72608,0.0],[-77.53834,8.74131,0.0],[-77.5351,8.75774,0.0],[-77.54369,8.77489,0.0],[-77.55362,8.77676,17.9838],[-77.55934,8.75971,11.015],[-77.57787,8.77503,0.0],[-77.57407,8.79275,0.5537],[-77.60383,8.81558,26.8879],[-77.60741,8.82217,0.0],[-77.61799,8.83519,0.0],[-77.62906,8.84447,0.0],[-77.63419,8.83979,12.6034],[-77.63174,8.8299,0.0],[-77.62605,8.82315,2.0639],[-77.61946,8.81696,7.9188],[-77.61433,8.80874,41.4401],[-77.63345,8.81745,24.7579],[-77.65585,8.8432,4.6034],[-77.67629,8.86163,13.3661],[-77.69552,8.87332,0.0],[-77.69674,8.88743,0.0],[-77.70106,8.88926,0.0],[-77.71032,8.88128,7.6509],[-77.72077,8.89229,33.9567],[-77.73473,8.92349,3.6713],[-77.75421,8.94566,0.0],[-77.74442,8.96358,2.8757],[-77.74755,8.97256,0.3972],[-77.75853,8.98151,7.05],[-77.76724,8.99234,0.0],[-77.77074,9.00397,0.0],[-77.78581,9.01687,0.0],[-77.79824,9.02426,0.0],[-77.80817,9.03533,0.0],[-77.81187,9.05804,0.0],[-77.83919,9.0765,0.0],[-77.84726,9.08756,0.0],[-77.8601,9.11042,0.0],[-77.87766,9.11889,0.0],[-77.87644,9.10355,0.0],[-77.86522,9.08027,17.1992],[-77.86084,9.06809,0.3626],[-77.85574,9.05429,3.8162],[-77.89015,9.07721,2.1055],[-77.90503,9.09931,11.2161],[-77.91853,9.1166,0.0],[-77.93541,9.14289,3.4815],[-77.96866,9.18061,0.0],[-77.98625,9.1889,0.0],[-77.99926,9.19082,2.7537],[-78.02082,9.21361,5.9857],[-78.02457,9.22647,0.0],[-78.0369,9.23639,3.8225],[-78.05599,9.24344,23.4289],[-78.08816,9.24798,41.9098],[-78.114,9.25381,5.0922],[-78.12371,9.26636,6.4312],[-78.14191,9.27771,0.0],[-78.15492,9.27949,6.3962],[-78.16709,9.28652,0.8069],[-78.17665,9.29006,5.1342],[-78.19235,9.28761,1.5396],[-78.20802,9.29034,2.4041],[-78.22624,9.30081,0.0],[-78.24186,9.30955,0.8558],[-78.25486,9.31739,0.0],[-78.26791,9.32094,4.7265],[-78.27749,9.32188,12.9233],[-78.28707,9.32629,8.4475],[-78.30273,9.33331,6.0113],[-78.31751,9.34466,0.0],[-78.33834,9.35601,0.0],[-78.36422,9.3612,0.0],[-78.37832,9.36575,4.1635],[-78.38873,9.37185,38.7424],[-78.41595,9.38431,0.0],[-78.42726,9.3939,3.8428],[-78.43771,9.40435,5.7256],[-78.45261,9.40883,0.0],[-78.46345,9.40461,4.1259],[-78.47989,9.416,0.0],[-78.51282,9.41599,8.027],[-78.52712,9.4215,5.6675],[-78.54641,9.43437,0.0],[-78.56132,9.43804,16.3094],[-78.57809,9.4319,7.3326],[-78.58962,9.4224,9.0909],[-78.6039,9.41639,16.943],[-78.62003,9.41883,0.0],[-78.63326,9.42873,8.3858],[-78.6556,9.4265,10.8164],[-78.68887,9.43555,8.1882],[-78.70166,9.43426,25.6161],[-78.71788,9.44184,13.6208],[-78.72822,9.45498,4.3382],[-78.7416,9.44849,7.9656],[-78.75265,9.44433,6.4749],[-78.76411,9.44252,17.2081],[-78.78114,9.44588,16.9653],[-78.78938,9.43657,20.3035],[-78.81784,9.43108,4.8196],[-78.83634,9.43538,7.154],[-78.84724,9.43308,4.5887],[-78.85254,9.42375,0.3091],[-78.86488,9.4224,0.0],[-78.87484,9.42479,3.8947],[-78.88291,9.4253,8.9646],[-78.89574,9.42442,4.2106],[-78.90331,9.42292,13.0603],[-78.90807,9.43081,0.0],[-78.91568,9.43684,0.0],[-78.92462,9.44423,0.767],[-78.93505,9.44756,0.0],[-78.95259,9.45466,5.6233],[-78.96636,9.45472,4.0107],[-78.97728,9.45712,0.0],[-78.98821,9.45529,6.6004],[-79.00105,9.45347,0.0],[-79.01389,9.45118,0.0],[-79.02432,9.45591,0.0],[-79.0405,9.45223,0.0],[-79.05806,9.45793,0.0],[-79.06315,9.49029,0.0],[-79.06586,9.51372,0.0],[-79.05487,9.53196,0.0],[-79.03823,9.53517,0.0],[-79.00781,9.53879,0.0],[-78.99687,9.53968,1.4466],[-78.98686,9.54714,0.0],[-78.97451,9.5447399999999991,0.0],[-78.95736,9.55403,0.0]]]]}}