{"type":"Feature","properties":{"GID_3":"PAN.4.3.3_1","GID_0":"PAN","country":"Panama","GID_1":"PAN.4_1","province":"Colón","NL_NAME_1":"NA","GID_2":"PAN.4.3_1","county":"Donoso","NL_NAME_2":"NA","city":"Gobea","VARNAME_3":"NA","NL_NAME_3":"NA","TYPE_3":"Corregimiento","ENGTYPE_3":"Municipality","CC_3":"NA","HASC_3":"NA","name":"Gobea.city"},
"geometry":{"type": "MultiPolygon","coordinates": [[[[-80.2754,9.1674,3.0353],[-80.2764,9.1599,27.1523],[-80.2724,9.1453,29.674],[-80.265,9.1396,29.1696],[-80.2628,9.1303,30.3964],[-80.2404,9.1079,42.5425],[-80.2369,9.0936,95.312],[-80.2385,9.0872,89.3674],[-80.2382,9.077,105.8705],[-80.2316,9.0628,56.7593],[-80.2245,9.0531,73.0823],[-80.2149,9.0758,54.5002],[-80.2135,9.0845,37.0191],[-80.2064,9.0916,128.5768],[-80.2136,9.1,24.2761],[-80.2181,9.1151,15.2939],[-80.2253,9.1234,66.5596],[-80.2216,9.13,48.0941],[-80.2214,9.139,33.8031],[-80.219,9.1455,59.6643],[-80.2197,9.1498,41.3101],[-80.2264,9.1606,20.801],[-80.2248,9.1692,17.0612],[-80.2256,9.1732,21.3598],[-80.2216,9.1779,17.1056],[-80.2218,9.1834,9.779],[-80.2251,9.1862,6.1747],[-80.231,9.1835,11.5666],[-80.2382,9.1838,0.0],[-80.2415,9.1801,6.9723],[-80.2429,9.1749,8.7785],[-80.2468,9.171,4.8244],[-80.2537,9.1687,3.7493],[-80.2571,9.1699,0.0],[-80.2699,9.1671,0.0],[-80.2754,9.1674,3.0353]]]]}}