{"type":"Feature","properties":{"GID_3":"PAN.11.2.9_1","GID_0":"PAN","country":"Panama","GID_1":"PAN.11_1","province":"PanamáOeste","NL_NAME_1":"NA","GID_2":"PAN.11.2_1","county":"Capira","NL_NAME_2":"NA","city":"LasOllasArriba","VARNAME_3":"NA","NL_NAME_3":"NA","TYPE_3":"Corregimiento","ENGTYPE_3":"Municipality","CC_3":"NA","HASC_3":"NA","name":"Las_Ollas_Arriba.city"},
"geometry":{"type": "MultiPolygon","coordinates": [[[[-79.931,8.7807,209.5275],[-79.9221,8.7761,312.047],[-79.9148,8.7663,169.6669],[-79.8955,8.7684,109.3624],[-79.8893,8.7744,109.2013],[-79.8892,8.7797,114.6712],[-79.8841,8.7925,154.1594],[-79.8736,8.805,94.6467],[-79.8585,8.8107,114.8436],[-79.8759,8.8186,92.6342],[-79.8805,8.8191,151.8514],[-79.8987,8.8152,109.8829],[-79.9051,8.8084,221.8249],[-79.9098,8.8074,126.1056],[-79.9226,8.8208,226.0531],[-79.9253,8.7981,229.9573],[-79.9305,8.7912,202.8365],[-79.931,8.7807,209.5275]]]]}}