{"type": "Feature","bbox": [-78.9088,8.3474,-78.4184,8.9777],"geometry": {"type": "MultiPolygon","coordinates": [[[[-78.4657,8.4112,0.0],[-78.4662,8.4124,0.0],[-78.4679,8.4112,0.0],[-78.4676,8.4087,0.0],[-78.4668,8.4087,0.0],[-78.4657,8.4112,0.0]]],
[[[-78.4502,8.4847,70.6615],[-78.4604,8.4977,84.6047],[-78.462,8.5169,50.0067],[-78.4771,8.5343,88.4653],[-78.4752,8.5392,119.2534],[-78.4762,8.5481,28.2003],[-78.4844,8.5617,15.6703],[-78.4877,8.5739,45.7864],[-78.487,8.5907,52.7497],[-78.49,8.6005,29.1409],[-78.4801,8.606,47.224],[-78.4761,8.6106,50.1078],[-78.4737,8.6287,69.3668],[-78.475,8.6351,145.256],[-78.4728,8.6425,189.1685],[-78.4776,8.6469,134.2587],[-78.482,8.6553,110.0488],[-78.4916,8.6579,120.6935],[-78.4953,8.6609,156.0924],[-78.4969,8.6651,204.0451],[-78.497,8.6795,216.2946],[-78.5005,8.6823,127.9103],[-78.5074,8.6845,79.0031],[-78.5123,8.6939,151.1661],[-78.5122,8.7013,222.455],[-78.5051,8.7195,266.788],[-78.5055,8.7342,245.7879],[-78.5043,8.7383,210.4298],[-78.5025,8.7395,223.0814],[-78.4918,8.7385,251.3113],[-78.4883,8.7444,302.3944],[-78.4814,8.7504,319.4359],[-78.4793,8.7585,404.4185],[-78.4799,8.7761,715.6235],[-78.476,8.7882,841.2253],[-78.4771,8.7939,796.0405],[-78.4828,8.8049,818.4673],[-78.4947,8.81,446.4453],[-78.5058,8.8191,305.3643],[-78.5089,8.8193,280.5529],[-78.5151,8.8151,331.6548],[-78.5198,8.8177,326.6746],[-78.5263,8.8188,366.108],[-78.5353,8.8235,552.2298],[-78.5383,8.8269,537.7151],[-78.5409,8.8273,470.662],[-78.5415,8.8232,504.3306],[-78.5521,8.827,576.4177],[-78.5539,8.8315,493.2094],[-78.5533,8.8549,558.3486],[-78.5603,8.8779,679.4028],[-78.5654,8.8816,678.3074],[-78.5805,8.8863,302.3693],[-78.5845,8.889,267.8732],[-78.5897,8.8988,229.2527],[-78.6054,8.9051,341.2481],[-78.6102,8.9135,370.6128],[-78.609,8.9237,398.7359],[-78.611,8.9266,467.9421],[-78.6201,8.9271,829.7478],[-78.6397,8.917,635.8655],[-78.6451,8.9184,366.1806],[-78.6512,8.925,696.0935],[-78.6555,8.9266,727.9243],[-78.6606,8.9253,503.7198],[-78.6673,8.9209,255.1366],[-78.6763,8.9202,194.5768],[-78.6976,8.9126,184.1341],[-78.7212,8.9183,174.0876],[-78.7263,8.9154,101.1733],[-78.7352,8.9146,73.5769],[-78.7405,8.9104,90.1426],[-78.7599,8.915,242.3007],[-78.7633,8.9177,329.7848],[-78.7656,8.9265,357.1183],[-78.7807,8.9573,527.4761],[-78.7869,8.9658,325.6673],[-78.7917,8.9767,284.0035],[-78.7936,8.9777,252.0542],[-78.8007,8.9759,206.515],[-78.8116,8.9637,154.6384],[-78.8194,8.9604,155.7179],[-78.8288,8.9517,222.213],[-78.8365,8.9476,113.3367],[-78.8677,8.9417,164.2532],[-78.8844,8.9413,65.6662],[-78.8879,8.9392,83.0533],[-78.8976,8.9269,11.6264],[-78.9002,8.9201,7.6682],[-78.9006,8.9143,8.5966],[-78.9088,8.9115,5.1137],[-78.9065,8.9107,10.5593],[-78.9063,8.9082,0.0],[-78.8988,8.9074,17.5024],[-78.8988,8.9038,10.6651],[-78.896,8.9043,12.0442],[-78.8921,8.9026,19.9159],[-78.8893,8.8976,7.1309],[-78.8896,8.894,2.81],[-78.8846,8.8935,23.5534],[-78.8807,8.8774,0.0],[-78.8779,8.8751,7.9545],[-78.8801,8.8679,2.7602],[-78.8757,8.8662,14.2497],[-78.8737,8.854,9.8017],[-78.8685,8.8435,0.0],[-78.8651,8.8412,12.9439],[-78.8649,8.8337,0.0],[-78.8615,8.8282,0.9493],[-78.8582,8.8296,8.035],[-78.8493,8.8193,17.1182],[-78.8385,8.8126,7.0409],[-78.8349,8.8129,1.4196],[-78.8296,8.8201,3.248],[-78.819,8.8185,0.0],[-78.8163,8.8196,0.0],[-78.8154,8.8176,0.0],[-78.8107,8.8171,4.728],[-78.8107,8.8143,0.0],[-78.8079,8.8135,0.3162],[-78.8071,8.8093,0.0],[-78.8112,8.801,0.0],[-78.8096,8.8013,3.5975],[-78.8096,8.7965,0.0],[-78.8079,8.7957,3.3105],[-78.8049,8.799,12.7451],[-78.7996,8.7993,0.0],[-78.7985,8.8015,6.1522],[-78.7937,8.8026,0.0],[-78.786,8.8099,0.0],[-78.786,8.8121,7.4451],[-78.7838,8.8135,0.0],[-78.7849,8.8171,0.0],[-78.7832,8.8185,0.0],[-78.7854,8.8254,1.7664],[-78.7838,8.8293,5.285],[-78.7843,8.834,2.4563],[-78.781,8.8324,0.0],[-78.779,8.8346,0.0],[-78.7732,8.8354,0.0],[-78.7729,8.8337,17.7304],[-78.7763,8.8335,11.3164],[-78.7804,8.8304,0.0],[-78.7824,8.8221,0.0],[-78.7796,8.8199,0.0],[-78.7701,8.8182,0.0],[-78.7588,8.8099,0.0],[-78.7543,8.8143,10.297],[-78.7549,8.821,4.8465],[-78.7538,8.821,4.8465],[-78.7529,8.8137,14.1618],[-78.7571,8.8074,0.0],[-78.7554,8.804,1.5058],[-78.7582,8.8013,4.6398],[-78.7562,8.7857,0.0],[-78.754,8.7849,0.0],[-78.7549,8.781,1.0424],[-78.7535,8.7799,0.0],[-78.7549,8.7771,11.9357],[-78.7524,8.7754,6.383],[-78.7529,8.774,6.383],[-78.7465,8.7751,0.0],[-78.7438,8.769,3.2351],[-78.741,8.7701,0.5788],[-78.7412,8.7643,1.3931],[-78.7343,8.764,11.5137],[-78.7332,8.7612,0.5967],[-78.7296,8.7587,0.0],[-78.7271,8.7593,3.89],[-78.7254,8.7568,0.0],[-78.7232,8.7582,6.7179],[-78.7129,8.7562,1.1697],[-78.7115,8.7612,12.0],[-78.7112,8.7557,1.6713],[-78.7046,8.7582,0.0],[-78.7043,8.7499,0.0],[-78.694,8.7488,2.48],[-78.6932,8.7471,3.2947],[-78.6862,8.7476,1.5668],[-78.6815,8.7571,2.306],[-78.6813,8.7474,0.0],[-78.6762,8.7474,5.0876],[-78.6768,8.744,0.0],[-78.6738,8.7424,3.773],[-78.6751,8.7396,0.0],[-78.6712,8.7379,2.8647],[-78.6751,8.7349,0.0],[-78.6751,8.731,0.0],[-78.664,8.7324,3.3624],[-78.6635,8.7343,0.0],[-78.666,8.7388,2.3189],[-78.6626,8.7362,0.0],[-78.6624,8.734,0.0],[-78.6637,8.7312,14.5851],[-78.6738,8.7296,4.0288],[-78.6749,8.7262,0.0],[-78.6826,8.7224,11.4964],[-78.6762,8.7188,6.1388],[-78.676,8.7168,0.0],[-78.6676,8.711,14.5562],[-78.6643,8.7062,0.0],[-78.6615,8.7082,0.0],[-78.6651,8.7154,17.545],[-78.6624,8.716,5.4894],[-78.6574,8.7251,7.5897],[-78.6526,8.7293,6.5501],[-78.6487,8.7318,1.4518],[-78.646,8.731,0.0],[-78.6429,8.7326,8.0455],[-78.6346,8.7282,0.0],[-78.6329,8.7218,2.1265],[-78.6357,8.7196,0.0],[-78.6349,8.7154,23.7795],[-78.641,8.7065,3.0005],[-78.6363,8.6999,1.8646],[-78.6368,8.6943,31.6834],[-78.6387,8.6924,5.5131],[-78.636,8.6915,0.0],[-78.6346,8.6882,2.8792],[-78.6279,8.6896,8.4687],[-78.6265,8.6868,17.2898],[-78.6271,8.6835,2.1324],[-78.626,8.6835,2.1324],[-78.6271,8.6807,20.5468],[-78.6221,8.6751,5.3309],[-78.6232,8.6726,0.0],[-78.6185,8.6721,20.236],[-78.6154,8.6743,37.5531],[-78.6168,8.6793,1.4037],[-78.6149,8.6804,0.0],[-78.6146,8.6835,3.8066],[-78.6118,8.6776,3.6614],[-78.6076,8.6768,0.0],[-78.6071,8.6807,4.3958],[-78.609,8.6846,14.0897],[-78.6057,8.6829,2.8764],[-78.6038,8.6876,4.526],[-78.5993,8.6893,12.1741],[-78.5996,8.6854,0.0],[-78.5899,8.6818,0.0],[-78.5835,8.6768,3.2065],[-78.5807,8.6718,0.0],[-78.5796,8.6671,0.0],[-78.5807,8.6649,0.0],[-78.579,8.6618,0.0],[-78.5738,8.6604,3.577],[-78.5668,8.6543,0.0],[-78.5576,8.6499,0.0],[-78.5443,8.6462,4.5078],[-78.5393,8.6415,0.0],[-78.5379,8.6446,5.7715],[-78.5346,8.6443,11.3239],[-78.5326,8.6421,9.0846],[-78.5304,8.6424,0.0],[-78.5299,8.644,5.5481],[-78.5254,8.644,7.473],[-78.5235,8.6401,0.0],[-78.5201,8.6382,4.2446],[-78.5204,8.6368,4.8628],[-78.5246,8.6396,0.0],[-78.5307,8.6407,0.0],[-78.5237,8.6313,18.1749],[-78.5251,8.6287,0.0],[-78.5207,8.6232,0.0],[-78.521,8.6185,0.0],[-78.5188,8.6179,0.7746],[-78.5165,8.6149,4.4762],[-78.5176,8.6124,11.429],[-78.5196,8.6179,0.7746],[-78.5249,8.6151,0.0],[-78.5235,8.6107,8.5583],[-78.526,8.6093,0.0],[-78.5246,8.6079,0.0],[-78.5243,8.6029,15.0947],[-78.5265,8.6032,0.7991],[-78.5268,8.6013,0.0],[-78.524,8.6001,0.0],[-78.5182,8.6024,16.7211],[-78.5157,8.6007,15.1092],[-78.5174,8.5985,0.0],[-78.516,8.5971,16.4479],[-78.5099,8.5965,1.1025],[-78.5121,8.5921,1.0368],[-78.506,8.5865,0.0],[-78.5043,8.5815,0.0],[-78.5015,8.5807,15.1535],[-78.5057,8.5746,0.8444],[-78.5051,8.569,0.7255],[-78.5021,8.5671,2.1004],[-78.4999,8.5712,0.6192],[-78.4968,8.5712,5.1195],[-78.5007,8.5662,0.0],[-78.4976,8.564,6.611],[-78.4965,8.5607,3.8587],[-78.4943,8.5601,1.6367],[-78.4954,8.556,4.269],[-78.4971,8.5607,3.8587],[-78.5021,8.5651,2.8144],[-78.504,8.5651,0.8597],[-78.5051,8.5607,15.6936],[-78.5065,8.5607,0.6332],[-78.5057,8.5676,0.0],[-78.5088,8.5771,0.9752],[-78.5149,8.5807,0.0],[-78.5151,8.5796,0.8587],[-78.5121,8.5763,0.0],[-78.5151,8.5788,0.8587],[-78.5165,8.5782,27.5289],[-78.5168,8.5826,3.7742],[-78.5229,8.5871,0.0],[-78.529,8.589,0.0],[-78.5354,8.5849,24.1394],[-78.5424,8.5857,0.0],[-78.544,8.5885,10.5058],[-78.5465,8.5871,0.0],[-78.5429,8.5843,11.4075],[-78.5424,8.5776,26.7866],[-78.5374,8.576,23.1044],[-78.5321,8.5693,24.725],[-78.5343,8.5665,0.0],[-78.5307,8.5646,13.2764],[-78.5287,8.5565,0.0],[-78.5324,8.5565,2.0999],[-78.5324,8.5546,14.2881],[-78.5263,8.5507,8.1054],[-78.5224,8.5515,20.0322],[-78.5137,8.5432,1.0371],[-78.5085,8.5424,3.5448],[-78.5082,8.5401,1.0937],[-78.5121,8.5376,17.7981],[-78.5118,8.5337,5.2114],[-78.5154,8.534,7.8753],[-78.5135,8.5318,20.3492],[-78.5149,8.5299,0.0],[-78.5126,8.5271,5.8562],[-78.5037,8.5254,22.5079],[-78.5021,8.521,0.0],[-78.4982,8.5235,0.0],[-78.4957,8.5204,12.6295],[-78.4979,8.5179,0.0],[-78.4968,8.5074,3.2659],[-78.4985,8.5074,0.0],[-78.4993,8.5054,17.0825],[-78.5035,8.5057,0.0],[-78.5024,8.5026,0.0],[-78.5051,8.4979,17.0207],[-78.5035,8.4926,20.0856],[-78.5004,8.4921,20.509],[-78.5015,8.489,12.8567],[-78.5001,8.4882,1.5911],[-78.4996,8.4815,2.9592],[-78.4979,8.4807,2.9592],[-78.4982,8.476,0.0],[-78.5068,8.4746,13.5987],[-78.5082,8.4649,0.0],[-78.4985,8.4521,5.2469],[-78.4968,8.4471,27.4261],[-78.4899,8.4449,0.0],[-78.4779,8.434,7.7459],[-78.4746,8.4249,0.5186],[-78.4724,8.426,0.0],[-78.4729,8.429,0.0],[-78.4701,8.4307,0.0],[-78.471,8.434,0.0],[-78.4757,8.4351,12.9208],[-78.4743,8.4435,1.8667],[-78.4726,8.4476,5.4014],[-78.4668,8.4485,0.0],[-78.4654,8.4565,10.8387],[-78.4635,8.4587,4.2704],[-78.464,8.4468,0.0],[-78.4612,8.446,2.0196],[-78.4612,8.4443,0.0],[-78.4574,8.4424,2.0036],[-78.456,8.4399,0.9439],[-78.4621,8.4404,1.5177],[-78.4649,8.4435,3.1038],[-78.4715,8.4404,0.0],[-78.4693,8.4371,0.0],[-78.466,8.4357,0.0],[-78.4649,8.4301,0.0],[-78.4607,8.4249,0.7797],[-78.451,8.4179,1.5738],[-78.451,8.414,0.0],[-78.4526,8.4143,0.0],[-78.4532,8.4126,1.5662],[-78.4532,8.4079,0.6302],[-78.4504,8.406,32.5757],[-78.451,8.3829,0.0],[-78.449,8.3832,0.0],[-78.449,8.386,22.4465],[-78.4432,8.3843,6.7215],[-78.4388,8.3851,0.0],[-78.4376,8.3787,8.7073],[-78.431,8.3701,1.763],[-78.431,8.366,0.0],[-78.4271,8.3649,6.2752],[-78.4235,8.3615,14.4315],[-78.4229,8.3526,0.0],[-78.4207,8.351,0.0],[-78.4208,8.3474,2.8451],[-78.4187,8.3503,30.9589],[-78.4184,8.3589,43.2594],[-78.4206,8.369,85.6135],[-78.4223,8.3997,136.9896],[-78.4251,8.4077,168.2458],[-78.4298,8.4371,266.6761],[-78.4417,8.4714,130.786],[-78.4502,8.4847,70.6615]]],
[[[-78.5371,8.534,4.5771],[-78.5387,8.5346,4.5771],[-78.5393,8.5304,0.0],[-78.5382,8.5299,0.0],[-78.5365,8.5301,0.0],[-78.5371,8.534,4.5771]]],
[[[-78.544,8.5449,10.5386],[-78.5462,8.5454,17.2372],[-78.5474,8.5435,0.0],[-78.5454,8.5421,0.0],[-78.546,8.5443,17.2372],[-78.544,8.5449,10.5386]]],
[[[-78.7038,8.6343,0.0],[-78.7065,8.6349,0.0],[-78.7057,8.6324,0.0],[-78.7032,8.6329,0.0],[-78.7038,8.6343,0.0]]],
[[[-78.6254,8.6421,0.0],[-78.6279,8.6426,0.0],[-78.6338,8.6404,0.0],[-78.634,8.6324,0.0],[-78.6315,8.6318,0.0],[-78.6265,8.636,0.0],[-78.6274,8.6388,44.4821],[-78.6243,8.6385,0.0],[-78.6254,8.6421,0.0]]],
[[[-78.6315,8.661,0.0],[-78.6315,8.6629,0.0],[-78.6329,8.6629,3.8299],[-78.6382,8.6599,5.4215],[-78.6371,8.6565,0.0],[-78.6329,8.6585,2.7709],[-78.6338,8.6554,0.0],[-78.631,8.6549,0.0],[-78.6304,8.6571,0.0],[-78.6318,8.6585,2.7709],[-78.631,8.6593,4.1928],[-78.6299,8.6579,0.0],[-78.6296,8.659,4.1928],[-78.6315,8.661,0.0]]],
[[[-78.7615,8.8115,0.0],[-78.7632,8.8124,0.0],[-78.7635,8.8107,0.0],[-78.761,8.8082,0.0],[-78.7604,8.8104,0.0],[-78.7615,8.8115,0.0]]]]}
,"properties": {"GID_2": "PAN.12.3_1","GID_0": "PAN","country": "Panama","GID_1": "PAN.12_1","province": "Panamá","NL_NAME_1": "NA","county": "Chimán","VARNAME_2": "NA","NL_NAME_2": "NA","TYPE_2": "Distrito","ENGTYPE_2": "District","CC_2": "NA","HASC_2": "PA.PN.CN","name": "Chimán.county","area_km2": 957.6217,"hist_schema_id": "Elevation0-9000","hist_area_km2": {"0": 116.4519,"25": 315.8139,"50": 105.7862,"75": 71.4118,"100": 58.5423,"125": 46.0327,"150": 36.6018,"175": 29.4772,"200": 23.4009,"225": 18.897,"250": 17.0535,"275": 13.1565,"300": 12.8843,"325": 11.7735,"350": 9.0291,"375": 7.4577,"400": 6.4312,"425": 6.0123,"450": 6.0541,"475": 5.279,"500": 5.6562,"525": 5.0908,"550": 3.9594,"575": 3.5823,"600": 3.268,"625": 2.7024,"650": 2.5348,"675": 2.388,"700": 2.1996,"725": 2.032,"750": 1.6759,"775": 1.3407,"800": 1.4035,"825": 0.8379,"850": 0.398,"875": 0.2514,"900": 0.1257,"925": 0.1466,"950": 0.1466,"975": 0.1885,"1000": 0.0838,"1025": 0.0419,"1050": 0.0209}}}