{"type":"Feature","properties":{"GID_3":"PAN.7.3.7_1","GID_0":"PAN","country":"Panama","GID_1":"PAN.7_1","province":"Herrera","NL_NAME_1":"NA","GID_2":"PAN.7.3_1","county":"LosPozos","NL_NAME_2":"NA","city":"LosCerrosdePaja","VARNAME_3":"NA","NL_NAME_3":"NA","TYPE_3":"Corregimiento","ENGTYPE_3":"Municipality","CC_3":"NA","HASC_3":"NA","name":"Los_Cerrosde_Paja.city"},
"geometry":{"type": "MultiPolygon","coordinates": [[[[-80.736,7.6376,578.3203],[-80.7203,7.6388,462.3623],[-80.7094,7.6442,390.2623],[-80.7068,7.648,378.7428],[-80.7049,7.6562,373.9575],[-80.6959,7.6595,374.1946],[-80.6854,7.6857,305.4433],[-80.6736,7.6868,270.5859],[-80.6651,7.6841,308.9078],[-80.6559,7.6882,319.3298],[-80.6718,7.7044,363.704],[-80.6785,7.7068,353.5755],[-80.6837,7.711,349.4396],[-80.6854,7.7188,366.484],[-80.6831,7.7305,276.032],[-80.6883,7.7368,292.5767],[-80.6962,7.7396,312.4276],[-80.7041,7.7375,336.8078],[-80.7054,7.7354,368.4145],[-80.7196,7.6829,441.328],[-80.736,7.6376,578.3203]]]]}}