{"type":"Feature","properties":{"GID_3":"PAN.9.7.8_1","GID_0":"PAN","country":"Panama","GID_1":"PAN.9_1","province":"LosSantos","NL_NAME_1":"NA","GID_2":"PAN.9.7_1","county":"Tonosí","NL_NAME_2":"NA","city":"Guánico","VARNAME_3":"NA","NL_NAME_3":"NA","TYPE_3":"Corregimiento","ENGTYPE_3":"Municipality","CC_3":"NA","HASC_3":"NA","name":"Guánico.city"},
"geometry":{"type": "MultiPolygon","coordinates": [[[[-80.4404,7.2415,30.5137],[-80.4351,7.2426,5.535],[-80.4343,7.2457,157.2455],[-80.4307,7.2437,0.0],[-80.431,7.2474,98.4038],[-80.4285,7.2496,74.5826],[-80.4265,7.249,22.2152],[-80.426,7.2529,21.38],[-80.4282,7.254,42.2887],[-80.4265,7.2543,0.0],[-80.4274,7.2562,0.0],[-80.4235,7.2574,4.0525],[-80.4199,7.2613,20.2],[-80.4207,7.2635,3.9322],[-80.4243,7.2649,4.1575],[-80.424,7.2693,5.4602],[-80.4207,7.2729,2.946],[-80.4093,7.274,0.0],[-80.3976,7.279,0.0],[-80.4001,7.2826,0.0],[-80.4004,7.2863,0.0],[-80.3951,7.3004,5.8452],[-80.3921,7.3051,0.0],[-80.3835,7.3096,0.0],[-80.384,7.3231,44.0712],[-80.3905,7.3277,65.9325],[-80.3968,7.3387,64.8425],[-80.4307,7.348,39.601],[-80.4482,7.3488,204.2459],[-80.4594,7.3574,455.6413],[-80.469,7.3558,462.0975],[-80.4763,7.3591,409.6035],[-80.4804,7.3638,469.6882],[-80.487799999999993,7.3644,259.8715],[-80.5005,7.3691,229.3252],[-80.507,7.3771,450.7125],[-80.5156,7.3797,354.5597],[-80.5205,7.3835,395.8843],[-80.5306,7.3796,227.1056],[-80.5412,7.3847,377.1067],[-80.5489,7.3821,228.0847],[-80.5579,7.3928,398.4266],[-80.5711,7.4007,503.2597],[-80.5805,7.3905,494.6245],[-80.5835,7.3848,281.2234],[-80.6011,7.372,466.8288],[-80.6201,7.3702,537.9246],[-80.6324,7.3725,877.1865],[-80.6327,7.3673,874.4073],[-80.6297,7.3607,928.9418],[-80.6366,7.3564,985.0384],[-80.645,7.3478,708.756],[-80.6345,7.342,713.5676],[-80.6234,7.3443,761.9346],[-80.6181,7.3437,691.9911],[-80.6108,7.3369,506.4703],[-80.5949,7.3287,584.6719],[-80.5899,7.321,418.3084],[-80.5796,7.316,806.8328],[-80.5728,7.3153,900.035],[-80.5591,7.3186,594.8171],[-80.555,7.3168,395.7259],[-80.5484,7.3106,302.9219],[-80.5416,7.3108,277.5675],[-80.5357,7.3134,291.795],[-80.5218,7.3052,463.6592],[-80.5024,7.3022,402.3917],[-80.4946,7.3046,228.8374],[-80.4892,7.2933,86.0375],[-80.4749,7.2883,242.1301],[-80.469,7.2807,335.7797],[-80.459,7.2745,322.943],[-80.4596,7.2603,216.1019],[-80.456,7.2575,297.3196],[-80.4504,7.2561,396.0225],[-80.4484,7.2512,245.03809999999999],[-80.4421,7.2487,213.139],[-80.4404,7.2415,30.5137]]]]}}