{"type": "Feature","bbox": [-81.5495,8.0691,-81.4224,8.1337],"geometry": {"type": "MultiPolygon","coordinates": [[[[-81.5495,8.0806,106.6133],[-81.5289,8.0803,322.3639],[-81.5216,8.0691,198.8616],[-81.5022,8.0774,276.4899],[-81.495,8.0849,436.0493],[-81.4794,8.0921,496.3629],[-81.4757,8.0902,521.2241],[-81.4749,8.0865,544.6559],[-81.4819,8.0715,342.786],[-81.4641,8.0722,412.3739],[-81.4535,8.0817,251.2717],[-81.4464,8.0908,461.9836],[-81.4456,8.0963,414.8499],[-81.4401,8.1051,265.3627],[-81.4224,8.1175,219.7643],[-81.4438,8.1176,329.2489],[-81.4678,8.1211,273.2404],[-81.4887,8.1211,302.4569],[-81.4954,8.1239,232.7089],[-81.5092,8.1337,214.7124],[-81.5057,8.1034,392.5126],[-81.5067,8.1001,445.5647],[-81.5165,8.0923,406.2562],[-81.5284,8.0932,283.9718],[-81.5399,8.0886,131.912],[-81.5495,8.0806,106.6133]]]]}
,"properties": {"GID_3": "PAN.13.5.7_1","GID_0": "PAN","country": "Panama","GID_1": "PAN.13_1","province": "Veraguas","NL_NAME_1": "NA","GID_2": "PAN.13.5_1","county": "LasPalmas","NL_NAME_2": "NA","city": "Lolá","VARNAME_3": "NA","NL_NAME_3": "NA","TYPE_3": "Corregimiento","ENGTYPE_3": "Municipality","CC_3": "NA","HASC_3": "NA","name": "Lolá.city","area_km2": 41.16288,"hist_schema_id": "Elevation0-9000","hist_area_km2": {"75": 0.02099,"100": 0.08397,"125": 0.20991,"150": 0.2519,"175": 0.35684,"200": 0.60872,"225": 1.11248,"250": 1.42735,"275": 2.24599,"300": 2.22501,"325": 2.58189,"350": 2.45593,"375": 2.93871,"400": 3.23258,"425": 3.58942,"450": 6.00335,"475": 7.11587,"500": 3.65244,"525": 0.83964,"550": 0.14694,"575": 0.02099,"600": 0.04198}}}