{"type": "Feature","bbox": [-81.4873,8.3977,-81.3869,8.6233],"geometry": {"type": "MultiPolygon","coordinates": [[[[-81.4275,8.6233,712.8523],[-81.4328,8.6,966.3882],[-81.4396,8.5873,1246.5601],[-81.442,8.5782,1554.1681],[-81.4476,8.5732,1390.9884],[-81.4517,8.5664,1347.1007],[-81.4556,8.5655,1299.8209],[-81.4659,8.5669,1439.4839],[-81.468,8.5651,1361.8295],[-81.4726,8.5334,854.6069],[-81.4738,8.5084,566.7887],[-81.4788,8.4955,664.3552],[-81.4765,8.4821,537.8237],[-81.4772,8.4711,434.1606],[-81.4866,8.4536,523.1935],[-81.4873,8.4381,372.1412],[-81.4811,8.4279,339.2432],[-81.4781,8.4149,301.3487],[-81.4664,8.4002,357.1805],[-81.4594,8.3977,320.414],[-81.4566,8.3987,331.6919],[-81.4583,8.4042,292.5982],[-81.4574,8.4082,356.5566],[-81.4487,8.4162,478.9823],[-81.4506,8.4211,556.1777],[-81.4591,8.4229,467.6662],[-81.4612,8.4262,446.6055],[-81.4611,8.4302,450.5968],[-81.4516,8.4309,543.9546],[-81.4476,8.436,452.1404],[-81.4426,8.4313,368.641],[-81.4358,8.4288,340.9218],[-81.4299,8.4183,302.4228],[-81.4249,8.4242,404.2685],[-81.4237,8.4319,386.3922],[-81.425,8.4365,355.0819],[-81.4154,8.4364,425.6778],[-81.4125,8.4383,452.0156],[-81.413,8.4452,453.7082],[-81.4197,8.4589,468.6048],[-81.4194,8.4644,495.6254],[-81.41,8.4691,818.8638],[-81.4074,8.4719,726.7528],[-81.3982,8.4966,604.6177],[-81.3939,8.4991,708.6075],[-81.3869,8.4979,792.4033],[-81.3925,8.5032,766.5637],[-81.4026,8.5188,670.6989],[-81.4057,8.5351,915.3148],[-81.4047,8.5372,1104.0986],[-81.3983,8.5402,1333.373],[-81.3905,8.5567,1574.5221],[-81.3877,8.5999,690.0829],[-81.4102,8.607,655.806],[-81.4156,8.6116,622.2266],[-81.4182,8.6163,538.2431],[-81.4275,8.6233,712.8523]]]]}
,"properties": {"GID_3": "PAN.10.7.1_1","GID_0": "PAN","country": "Panama","GID_1": "PAN.10_1","province": "NgöbeBuglé","NL_NAME_1": "NA","GID_2": "PAN.10.7_1","county": "Ñürüm","NL_NAME_2": "NA","city": "AguaDeSalud","VARNAME_3": "NA","NL_NAME_3": "NA","TYPE_3": "Corregimiento","ENGTYPE_3": "Municipality","CC_3": "NA","HASC_3": "NA","name": "Agua_De_Salud.city","area_km2": 156.1543,"hist_schema_id": "Elevation0-9000","hist_area_km2": {"275": 0.2097,"300": 0.9858,"325": 2.7265,"350": 4.1946,"375": 5.0334,"400": 5.1592,"425": 4.9284,"450": 5.3688,"475": 5.4736,"500": 4.9912,"525": 5.2637,"550": 5.4103,"575": 4.823,"600": 4.0051,"625": 4.2985,"650": 4.2985,"675": 4.2355,"700": 4.3613,"725": 4.3822,"750": 3.942,"775": 3.3968,"800": 3.4806,"825": 3.2919,"850": 2.9564,"875": 3.2289,"900": 2.7468,"925": 2.4531,"950": 1.908,"975": 1.8451,"1000": 2.0757,"1025": 2.1596,"1050": 1.8451,"1075": 2.2225,"1100": 2.1805,"1125": 1.7193,"1150": 2.1805,"1175": 1.7822,"1200": 2.2854,"1225": 2.3483,"1250": 2.3063,"1275": 2.6628,"1300": 2.3063,"1325": 2.2224,"1350": 1.8241,"1375": 1.9499,"1400": 1.8241,"1425": 1.6564,"1450": 1.7192,"1475": 1.8241,"1500": 1.5934,"1525": 1.3209,"1550": 1.1112,"1575": 0.587,"1600": 0.3774,"1625": 0.2726,"1650": 0.1887,"1675": 0.1258,"1700": 0.0839}}}