{"type":"Feature","properties":{"GID_3":"PAN.10.7.9_1","GID_0":"PAN","country":"Panama","GID_1":"PAN.10_1","province":"NgöbeBuglé","NL_NAME_1":"NA","GID_2":"PAN.10.7_1","county":"Ñürüm","NL_NAME_2":"NA","city":"Güibale","VARNAME_3":"NA","NL_NAME_3":"NA","TYPE_3":"Corregimiento","ENGTYPE_3":"Municipality","CC_3":"NA","HASC_3":"NA","name":"Güibale.city"},
"geometry":{"type": "MultiPolygon","coordinates": [[[[-81.3877,8.5999,690.0829],[-81.3905,8.5567,1574.5221],[-81.3983,8.5402,1333.373],[-81.4056,8.5357,964.1859],[-81.403,8.5197,670.6989],[-81.3925,8.5032,766.5637],[-81.3817,8.4931,635.2643],[-81.3701,8.475,493.4688],[-81.3661,8.4615,409.0781],[-81.3633,8.4587,425.8163],[-81.3638,8.4509,306.9041],[-81.3507,8.4412,260.2309],[-81.3453,8.4449,282.4134],[-81.3454,8.4576,402.5625],[-81.3467,8.4636,465.8256],[-81.3487,8.466,509.601],[-81.3564,8.4689,367.7672],[-81.3575,8.4757,454.2257],[-81.3561,8.4782,470.2849],[-81.3495,8.4801,492.3659],[-81.3367,8.4786,683.2657],[-81.33,8.4797,676.105],[-81.3188,8.4734,580.1012],[-81.3151,8.474,594.4263],[-81.314,8.4759,578.1471],[-81.3165,8.4806,703.2361],[-81.3315,8.4864,721.4116],[-81.3411,8.4955,721.2894],[-81.3576,8.4932,505.5732],[-81.362,8.4963,434.9352],[-81.3634,8.5015,508.2247],[-81.3631,8.5076,718.3402],[-81.3611,8.5122,776.3718],[-81.3495,8.522,763.6965],[-81.3451,8.5298,893.0526],[-81.3429,8.5381,864.0133],[-81.34,8.5396,895.0824],[-81.3364,8.5366,1052.7703],[-81.3269,8.5209,878.243],[-81.3301,8.5076,1009.8495],[-81.3397,8.4964,721.2894],[-81.3327,8.5007,1056.5417],[-81.3313,8.4995,1043.1243],[-81.3272,8.4998,1061.334],[-81.3244,8.5016,1153.6301],[-81.3168,8.5152,1179.668],[-81.3234,8.5606,1384.8782],[-81.322,8.5643,1497.9009],[-81.3358,8.5722,1785.296],[-81.3456,8.5809,1770.079],[-81.3523,8.5844,1496.6697],[-81.3551,8.5834,1552.3276],[-81.3632,8.5845,1302.7229],[-81.375,8.5933,925.4176],[-81.3877,8.5999,690.0829]]]]}}