{"type": "Feature","bbox": [-81.9067,8.4666,-81.815,8.6696],"geometry": {"type": "MultiPolygon","coordinates": [[[[-81.9067,8.4768,868.5033],[-81.889,8.4934,984.5523],[-81.8819,8.4966,768.4227],[-81.869,8.4982,616.9561],[-81.8612,8.4927,674.1448],[-81.8526,8.4924,526.8373],[-81.8479,8.4907,702.8862],[-81.8275,8.4666,452.3947],[-81.8164,8.5019,798.9336],[-81.8199,8.5177,1159.7823],[-81.8241,8.5248,958.0664],[-81.8284,8.5526,1707.6831],[-81.8278,8.557,1792.8298],[-81.815,8.5803,2013.3784],[-81.832,8.5911,1884.7443],[-81.8439,8.6033,1967.9288],[-81.8657,8.6138,1557.8372],[-81.8678,8.6189,1720.8506],[-81.8655,8.6299,1490.9355],[-81.8664,8.6412,1922.6429],[-81.8646,8.655,1504.5916],[-81.8663,8.6599,1678.7714],[-81.8763,8.6696,1480.8459],[-81.8876,8.665,1964.8339],[-81.9043,8.6547,2023.5712],[-81.9067,8.4768,868.5033]]]]}
,"properties": {"GID_3": "PAN.10.4.1_1","GID_0": "PAN","country": "Panama","GID_1": "PAN.10_1","province": "NgöbeBuglé","NL_NAME_1": "NA","GID_2": "PAN.10.4_1","county": "Mironó","NL_NAME_2": "NA","city": "Cascabel","VARNAME_3": "NA","NL_NAME_3": "NA","TYPE_3": "Corregimiento","ENGTYPE_3": "Municipality","CC_3": "NA","HASC_3": "NA","name": "Cascabel.city","area_km2": 145.5245,"hist_schema_id": "Elevation0-9000","hist_area_km2": {"375": 0.0419,"400": 0.0839,"425": 0.4404,"450": 0.3355,"475": 0.8178,"500": 0.8598,"525": 1.2162,"550": 1.0275,"575": 1.0485,"600": 1.0694,"625": 1.1743,"650": 1.0904,"675": 1.1743,"700": 1.4888,"725": 1.342,"750": 1.3001,"775": 1.2162,"800": 1.2791,"825": 1.0484,"850": 1.3839,"875": 1.1533,"900": 1.5097,"925": 1.6146,"950": 1.5517,"975": 2.3694,"1000": 2.7259,"1025": 2.621,"1050": 3.1872,"1075": 3.4388,"1100": 3.1662,"1125": 3.3339,"1150": 2.4952,"1175": 1.7613,"1200": 1.971,"1225": 1.7403,"1250": 1.4468,"1275": 1.4467,"1300": 1.3209,"1325": 1.0274,"1350": 1.1112,"1375": 1.2999,"1400": 1.1951,"1425": 1.258,"1450": 1.3418,"1475": 1.258,"1500": 1.3209,"1525": 1.4466,"1550": 1.6143,"1575": 1.2789,"1600": 1.4256,"1625": 1.4675,"1650": 1.6562,"1675": 1.761,"1700": 1.8658,"1725": 1.8868,"1750": 2.0545,"1775": 2.4108,"1800": 2.7253,"1825": 2.3899,"1850": 2.4318,"1875": 3.2284,"1900": 3.0607,"1925": 2.893,"1950": 2.9977,"1975": 2.9349,"2000": 3.3961,"2025": 4.0669,"2050": 3.5218,"2075": 2.6624,"2100": 3.1236,"2125": 2.872,"2150": 2.3689,"2175": 1.8029,"2200": 1.9497,"2225": 1.9078,"2250": 1.5514,"2275": 1.5094,"2300": 1.5723,"2325": 1.0692,"2350": 0.8595,"2375": 0.6289,"2400": 0.4193,"2425": 0.2306,"2450": 0.1468,"2475": 0.1468,"2500": 0.0419,"2525": 0.0419}}}