{"type":"Feature","properties":{"GID_3":"PAN.9.3.11_1","GID_0":"PAN","country":"Panama","GID_1":"PAN.9_1","province":"LosSantos","NL_NAME_1":"NA","GID_2":"PAN.9.3_1","county":"LosSantos","NL_NAME_2":"NA","city":"Sabanagrande","VARNAME_3":"NA","NL_NAME_3":"NA","TYPE_3":"Corregimiento","ENGTYPE_3":"Municipality","CC_3":"NA","HASC_3":"NA","name":"Sabanagrande.city"},
"geometry":{"type": "MultiPolygon","coordinates": [[[[-80.3257,7.8585,34.9381],[-80.3366,7.8622,23.9564],[-80.3411,7.8707,29.4567],[-80.3435,7.872,31.5901],[-80.3516,7.8692,29.2568],[-80.359,7.8608,52.314],[-80.3656,7.8565,41.791],[-80.3893,7.8444,46.6418],[-80.3892,7.8423,47.359],[-80.3802,7.8362,58.4226],[-80.3822,7.8298,63.752],[-80.381,7.8243,75.6829],[-80.3871,7.8197,65.3898],[-80.3893,7.8143,87.0838],[-80.3893,7.8088,89.9293],[-80.3795,7.8004,27.4829],[-80.3759,7.7951,31.9792],[-80.3704,7.7924,30.7334],[-80.3623,7.7969,21.9841],[-80.3638,7.8017,24.4175],[-80.3598,7.8113,56.6012],[-80.3477,7.8155,73.2661],[-80.3448,7.8233,49.7925],[-80.339,7.8323,33.9061],[-80.3306,7.8345,23.2462],[-80.3243,7.8382,17.9891],[-80.3209,7.8478,31.2776],[-80.3257,7.8585,34.9381]]]]}}