{"type": "Feature","bbox": [-80.5204,7.7707,-80.4726,7.8414],"geometry": {"type": "MultiPolygon","coordinates": [[[[-80.5204,7.773,177.444],[-80.5065,7.7707,149.2443],[-80.4926,7.7845,125.2542],[-80.4834,7.7881,102.5691],[-80.4806,7.7995,88.6836],[-80.4726,7.8012,99.4227],[-80.4733,7.8145,77.5683],[-80.4792,7.8201,91.7147],[-80.4739,7.8289,59.6413],[-80.4733,7.8414,67.5346],[-80.487,7.8342,56.288],[-80.4973,7.8245,52.2124],[-80.5081,7.8253,55.115],[-80.5098,7.8241,54.2559],[-80.5156,7.8144,62.7167],[-80.5133,7.7959,93.4146],[-80.5204,7.773,177.444]]]]}
,"properties": {"GID_3": "PAN.9.3.7_1","GID_0": "PAN","country": "Panama","GID_1": "PAN.9_1","province": "LosSantos","NL_NAME_1": "NA","GID_2": "PAN.9.3_1","county": "LosSantos","NL_NAME_2": "NA","city": "LasGuabas","VARNAME_3": "NA","NL_NAME_3": "NA","TYPE_3": "Corregimiento","ENGTYPE_3": "Municipality","CC_3": "NA","HASC_3": "NA","name": "Las_Guabas.city","area_km2": 23.5475,"hist_schema_id": "Elevation0-9000","hist_area_km2": {"50": 5.02016,"75": 8.3602,"100": 5.94477,"125": 3.04598,"150": 1.02934,"175": 0.08403,"200": 0.06302}}}