{"type":"Feature","properties":{"GID_3":"PAN.10.2.3_1","GID_0":"PAN","country":"Panama","GID_1":"PAN.10_1","province":"NgöbeBuglé","NL_NAME_1":"NA","GID_2":"PAN.10.2_1","county":"Kankintú","NL_NAME_2":"NA","city":"Guariviara","VARNAME_3":"NA","NL_NAME_3":"NA","TYPE_3":"Corregimiento","ENGTYPE_3":"Municipality","CC_3":"NA","HASC_3":"NA","name":"Guariviara.city"},
"geometry":{"type": "MultiPolygon","coordinates": [[[[-82.0771,8.9211,50.5973],[-82.0772,8.9232,5.7847],[-82.0829,8.9249,6.9805],[-82.084,8.9277,0.0],[-82.0864,8.9168,161.2022],[-82.0927,8.911,134.7929],[-82.0906,8.9064,357.4284],[-82.0927,8.9029,423.7427],[-82.1021,8.9015,470.9582],[-82.1244,8.906,624.1119],[-82.1372,8.8941,402.6877],[-82.1421,8.8672,99.8975],[-82.14,8.8614,144.9933],[-82.1405,8.8573,71.3617],[-82.1424,8.8543,99.4278],[-82.1503,8.8501,215.4303],[-82.152,8.8462,141.5467],[-82.1483,8.8297,389.296],[-82.1504,8.8124,500.9937],[-82.1441,8.8077,570.0538],[-82.1322,8.8053,870.0464],[-82.1269,8.8021,1021.3743],[-82.0981,8.7636,1094.6252],[-82.101,8.7547,1130.6688],[-82.1009,8.7446,965.681],[-82.0994,8.7411,999.8246],[-82.0934,8.7352,1069.8865],[-82.0937,8.7264,984.1379],[-82.1016,8.7092,1133.9167],[-82.1099,8.7019,1595.3451],[-82.1124,8.6955,1655.6367],[-82.1125,8.6915,1619.3352],[-82.1085,8.6792,1433.4598],[-82.1122,8.6678,1629.2241],[-82.1177,8.6622,1590.2167],[-82.1189,8.6581,1464.9904],[-82.1133,8.6475,1935.1083],[-82.0892,8.638,1552.8495],[-82.0802,8.6263,1679.3728],[-82.0727,8.6222,1561.835],[-82.0595,8.6272,1333.4852],[-82.0429,8.6283,1228.5106],[-82.0333,8.6335,1313.0519],[-82.02,8.6436,1264.4449],[-82.0012,8.6432,1216.4531],[-81.9798,8.6527,1091.2107],[-81.9603,8.6503,1460.0509],[-81.9401,8.6602,895.73],[-81.9379,8.6598,879.1763],[-81.9291,8.6491,1139.1923],[-81.9191,8.6475,1536.8779],[-81.9022,8.6553,2083.9924],[-81.8786,8.6691,1558.2524],[-81.8757,8.6692,1480.8459],[-81.8663,8.6599,1678.7714],[-81.8558,8.6726,1653.1562],[-81.8625,8.6757,1453.2974],[-81.8663,8.6983,870.903],[-81.8769,8.7099,631.3329],[-81.8784,8.7174,676.0292],[-81.8806,8.7207,654.1253],[-81.8987,8.733,388.688],[-81.9011,8.7518,360.7223],[-81.9141,8.7662,203.5775],[-81.9233,8.7816,140.479],[-81.9224,8.7874,128.1578],[-81.9117,8.7994,86.6129],[-81.9164,8.8063,67.0764],[-81.9161,8.8096,87.717],[-81.9036,8.8239,29.6003],[-81.9018,8.8306,21.9939],[-81.9003,8.8558,10.5483],[-81.9038,8.8631,9.53],[-81.9099,8.8674,8.0696],[-81.9152,8.8738,4.2926],[-81.9193,8.8726,6.2275],[-81.9347,8.8745,3.9739],[-81.9425,8.877,1.2779],[-81.9504,8.8826,7.7882999999999996],[-81.9491,8.8888,14.2636],[-81.9453,8.8938,19.9262],[-81.9454,8.8987,10.1845],[-81.9431,8.9046,18.1812],[-81.9449,8.9081,16.9989],[-81.9527,8.9108,15.9506],[-81.9554,8.934,12.4065],[-81.9427,8.9432,4.7067],[-81.9488,8.9426,0.0],[-81.9499,8.9388,1.9382],[-81.9524,8.939,0.0],[-81.9543,8.9426,1.1903],[-81.9565,8.9404,17.6921],[-81.9593,8.941,1.0761],[-81.9601,8.939,3.7317],[-81.9612,8.9421,9.0646],[-81.9674,8.941,7.5035],[-81.9701,8.9435,9.5043],[-81.9726,8.9418,4.2744],[-81.974,8.944,0.0],[-81.9768,8.9412,2.2756],[-81.9812,8.941,2.6861],[-81.9893,8.9513,0.0],[-81.9954,8.956,0.0],[-82.0005,8.9571,0.0],[-82.0054,8.9544,15.9471],[-82.0127,8.9465,17.0425],[-82.0178,8.9216,8.665],[-82.053,8.8951,8.0819],[-82.0626,8.9011,12.9011],[-82.0744,8.8993,120.7312],[-82.0771,8.9211,50.5973]]],
[[[-82.0001,8.9999,0.0],[-81.9999,8.9999,0.0],[-81.9999,9.0001,0.0],[-82.0001,9.0001,0.0],[-82.0001,8.9999,0.0]]]]}}