{"type": "Feature","bbox": [-81.066,7.884,-80.9785,7.9749],"geometry": {"type": "MultiPolygon","coordinates": [[[[-81.0577,7.8851,0.0],[-81.0421,7.8989,91.8064],[-80.999,7.9246,144.5703],[-80.9808,7.932,105.7014],[-80.9785,7.9367,81.8327],[-80.9814,7.9464,59.6952],[-80.9785,7.9537,67.8942],[-80.982,7.9658,62.6161],[-81.0047,7.9749,9.7241],[-81.0202,7.9545,19.7805],[-81.0346,7.9443,19.776],[-81.0426,7.9346,9.9045],[-81.0476,7.9326,0.75],[-81.0529,7.9274,0.5],[-81.0551,7.9149,7.404],[-81.0543,7.9043,3.2077],[-81.059,7.8971,10.9534],[-81.0618,7.8954,0.0],[-81.066,7.884,0.0],[-81.0577,7.8851,0.0]]]]}
,"properties": {"GID_3": "PAN.13.6.3_1","GID_0": "PAN","country": "Panama","GID_1": "PAN.13_1","province": "Veraguas","NL_NAME_1": "NA","GID_2": "PAN.13.6_1","county": "Montijo","NL_NAME_2": "NA","city": "LaGarceana","VARNAME_3": "NA","NL_NAME_3": "NA","TYPE_3": "Corregimiento","ENGTYPE_3": "Municipality","CC_3": "NA","HASC_3": "NA","name": "La_Garceana.city","area_km2": 40.23463,"hist_schema_id": "Elevation0-9000","hist_area_km2": {"0": 5.20771,"25": 15.2244,"50": 9.40776,"75": 5.20786,"100": 2.47795,"125": 0.86098,"150": 1.04998,"175": 0.65099,"200": 0.147}}}