{"type": "Feature","bbox": [-80.8993,8.1991,-80.8115,8.2956],"geometry": {"type": "MultiPolygon","coordinates": [[[[-80.8456,8.2956,121.2905],[-80.8641,8.2828,128.7337],[-80.8732,8.279,197.1762],[-80.8807,8.278,111.7245],[-80.8957,8.2651,123.1176],[-80.8949,8.2596,81.7513],[-80.8993,8.2563,84.2326],[-80.8922,8.2384,69.1522],[-80.8893,8.2193,49.3553],[-80.8856,8.2147,56.9156],[-80.8778,8.2118,59.3394],[-80.8598,8.2122,38.1502],[-80.8512,8.2071,46.5112],[-80.8445,8.2008,38.2429],[-80.8272,8.1991,36.952],[-80.8221,8.2036,40.8832],[-80.8206,8.21,50.5027],[-80.8137,8.2139,38.3802],[-80.8115,8.2175,38.4584],[-80.8135,8.2193,40.2425],[-80.8205,8.2203,48.8809],[-80.8306,8.2314,68.2292],[-80.8329,8.2499,69.3122],[-80.8372,8.2681,99.0984],[-80.8383,8.2833,115.0507],[-80.8456,8.2956,121.2905]]]]}
,"properties": {"GID_3": "PAN.13.2.8_1","GID_0": "PAN","country": "Panama","GID_1": "PAN.13_1","province": "Veraguas","NL_NAME_1": "NA","GID_2": "PAN.13.2_1","county": "Calobre","NL_NAME_2": "NA","city": "LaTetilla","VARNAME_3": "NA","NL_NAME_3": "NA","TYPE_3": "Corregimiento","ENGTYPE_3": "Municipality","CC_3": "NA","HASC_3": "NA","name": "La_Tetilla.city","area_km2": 57.8925,"hist_schema_id": "Elevation0-9000","hist_area_km2": {"25": 8.68759,"50": 20.4803,"75": 15.25432,"100": 6.71418,"125": 3.3151,"150": 1.80443,"175": 1.38479,"200": 0.25178}}}