{"type": "Feature","bbox": [-77.6806,7.9616,-77.1641,8.1746],"geometry": {"type": "MultiPolygon","coordinates": [[[[-77.5543,8.0776,46.8],[-77.5508,8.0783,43.9206],[-77.5658,8.1045,67.8465],[-77.5738,8.1099,43.1522],[-77.5788,8.1195,46.2146],[-77.5864,8.1233,50.4322],[-77.6083,8.1186,34.3413],[-77.6114,8.1157,19.727],[-77.6279,8.1125,12.7705],[-77.6315,8.1101,26.9069],[-77.6367,8.0973,46.7909],[-77.6539,8.0906,93.7637],[-77.6589,8.0785,76.7668],[-77.6711,8.0632,100.1103],[-77.6763,8.0525,148.1081],[-77.6762,8.0394,166.9066],[-77.6794,8.0229,251.1939],[-77.6769,8.0132,214.8532],[-77.6799,8.0063,311.5266],[-77.6806,7.994,348.5519],[-77.6745,7.9795,365.48],[-77.6727,7.969,345.3202],[-77.6694,7.9675,330.6915],[-77.6684,7.9616,369.011],[-77.6494,7.977,144.0385],[-77.6294,7.9992,97.7391],[-77.5856,8.0422,18.7492],[-77.5677,8.0625,45.5093],[-77.5647,8.0727,40.8857],[-77.5543,8.0776,46.8]]],
[[[-77.246,8.161,1390.4426],[-77.2449,8.1744,1245.4819],[-77.2491,8.1746,1282.3506],[-77.3559,8.1491,870.2161],[-77.3623,8.1463,1037.6318],[-77.3708,8.1373,1000.1852],[-77.3819,8.1372,1002.8939],[-77.3921,8.1332,759.3579],[-77.4019,8.1393,457.009],[-77.4082,8.1321,725.2946],[-77.4206,8.1343,541.8931],[-77.4245,8.1283,537.5211],[-77.4327,8.1229,498.6699],[-77.4439,8.1208,435.6827],[-77.4479,8.1159,368.3002],[-77.4458,8.107,329.61],[-77.4463,8.1007,463.5086],[-77.4557,8.0934,404.9329],[-77.4593,8.0869,317.3399],[-77.4641,8.069,211.8759],[-77.4533,7.9919,113.2588],[-77.4458,7.9903,118.2289],[-77.4339,7.9916,122.2741],[-77.4135,7.9858,187.131],[-77.3979,7.9869,206.4926],[-77.3866,7.9904,285.3142],[-77.378,7.9955,294.0095],[-77.3498,8.0319,554.1992],[-77.3385,8.0383,581.1945],[-77.3336,8.0396,542.0454],[-77.3208,8.0376,765.6011],[-77.3129,8.0385,812.0406],[-77.304,8.0432,1003.2088],[-77.2872,8.0568,963.4756],[-77.2757,8.0567,963.1895],[-77.2597,8.0533,1194.0624],[-77.2443,8.0585,1368.4343],[-77.2421,8.0577,1390.6083],[-77.2418,8.0549,1387.2157],[-77.2552,8.01,1113.9025],[-77.2559,8.0039,924.0848],[-77.2543,8.0012,863.7182],[-77.2442,7.9967,1001.9937],[-77.2123,7.988,657.861],[-77.1964,7.9843,705.2371],[-77.1834,7.9835,727.7513],[-77.1801,7.9814,729.6299],[-77.1831,7.9848,754.151],[-77.1641,8.006,175.5834],[-77.167,8.0047,137.8786],[-77.1685,8.0072,155.5802],[-77.1773,8.0089,175.6547],[-77.1786,8.0113,220.7303],[-77.1844,8.0135,211.8965],[-77.1863,8.0115,263.248],[-77.1916,8.0199,306.1362],[-77.1906,8.0221,347.6129],[-77.1922,8.0261,319.4652],[-77.1908,8.0278,471.6454],[-77.1975,8.0412,583.0355],[-77.2014,8.0418,549.819],[-77.2082,8.038,645.8317],[-77.2193,8.0384,1090.6829],[-77.2228,8.0399,1129.7179],[-77.2263,8.0546,1484.6644],[-77.218,8.0883,1400.7781],[-77.219,8.0979,1344.3989],[-77.2289,8.1287,1340.5824],[-77.2273,8.1434,1276.6156],[-77.2437,8.1555,1253.9022],[-77.246,8.161,1390.4426]]]]}
,"properties": {"GID_3": "PAN.5.2.8_1","GID_0": "PAN","country": "Panama","GID_1": "PAN.5_1","province": "Darién","NL_NAME_1": "NA","GID_2": "PAN.5.2_1","county": "Pinogana","NL_NAME_2": "NA","city": "Yape","VARNAME_3": "NA","NL_NAME_3": "NA","TYPE_3": "Corregimiento","ENGTYPE_3": "Municipality","CC_3": "NA","HASC_3": "NA","name": "Yape.city","area_km2": 531.8174,"hist_schema_id": "Elevation0-9000","hist_area_km2": {"0": 1.4694,"25": 38.1838,"50": 29.3682,"75": 19.7968,"100": 19.5456,"125": 14.1087,"150": 8.986,"175": 7.3903,"200": 7.4112,"225": 6.9073,"250": 7.6001,"275": 7.2011,"300": 7.453,"325": 8.0826,"350": 8.2085,"375": 8.6283,"400": 8.8591,"425": 9.027,"450": 9.237,"475": 9.1949,"500": 9.1109,"525": 8.565,"550": 9.7196,"575": 9.3626,"600": 8.6698,"625": 8.7118,"650": 7.9561,"675": 7.6202,"700": 7.3053,"725": 7.5991,"750": 8.3759,"775": 7.914,"800": 7.7881,"825": 7.4942,"850": 6.5076,"875": 7.1163,"900": 6.9483,"925": 6.9482,"950": 6.2135,"975": 6.5494,"1000": 6.6334,"1025": 6.1925,"1050": 6.3814,"1075": 6.6333,"1100": 6.0665,"1125": 5.6676,"1150": 6.927,"1175": 6.3603,"1200": 5.7305,"1225": 5.5416,"1250": 5.9824,"1275": 5.2056,"1300": 5.5833,"1325": 5.4784,"1350": 5.4993,"1375": 5.7932,"1400": 5.8982,"1425": 5.8352,"1450": 5.3314,"1475": 4.177,"1500": 3.7571,"1525": 2.3297,"1550": 2.0778,"1575": 1.8259,"1600": 1.8679,"1625": 1.742,"1650": 1.658,"1675": 1.658,"1700": 1.4482,"1725": 1.5531,"1750": 1.0704,"1775": 0.5457,"1800": 0.2099,"1825": 0.021}}}