{"type": "Feature","bbox": [-81.4862,8.2579,-81.0585,8.5395],"geometry": {"type": "MultiPolygon","coordinates": [[[[-81.2606,8.4762,769.2145],[-81.259,8.4721,715.0047],[-81.2636,8.4673,738.2782],[-81.2798,8.4755,844.0603],[-81.2857,8.4744,936.9876],[-81.2949,8.4691,644.4448],[-81.2999,8.4724,645.7109],[-81.3019,8.4785,661.4354],[-81.2977,8.4923,852.0198],[-81.2954,8.4934,933.4189],[-81.2857,8.4911,1035.9684],[-81.2834,8.4943,1101.1948],[-81.2829,8.4996,1197.2501],[-81.2864,8.5103,1538.8843],[-81.2932,8.5227,1270.2769],[-81.3066,8.5333,1216.6067],[-81.3099,8.5322,1194.3013],[-81.3141,8.5275,1067.7526],[-81.3173,8.5128,1264.4872],[-81.3244,8.5016,1153.6301],[-81.3272,8.4998,1061.334],[-81.3313,8.4995,1043.1243],[-81.3327,8.5007,1056.5417],[-81.3397,8.4964,721.2894],[-81.3301,8.5076,1009.8495],[-81.3269,8.5209,878.243],[-81.3375,8.5381,1047.6732],[-81.3413,8.5395,895.0824],[-81.3495,8.522,763.6965],[-81.358,8.5152,726.9353],[-81.3626,8.5094,717.11],[-81.3626,8.4974,470.5176],[-81.3599,8.4942,428.7355],[-81.355,8.4929,536.2156],[-81.3411,8.4955,721.2894],[-81.3315,8.4864,721.4116],[-81.3165,8.4806,703.2361],[-81.314,8.4759,578.1471],[-81.3151,8.474,594.4263],[-81.3188,8.4734,580.1012],[-81.33,8.4797,676.105],[-81.3367,8.4786,683.2657],[-81.3495,8.4801,492.3659],[-81.3561,8.4782,470.2849],[-81.3575,8.4757,454.2257],[-81.3564,8.4689,367.7672],[-81.3504,8.4672,442.4572],[-81.3467,8.4636,465.8256],[-81.3453,8.4567,379.8686],[-81.346,8.4436,280.7456],[-81.3507,8.4412,260.2309],[-81.3638,8.4509,306.9041],[-81.3633,8.4587,425.8163],[-81.3661,8.4615,409.0781],[-81.3701,8.475,493.4688],[-81.3837,8.4954,697.2383],[-81.3875,8.4982,792.4033],[-81.3939,8.4991,708.6075],[-81.3993,8.4949,511.9705],[-81.4085,8.4703,759.7962],[-81.4181,8.4656,539.6006],[-81.4201,8.463,542.8105],[-81.4197,8.4589,468.6048],[-81.413,8.4452,453.7082],[-81.4125,8.4383,452.0156],[-81.4154,8.4364,425.6778],[-81.425,8.4365,355.0819],[-81.4237,8.4319,386.3922],[-81.4249,8.4242,404.2685],[-81.4299,8.4183,302.4228],[-81.4358,8.4288,340.9218],[-81.4426,8.4313,368.641],[-81.4485,8.436,452.1404],[-81.4516,8.4309,543.9546],[-81.4597,8.4312,481.6242],[-81.4614,8.4294,450.5968],[-81.4591,8.4229,467.6662],[-81.4506,8.4211,556.1777],[-81.4487,8.4171,501.2895],[-81.4492,8.4147,458.0418],[-81.4554,8.4109,430.0857],[-81.4579,8.4071,356.5566],[-81.4573,8.3978,316.3249],[-81.4664,8.4002,357.1805],[-81.4736,8.4099,345.6035],[-81.475,8.4081,325.6171],[-81.4782,8.4081,287.7473],[-81.479,8.41,288.6991],[-81.4862,8.4107,370.9727],[-81.4846,8.3939,314.0355],[-81.4794,8.3806,287.6168],[-81.477,8.3678,359.2783],[-81.4727,8.3639,408.6824],[-81.4606,8.3584,430.9857],[-81.4454,8.3205,234.2318],[-81.4468,8.3182,234.9102],[-81.4501,8.3181,231.3367],[-81.4718,8.3204,279.323],[-81.4582,8.3049,330.2003],[-81.4582,8.2903,220.0067],[-81.4371,8.2797,257.4366],[-81.4374,8.2734,197.4865],[-81.448,8.2579,141.2825],[-81.4262,8.2681,140.4719],[-81.4209,8.2727,133.0312],[-81.4131,8.2832,137.4516],[-81.4041,8.286,110.6386],[-81.3881,8.2816,162.3699],[-81.3858,8.2613,152.0629],[-81.366,8.2643,121.8829],[-81.2682,8.2704,90.661],[-81.2101,8.277,467.4379],[-81.1982,8.2759,339.9087],[-81.1877,8.2669,295.5438],[-81.181,8.2645,211.8936],[-81.1451,8.2661,124.3976],[-81.1362,8.2732,101.5806],[-81.1122,8.2674,94.0765],[-81.0983,8.2698,93.1056],[-81.0798,8.2777,117.9212],[-81.0611,8.2819,134.8487],[-81.0585,8.2981,190.6924],[-81.0636,8.3013,192.3898],[-81.0696,8.3099,222.4415],[-81.0822,8.313,258.1987],[-81.0892,8.3213,258.7463],[-81.09,8.3299,217.7278],[-81.0931,8.335,143.334],[-81.0933,8.3442,148.2313],[-81.098,8.3601,240.7135],[-81.1031,8.4084,235.4671],[-81.1198,8.4299,274.9766],[-81.1327,8.4361,444.6423],[-81.1487,8.4519,442.9057],[-81.1631,8.4565,647.4772],[-81.1669,8.4679,700.938],[-81.1721,8.4722,770.9523],[-81.194,8.4552,401.2289],[-81.2116,8.4551,504.0519],[-81.2227,8.4581,463.6616],[-81.2328,8.4578,436.0884],[-81.2473,8.4825,676.5117],[-81.2529,8.5034,1285.1991],[-81.2558,8.5086,1375.3694],[-81.2666,8.5135,1499.2274],[-81.2684,8.5167,1600.8867],[-81.2761,8.5174,1691.4661],[-81.277,8.5161,1707.7542],[-81.2745,8.5098,1627.1665],[-81.2752,8.5025,1468.4636],[-81.264,8.4871,972.422],[-81.2606,8.4762,769.2145]],
[[-81.3403,8.3507,329.328],[-81.3476,8.3337,288.2802],[-81.3516,8.3373,261.8102],[-81.3578,8.3319,254.624],[-81.3739,8.3493,306.7269],[-81.3731,8.3294,286.1929],[-81.3746,8.3279,276.4653],[-81.3786,8.3279,275.8],[-81.3845,8.3348,353.1822],[-81.3884,8.3362,324.9905],[-81.3923,8.3405,268.726],[-81.3962,8.339,221.3904],[-81.4163,8.3506,333.9148],[-81.4212,8.3498,273.7936],[-81.4283,8.3555,195.9887],[-81.4306,8.3519,171.3809],[-81.4321,8.352,180.7053],[-81.4379,8.3659,200.8405],[-81.4347,8.3703,186.8647],[-81.4307,8.371,179.6064],[-81.4158,8.3577,336.0379],[-81.4125,8.3582,338.0065],[-81.4065,8.3634,319.8793],[-81.4006,8.3638,227.4986],[-81.3994,8.3653,227.4986],[-81.3977,8.3822,248.5359],[-81.3917,8.389,275.2776],[-81.3904,8.3963,407.9865],[-81.3837,8.3993,414.779],[-81.3804,8.3967,348.7203],[-81.3794,8.3873,379.4366],[-81.3764,8.3838,394.1845],[-81.3683,8.3867,373.7935],[-81.3536,8.3876,446.3735],[-81.3474,8.3778,422.1593],[-81.3421,8.3749,440.0233],[-81.3384,8.3752,359.8729],[-81.3175,8.3872,248.1002],[-81.3196,8.3654,203.4367],[-81.3274,8.3583,255.3819],[-81.3347,8.3575,289.0004],[-81.3403,8.3507,329.328]]]]}
,"properties": {"GID_2": "PAN.13.3_1","GID_0": "PAN","country": "Panama","GID_1": "PAN.13_1","province": "Veraguas","NL_NAME_1": "NA","county": "Cañazas","VARNAME_2": "NA","NL_NAME_2": "NA","TYPE_2": "Distrito","ENGTYPE_2": "District","CC_2": "NA","HASC_2": "PA.VR.CZ","name": "Cañazas.county","area_km2": 851.3005,"hist_schema_id": "Elevation0-9000","hist_area_km2": {"75": 2.8115,"100": 26.4778,"125": 44.4779,"150": 55.0503,"175": 58.1336,"200": 60.1043,"225": 52.2147,"250": 49.3393,"275": 43.5277,"300": 39.8347,"325": 39.6869,"350": 37.4836,"375": 37.3357,"400": 39.9776,"425": 39.5573,"450": 34.649,"475": 28.5035,"500": 21.6449,"525": 19.3376,"550": 15.7719,"575": 14.3665,"600": 12.9193,"625": 9.941,"650": 7.7807,"675": 7.0466,"700": 5.2429,"725": 5.117,"750": 4.8653,"775": 3.2505,"800": 2.5374,"825": 2.3696,"850": 2.076,"875": 1.6986,"900": 1.6776,"925": 1.2162,"950": 0.8598,"975": 0.9856,"1000": 1.0065,"1025": 1.3001,"1050": 0.8807,"1075": 1.0065,"1100": 1.0065,"1125": 0.9646,"1150": 1.0275,"1175": 0.9226,"1200": 1.0275,"1225": 0.9226,"1250": 1.1952,"1275": 0.9017,"1300": 1.0484,"1325": 1.0694,"1350": 1.2162,"1375": 1.1323,"1400": 1.0694,"1425": 0.7549,"1450": 0.6291,"1475": 0.5871,"1500": 0.5033,"1525": 0.3565,"1550": 0.2097,"1575": 0.2097,"1600": 0.1048,"1625": 0.1468,"1650": 0.0629,"1675": 0.021,"1700": 0.0839,"1725": 0.0629}}}