{"type": "Feature","bbox": [-81.3941,8.0638,-81.0556,8.277],"geometry": {"type": "MultiPolygon","coordinates": [[[[-81.0675,8.1038,92.664],[-81.073,8.1458,75.1888],[-81.0715,8.1604,72.178],[-81.0723,8.1687,61.0355],[-81.0679,8.1774,64.6649],[-81.0556,8.19,89.5073],[-81.0657,8.2046,87.7572],[-81.0803,8.2185,111.3412],[-81.0856,8.221,98.2741],[-81.096,8.2227,92.1138],[-81.1108,8.2298,89.0537],[-81.1218,8.2455,112.2352],[-81.124,8.2527,116.8896],[-81.1362,8.2732,101.5806],[-81.1451,8.2661,124.3976],[-81.181,8.2645,211.8936],[-81.1877,8.2669,295.5438],[-81.1982,8.2759,339.9087],[-81.2101,8.277,467.4379],[-81.2682,8.2704,90.661],[-81.366,8.2643,121.8829],[-81.3858,8.2613,152.0629],[-81.3941,8.2411,116.5356],[-81.3941,8.2374,95.0367],[-81.3901,8.229,121.8023],[-81.3841,8.2256,152.3712],[-81.3788,8.2187,111.4096],[-81.3734,8.2148,122.1551],[-81.3723,8.2087,66.6715],[-81.3769,8.1967,79.4118],[-81.3742,8.1862,147.4572],[-81.3622,8.1782,122.6567],[-81.3619,8.1737,138.4389],[-81.3548,8.1611,96.9736],[-81.3355,8.1658,162.8484],[-81.3242,8.163,188.8062],[-81.2993,8.1517,85.3379],[-81.2585,8.1539,66.8194],[-81.1819,8.0752,61.7761],[-81.1767,8.0683,66.2269],[-81.1754,8.0638,60.0033],[-81.1564,8.0687,37.1981],[-81.1349,8.0883,82.1103],[-81.1218,8.0909,48.7603],[-81.1103,8.091,71.5979],[-81.0962,8.0954,38.1842],[-81.0917,8.0943,41.0687],[-81.0865,8.0887,40.6378],[-81.083,8.0782,43.8882],[-81.0834,8.0728,52.7773],[-81.0731,8.069,50.3719],[-81.0693,8.0695,42.3437],[-81.0675,8.1038,92.664]]]]}
,"properties": {"GID_2": "PAN.13.4_1","GID_0": "PAN","country": "Panama","GID_1": "PAN.13_1","province": "Veraguas","NL_NAME_1": "NA","county": "LaMesa","VARNAME_2": "NA","NL_NAME_2": "NA","TYPE_2": "Distrito","ENGTYPE_2": "District","CC_2": "NA","HASC_2": "PA.VR.LM","name": "La_Mesa.county","area_km2": 537.8109,"hist_schema_id": "Elevation0-9000","hist_area_km2": {"25": 1.0705,"50": 50.0371,"75": 90.0144,"100": 82.9397,"125": 77.73,"150": 84.3386,"175": 63.9843,"200": 40.2923,"225": 19.558,"250": 10.681,"275": 6.1274,"300": 3.1897,"325": 2.2663,"350": 1.5948,"375": 1.3429,"400": 0.8813,"425": 0.8183,"450": 0.3567,"475": 0.4826,"500": 0.1049}}}