{"type": "Feature","bbox": [-80.4016,7.7363,-80.3522,7.799],"geometry": {"type": "MultiPolygon","coordinates": [[[[-80.3623,7.7969,21.9841],[-80.3704,7.7924,30.7334],[-80.3759,7.7951,31.9792],[-80.3781,7.799,27.6718],[-80.3871,7.7952,49.0768],[-80.3945,7.7942,95.9722],[-80.3973,7.7703,105.2855],[-80.4016,7.755,198.5228],[-80.4004,7.7532,183.6899],[-80.3919,7.7508,162.4299],[-80.3989,7.7363,231.2041],[-80.3821,7.7401,152.3461],[-80.375,7.7526,146.4636],[-80.3585,7.7509,175.5689],[-80.3609,7.7589,147.4846],[-80.3543,7.7654,154.4975],[-80.3522,7.7851,34.6918],[-80.3534,7.7884,30.6372],[-80.3623,7.7969,21.9841]]]]}
,"properties": {"GID_3": "PAN.9.1.2_1","GID_0": "PAN","country": "Panama","GID_1": "PAN.9_1","province": "LosSantos","NL_NAME_1": "NA","GID_2": "PAN.9.1_1","county": "Guararé","NL_NAME_2": "NA","city": "ElHato","VARNAME_3": "NA","NL_NAME_3": "NA","TYPE_3": "Corregimiento","ENGTYPE_3": "Municipality","CC_3": "NA","HASC_3": "NA","name": "El_Hato.city","area_km2": 24.99895,"hist_schema_id": "Elevation0-9000","hist_area_km2": {"25": 2.45776,"50": 2.37376,"75": 2.81496,"100": 4.5586,"125": 3.59228,"150": 3.52934,"175": 3.21426,"200": 2.01681,"225": 0.39916,"250": 0.04202}}}