{"type": "Feature","bbox": [-80.8426,7.9802,-80.6833,8.0687],"geometry": {"type": "MultiPolygon","coordinates": [[[[-80.6833,8.0228,32.0253],[-80.6875,8.0241,31.6231],[-80.6888,8.0263,30.6738],[-80.685,8.0313,35.4363],[-80.6867,8.0366,49.7103],[-80.7044,8.0304,30.62],[-80.7144,8.0252,37.5468],[-80.7234,8.0283,47.4218],[-80.728,8.0332,41.9661],[-80.7329,8.0323,41.5727],[-80.7393,8.0288,50.4762],[-80.758,8.042,42.3121],[-80.7665,8.0419,82.8763],[-80.7722,8.0463,50.4224],[-80.7744,8.0532,56.6089],[-80.7829,8.0558,73.3649],[-80.7861,8.0609,55.0517],[-80.7926,8.0611,73.1128],[-80.7979,8.0636,66.4917],[-80.8047,8.0627,45.1805],[-80.8111,8.0687,39.2453],[-80.8163,8.0676,37.7216],[-80.8192,8.0648,34.305],[-80.8228,8.0671,32.7827],[-80.8286,8.0646,41.6974],[-80.8361,8.0663,34.8499],[-80.8383,8.0606,36.5092],[-80.8426,8.0573,43.9459],[-80.8369,8.0453,46.6668],[-80.8366,8.0401,49.5872],[-80.8342,8.0381,53.038],[-80.8357,8.0293,71.7868],[-80.8287,8.0273,55.4161],[-80.8256,8.0209,62.9413],[-80.8213,8.017,69.9508],[-80.8151,8.0155,79.4377],[-80.8118,8.0165,88.6522],[-80.8097,8.015,94.098],[-80.8053,8.0053,81.058],[-80.8044,7.9996,108.4876],[-80.7991,7.9919,91.2125],[-80.8054,7.9831,116.1079],[-80.7933,7.9802,101.8768],[-80.7913,7.9809,116.8888],[-80.7876,7.9876,82.9291],[-80.7885,7.9913,89.645],[-80.7821,7.999,76.7382],[-80.7782,8.0,69.0145],[-80.7719,7.9872,78.9025],[-80.7627,7.9914,79.855],[-80.757,7.9854,102.2669],[-80.7497,7.9878,68.3997],[-80.7419,7.993,87.6357],[-80.7344,7.9925,48.056399999999996],[-80.7084,7.9965,50.0954],[-80.7036,7.9987,66.4497],[-80.7001,8.004,51.0782],[-80.6916,8.0106,43.4912],[-80.6902,8.0145,37.1654],[-80.6833,8.0228,32.0253]]]]}
,"properties": {"GID_3": "PAN.7.4.6_1","GID_0": "PAN","country": "Panama","GID_1": "PAN.7_1","province": "Herrera","NL_NAME_1": "NA","GID_2": "PAN.7.4_1","county": "Ocú","NL_NAME_2": "NA","city": "PeñasChatas","VARNAME_3": "NA","NL_NAME_3": "NA","TYPE_3": "Corregimiento","ENGTYPE_3": "Municipality","CC_3": "NA","HASC_3": "NA","name": "Peñas_Chatas.city","area_km2": 86.58195,"hist_schema_id": "Elevation0-9000","hist_area_km2": {"25": 7.41105,"50": 37.16007,"75": 29.93839,"100": 10.09885,"125": 1.65865,"150": 0.29394,"175": 0.021}}}