{"type":"Feature","properties":{"GID_3":"PAN.12.2.1_1","GID_0":"PAN","country":"Panama","GID_1":"PAN.12_1","province":"Panamá","NL_NAME_1":"NA","GID_2":"PAN.12.2_1","county":"Chepo","NL_NAME_2":"NA","city":"Cañita","VARNAME_3":"NA","NL_NAME_3":"NA","TYPE_3":"Corregimiento","ENGTYPE_3":"Municipality","CC_3":"NA","HASC_3":"NA","name":"Cañita.city"},
"geometry":{"type": "MultiPolygon","coordinates": [[[[-78.9429,9.3073,441.93],[-78.9452,9.2925,410.3617],[-78.9443,9.2539,278.9735],[-78.9387,9.2496,281.998],[-78.9244,9.2439,167.628],[-78.9181,9.2381,119.3548],[-78.916,9.2127,13.8255],[-78.909,9.2004,22.1951],[-78.8816,9.1853,120.2555],[-78.8724,9.1954,82.9155],[-78.863,9.1909,92.7824],[-78.8526,9.1932,58.7884],[-78.846,9.1991,128.9861],[-78.8365,9.2006,138.0502],[-78.8252,9.2055,90.9177],[-78.8201,9.2121,55.5],[-78.8196,9.2162,56.603],[-78.8151,9.2151,55.5],[-78.8118,9.2185,61.889],[-78.8024,9.2179,58.5475],[-78.7999,9.2201,60.1371],[-78.7982,9.2188,60.1371],[-78.7915,9.2196,57.307],[-78.7906,9.2218,73.1036],[-78.7922,9.23,117.7914],[-78.7903,9.2404,74.4869],[-78.7885,9.2431,79.1127],[-78.7758,9.2452,176.9658],[-78.7655,9.242,141.3531],[-78.7538,9.2463,170.7154],[-78.7412,9.2469,323.6252],[-78.7336,9.2552,405.9853],[-78.7254,9.2604,311.9088],[-78.7253,9.2646,399.2939],[-78.7287,9.267,411.5991],[-78.7311,9.2736,249.2984],[-78.7229,9.2982,275.5092],[-78.7221,9.3069,321.6705],[-78.7223,9.3232,432.8998],[-78.7286,9.3373,526.7416],[-78.7272,9.3767,487.4698],[-78.732,9.367,564.4172],[-78.7376,9.3631,557.8748],[-78.7431,9.3621,566.7502],[-78.7511,9.365,471.6372],[-78.7633,9.3663,425.874],[-78.7741,9.3717,411.4142],[-78.8174,9.3834,609.1685],[-78.8365,9.3684,446.443],[-78.8651,9.3541,435.8625],[-78.8713,9.3564,439.5662],[-78.8804,9.3677,501.5207],[-78.8883,9.3691,511.5541],[-78.8961,9.3631,398.6985],[-78.9007,9.3532,346.4938],[-78.9102,9.3435,343.12],[-78.9101,9.3389,292.0783],[-78.9059,9.3302,334.8138],[-78.9091,9.3239,295.215],[-78.9255,9.3096,411.7645],[-78.9337,9.3066,373.3232],[-78.9429,9.3073,441.93]]]]}}