{"type":"Feature","properties":{"GID_3":"PAN.11.2.13_1","GID_0":"PAN","country":"Panama","GID_1":"PAN.11_1","province":"PanamáOeste","NL_NAME_1":"NA","GID_2":"PAN.11.2_1","county":"Capira","NL_NAME_2":"NA","city":"VillaRosario","VARNAME_3":"NA","NL_NAME_3":"NA","TYPE_3":"Corregimiento","ENGTYPE_3":"Municipality","CC_3":"NA","HASC_3":"NA","name":"Villa_Rosario.city"},
"geometry":{"type": "MultiPolygon","coordinates": [[[[-79.8168,8.798,35.3902],[-79.8255,8.8041,31.9517],[-79.8316,8.8122,95.3638],[-79.8319,8.8175,123.7917],[-79.8276,8.8305,130.3182],[-79.8392,8.8276,67.7975],[-79.8497,8.8168,119.6159],[-79.8469,8.8144,93.4931],[-79.8471,8.8126,92.0753],[-79.8554,8.8013,113.0166],[-79.8578,8.7939,130.3984],[-79.8614,8.7897,131.2985],[-79.8704,8.7885,103.6656],[-79.8841,8.7925,154.1594],[-79.8892,8.7797,114.6712],[-79.8893,8.7744,109.2013],[-79.8924,8.7705,105.3762],[-79.8979,8.7677,112.3771],[-79.9148,8.7663,169.6669],[-79.9066,8.7606,122.0478],[-79.8987,8.7577,107.5427],[-79.8893,8.761,113.1608],[-79.8785,8.7734,103.7794],[-79.8746,8.7684,103.1289],[-79.8694,8.7675,101.1514],[-79.8522,8.7756,102.7985],[-79.8372,8.7787,226.0123],[-79.8299,8.7786,175.6337],[-79.8269,8.782,106.114],[-79.8255,8.7896,67.5502],[-79.8168,8.798,35.3902]]]]}}