{"type": "Feature","bbox": [-82.7114,8.5461,-82.6511,8.6714],"geometry": {"type": "MultiPolygon","coordinates": [[[[-82.6557,8.6712,942.7355],[-82.6681,8.6714,764.1729],[-82.6758,8.6683,726.9025],[-82.677,8.6594,624.978],[-82.6816,8.6486,592.5],[-82.6901,8.6379,584.09],[-82.6919,8.6196,527.1016],[-82.7003,8.6034,478.62],[-82.7057,8.5823,424.2136],[-82.7114,8.5739,394.8419],[-82.6955,8.5681,395.013],[-82.6893,8.5588,373.1616],[-82.6816,8.5578,373.6309],[-82.6748,8.5549,358.6499],[-82.6663,8.5461,299.5045],[-82.667,8.5664,362.9079],[-82.6725,8.5843,410.8867],[-82.6677,8.5976,481.591],[-82.6664,8.6083,510.214],[-82.6585,8.6196,565.5842],[-82.6514,8.6445,693.3431],[-82.6524,8.6529,748.4538],[-82.6511,8.6621,812.5092],[-82.6557,8.6712,942.7355]]]]}
,"properties": {"GID_3": "PAN.2.5.10_1","GID_0": "PAN","country": "Panama","GID_1": "PAN.2_1","province": "Chiriquí","NL_NAME_1": "NA","GID_2": "PAN.2.5_1","county": "Bugaba","NL_NAME_2": "NA","city": "SantaRosa","VARNAME_3": "NA","NL_NAME_3": "NA","TYPE_3": "Corregimiento","ENGTYPE_3": "Municipality","CC_3": "NA","HASC_3": "NA","name": "Santa_Rosa.city","area_km2": 44.46287,"hist_schema_id": "Elevation0-9000","hist_area_km2": {"275": 0.02097,"300": 0.10483,"325": 0.14676,"350": 0.83864,"375": 2.74652,"400": 3.12384,"425": 3.48019,"450": 2.74636,"475": 2.5786,"500": 2.09639,"525": 2.43178,"550": 2.36885,"575": 2.74614,"600": 2.30587,"625": 3.39587,"650": 2.74599,"675": 2.22192,"700": 1.78171,"725": 1.32054,"750": 1.13189,"775": 1.00611,"800": 0.6917,"825": 0.81746,"850": 0.62881,"875": 0.39825,"900": 0.39824,"925": 0.16768,"950": 0.02096}}}