{"type": "Feature","bbox": [-81.8015,7.7979,-81.3548,8.4166],"geometry": {"type": "MultiPolygon","coordinates": [[[[-81.7726,7.8146,0.0],[-81.7715,7.8187,0.1901],[-81.7729,7.8182,0.0],[-81.7737,7.8137,0.0],[-81.7726,7.8146,0.0]]],
[[[-81.7399,7.8104,0.0],[-81.7396,7.8132,0.0],[-81.7407,7.8132,0.0],[-81.7421,7.8085,0.0],[-81.741,7.8085,0.0],[-81.7399,7.8104,0.0]]],
[[[-81.7387,7.8179,0.0],[-81.7401,7.8171,1.4943],[-81.739,7.8132,0.0],[-81.7382,7.8148,0.0],[-81.7387,7.8179,0.0]]],
[[[-81.7949,7.8715,0.0],[-81.7946,7.8735,1.9709],[-81.7976,7.8679,0.0],[-81.7957,7.8593,71.9986],[-81.8015,7.8537,1.0042],[-81.7982,7.8493,0.0],[-81.7962,7.8549,21.6451],[-81.7932,7.8515,0.0],[-81.7904,7.851,0.0],[-81.7885,7.8524,33.6194],[-81.7874,7.8499,0.0],[-81.7854,7.8507,0.0],[-81.7865,7.8554,0.0],[-81.7849,7.8604,0.0],[-81.7829,7.8615,0.0],[-81.7835,7.8646,0.0],[-81.7868,7.8657,0.0],[-81.7868,7.8701,0.0],[-81.7901,7.8646,26.6624],[-81.7946,7.8651,24.1435],[-81.7949,7.8715,0.0]]],
[[[-81.5096,7.8506,418.1533],[-81.4871,7.869,102.2646],[-81.4795,7.8923,372.1443],[-81.474,7.8996,427.7261],[-81.4665,7.9059,357.4734],[-81.4517,7.926,367.8941],[-81.4386,7.9638,360.8763],[-81.4345,7.9673,356.7776],[-81.4212,7.9732,250.2931],[-81.4185,7.9761,210.3696],[-81.4111,7.9917,288.9101],[-81.4065,8.011,148.5947],[-81.4072,8.0138,146.816],[-81.3958,8.031,194.7446],[-81.4071,8.0564,152.571],[-81.3911,8.068,42.2545],[-81.3856,8.0779,34.7373],[-81.377,8.0875,63.3682],[-81.3773,8.0991,36.3002],[-81.373,8.1094,38.3771],[-81.3731,8.1176,95.9302],[-81.3691,8.1197,51.2539],[-81.3679,8.1226,43.7469],[-81.371,8.1278,48.1837],[-81.3754,8.1299,74.679],[-81.3711,8.1394,61.0547],[-81.3639,8.1428,44.6129],[-81.362,8.149,67.5681],[-81.3548,8.1611,96.9736],[-81.3619,8.1737,138.4389],[-81.3622,8.1782,122.6567],[-81.3742,8.1862,147.4572],[-81.3769,8.1967,79.4118],[-81.3723,8.2087,66.6715],[-81.3734,8.2148,122.1551],[-81.3788,8.2187,111.4096],[-81.3841,8.2256,152.3712],[-81.3901,8.229,121.8023],[-81.3941,8.2374,95.0367],[-81.3941,8.2411,116.5356],[-81.3858,8.2613,152.0629],[-81.387,8.2793,129.1097],[-81.3893,8.2824,186.3872],[-81.399,8.2837,199.3296],[-81.4041,8.286,110.6386],[-81.4117,8.2842,148.23],[-81.4262,8.2681,140.4719],[-81.448,8.2579,141.2825],[-81.4552,8.2563,149.203],[-81.456,8.2476,162.5269],[-81.4614,8.2424,211.4713],[-81.4727,8.2476,197.3925],[-81.4761,8.2566,249.711],[-81.4893,8.2437,218.6239],[-81.4979,8.2611,324.9982],[-81.5053,8.2678,232.0668],[-81.5069,8.2715,186.2659],[-81.5024,8.2741,243.1667],[-81.4924,8.2752,230.848],[-81.4895,8.2872,203.5387],[-81.4718,8.3204,279.323],[-81.4501,8.3181,231.3367],[-81.4468,8.3182,234.9102],[-81.4454,8.3205,234.2318],[-81.4606,8.3584,430.9857],[-81.4727,8.3639,408.6824],[-81.477,8.3678,359.2783],[-81.4794,8.3806,287.6168],[-81.4846,8.3939,314.0355],[-81.4862,8.4107,370.9727],[-81.4993,8.4082,400.515],[-81.5224,8.4166,331.2543],[-81.5286,8.4108,337.898],[-81.5354,8.4078,465.3746],[-81.5345,8.4026,431.7513],[-81.5272,8.3921,281.5914],[-81.5325,8.3904,279.6823],[-81.5324,8.3858,272.1959],[-81.5363,8.3856,335.5722],[-81.5368,8.3834,330.1815],[-81.532,8.3813,291.6793],[-81.5139,8.3565,318.0793],[-81.5121,8.3396,222.558],[-81.5074,8.3284,297.7183],[-81.5097,8.3167,239.9665],[-81.5084,8.306,209.5018],[-81.5107,8.3042,196.9831],[-81.5166,8.305,217.2756],[-81.5241,8.3091,292.116],[-81.5285,8.3138,293.416],[-81.5213,8.3044,301.109],[-81.5154,8.3,208.9196],[-81.5096,8.2762,209.6354],[-81.5117,8.2787,252.1987],[-81.5275,8.2722,265.2156],[-81.5301,8.2613,137.3101],[-81.5356,8.2558,253.0752],[-81.5386,8.2449,243.6214],[-81.5468,8.2473,277.9901],[-81.5573,8.2335,206.6323],[-81.5564,8.2267,113.7138],[-81.5586,8.2171,78.9016],[-81.5551,8.2105,139.7552],[-81.5549,8.2063,101.0646],[-81.567,8.1988,172.5517],[-81.5684,8.1963,80.0812],[-81.5583,8.1859,119.1463],[-81.5406,8.1896,162.3895],[-81.535,8.1805,283.6254],[-81.5253,8.1877,315.3803],[-81.5236,8.1975,313.0309],[-81.5153,8.1963,333.0985],[-81.5051,8.1885,338.7679],[-81.4961,8.1768,305.9904],[-81.4958,8.1628,210.5052],[-81.4987,8.1591,173.0665],[-81.5079,8.1551,174.3241],[-81.5179,8.1482,284.5602],[-81.5283,8.1459,224.4239],[-81.5297,8.1523,210.5077],[-81.537,8.1564,214.3533],[-81.5506,8.1549,320.6843],[-81.5672,8.155,540.2006],[-81.5708,8.1563,545.9926],[-81.5733,8.1606,400.2485],[-81.5729,8.1666,315.2415],[-81.5784,8.1702,218.0482],[-81.5791,8.1833,50.4879],[-81.5805,8.1864,131.316],[-81.5963,8.1788,267.1273],[-81.5983,8.1759,285.5881],[-81.5983,8.1688,61.8322],[-81.6008,8.1662,82.0193],[-81.6079,8.1644,164.427],[-81.6118,8.1586,170.5046],[-81.6115,8.142,131.4316],[-81.6197,8.1341,30.7985],[-81.6166,8.1282,191.7359],[-81.6187,8.1133,107.689],[-81.6136,8.1065,58.548],[-81.6163,8.1006,132.4003],[-81.623,8.0983,59.0668],[-81.6255,8.0954,167.2715],[-81.6285,8.0794,150.8985],[-81.627,8.072,94.1543],[-81.6282,8.0649,74.5857],[-81.6329,8.0571,89.97],[-81.6401,8.0576,8.5302],[-81.6435,8.0548,6.0659],[-81.6418,8.0497,7.285],[-81.6321,8.0401,6.3814],[-81.6319,8.0347,9.6528],[-81.637,8.0318,2.4947],[-81.6437,8.0308,3.2463],[-81.6385,8.0246,10.1305],[-81.6379,8.0215,0.8402],[-81.6435,8.0158,5.4676],[-81.6535,7.9987,29.4129],[-81.6735,8.0068,0.0],[-81.654,7.9849,2.0895],[-81.6399,7.949,3.718],[-81.6318,7.9401,0.5627],[-81.6271,7.9421,0.845],[-81.6271,7.9454,0.0],[-81.6246,7.9499,0.0],[-81.6318,7.9624,9.9641],[-81.6321,7.9679,25.6996],[-81.6293,7.9776,0.0],[-81.6301,7.9801,12.282],[-81.6346,7.9796,9.919],[-81.6387,7.9815,21.7198],[-81.6413,7.9876,6.6976],[-81.6385,7.9921,27.0013],[-81.631,7.9943,8.1814],[-81.6257,7.9999,0.0],[-81.6265,7.9962,13.1959],[-81.629,7.9954,28.6684],[-81.6304,7.9926,0.0],[-81.6371,7.9901,21.7638],[-81.6385,7.9871,0.0],[-81.6354,7.9843,9.8142],[-81.6301,7.9846,4.0806],[-81.6249,7.9812,1.6884],[-81.6221,7.9815,0.0],[-81.6162,7.9846,0.0],[-81.6049,7.9946,5.665],[-81.6065,7.991,11.0088],[-81.6126,7.9857,0.0],[-81.6243,7.979,0.0],[-81.6263,7.9674,4.9415],[-81.6229,7.964,5.709],[-81.6185,7.9726,3.4847],[-81.6124,7.9749,3.7759],[-81.6115,7.9768,9.6376],[-81.6121,7.974,3.7759],[-81.6182,7.9721,3.4847],[-81.6201,7.9679,11.5317],[-81.6193,7.9629,1.7577],[-81.6174,7.9635,1.7577],[-81.6165,7.966,12.7921],[-81.6118,7.9521,0.0],[-81.6129,7.944,0.0],[-81.6038,7.9349,0.0],[-81.5985,7.936,0.0],[-81.5979,7.9382,4.2444],[-81.5999,7.9421,27.0815],[-81.5963,7.936,2.569],[-81.5907,7.9365,0.0],[-81.5885,7.9354,12.3277],[-81.5837,7.9279,20.4571],[-81.5865,7.9296,19.8075],[-81.5901,7.9357,11.0244],[-81.6038,7.9326,7.8825],[-81.6113,7.9385,5.2679],[-81.6204,7.9415,1.1808],[-81.6235,7.9387,0.0],[-81.6251,7.9315,7.18],[-81.6235,7.9307,7.18],[-81.6235,7.9212,0.0],[-81.6188,7.9174,4.0304],[-81.6193,7.9137,0.0],[-81.6176,7.9132,0.0],[-81.6168,7.9101,4.9907],[-81.6179,7.9074,5.758],[-81.6215,7.9074,0.0],[-81.6265,7.9049,4.354],[-81.6246,7.9043,0.0],[-81.6232,7.9007,0.0],[-81.6204,7.9026,0.0],[-81.6179,7.9024,14.9688],[-81.6157,7.8968,0.0],[-81.6118,7.8954,0.0],[-81.6074,7.8999,0.0],[-81.606,7.8979,0.0],[-81.6035,7.8993,6.1637],[-81.6024,7.8974,6.0568],[-81.601,7.8979,6.0568],[-81.5935,7.8938,13.8932],[-81.5932,7.8901,20.1674],[-81.596,7.8882,0.0],[-81.596,7.8846,0.0],[-81.5971,7.8835,20.3714],[-81.5993,7.8843,0.0],[-81.6046,7.8804,5.8091],[-81.5993,7.8732,2.1185],[-81.6038,7.8721,11.0106],[-81.6085,7.8749,7.441],[-81.609,7.8771,0.0],[-81.6104,7.8768,13.8865],[-81.6118,7.871,0.0],[-81.6113,7.8635,0.0],[-81.6057,7.8679,9.1236],[-81.6015,7.864,17.9987],[-81.5965,7.8662,0.0],[-81.5949,7.8693,54.5457],[-81.5862,7.8721,43.7896],[-81.5854,7.8701,0.0],[-81.5796,7.871,13.3188],[-81.5782,7.8682,0.0],[-81.579,7.8657,0.0],[-81.5771,7.8637,0.0],[-81.5738,7.8635,9.9253],[-81.5729,7.861,0.0],[-81.564,7.8615,0.0],[-81.571,7.8518,6.1753],[-81.5749,7.8521,0.0],[-81.5774,7.8549,24.4939],[-81.579,7.8549,0.0],[-81.5807,7.8515,21.1376],[-81.5857,7.8518,11.1575],[-81.5837,7.8479,0.0],[-81.5815,7.8476,14.9419],[-81.5799,7.8426,20.7988],[-81.5821,7.8404,0.0],[-81.5788,7.839,0.0],[-81.5771,7.8399,4.8951],[-81.5762,7.8371,0.0],[-81.5776,7.8332,1.2687],[-81.5815,7.8312,5.2153],[-81.589,7.8332,0.0],[-81.5885,7.8268,0.0],[-81.586,7.8257,82.707],[-81.5876,7.8243,0.0],[-81.5851,7.8222,33.043],[-81.5516,7.835,231.0752],[-81.5227,7.8362,437.7617],[-81.5096,7.8506,418.1533]],
[[-81.5326,8.2296,132.1187],[-81.5376,8.2335,121.1125],[-81.538,8.2384,109.1572],[-81.5358,8.2393,175.4621],[-81.5256,8.2334,231.4563],[-81.5221,8.2339,339.1815],[-81.5197,8.2364,358.0098],[-81.5191,8.2448,218.9392],[-81.5132,8.2485,200.7818],[-81.5194,8.2536,165.1424],[-81.5199,8.2582,125.2677],[-81.518,8.2613,136.6483],[-81.514,8.2593,214.8525],[-81.5134,8.2556,238.1442],[-81.5078,8.2525,310.7072],[-81.5059,8.2491,352.9583],[-81.508,8.2464,308.4009],[-81.5086,8.2374,420.1797],[-81.5116,8.2323,428.0616],[-81.5267,8.2237,167.6462],[-81.5296,8.2212,204.4244],[-81.5288,8.2174,192.4217],[-81.5321,8.2161,226.4197],[-81.534,8.2194,234.0132],[-81.532,8.2258,152.5586],[-81.5326,8.2296,132.1187]]],
[[[-81.7526,7.841,0.0],[-81.7524,7.8424,0.0],[-81.7537,7.8426,0.0],[-81.7557,7.8401,0.0],[-81.754,7.8401,0.0],[-81.7526,7.841,0.0]]],
[[[-81.776,7.8685,29.7881],[-81.7765,7.8701,0.0],[-81.7796,7.8693,0.4766],[-81.779,7.8674,0.0],[-81.7815,7.8646,4.5677],[-81.7807,7.8607,0.0],[-81.7768,7.8612,0.0],[-81.776,7.8685,29.7881]]],
[[[-81.7571,7.8376,0.0],[-81.7574,7.8404,12.0343],[-81.7604,7.8376,17.9115],[-81.7607,7.8349,0.0],[-81.7588,7.8354,0.0],[-81.7571,7.8376,0.0]]],
[[[-81.7579,7.8232,29.8503],[-81.7585,7.8254,0.0],[-81.7604,7.8235,25.1659],[-81.7585,7.8132,26.6083],[-81.7618,7.8151,32.9572],[-81.7679,7.8137,0.0],[-81.7685,7.8085,0.0],[-81.7663,7.8082,10.1556],[-81.766,7.8068,0.0],[-81.7688,7.8004,12.6485],[-81.7632,7.7979,1.8502],[-81.7618,7.7979,1.8502],[-81.7588,7.8065,0.0],[-81.7562,7.8021,0.7278],[-81.7546,7.8037,0.0],[-81.7554,7.8107,20.9269],[-81.754,7.8107,12.0156],[-81.754,7.8129,19.9892],[-81.7551,7.8146,11.6817],[-81.7532,7.8151,11.6817],[-81.7532,7.8171,9.3805],[-81.7554,7.8185,44.5682],[-81.7543,7.8246,10.3202],[-81.7579,7.8232,29.8503]]]]}
,"properties": {"GID_2": "PAN.13.5_1","GID_0": "PAN","country": "Panama","GID_1": "PAN.13_1","province": "Veraguas","NL_NAME_1": "NA","county": "LasPalmas","VARNAME_2": "NA","NL_NAME_2": "NA","TYPE_2": "Distrito","ENGTYPE_2": "District","CC_2": "NA","HASC_2": "PA.VR.LA","name": "Las_Palmas.county","area_km2": 1068.0974,"hist_schema_id": "Elevation0-9000","hist_area_km2": {"0": 48.9028,"25": 81.7405,"50": 54.9446,"75": 58.6367,"100": 61.3423,"125": 67.8262,"150": 70.0287,"175": 68.579,"200": 71.8926,"225": 75.8777,"250": 72.0962,"275": 63.071,"300": 53.7742,"325": 47.3725,"350": 39.9221,"375": 30.939,"400": 26.8035,"425": 20.0872,"450": 18.1771,"475": 15.806,"500": 8.879,"525": 4.5971,"550": 2.3302,"575": 1.7214,"600": 1.1756,"625": 0.7767,"650": 0.3779,"675": 0.1679,"700": 0.084,"725": 0.042,"750": 0.063,"775": 0.063}}}