{"type": "Feature","bbox": [-82.859,8.5568,-82.7854,8.6748],"geometry": {"type": "MultiPolygon","coordinates": [[[[-82.8256,8.5786,287.3932],[-82.822,8.5779,284.2982],[-82.8146,8.5688,211.6248],[-82.8092,8.5649,171.677],[-82.8064,8.5568,238.5155],[-82.8009,8.5596,257.1042],[-82.7922,8.5714,290.5709],[-82.7895,8.5723,291.95],[-82.7854,8.5881,280.9769],[-82.7869,8.6008,230.9937],[-82.798,8.6286,296.3091],[-82.8111,8.6482,359.8195],[-82.8128,8.6536,334.2739],[-82.8241,8.6571,554.1807],[-82.8387,8.6658,591.346],[-82.8476,8.6664,613.0912],[-82.859,8.6748,712.3909],[-82.8544,8.663,732.4053],[-82.8432,8.6556,843.986],[-82.8363,8.6465,836.6581],[-82.8344,8.6418,849.6771],[-82.8349,8.6389,855.203],[-82.83,8.6361,897.0344],[-82.828,8.6229,713.9881],[-82.8286,8.6161,610.2429],[-82.8311,8.6142,603.989],[-82.8371,8.6153,587.131],[-82.8382,8.6134,595.9692],[-82.8287,8.6052,666.5026],[-82.8268,8.6007,675.0012],[-82.8332,8.5923,555.1176],[-82.8256,8.5786,287.3932]]]]}
,"properties": {"GID_3": "PAN.2.10.1_1","GID_0": "PAN","country": "Panama","GID_1": "PAN.2_1","province": "Chiriquí","NL_NAME_1": "NA","GID_2": "PAN.2.10_1","county": "Renacimiento","NL_NAME_2": "NA","city": "Breñón","VARNAME_3": "NA","NL_NAME_3": "NA","TYPE_3": "Corregimiento","ENGTYPE_3": "Municipality","CC_3": "NA","HASC_3": "NA","name": "Breñón.city","area_km2": 41.84247,"hist_schema_id": "Elevation0-9000","hist_area_km2": {"150": 0.20966,"175": 0.52413,"200": 0.98535,"225": 1.46755,"250": 1.71914,"275": 1.53044,"300": 1.25786,"325": 1.40459,"350": 1.44652,"375": 1.6142,"400": 1.84478,"425": 1.86573,"450": 1.65611,"475": 1.97054,"500": 1.73995,"525": 1.92862,"550": 2.18015,"575": 2.66227,"600": 2.89284,"625": 2.01237,"650": 1.63502,"675": 1.71886,"700": 1.09,"725": 1.21578,"750": 0.73365,"775": 0.58692,"800": 0.545,"825": 0.60788,"850": 0.2725,"875": 0.33538,"900": 0.16769,"925": 0.02096}}}