{"type": "Feature","bbox": [-80.3073,7.7366,-80.2757,7.7585],"geometry": {"type": "MultiPolygon","coordinates": [[[[-80.2905,7.7411,82.0304],[-80.2805,7.7437,69.9973],[-80.2757,7.7561,45.2696],[-80.2825,7.7585,38.724],[-80.2926,7.7488,70.4278],[-80.2988,7.7488,64.0857],[-80.3073,7.7448,35.4372],[-80.3018,7.7366,41.4337],[-80.2952,7.7405,79.8933],[-80.2905,7.7411,82.0304]]]]}
,"properties": {"GID_3": "PAN.9.2.11_1","GID_0": "PAN","country": "Panama","GID_1": "PAN.9_1","province": "LosSantos","NL_NAME_1": "NA","GID_2": "PAN.9.2_1","county": "LasTablas","NL_NAME_2": "NA","city": "LaTiza","VARNAME_3": "NA","NL_NAME_3": "NA","TYPE_3": "Corregimiento","ENGTYPE_3": "Municipality","CC_3": "NA","HASC_3": "NA","name": "La_Tiza.city","area_km2": 3.655512,"hist_schema_id": "Elevation0-9000","hist_area_km2": {"25": 0.042018,"50": 2.6681,"75": 0.882368,"100": 0.063027}}}