{"type": "Feature","bbox": [-80.906,8.1678,-80.7896,8.2563],"geometry": {"type": "MultiPolygon","coordinates": [[[[-80.8272,8.1991,36.952],[-80.8445,8.2008,38.2429],[-80.8512,8.2071,46.5112],[-80.8598,8.2122,38.1502],[-80.8778,8.2118,59.3394],[-80.8856,8.2147,56.9156],[-80.8893,8.2193,49.3553],[-80.8922,8.2384,69.1522],[-80.8993,8.2563,84.2326],[-80.904,8.2515,60.3405],[-80.906,8.2377,63.5034],[-80.9042,8.2153,59.659],[-80.893,8.191,42.3432],[-80.8802,8.1936,60.812],[-80.8652,8.1866,37.0915],[-80.8522,8.1909,30.4998],[-80.8436,8.1786,27.3428],[-80.8314,8.1734,24.3337],[-80.8232,8.1678,39.7574],[-80.7896,8.1806,23.2968],[-80.803,8.1868,20.2396],[-80.815,8.1894,18.2384],[-80.8233,8.1938,17.2733],[-80.8272,8.1991,36.952]]]]}
,"properties": {"GID_3": "PAN.13.8.1_1","GID_0": "PAN","country": "Panama","GID_1": "PAN.13_1","province": "Veraguas","NL_NAME_1": "NA","GID_2": "PAN.13.8_1","county": "SanFrancisco","NL_NAME_2": "NA","city": "CorralFalso","VARNAME_3": "NA","NL_NAME_3": "NA","TYPE_3": "Corregimiento","ENGTYPE_3": "Municipality","CC_3": "NA","HASC_3": "NA","name": "Corral_Falso.city","area_km2": 32.46443,"hist_schema_id": "Elevation0-9000","hist_area_km2": {"0": 0.16789,"25": 13.17926,"50": 17.52254,"75": 1.59473}}}